{"type":"FeatureCollection","metro_system":{"continent":"asia","country":"China","city":"Nanchang","official_website":null,"official_map":"https://en.wikipedia.org/wiki/Nanchang_Metro","wikipedia":"en:Nanchang Metro","wiki":true,"wikipedia_zh":"zh:南昌地铁","line_count":4,"segment_count":4,"station_count":103,"modes":["metro"],"audit":{"strategies_tried":[],"passed":true,"checks":[{"id":"system_exists","ok":true,"detail":"matched OSM system metro-maps/asia/china/as-chn-nanchang/as-chn-nanchang.geojson","level":"error"},{"id":"has_lines","ok":true,"detail":"4 lines","level":"error"},{"id":"has_stations","ok":true,"detail":"103 stations","level":"error"},{"id":"station_count_info","ok":true,"detail":"OSM 103 站（wiki List 記 113，計法含轉乘重複，僅參考）","level":"warn"},{"id":"stations_have_lines","ok":true,"detail":"103/103 站皆有所屬路線","level":"error"},{"id":"line_geometry_stations","ok":true,"detail":"112 個折點/端點皆為車站","level":"error"},{"id":"route_stations_match_geometry","ok":true,"detail":"各線車站列表與圖面一致","level":"error"},{"id":"interchange_rule","ok":true,"detail":"所有車站紅/藍點符合骨架＋路線色規則（藍＝端點、紅＝交叉）","level":"error"},{"id":"stations_named","ok":true,"detail":"103/103 站皆有名稱","level":"error"},{"id":"station_order","ok":true,"detail":"所有線路站序合理","level":"warn"},{"id":"line_wiki_stations","ok":true,"detail":"各線站數與 wiki 線路條目相符（營運中站數）","level":"error"},{"id":"line_wiki_planned","ok":false,"detail":"1 條線少於 wiki 全線總數（可能含未通車段，待人工確認）：南昌地铁1号线 33/34","level":"warn"},{"id":"line_wiki_coverage","ok":false,"detail":"2 條線無 wiki 站數對照：南昌地铁2号线、南昌地铁4号线","level":"warn"}],"reasons":[],"warnings":["1 條線少於 wiki 全線總數（可能含未通車段，待人工確認）：南昌地铁1号线 33/34","2 條線無 wiki 站數對照：南昌地铁2号线、南昌地铁4号线"],"audited_at":"2026-07-27T02:38:22.467Z"}},"features":[{"type":"Feature","properties":{"seg_id":"nanchang-0","routes":[{"route_id":"rm13502832","route_name":"南昌地铁2号线","route_name_local":"南昌地铁2号线","route_name_en":"Nanchang Metro Line 2","route_ref":"2","route_color":"#ffda01","wikipedia":"zh:南昌地铁","osm_route_ids":[3067723,13502831],"status":null,"order_suspect":0,"span_suspect":0,"stations":[{"station_id":"n2375672142","station_name":"辛家庵"},{"station_id":"n7963750574","station_name":"顺外"},{"station_id":"n2375669728","station_name":"南昌火车站"},{"station_id":"n2375669720","station_name":"丁公路南"},{"station_id":"n2375669729","station_name":"永叔路"},{"station_id":"n2341674783","station_name":"八一广场"},{"station_id":"n2375669761","station_name":"福州路"},{"station_id":"n2375669715","station_name":"青山路口"},{"station_id":"n2375669752","station_name":"阳明公园"},{"station_id":"n2375668106","station_name":"红谷中大道"},{"station_id":"n2375668094","station_name":"雅苑路"},{"station_id":"n5305408862","station_name":"地铁大厦"},{"station_id":"n2375668103","station_name":"翠苑路"},{"station_id":"n2375668115","station_name":"学府大道东"},{"station_id":"n2375668085","station_name":"前湖大道"},{"station_id":"n2375668102","station_name":"岭北"},{"station_id":"n2375668110","station_name":"卧龙山"},{"station_id":"n2375668109","station_name":"国体中心"},{"station_id":"n2375668092","station_name":"龙岗"},{"station_id":"n2375668088","station_name":"南昌西站"},{"station_id":"n2375668091","station_name":"西站南广场"},{"station_id":"n2651436599","station_name":"国博"},{"station_id":"n2651436600","station_name":"鹰潭街"},{"station_id":"n4242431862","station_name":"市民中心"},{"station_id":"n2651436601","station_name":"九龙湖南"},{"station_id":"n2651436602","station_name":"生米"},{"station_id":"n2657254253","station_name":"南昌中学"},{"station_id":"n2657254252","station_name":"南路"}]}],"route_count":1,"route_refs":["2"],"route_colors":["#ffda01"],"city":"Nanchang","country":"China"},"geometry":{"type":"MultiLineString","coordinates":[[[115.93473573333334,28.66231403333333],[115.92339816666667,28.666886966666667],[115.91647646666667,28.6666321],[115.90695293333333,28.667007083333335],[115.90016726666666,28.670499466666666],[115.89826911666665,28.67801536666667],[115.89846706666667,28.684014233333333],[115.89681696,28.690532339999997],[115.88646466666667,28.691322800000005],[115.86212316666666,28.695012933333334],[115.85242776666666,28.695225699999998],[115.8475289,28.6874304],[115.84171473333333,28.675889233333336],[115.83412083333333,28.662541633333337],[115.82996203333333,28.655188533333334],[115.82519073333333,28.644354933333332],[115.81740896666666,28.634909433333334],[115.81172233333332,28.625646466666666],[115.79777256666667,28.626604533333335],[115.78820676666665,28.626639166666667],[115.78524112,28.62181776],[115.79040656666666,28.611520933333335],[115.7940271,28.6023881],[115.7910811,28.596709966666666],[115.7883801,28.5831788],[115.78587893333332,28.575198933333336],[115.78430413333332,28.563883500000003],[115.7843165,28.5560763]]]}},{"type":"Feature","properties":{"seg_id":"nanchang-1","routes":[{"route_id":"rm13507037","route_name":"南昌地铁3号线","route_name_local":"南昌地铁3号线","route_name_en":"Nanchang Metro Line 3","route_ref":"3","route_color":"#0079c3","wikipedia":"en:Line 3 (Nanchang Metro)","osm_route_ids":[4129878,13507033],"status":null,"order_suspect":0,"span_suspect":0,"stations":[{"station_id":"n2657269282","station_name":"京东大道"},{"station_id":"n2558475655","station_name":"梁万"},{"station_id":"n2558475653","station_name":"火炬广场"},{"station_id":"n2657269266","station_name":"国威路"},{"station_id":"n2657269273","station_name":"青山湖西"},{"station_id":"n9308835519","station_name":"上沙沟"},{"station_id":"n2375669715","station_name":"青山路口"},{"station_id":"n2657269237","station_name":"墩子塘"},{"station_id":"n2997907075","station_name":"八一馆"},{"station_id":"n2657269218","station_name":"六眼井"},{"station_id":"n8124904205","station_name":"绳金塔"},{"station_id":"n2558472081","station_name":"十字街"},{"station_id":"n2558472071","station_name":"京家山"},{"station_id":"n2558472068","station_name":"江铃"},{"station_id":"n2558472067","station_name":"施尧"},{"station_id":"n2558472061","station_name":"八大山人"},{"station_id":"n2733141302","station_name":"邓埠"},{"station_id":"n2558516596","station_name":"复兴大道东"},{"station_id":"n2733143217","station_name":"沥山"},{"station_id":"n8120599832","station_name":"柏岗"},{"station_id":"n4285690092","station_name":"斗门"},{"station_id":"n2733182574","station_name":"银三角北"}]}],"route_count":1,"route_refs":["3"],"route_colors":["#0079c3"],"city":"Nanchang","country":"China"},"geometry":{"type":"MultiLineString","coordinates":[[[115.96805033333334,28.695805566666664],[115.95571953333332,28.693540833333333],[115.94467796666667,28.691560633333335],[115.93699883333333,28.690495233333333],[115.91832190000001,28.696326533333334],[115.90700738333334,28.6981748],[115.89681696,28.690532339999997],[115.88992940000001,28.6883565],[115.88673501666666,28.67900871666667],[115.88932026666667,28.672470533333335],[115.89722922000001,28.66143366],[115.90139436666668,28.6566858],[115.9016772,28.642650200000002],[115.90246993333334,28.6281089],[115.9030102,28.618640666666664],[115.90360626666666,28.605286266666667],[115.9050565,28.593180633333333],[115.90749373333334,28.579769066666667],[115.91121886666667,28.5598473],[115.9134565,28.54791283333334],[115.92313566666667,28.532193533333338],[115.93021123333334,28.524192333333332]]]}},{"type":"Feature","properties":{"seg_id":"nanchang-2","routes":[{"route_id":"rm13681035","route_name":"南昌地铁4号线","route_name_local":"南昌地铁4号线","route_name_en":"Nanchang Metro Line 4","route_ref":"4","route_color":"#00a560","wikipedia":"zh:南昌地铁","osm_route_ids":[4129938,13681034],"status":null,"order_suspect":0,"span_suspect":0,"stations":[{"station_id":"n3229611636","station_name":"白马山"},{"station_id":"n3229611634","station_name":"裕丰街"},{"station_id":"n4386791180","station_name":"璜溪"},{"station_id":"n12098950571","station_name":"中堡"},{"station_id":"n2733171573","station_name":"礼庄山"},{"station_id":"n2375668091","station_name":"西站南广场"},{"station_id":"n2657469380","station_name":"怀玉山大道"},{"station_id":"n2657469379","station_name":"安丰"},{"station_id":"n2643279573","station_name":"东新"},{"station_id":"n2643279572","station_name":"新洪城大市场"},{"station_id":"n2558231545","station_name":"丁家洲"},{"station_id":"n2558231548","station_name":"观洲"},{"station_id":"n2558231550","station_name":"云天路"},{"station_id":"n2558193568","station_name":"灌婴路"},{"station_id":"n2647229906","station_name":"南昌大桥东"},{"station_id":"n2647229909","station_name":"桃苑"},{"station_id":"n8124904205","station_name":"绳金塔"},{"station_id":"n2647229912","station_name":"坛子口"},{"station_id":"n2375669720","station_name":"丁公路南"},{"station_id":"n2227410611","station_name":"丁公路北"},{"station_id":"n12100508692","station_name":"人民公园"},{"station_id":"n9308835519","station_name":"上沙沟"},{"station_id":"n2647271738","station_name":"起凤路"},{"station_id":"n2497444316","station_name":"七里"},{"station_id":"n12100489066","station_name":"民园路西"},{"station_id":"n2657252097","station_name":"火炬"},{"station_id":"n2657252095","station_name":"北沥"},{"station_id":"n2657252092","station_name":"科技城"},{"station_id":"n2497383719","station_name":"鱼尾洲"}]}],"route_count":1,"route_refs":["4"],"route_colors":["#00a560"],"city":"Nanchang","country":"China"},"geometry":{"type":"MultiLineString","coordinates":[[[115.7172736,28.6341136],[115.72531556666668,28.623949],[115.734772225,28.62321095],[115.74818440000001,28.6265831],[115.76645509999999,28.628761666666662],[115.78524112,28.62181776],[115.79464056666666,28.618291833333334],[115.8046662,28.613884366666667],[115.83445486666666,28.6012257],[115.84523676666667,28.6089073],[115.85171033333332,28.625881933333336],[115.85833600000001,28.63571623333333],[115.863137,28.642779],[115.8680948,28.651645000000002],[115.87251426666667,28.658730333333335],[115.88487616666667,28.663088833333333],[115.89722922000001,28.66143366],[115.90390066666667,28.660588766666667],[115.90695293333333,28.667007083333335],[115.90840288333334,28.676844666666668],[115.90742206666668,28.687160700000003],[115.90700738333334,28.6981748],[115.91224030000001,28.705768833333334],[115.92310233333332,28.712952333333334],[115.94270033333333,28.7216344],[115.95457916666668,28.7199122],[115.96763820000001,28.7186604],[115.9774728,28.71860943333333],[115.9951529,28.713144533333335]]]}},{"type":"Feature","properties":{"seg_id":"nanchang-3","routes":[{"route_id":"rm2843401","route_name":"南昌地铁1号线","route_name_local":"南昌地铁1号线","route_name_en":"Nanchang Metro Line 1","route_ref":"1","route_color":"#e60039","wikipedia":null,"osm_route_ids":[13076768,13076769],"status":null,"order_suspect":0,"span_suspect":0,"stations":[{"station_id":"n12953115770","station_name":"麻丘"},{"station_id":"n12953115771","station_name":"瑶湖东"},{"station_id":"n2227410613","station_name":"瑶湖西"},{"station_id":"n2227410607","station_name":"奥体中心"},{"station_id":"n2227410609","station_name":"太子殿"},{"station_id":"n2227410618","station_name":"艾溪湖东"},{"station_id":"n2227410630","station_name":"艾溪湖西"},{"station_id":"n2227410610","station_name":"高新大道"},{"station_id":"n2228579517","station_name":"青山湖大道"},{"station_id":"n2227410616","station_name":"谢家村"},{"station_id":"n2227410625","station_name":"彭家桥"},{"station_id":"n2227410615","station_name":"师大南路"},{"station_id":"n2227410611","station_name":"丁公路北"},{"station_id":"n2341674783","station_name":"八一广场"},{"station_id":"n2997907075","station_name":"八一馆"},{"station_id":"n2227410608","station_name":"万寿宫"},{"station_id":"n2227410623","station_name":"滕王阁"},{"station_id":"n2227410620","station_name":"秋水广场"},{"station_id":"n5305408862","station_name":"地铁大厦"},{"station_id":"n2227474228","station_name":"卫东"},{"station_id":"n2227474239","station_name":"绿茵路"},{"station_id":"n2227474233","station_name":"庐山南大道"},{"station_id":"n2227474230","station_name":"珠江路"},{"station_id":"n2227474236","station_name":"长江路"},{"station_id":"n2228598449","station_name":"孔目湖"},{"station_id":"n2227542389","station_name":"双港"},{"station_id":"n12883912374","station_name":"蛟桥"},{"station_id":"n12953386696","station_name":"方志敏大道"},{"station_id":"n12953386697","station_name":"南齿"},{"station_id":"n12953386698","station_name":"冠山"},{"station_id":"n12953386699","station_name":"定子山"},{"station_id":"n12953387202","station_name":"汇贤大道"},{"station_id":"n12953387203","station_name":"昌北机场"}]}],"route_count":1,"route_refs":["1"],"route_colors":["#e60039"],"city":"Nanchang","country":"China"},"geometry":{"type":"MultiLineString","coordinates":[[[116.07279799999999,28.669634300000002],[116.05645483333332,28.669262399999997],[116.0333157,28.675386200000002],[116.0195625,28.6776612],[116.0059154,28.6780554],[115.9885212,28.6778871],[115.969255,28.6780459],[115.95560400000001,28.677671633333333],[115.9441548,28.6776365],[115.9359338,28.6775783],[115.9279858,28.6775181],[115.9191855,28.6774288],[115.90840288333334,28.676844666666668],[115.89826911666665,28.67801536666667],[115.88673501666666,28.67900871666667],[115.88120140000001,28.6784361],[115.8728736,28.67671665],[115.85473313333334,28.684534733333333],[115.8475289,28.6874304],[115.8440012,28.6941569],[115.8530053,28.700874],[115.8609527,28.7046688],[115.8716641,28.7119509],[115.8747178,28.7206546],[115.85307996666667,28.7359969],[115.8561019,28.7469844],[115.85407216666665,28.7550446],[115.85053876666666,28.7623225],[115.84648573333334,28.7682923],[115.85666046666667,28.775777066666667],[115.86992033333333,28.7753867],[115.87714770000001,28.809684633333333],[115.91330936666668,28.858644533333333]]]}},{"type":"Feature","properties":{"station_id":"n2227410607","station_name":"奥体中心","station_name_local":"奥体中心","station_name_en":"Olympic Stadium","city":"Nanchang","country":"China","lines":["1"],"wikipedia":null,"is_terminus":false,"routes":[{"ref":"1","name":"南昌地铁1号线","route_color":"#e60039"}],"pass_count":1,"station_degree":2,"codes":null,"merged_from":null,"merged_names":null,"is_interchange":false,"station_role":"normal"},"geometry":{"type":"Point","coordinates":[116.0195625,28.6776612]},"__memberLines":{}},{"type":"Feature","properties":{"station_id":"n2227410608","station_name":"万寿宫","station_name_local":"万寿宫","station_name_en":"Wanshou Palace","city":"Nanchang","country":"China","lines":["1"],"wikipedia":null,"merged_from":2,"merged_names":null,"is_terminus":false,"routes":[{"ref":"1","name":"南昌地铁1号线","route_color":"#e60039"}],"pass_count":1,"station_degree":2,"codes":null,"is_interchange":false,"station_role":"normal"},"geometry":{"type":"Point","coordinates":[115.88120140000001,28.6784361]},"__memberLines":{}},{"type":"Feature","properties":{"station_id":"n2227410609","station_name":"太子殿","station_name_local":"太子殿","station_name_en":"Taizidian","city":"Nanchang","country":"China","lines":["1"],"wikipedia":null,"is_terminus":false,"routes":[{"ref":"1","name":"南昌地铁1号线","route_color":"#e60039"}],"pass_count":1,"station_degree":2,"codes":null,"merged_from":null,"merged_names":null,"is_interchange":false,"station_role":"normal"},"geometry":{"type":"Point","coordinates":[116.0059154,28.6780554]},"__memberLines":{}},{"type":"Feature","properties":{"station_id":"n2227410610","station_name":"高新大道","station_name_local":"高新大道","station_name_en":"Gaoxin Avenue","city":"Nanchang","country":"China","lines":["1"],"wikipedia":null,"merged_from":3,"merged_names":null,"is_terminus":false,"routes":[{"ref":"1","name":"南昌地铁1号线","route_color":"#e60039"}],"pass_count":1,"station_degree":2,"codes":null,"is_interchange":false,"station_role":"normal"},"geometry":{"type":"Point","coordinates":[115.95560400000001,28.677671633333333]},"__memberLines":{}},{"type":"Feature","properties":{"station_id":"n2227410611","station_name":"丁公路北","station_name_local":"丁公路北","station_name_en":"Dinggong Road North","city":"Nanchang","country":"China","lines":["1","4"],"wikipedia":null,"merged_from":6,"merged_names":null,"is_terminus":false,"routes":[{"ref":"1","name":"南昌地铁1号线","route_color":"#e60039"},{"ref":"4","name":"南昌地铁4号线","route_color":"#00a560"}],"pass_count":2,"station_degree":4,"codes":null,"is_interchange":true,"station_role":"interchange"},"geometry":{"type":"Point","coordinates":[115.90840288333334,28.676844666666668]},"__memberLines":{}},{"type":"Feature","properties":{"station_id":"n2227410613","station_name":"瑶湖西","station_name_local":"瑶湖西","station_name_en":"Yaohu Lake West","city":"Nanchang","country":"China","lines":["1"],"wikipedia":"zh:瑶湖西站","merged_from":3,"merged_names":null,"is_terminus":false,"routes":[{"ref":"1","name":"南昌地铁1号线","route_color":"#e60039"}],"pass_count":1,"station_degree":2,"codes":null,"is_interchange":false,"station_role":"normal"},"geometry":{"type":"Point","coordinates":[116.0333157,28.675386200000002]},"__memberLines":{}},{"type":"Feature","properties":{"station_id":"n2227410615","station_name":"师大南路","station_name_local":"师大南路","station_name_en":"Shidanan Road","city":"Nanchang","country":"China","lines":["1"],"wikipedia":null,"is_terminus":false,"routes":[{"ref":"1","name":"南昌地铁1号线","route_color":"#e60039"}],"pass_count":1,"station_degree":2,"codes":null,"merged_from":null,"merged_names":null,"is_interchange":false,"station_role":"normal"},"geometry":{"type":"Point","coordinates":[115.9191855,28.6774288]},"__memberLines":{}},{"type":"Feature","properties":{"station_id":"n2227410616","station_name":"谢家村","station_name_local":"谢家村","station_name_en":"Xiejiacun","city":"Nanchang","country":"China","lines":["1"],"wikipedia":null,"is_terminus":false,"routes":[{"ref":"1","name":"南昌地铁1号线","route_color":"#e60039"}],"pass_count":1,"station_degree":2,"codes":null,"merged_from":null,"merged_names":null,"is_interchange":false,"station_role":"normal"},"geometry":{"type":"Point","coordinates":[115.9359338,28.6775783]},"__memberLines":{}},{"type":"Feature","properties":{"station_id":"n2227410618","station_name":"艾溪湖东","station_name_local":"艾溪湖东","station_name_en":"Aixihu Lake East","city":"Nanchang","country":"China","lines":["1"],"wikipedia":null,"is_terminus":false,"routes":[{"ref":"1","name":"南昌地铁1号线","route_color":"#e60039"}],"pass_count":1,"station_degree":2,"codes":null,"merged_from":null,"merged_names":null,"is_interchange":false,"station_role":"normal"},"geometry":{"type":"Point","coordinates":[115.9885212,28.6778871]},"__memberLines":{}},{"type":"Feature","properties":{"station_id":"n2227410620","station_name":"秋水广场","station_name_local":"秋水广场","station_name_en":"Qiushui Square","city":"Nanchang","country":"China","lines":["1"],"wikipedia":null,"merged_from":3,"merged_names":null,"is_terminus":false,"routes":[{"ref":"1","name":"南昌地铁1号线","route_color":"#e60039"}],"pass_count":1,"station_degree":2,"codes":null,"is_interchange":false,"station_role":"normal"},"geometry":{"type":"Point","coordinates":[115.85473313333334,28.684534733333333]},"__memberLines":{}},{"type":"Feature","properties":{"station_id":"n2227410623","station_name":"滕王阁","station_name_local":"滕王阁","station_name_en":"Tengwang Pavilion","city":"Nanchang","country":"China","lines":["1"],"wikipedia":null,"merged_from":2,"merged_names":null,"is_terminus":false,"routes":[{"ref":"1","name":"南昌地铁1号线","route_color":"#e60039"}],"pass_count":1,"station_degree":2,"codes":null,"is_interchange":false,"station_role":"normal"},"geometry":{"type":"Point","coordinates":[115.8728736,28.67671665]},"__memberLines":{}},{"type":"Feature","properties":{"station_id":"n2227410625","station_name":"彭家桥","station_name_local":"彭家桥","station_name_en":"Pengjiaqiao","city":"Nanchang","country":"China","lines":["1"],"wikipedia":null,"is_terminus":false,"routes":[{"ref":"1","name":"南昌地铁1号线","route_color":"#e60039"}],"pass_count":1,"station_degree":2,"codes":null,"merged_from":null,"merged_names":null,"is_interchange":false,"station_role":"normal"},"geometry":{"type":"Point","coordinates":[115.9279858,28.6775181]},"__memberLines":{}},{"type":"Feature","properties":{"station_id":"n2227410630","station_name":"艾溪湖西","station_name_local":"艾溪湖西","station_name_en":"Aixihu Lake West","city":"Nanchang","country":"China","lines":["1"],"wikipedia":null,"is_terminus":false,"routes":[{"ref":"1","name":"南昌地铁1号线","route_color":"#e60039"}],"pass_count":1,"station_degree":2,"codes":null,"merged_from":null,"merged_names":null,"is_interchange":false,"station_role":"normal"},"geometry":{"type":"Point","coordinates":[115.969255,28.6780459]},"__memberLines":{}},{"type":"Feature","properties":{"station_id":"n2227474228","station_name":"卫东","station_name_local":"卫东","station_name_en":"Weidong","city":"Nanchang","country":"China","lines":["1"],"wikipedia":"zh:卫东站 (南昌市)","is_terminus":false,"routes":[{"ref":"1","name":"南昌地铁1号线","route_color":"#e60039"}],"pass_count":1,"station_degree":2,"codes":null,"merged_from":null,"merged_names":null,"is_interchange":false,"station_role":"normal"},"geometry":{"type":"Point","coordinates":[115.8440012,28.6941569]},"__memberLines":{}},{"type":"Feature","properties":{"station_id":"n2227474230","station_name":"珠江路","station_name_local":"珠江路","station_name_en":"Zhujiang Road","city":"Nanchang","country":"China","lines":["1"],"wikipedia":null,"is_terminus":false,"routes":[{"ref":"1","name":"南昌地铁1号线","route_color":"#e60039"}],"pass_count":1,"station_degree":2,"codes":null,"merged_from":null,"merged_names":null,"is_interchange":false,"station_role":"normal"},"geometry":{"type":"Point","coordinates":[115.8716641,28.7119509]},"__memberLines":{}},{"type":"Feature","properties":{"station_id":"n2227474233","station_name":"庐山南大道","station_name_local":"庐山南大道","station_name_en":"South Lushan Ave","city":"Nanchang","country":"China","lines":["1"],"wikipedia":"zh:庐山南大道站","is_terminus":false,"routes":[{"ref":"1","name":"南昌地铁1号线","route_color":"#e60039"}],"pass_count":1,"station_degree":2,"codes":null,"merged_from":null,"merged_names":null,"is_interchange":false,"station_role":"normal"},"geometry":{"type":"Point","coordinates":[115.8609527,28.7046688]},"__memberLines":{}},{"type":"Feature","properties":{"station_id":"n2227474236","station_name":"长江路","station_name_local":"长江路","station_name_en":"Changjiang Road","city":"Nanchang","country":"China","lines":["1"],"wikipedia":"zh:长江路站 (南昌市)","is_terminus":false,"routes":[{"ref":"1","name":"南昌地铁1号线","route_color":"#e60039"}],"pass_count":1,"station_degree":2,"codes":null,"merged_from":null,"merged_names":null,"is_interchange":false,"station_role":"normal"},"geometry":{"type":"Point","coordinates":[115.8747178,28.7206546]},"__memberLines":{}},{"type":"Feature","properties":{"station_id":"n2227474239","station_name":"绿茵路","station_name_local":"绿茵路","station_name_en":"Lüyin Road","city":"Nanchang","country":"China","lines":["1"],"wikipedia":"zh:绿茵路站","is_terminus":false,"routes":[{"ref":"1","name":"南昌地铁1号线","route_color":"#e60039"}],"pass_count":1,"station_degree":2,"codes":null,"merged_from":null,"merged_names":null,"is_interchange":false,"station_role":"normal"},"geometry":{"type":"Point","coordinates":[115.8530053,28.700874]},"__memberLines":{}},{"type":"Feature","properties":{"station_id":"n2227542389","station_name":"双港","station_name_local":"双港","station_name_en":"Shuanggang","city":"Nanchang","country":"China","lines":["1"],"wikipedia":"zh:双港站 (南昌市)","is_terminus":false,"routes":[{"ref":"1","name":"南昌地铁1号线","route_color":"#e60039"}],"pass_count":1,"station_degree":2,"codes":null,"merged_from":null,"merged_names":null,"is_interchange":false,"station_role":"normal"},"geometry":{"type":"Point","coordinates":[115.8561019,28.7469844]},"__memberLines":{}},{"type":"Feature","properties":{"station_id":"n2228579517","station_name":"青山湖大道","station_name_local":"青山湖大道","station_name_en":"Qingshanhu Ave","city":"Nanchang","country":"China","lines":["1"],"wikipedia":null,"is_terminus":false,"routes":[{"ref":"1","name":"南昌地铁1号线","route_color":"#e60039"}],"pass_count":1,"station_degree":2,"codes":null,"merged_from":null,"merged_names":null,"is_interchange":false,"station_role":"normal"},"geometry":{"type":"Point","coordinates":[115.9441548,28.6776365]},"__memberLines":{}},{"type":"Feature","properties":{"station_id":"n2228598449","station_name":"孔目湖","station_name_local":"孔目湖","station_name_en":"Kongmuhu Lake","city":"Nanchang","country":"China","lines":["1"],"wikipedia":"zh:孔目湖站","merged_from":3,"merged_names":null,"is_terminus":false,"routes":[{"ref":"1","name":"南昌地铁1号线","route_color":"#e60039"}],"pass_count":1,"station_degree":2,"codes":null,"is_interchange":false,"station_role":"normal"},"geometry":{"type":"Point","coordinates":[115.85307996666667,28.7359969]},"__memberLines":{}},{"type":"Feature","properties":{"station_id":"n2341674783","station_name":"八一广场","station_name_local":"八一广场","station_name_en":"Bayi Square","city":"Nanchang","country":"China","lines":["1","2"],"wikipedia":null,"merged_from":6,"merged_names":null,"is_terminus":false,"routes":[{"ref":"1","name":"南昌地铁1号线","route_color":"#e60039"},{"ref":"2","name":"南昌地铁2号线","route_color":"#ffda01"}],"pass_count":2,"station_degree":4,"codes":null,"is_interchange":true,"station_role":"interchange"},"geometry":{"type":"Point","coordinates":[115.89826911666665,28.67801536666667]},"__memberLines":{}},{"type":"Feature","properties":{"station_id":"n2375668085","station_name":"前湖大道","station_name_local":"前湖大道","station_name_en":"Qianhu Avenue","city":"Nanchang","country":"China","lines":["2"],"wikipedia":null,"merged_from":3,"merged_names":null,"is_terminus":false,"routes":[{"ref":"2","name":"南昌地铁2号线","route_color":"#ffda01"}],"pass_count":1,"station_degree":2,"codes":null,"is_interchange":false,"station_role":"normal"},"geometry":{"type":"Point","coordinates":[115.82996203333333,28.655188533333334]},"__memberLines":{}},{"type":"Feature","properties":{"station_id":"n2375668088","station_name":"南昌西站","station_name_local":"南昌西站","station_name_en":"Nanchang West Railway Station","city":"Nanchang","country":"China","lines":["2"],"wikipedia":null,"merged_from":3,"merged_names":null,"is_terminus":false,"routes":[{"ref":"2","name":"南昌地铁2号线","route_color":"#ffda01"}],"pass_count":1,"station_degree":2,"codes":null,"is_interchange":false,"station_role":"normal"},"geometry":{"type":"Point","coordinates":[115.78820676666665,28.626639166666667]},"__memberLines":{}},{"type":"Feature","properties":{"station_id":"n2375668091","station_name":"西站南广场","station_name_local":"西站南广场","station_name_en":"South Square of West Railway Station","city":"Nanchang","country":"China","lines":["2","4"],"wikipedia":null,"merged_from":5,"merged_names":null,"is_terminus":false,"routes":[{"ref":"2","name":"南昌地铁2号线","route_color":"#ffda01"},{"ref":"4","name":"南昌地铁4号线","route_color":"#00a560"}],"pass_count":2,"station_degree":4,"codes":null,"is_interchange":true,"station_role":"interchange"},"geometry":{"type":"Point","coordinates":[115.78524112,28.62181776]},"__memberLines":{}},{"type":"Feature","properties":{"station_id":"n2375668092","station_name":"龙岗","station_name_local":"龙岗","station_name_en":"Longgang","city":"Nanchang","country":"China","lines":["2"],"wikipedia":null,"merged_from":3,"merged_names":null,"is_terminus":false,"routes":[{"ref":"2","name":"南昌地铁2号线","route_color":"#ffda01"}],"pass_count":1,"station_degree":2,"codes":null,"is_interchange":false,"station_role":"normal"},"geometry":{"type":"Point","coordinates":[115.79777256666667,28.626604533333335]},"__memberLines":{}},{"type":"Feature","properties":{"station_id":"n2375668094","station_name":"雅苑路","station_name_local":"雅苑路","station_name_en":"Yayuan Road","city":"Nanchang","country":"China","lines":["2"],"wikipedia":null,"merged_from":3,"merged_names":null,"is_terminus":false,"routes":[{"ref":"2","name":"南昌地铁2号线","route_color":"#ffda01"}],"pass_count":1,"station_degree":2,"codes":null,"is_interchange":false,"station_role":"normal"},"geometry":{"type":"Point","coordinates":[115.85242776666666,28.695225699999998]},"__memberLines":{}},{"type":"Feature","properties":{"station_id":"n2375668102","station_name":"岭北","station_name_local":"岭北","station_name_en":"Lingbei","city":"Nanchang","country":"China","lines":["2"],"wikipedia":null,"merged_from":3,"merged_names":null,"is_terminus":false,"routes":[{"ref":"2","name":"南昌地铁2号线","route_color":"#ffda01"}],"pass_count":1,"station_degree":2,"codes":null,"is_interchange":false,"station_role":"normal"},"geometry":{"type":"Point","coordinates":[115.82519073333333,28.644354933333332]},"__memberLines":{}},{"type":"Feature","properties":{"station_id":"n2375668103","station_name":"翠苑路","station_name_local":"翠苑路","station_name_en":"Cuiyuan Road","city":"Nanchang","country":"China","lines":["2"],"wikipedia":null,"merged_from":3,"merged_names":null,"is_terminus":false,"routes":[{"ref":"2","name":"南昌地铁2号线","route_color":"#ffda01"}],"pass_count":1,"station_degree":2,"codes":null,"is_interchange":false,"station_role":"normal"},"geometry":{"type":"Point","coordinates":[115.84171473333333,28.675889233333336]},"__memberLines":{}},{"type":"Feature","properties":{"station_id":"n2375668106","station_name":"红谷中大道","station_name_local":"红谷中大道","station_name_en":"Middle Honggu Avenue","city":"Nanchang","country":"China","lines":["2"],"wikipedia":null,"merged_from":3,"merged_names":null,"is_terminus":false,"routes":[{"ref":"2","name":"南昌地铁2号线","route_color":"#ffda01"}],"pass_count":1,"station_degree":2,"codes":null,"is_interchange":false,"station_role":"normal"},"geometry":{"type":"Point","coordinates":[115.86212316666666,28.695012933333334]},"__memberLines":{}},{"type":"Feature","properties":{"station_id":"n2375668109","station_name":"国体中心","station_name_local":"国体中心","station_name_en":"International Sports Center","city":"Nanchang","country":"China","lines":["2"],"wikipedia":null,"merged_from":3,"merged_names":null,"is_terminus":false,"routes":[{"ref":"2","name":"南昌地铁2号线","route_color":"#ffda01"}],"pass_count":1,"station_degree":2,"codes":null,"is_interchange":false,"station_role":"normal"},"geometry":{"type":"Point","coordinates":[115.81172233333332,28.625646466666666]},"__memberLines":{}},{"type":"Feature","properties":{"station_id":"n2375668110","station_name":"卧龙山","station_name_local":"卧龙山","station_name_en":"Wolongshan","city":"Nanchang","country":"China","lines":["2"],"wikipedia":null,"merged_from":3,"merged_names":null,"is_terminus":false,"routes":[{"ref":"2","name":"南昌地铁2号线","route_color":"#ffda01"}],"pass_count":1,"station_degree":2,"codes":null,"is_interchange":false,"station_role":"normal"},"geometry":{"type":"Point","coordinates":[115.81740896666666,28.634909433333334]},"__memberLines":{}},{"type":"Feature","properties":{"station_id":"n2375668115","station_name":"学府大道东","station_name_local":"学府大道东","station_name_en":"Xuefu Avenue East","city":"Nanchang","country":"China","lines":["2"],"wikipedia":null,"merged_from":3,"merged_names":null,"is_terminus":false,"routes":[{"ref":"2","name":"南昌地铁2号线","route_color":"#ffda01"}],"pass_count":1,"station_degree":2,"codes":null,"is_interchange":false,"station_role":"normal"},"geometry":{"type":"Point","coordinates":[115.83412083333333,28.662541633333337]},"__memberLines":{}},{"type":"Feature","properties":{"station_id":"n2375669715","station_name":"青山路口","station_name_local":"青山路口","station_name_en":"Qingshan Road","city":"Nanchang","country":"China","lines":["2","3"],"wikipedia":null,"merged_from":5,"merged_names":null,"is_terminus":false,"routes":[{"ref":"2","name":"南昌地铁2号线","route_color":"#ffda01"},{"ref":"3","name":"南昌地铁3号线","route_color":"#0079c3"}],"pass_count":2,"station_degree":4,"codes":null,"is_interchange":true,"station_role":"interchange"},"geometry":{"type":"Point","coordinates":[115.89681696,28.690532339999997]},"__memberLines":{}},{"type":"Feature","properties":{"station_id":"n2375669720","station_name":"丁公路南","station_name_local":"丁公路南","station_name_en":"Dinggong Road South","city":"Nanchang","country":"China","lines":["2","4"],"wikipedia":null,"merged_from":6,"merged_names":null,"is_terminus":false,"routes":[{"ref":"2","name":"南昌地铁2号线","route_color":"#ffda01"},{"ref":"4","name":"南昌地铁4号线","route_color":"#00a560"}],"pass_count":2,"station_degree":4,"codes":null,"is_interchange":true,"station_role":"interchange"},"geometry":{"type":"Point","coordinates":[115.90695293333333,28.667007083333335]},"__memberLines":{}},{"type":"Feature","properties":{"station_id":"n2375669728","station_name":"南昌火车站","station_name_local":"南昌火车站","station_name_en":"Nanchang Railway Station","city":"Nanchang","country":"China","lines":["2"],"wikipedia":"en:南昌火车站 (地铁)","merged_from":3,"merged_names":null,"is_terminus":false,"routes":[{"ref":"2","name":"南昌地铁2号线","route_color":"#ffda01"}],"pass_count":1,"station_degree":2,"codes":null,"is_interchange":false,"station_role":"normal"},"geometry":{"type":"Point","coordinates":[115.91647646666667,28.6666321]},"__memberLines":{}},{"type":"Feature","properties":{"station_id":"n2375669729","station_name":"永叔路","station_name_local":"永叔路","station_name_en":"Yongshu Road","city":"Nanchang","country":"China","lines":["2"],"wikipedia":null,"merged_from":3,"merged_names":null,"is_terminus":false,"routes":[{"ref":"2","name":"南昌地铁2号线","route_color":"#ffda01"}],"pass_count":1,"station_degree":2,"codes":null,"is_interchange":false,"station_role":"normal"},"geometry":{"type":"Point","coordinates":[115.90016726666666,28.670499466666666]},"__memberLines":{}},{"type":"Feature","properties":{"station_id":"n2375669752","station_name":"阳明公园","station_name_local":"阳明公园","station_name_en":"Yangming Park","city":"Nanchang","country":"China","lines":["2"],"wikipedia":null,"merged_from":3,"merged_names":null,"is_terminus":false,"routes":[{"ref":"2","name":"南昌地铁2号线","route_color":"#ffda01"}],"pass_count":1,"station_degree":2,"codes":null,"is_interchange":false,"station_role":"normal"},"geometry":{"type":"Point","coordinates":[115.88646466666667,28.691322800000005]},"__memberLines":{}},{"type":"Feature","properties":{"station_id":"n2375669761","station_name":"福州路","station_name_local":"福州路","station_name_en":"Fuzhou Road","city":"Nanchang","country":"China","lines":["2"],"wikipedia":null,"merged_from":3,"merged_names":null,"is_terminus":false,"routes":[{"ref":"2","name":"南昌地铁2号线","route_color":"#ffda01"}],"pass_count":1,"station_degree":2,"codes":null,"is_interchange":false,"station_role":"normal"},"geometry":{"type":"Point","coordinates":[115.89846706666667,28.684014233333333]},"__memberLines":{}},{"type":"Feature","properties":{"station_id":"n2375672142","station_name":"辛家庵","station_name_local":"辛家庵","station_name_en":"Xinjia'an","city":"Nanchang","country":"China","lines":["2"],"wikipedia":null,"merged_from":3,"merged_names":null,"is_terminus":true,"routes":[{"ref":"2","name":"南昌地铁2号线","route_color":"#ffda01"}],"pass_count":1,"station_degree":1,"codes":null,"is_interchange":false,"station_role":"terminus"},"geometry":{"type":"Point","coordinates":[115.93473573333334,28.66231403333333]},"__memberLines":{}},{"type":"Feature","properties":{"station_id":"n2497383719","station_name":"鱼尾洲","station_name_local":"鱼尾洲","station_name_en":"Yuweizhou","city":"Nanchang","country":"China","lines":["4"],"wikipedia":"zh:鱼尾洲站","merged_from":3,"merged_names":null,"is_terminus":true,"routes":[{"ref":"4","name":"南昌地铁4号线","route_color":"#00a560"}],"pass_count":1,"station_degree":1,"codes":null,"is_interchange":false,"station_role":"terminus"},"geometry":{"type":"Point","coordinates":[115.9951529,28.713144533333335]},"__memberLines":{}},{"type":"Feature","properties":{"station_id":"n2497444316","station_name":"七里","station_name_local":"七里","station_name_en":"Qili","city":"Nanchang","country":"China","lines":["4"],"wikipedia":null,"merged_from":3,"merged_names":null,"is_terminus":false,"routes":[{"ref":"4","name":"南昌地铁4号线","route_color":"#00a560"}],"pass_count":1,"station_degree":2,"codes":null,"is_interchange":false,"station_role":"normal"},"geometry":{"type":"Point","coordinates":[115.92310233333332,28.712952333333334]},"__memberLines":{}},{"type":"Feature","properties":{"station_id":"n2558193568","station_name":"灌婴路","station_name_local":"灌婴路","station_name_en":"Guanying Road","city":"Nanchang","country":"China","lines":["4"],"wikipedia":"zh:灌婴路站","merged_from":3,"merged_names":null,"is_terminus":false,"routes":[{"ref":"4","name":"南昌地铁4号线","route_color":"#00a560"}],"pass_count":1,"station_degree":2,"codes":null,"is_interchange":false,"station_role":"normal"},"geometry":{"type":"Point","coordinates":[115.8680948,28.651645000000002]},"__memberLines":{}},{"type":"Feature","properties":{"station_id":"n2558231545","station_name":"丁家洲","station_name_local":"丁家洲","station_name_en":"Dingjiazhou","city":"Nanchang","country":"China","lines":["4"],"wikipedia":"zh:丁家洲站","merged_from":3,"merged_names":null,"is_terminus":false,"routes":[{"ref":"4","name":"南昌地铁4号线","route_color":"#00a560"}],"pass_count":1,"station_degree":2,"codes":null,"is_interchange":false,"station_role":"normal"},"geometry":{"type":"Point","coordinates":[115.85171033333332,28.625881933333336]},"__memberLines":{}},{"type":"Feature","properties":{"station_id":"n2558231548","station_name":"观洲","station_name_local":"观洲","station_name_en":"Guanzhou","city":"Nanchang","country":"China","lines":["4"],"wikipedia":"zh:观洲站","merged_from":3,"merged_names":null,"is_terminus":false,"routes":[{"ref":"4","name":"南昌地铁4号线","route_color":"#00a560"}],"pass_count":1,"station_degree":2,"codes":null,"is_interchange":false,"station_role":"normal"},"geometry":{"type":"Point","coordinates":[115.85833600000001,28.63571623333333]},"__memberLines":{}},{"type":"Feature","properties":{"station_id":"n2558231550","station_name":"云天路","station_name_local":"云天路","station_name_en":"Yuntian Road","city":"Nanchang","country":"China","lines":["4"],"wikipedia":"zh:云天路站","merged_from":3,"merged_names":null,"is_terminus":false,"routes":[{"ref":"4","name":"南昌地铁4号线","route_color":"#00a560"}],"pass_count":1,"station_degree":2,"codes":null,"is_interchange":false,"station_role":"normal"},"geometry":{"type":"Point","coordinates":[115.863137,28.642779]},"__memberLines":{}},{"type":"Feature","properties":{"station_id":"n2558472061","station_name":"八大山人","station_name_local":"八大山人","station_name_en":"Badashanren Memorial","city":"Nanchang","country":"China","lines":["3"],"wikipedia":"zh:八大山人站","merged_from":3,"merged_names":null,"is_terminus":false,"routes":[{"ref":"3","name":"南昌地铁3号线","route_color":"#0079c3"}],"pass_count":1,"station_degree":2,"codes":null,"is_interchange":false,"station_role":"normal"},"geometry":{"type":"Point","coordinates":[115.90360626666666,28.605286266666667]},"__memberLines":{}},{"type":"Feature","properties":{"station_id":"n2558472067","station_name":"施尧","station_name_local":"施尧","station_name_en":"Shiyao","city":"Nanchang","country":"China","lines":["3"],"wikipedia":null,"merged_from":3,"merged_names":null,"is_terminus":false,"routes":[{"ref":"3","name":"南昌地铁3号线","route_color":"#0079c3"}],"pass_count":1,"station_degree":2,"codes":null,"is_interchange":false,"station_role":"normal"},"geometry":{"type":"Point","coordinates":[115.9030102,28.618640666666664]},"__memberLines":{}},{"type":"Feature","properties":{"station_id":"n2558472068","station_name":"江铃","station_name_local":"江铃","station_name_en":"Jiangling Motors","city":"Nanchang","country":"China","lines":["3"],"wikipedia":"zh:江铃站","merged_from":3,"merged_names":null,"is_terminus":false,"routes":[{"ref":"3","name":"南昌地铁3号线","route_color":"#0079c3"}],"pass_count":1,"station_degree":2,"codes":null,"is_interchange":false,"station_role":"normal"},"geometry":{"type":"Point","coordinates":[115.90246993333334,28.6281089]},"__memberLines":{}},{"type":"Feature","properties":{"station_id":"n2558472071","station_name":"京家山","station_name_local":"京家山","station_name_en":"Jingjiashan","city":"Nanchang","country":"China","lines":["3"],"wikipedia":"zh:京家山站","merged_from":3,"merged_names":null,"is_terminus":false,"routes":[{"ref":"3","name":"南昌地铁3号线","route_color":"#0079c3"}],"pass_count":1,"station_degree":2,"codes":null,"is_interchange":false,"station_role":"normal"},"geometry":{"type":"Point","coordinates":[115.9016772,28.642650200000002]},"__memberLines":{}},{"type":"Feature","properties":{"station_id":"n2558472081","station_name":"十字街","station_name_local":"十字街","station_name_en":"Shizi Street","city":"Nanchang","country":"China","lines":["3"],"wikipedia":"zh:十字街站 (南昌地铁)","merged_from":3,"merged_names":null,"is_terminus":false,"routes":[{"ref":"3","name":"南昌地铁3号线","route_color":"#0079c3"}],"pass_count":1,"station_degree":2,"codes":null,"is_interchange":false,"station_role":"normal"},"geometry":{"type":"Point","coordinates":[115.90139436666668,28.6566858]},"__memberLines":{}},{"type":"Feature","properties":{"station_id":"n2558475653","station_name":"火炬广场","station_name_local":"火炬广场","station_name_en":"Huoju Square","city":"Nanchang","country":"China","lines":["3"],"wikipedia":null,"merged_from":3,"merged_names":null,"is_terminus":false,"routes":[{"ref":"3","name":"南昌地铁3号线","route_color":"#0079c3"}],"pass_count":1,"station_degree":2,"codes":null,"is_interchange":false,"station_role":"normal"},"geometry":{"type":"Point","coordinates":[115.94467796666667,28.691560633333335]},"__memberLines":{}},{"type":"Feature","properties":{"station_id":"n2558475655","station_name":"梁万","station_name_local":"梁万","station_name_en":"Liangwan","city":"Nanchang","country":"China","lines":["3"],"wikipedia":"zh:梁万站","merged_from":3,"merged_names":null,"is_terminus":false,"routes":[{"ref":"3","name":"南昌地铁3号线","route_color":"#0079c3"}],"pass_count":1,"station_degree":2,"codes":null,"is_interchange":false,"station_role":"normal"},"geometry":{"type":"Point","coordinates":[115.95571953333332,28.693540833333333]},"__memberLines":{}},{"type":"Feature","properties":{"station_id":"n2558516596","station_name":"复兴大道东","station_name_local":"复兴大道东","station_name_en":"Fuxing Avenue East","city":"Nanchang","country":"China","lines":["3"],"wikipedia":null,"merged_from":3,"merged_names":null,"is_terminus":false,"routes":[{"ref":"3","name":"南昌地铁3号线","route_color":"#0079c3"}],"pass_count":1,"station_degree":2,"codes":null,"is_interchange":false,"station_role":"normal"},"geometry":{"type":"Point","coordinates":[115.90749373333334,28.579769066666667]},"__memberLines":{}},{"type":"Feature","properties":{"station_id":"n2643279572","station_name":"新洪城大市场","station_name_local":"新洪城大市场","station_name_en":"New Hongcheng Market","city":"Nanchang","country":"China","lines":["4"],"wikipedia":"zh:新洪城大市场站","merged_from":3,"merged_names":null,"is_terminus":false,"routes":[{"ref":"4","name":"南昌地铁4号线","route_color":"#00a560"}],"pass_count":1,"station_degree":2,"codes":null,"is_interchange":false,"station_role":"normal"},"geometry":{"type":"Point","coordinates":[115.84523676666667,28.6089073]},"__memberLines":{}},{"type":"Feature","properties":{"station_id":"n2643279573","station_name":"东新","station_name_local":"东新","station_name_en":"Dongxin","city":"Nanchang","country":"China","lines":["4"],"wikipedia":null,"merged_from":3,"merged_names":null,"is_terminus":false,"routes":[{"ref":"4","name":"南昌地铁4号线","route_color":"#00a560"}],"pass_count":1,"station_degree":2,"codes":null,"is_interchange":false,"station_role":"normal"},"geometry":{"type":"Point","coordinates":[115.83445486666666,28.6012257]},"__memberLines":{}},{"type":"Feature","properties":{"station_id":"n2647229906","station_name":"南昌大桥东","station_name_local":"南昌大桥东","station_name_en":"Nanchang Bridge East","city":"Nanchang","country":"China","lines":["4"],"wikipedia":"zh:南昌大桥东站","merged_from":3,"merged_names":null,"is_terminus":false,"routes":[{"ref":"4","name":"南昌地铁4号线","route_color":"#00a560"}],"pass_count":1,"station_degree":2,"codes":null,"is_interchange":false,"station_role":"normal"},"geometry":{"type":"Point","coordinates":[115.87251426666667,28.658730333333335]},"__memberLines":{}},{"type":"Feature","properties":{"station_id":"n2647229909","station_name":"桃苑","station_name_local":"桃苑","station_name_en":"Taoyuan","city":"Nanchang","country":"China","lines":["4"],"wikipedia":"zh:桃苑站","merged_from":3,"merged_names":null,"is_terminus":false,"routes":[{"ref":"4","name":"南昌地铁4号线","route_color":"#00a560"}],"pass_count":1,"station_degree":2,"codes":null,"is_interchange":false,"station_role":"normal"},"geometry":{"type":"Point","coordinates":[115.88487616666667,28.663088833333333]},"__memberLines":{}},{"type":"Feature","properties":{"station_id":"n2647229912","station_name":"坛子口","station_name_local":"坛子口","station_name_en":"Tanzikou","city":"Nanchang","country":"China","lines":["4"],"wikipedia":"zh:坛子口站","merged_from":3,"merged_names":null,"is_terminus":false,"routes":[{"ref":"4","name":"南昌地铁4号线","route_color":"#00a560"}],"pass_count":1,"station_degree":2,"codes":null,"is_interchange":false,"station_role":"normal"},"geometry":{"type":"Point","coordinates":[115.90390066666667,28.660588766666667]},"__memberLines":{}},{"type":"Feature","properties":{"station_id":"n2647271738","station_name":"起凤路","station_name_local":"起凤路","station_name_en":"Qifeng Road","city":"Nanchang","country":"China","lines":["4"],"wikipedia":"zh:起凤路站","merged_from":3,"merged_names":null,"is_terminus":false,"routes":[{"ref":"4","name":"南昌地铁4号线","route_color":"#00a560"}],"pass_count":1,"station_degree":2,"codes":null,"is_interchange":false,"station_role":"normal"},"geometry":{"type":"Point","coordinates":[115.91224030000001,28.705768833333334]},"__memberLines":{}},{"type":"Feature","properties":{"station_id":"n2651436599","station_name":"国博","station_name_local":"国博","station_name_en":"International Expo Center","city":"Nanchang","country":"China","lines":["2"],"wikipedia":null,"merged_from":3,"merged_names":null,"is_terminus":false,"routes":[{"ref":"2","name":"南昌地铁2号线","route_color":"#ffda01"}],"pass_count":1,"station_degree":2,"codes":null,"is_interchange":false,"station_role":"normal"},"geometry":{"type":"Point","coordinates":[115.79040656666666,28.611520933333335]},"__memberLines":{}},{"type":"Feature","properties":{"station_id":"n2651436600","station_name":"鹰潭街","station_name_local":"鹰潭街","station_name_en":"Yingtan Street","city":"Nanchang","country":"China","lines":["2"],"wikipedia":null,"merged_from":3,"merged_names":null,"is_terminus":false,"routes":[{"ref":"2","name":"南昌地铁2号线","route_color":"#ffda01"}],"pass_count":1,"station_degree":2,"codes":null,"is_interchange":false,"station_role":"normal"},"geometry":{"type":"Point","coordinates":[115.7940271,28.6023881]},"__memberLines":{}},{"type":"Feature","properties":{"station_id":"n2651436601","station_name":"九龙湖南","station_name_local":"九龙湖南","station_name_en":"Jiulong Lake South","city":"Nanchang","country":"China","lines":["2"],"wikipedia":null,"merged_from":3,"merged_names":null,"is_terminus":false,"routes":[{"ref":"2","name":"南昌地铁2号线","route_color":"#ffda01"}],"pass_count":1,"station_degree":2,"codes":null,"is_interchange":false,"station_role":"normal"},"geometry":{"type":"Point","coordinates":[115.7883801,28.5831788]},"__memberLines":{}},{"type":"Feature","properties":{"station_id":"n2651436602","station_name":"生米","station_name_local":"生米","station_name_en":"Shengmi","city":"Nanchang","country":"China","lines":["2"],"wikipedia":null,"merged_from":3,"merged_names":null,"is_terminus":false,"routes":[{"ref":"2","name":"南昌地铁2号线","route_color":"#ffda01"}],"pass_count":1,"station_degree":2,"codes":null,"is_interchange":false,"station_role":"normal"},"geometry":{"type":"Point","coordinates":[115.78587893333332,28.575198933333336]},"__memberLines":{}},{"type":"Feature","properties":{"station_id":"n2657252092","station_name":"科技城","station_name_local":"科技城","station_name_en":"High-tech Park","city":"Nanchang","country":"China","lines":["4"],"wikipedia":null,"merged_from":3,"merged_names":null,"is_terminus":false,"routes":[{"ref":"4","name":"南昌地铁4号线","route_color":"#00a560"}],"pass_count":1,"station_degree":2,"codes":null,"is_interchange":false,"station_role":"normal"},"geometry":{"type":"Point","coordinates":[115.9774728,28.71860943333333]},"__memberLines":{}},{"type":"Feature","properties":{"station_id":"n2657252095","station_name":"北沥","station_name_local":"北沥","station_name_en":"Beili","city":"Nanchang","country":"China","lines":["4"],"wikipedia":"zh:北沥站","merged_from":3,"merged_names":null,"is_terminus":false,"routes":[{"ref":"4","name":"南昌地铁4号线","route_color":"#00a560"}],"pass_count":1,"station_degree":2,"codes":null,"is_interchange":false,"station_role":"normal"},"geometry":{"type":"Point","coordinates":[115.96763820000001,28.7186604]},"__memberLines":{}},{"type":"Feature","properties":{"station_id":"n2657252097","station_name":"火炬","station_name_local":"火炬","station_name_en":"Huoju","city":"Nanchang","country":"China","lines":["4"],"wikipedia":null,"merged_from":3,"merged_names":null,"is_terminus":false,"routes":[{"ref":"4","name":"南昌地铁4号线","route_color":"#00a560"}],"pass_count":1,"station_degree":2,"codes":null,"is_interchange":false,"station_role":"normal"},"geometry":{"type":"Point","coordinates":[115.95457916666668,28.7199122]},"__memberLines":{}},{"type":"Feature","properties":{"station_id":"n2657254252","station_name":"南路","station_name_local":"南路","station_name_en":"Nanlu","city":"Nanchang","country":"China","lines":["2"],"wikipedia":null,"merged_from":3,"merged_names":null,"is_terminus":true,"routes":[{"ref":"2","name":"南昌地铁2号线","route_color":"#ffda01"}],"pass_count":1,"station_degree":1,"codes":null,"is_interchange":false,"station_role":"terminus"},"geometry":{"type":"Point","coordinates":[115.7843165,28.5560763]},"__memberLines":{}},{"type":"Feature","properties":{"station_id":"n2657254253","station_name":"南昌中学","station_name_local":"南昌中学","station_name_en":"Nanchang High School","city":"Nanchang","country":"China","lines":["2"],"wikipedia":null,"merged_from":3,"merged_names":null,"is_terminus":false,"routes":[{"ref":"2","name":"南昌地铁2号线","route_color":"#ffda01"}],"pass_count":1,"station_degree":2,"codes":null,"is_interchange":false,"station_role":"normal"},"geometry":{"type":"Point","coordinates":[115.78430413333332,28.563883500000003]},"__memberLines":{}},{"type":"Feature","properties":{"station_id":"n2657269218","station_name":"六眼井","station_name_local":"六眼井","station_name_en":"Liuyanjing","city":"Nanchang","country":"China","lines":["3"],"wikipedia":"zh:六眼井站","merged_from":3,"merged_names":null,"is_terminus":false,"routes":[{"ref":"3","name":"南昌地铁3号线","route_color":"#0079c3"}],"pass_count":1,"station_degree":2,"codes":null,"is_interchange":false,"station_role":"normal"},"geometry":{"type":"Point","coordinates":[115.88932026666667,28.672470533333335]},"__memberLines":{}},{"type":"Feature","properties":{"station_id":"n2657269237","station_name":"墩子塘","station_name_local":"墩子塘","station_name_en":"Dunzitang","city":"Nanchang","country":"China","lines":["3"],"wikipedia":"zh:墩子塘站","merged_from":3,"merged_names":null,"is_terminus":false,"routes":[{"ref":"3","name":"南昌地铁3号线","route_color":"#0079c3"}],"pass_count":1,"station_degree":2,"codes":null,"is_interchange":false,"station_role":"normal"},"geometry":{"type":"Point","coordinates":[115.88992940000001,28.6883565]},"__memberLines":{}},{"type":"Feature","properties":{"station_id":"n2657269266","station_name":"国威路","station_name_local":"国威路","station_name_en":"Guowei Road","city":"Nanchang","country":"China","lines":["3"],"wikipedia":"zh:国威路站","merged_from":3,"merged_names":null,"is_terminus":false,"routes":[{"ref":"3","name":"南昌地铁3号线","route_color":"#0079c3"}],"pass_count":1,"station_degree":2,"codes":null,"is_interchange":false,"station_role":"normal"},"geometry":{"type":"Point","coordinates":[115.93699883333333,28.690495233333333]},"__memberLines":{}},{"type":"Feature","properties":{"station_id":"n2657269273","station_name":"青山湖西","station_name_local":"青山湖西","station_name_en":"Qingshanhu Lake West","city":"Nanchang","country":"China","lines":["3"],"wikipedia":"zh:青山湖西站","merged_from":3,"merged_names":null,"is_terminus":false,"routes":[{"ref":"3","name":"南昌地铁3号线","route_color":"#0079c3"}],"pass_count":1,"station_degree":2,"codes":null,"is_interchange":false,"station_role":"normal"},"geometry":{"type":"Point","coordinates":[115.91832190000001,28.696326533333334]},"__memberLines":{}},{"type":"Feature","properties":{"station_id":"n2657269282","station_name":"京东大道","station_name_local":"京东大道","station_name_en":"Jingdong Avenue","city":"Nanchang","country":"China","lines":["3"],"wikipedia":null,"merged_from":3,"merged_names":null,"is_terminus":true,"routes":[{"ref":"3","name":"南昌地铁3号线","route_color":"#0079c3"}],"pass_count":1,"station_degree":1,"codes":null,"is_interchange":false,"station_role":"terminus"},"geometry":{"type":"Point","coordinates":[115.96805033333334,28.695805566666664]},"__memberLines":{}},{"type":"Feature","properties":{"station_id":"n2657469379","station_name":"安丰","station_name_local":"安丰","station_name_en":"Anfeng","city":"Nanchang","country":"China","lines":["4"],"wikipedia":"zh:安丰站","merged_from":3,"merged_names":null,"is_terminus":false,"routes":[{"ref":"4","name":"南昌地铁4号线","route_color":"#00a560"}],"pass_count":1,"station_degree":2,"codes":null,"is_interchange":false,"station_role":"normal"},"geometry":{"type":"Point","coordinates":[115.8046662,28.613884366666667]},"__memberLines":{}},{"type":"Feature","properties":{"station_id":"n2657469380","station_name":"怀玉山大道","station_name_local":"怀玉山大道","station_name_en":"Huaiyushan Avenue","city":"Nanchang","country":"China","lines":["4"],"wikipedia":"zh:怀玉山大道站","merged_from":3,"merged_names":null,"is_terminus":false,"routes":[{"ref":"4","name":"南昌地铁4号线","route_color":"#00a560"}],"pass_count":1,"station_degree":2,"codes":null,"is_interchange":false,"station_role":"normal"},"geometry":{"type":"Point","coordinates":[115.79464056666666,28.618291833333334]},"__memberLines":{}},{"type":"Feature","properties":{"station_id":"n2733141302","station_name":"邓埠","station_name_local":"邓埠","station_name_en":"Dengbu","city":"Nanchang","country":"China","lines":["3"],"wikipedia":"zh:邓埠站","merged_from":3,"merged_names":null,"is_terminus":false,"routes":[{"ref":"3","name":"南昌地铁3号线","route_color":"#0079c3"}],"pass_count":1,"station_degree":2,"codes":null,"is_interchange":false,"station_role":"normal"},"geometry":{"type":"Point","coordinates":[115.9050565,28.593180633333333]},"__memberLines":{}},{"type":"Feature","properties":{"station_id":"n2733143217","station_name":"沥山","station_name_local":"沥山","station_name_en":"Lishan","city":"Nanchang","country":"China","lines":["3"],"wikipedia":"zh:沥山站","merged_from":3,"merged_names":null,"is_terminus":false,"routes":[{"ref":"3","name":"南昌地铁3号线","route_color":"#0079c3"}],"pass_count":1,"station_degree":2,"codes":null,"is_interchange":false,"station_role":"normal"},"geometry":{"type":"Point","coordinates":[115.91121886666667,28.5598473]},"__memberLines":{}},{"type":"Feature","properties":{"station_id":"n2733171573","station_name":"礼庄山","station_name_local":"礼庄山","station_name_en":"Lizhuangshan","city":"Nanchang","country":"China","lines":["4"],"wikipedia":"zh:礼庄山站","merged_from":3,"merged_names":null,"is_terminus":false,"routes":[{"ref":"4","name":"南昌地铁4号线","route_color":"#00a560"}],"pass_count":1,"station_degree":2,"codes":null,"is_interchange":false,"station_role":"normal"},"geometry":{"type":"Point","coordinates":[115.76645509999999,28.628761666666662]},"__memberLines":{}},{"type":"Feature","properties":{"station_id":"n2733182574","station_name":"银三角北","station_name_local":"银三角北","station_name_en":"Yinsanjiao North","city":"Nanchang","country":"China","lines":["3"],"wikipedia":null,"merged_from":3,"merged_names":null,"is_terminus":true,"routes":[{"ref":"3","name":"南昌地铁3号线","route_color":"#0079c3"}],"pass_count":1,"station_degree":1,"codes":null,"is_interchange":false,"station_role":"terminus"},"geometry":{"type":"Point","coordinates":[115.93021123333334,28.524192333333332]},"__memberLines":{}},{"type":"Feature","properties":{"station_id":"n2997907075","station_name":"八一馆","station_name_local":"八一馆","station_name_en":"Bayi Memorial","city":"Nanchang","country":"China","lines":["1","3"],"wikipedia":null,"merged_from":6,"merged_names":null,"is_terminus":false,"routes":[{"ref":"1","name":"南昌地铁1号线","route_color":"#e60039"},{"ref":"3","name":"南昌地铁3号线","route_color":"#0079c3"}],"pass_count":2,"station_degree":4,"codes":null,"is_interchange":true,"station_role":"interchange"},"geometry":{"type":"Point","coordinates":[115.88673501666666,28.67900871666667]},"__memberLines":{}},{"type":"Feature","properties":{"station_id":"n3229611634","station_name":"裕丰街","station_name_local":"裕丰街","station_name_en":"Yufeng Street","city":"Nanchang","country":"China","lines":["4"],"wikipedia":"zh:裕丰街站","merged_from":3,"merged_names":null,"is_terminus":false,"routes":[{"ref":"4","name":"南昌地铁4号线","route_color":"#00a560"}],"pass_count":1,"station_degree":2,"codes":null,"is_interchange":false,"station_role":"normal"},"geometry":{"type":"Point","coordinates":[115.72531556666668,28.623949]},"__memberLines":{}},{"type":"Feature","properties":{"station_id":"n3229611636","station_name":"白马山","station_name_local":"白马山","station_name_en":"Baimashan","city":"Nanchang","country":"China","lines":["4"],"wikipedia":"zh:白马山站 (南昌)","merged_from":4,"merged_names":null,"is_terminus":true,"routes":[{"ref":"4","name":"南昌地铁4号线","route_color":"#00a560"}],"pass_count":1,"station_degree":1,"codes":null,"is_interchange":false,"station_role":"terminus"},"geometry":{"type":"Point","coordinates":[115.7172736,28.6341136]},"__memberLines":{}},{"type":"Feature","properties":{"station_id":"n4242431862","station_name":"市民中心","station_name_local":"市民中心","station_name_en":"Civic Center","city":"Nanchang","country":"China","lines":["2"],"wikipedia":null,"merged_from":3,"merged_names":null,"is_terminus":false,"routes":[{"ref":"2","name":"南昌地铁2号线","route_color":"#ffda01"}],"pass_count":1,"station_degree":2,"codes":null,"is_interchange":false,"station_role":"normal"},"geometry":{"type":"Point","coordinates":[115.7910811,28.596709966666666]},"__memberLines":{}},{"type":"Feature","properties":{"station_id":"n4285690092","station_name":"斗门","station_name_local":"斗门","station_name_en":"Doumen","city":"Nanchang","country":"China","lines":["3"],"wikipedia":"zh:斗门站 (南昌)","merged_from":3,"merged_names":null,"is_terminus":false,"routes":[{"ref":"3","name":"南昌地铁3号线","route_color":"#0079c3"}],"pass_count":1,"station_degree":2,"codes":null,"is_interchange":false,"station_role":"normal"},"geometry":{"type":"Point","coordinates":[115.92313566666667,28.532193533333338]},"__memberLines":{}},{"type":"Feature","properties":{"station_id":"n4386791180","station_name":"璜溪","station_name_local":"璜溪","station_name_en":"Huangxi","city":"Nanchang","country":"China","lines":["4"],"wikipedia":"zh:璜溪站","merged_from":4,"merged_names":null,"is_terminus":false,"routes":[{"ref":"4","name":"南昌地铁4号线","route_color":"#00a560"}],"pass_count":1,"station_degree":2,"codes":null,"is_interchange":false,"station_role":"normal"},"geometry":{"type":"Point","coordinates":[115.734772225,28.62321095]},"__memberLines":{}},{"type":"Feature","properties":{"station_id":"n5305408862","station_name":"地铁大厦","station_name_local":"地铁大厦","station_name_en":"Metro Central","city":"Nanchang","country":"China","lines":["1","2"],"wikipedia":null,"merged_from":5,"merged_names":null,"is_terminus":false,"routes":[{"ref":"1","name":"南昌地铁1号线","route_color":"#e60039"},{"ref":"2","name":"南昌地铁2号线","route_color":"#ffda01"}],"pass_count":2,"station_degree":4,"codes":null,"is_interchange":true,"station_role":"interchange"},"geometry":{"type":"Point","coordinates":[115.8475289,28.6874304]},"__memberLines":{}},{"type":"Feature","properties":{"station_id":"n7963750574","station_name":"顺外","station_name_local":"顺外","station_name_en":"Shunwai","city":"Nanchang","country":"China","lines":["2"],"wikipedia":null,"merged_from":3,"merged_names":null,"is_terminus":false,"routes":[{"ref":"2","name":"南昌地铁2号线","route_color":"#ffda01"}],"pass_count":1,"station_degree":2,"codes":null,"is_interchange":false,"station_role":"normal"},"geometry":{"type":"Point","coordinates":[115.92339816666667,28.666886966666667]},"__memberLines":{}},{"type":"Feature","properties":{"station_id":"n8120599832","station_name":"柏岗","station_name_local":"柏岗","station_name_en":"Baigang","city":"Nanchang","country":"China","lines":["3"],"wikipedia":"zh:柏岗站","merged_from":3,"merged_names":null,"is_terminus":false,"routes":[{"ref":"3","name":"南昌地铁3号线","route_color":"#0079c3"}],"pass_count":1,"station_degree":2,"codes":null,"is_interchange":false,"station_role":"normal"},"geometry":{"type":"Point","coordinates":[115.9134565,28.54791283333334]},"__memberLines":{}},{"type":"Feature","properties":{"station_id":"n8124904205","station_name":"绳金塔","station_name_local":"绳金塔","station_name_en":"Shengjin Pagoda","city":"Nanchang","country":"China","lines":["3","4"],"wikipedia":"zh:绳金塔站","merged_from":5,"merged_names":null,"is_terminus":false,"routes":[{"ref":"3","name":"南昌地铁3号线","route_color":"#0079c3"},{"ref":"4","name":"南昌地铁4号线","route_color":"#00a560"}],"pass_count":2,"station_degree":4,"codes":null,"is_interchange":true,"station_role":"interchange"},"geometry":{"type":"Point","coordinates":[115.89722922000001,28.66143366]},"__memberLines":{}},{"type":"Feature","properties":{"station_id":"n9308835519","station_name":"上沙沟","station_name_local":"上沙沟","station_name_en":"Shangshagou","city":"Nanchang","country":"China","lines":["3","4"],"wikipedia":null,"merged_from":6,"merged_names":null,"is_terminus":false,"routes":[{"ref":"3","name":"南昌地铁3号线","route_color":"#0079c3"},{"ref":"4","name":"南昌地铁4号线","route_color":"#00a560"}],"pass_count":2,"station_degree":4,"codes":null,"is_interchange":true,"station_role":"interchange"},"geometry":{"type":"Point","coordinates":[115.90700738333334,28.6981748]},"__memberLines":{}},{"type":"Feature","properties":{"station_id":"n12098950571","station_name":"中堡","station_name_local":"中堡","station_name_en":"Zhongbao","city":"Nanchang","country":"China","lines":["4"],"wikipedia":null,"merged_from":4,"merged_names":null,"is_terminus":false,"routes":[{"ref":"4","name":"南昌地铁4号线","route_color":"#00a560"}],"pass_count":1,"station_degree":2,"codes":null,"is_interchange":false,"station_role":"normal"},"geometry":{"type":"Point","coordinates":[115.74818440000001,28.6265831]},"__memberLines":{}},{"type":"Feature","properties":{"station_id":"n12100489066","station_name":"民园路西","station_name_local":"民园路西","station_name_en":"Minyuan Road West","city":"Nanchang","country":"China","lines":["4"],"wikipedia":"zh:民园路西站","merged_from":3,"merged_names":null,"is_terminus":false,"routes":[{"ref":"4","name":"南昌地铁4号线","route_color":"#00a560"}],"pass_count":1,"station_degree":2,"codes":null,"is_interchange":false,"station_role":"normal"},"geometry":{"type":"Point","coordinates":[115.94270033333333,28.7216344]},"__memberLines":{}},{"type":"Feature","properties":{"station_id":"n12100508692","station_name":"人民公园","station_name_local":"人民公园","station_name_en":"People's Park","city":"Nanchang","country":"China","lines":["4"],"wikipedia":null,"merged_from":3,"merged_names":null,"is_terminus":false,"routes":[{"ref":"4","name":"南昌地铁4号线","route_color":"#00a560"}],"pass_count":1,"station_degree":2,"codes":null,"is_interchange":false,"station_role":"normal"},"geometry":{"type":"Point","coordinates":[115.90742206666668,28.687160700000003]},"__memberLines":{}},{"type":"Feature","properties":{"station_id":"n12883912374","station_name":"蛟桥","station_name_local":"蛟桥","station_name_en":"Jiaoqiao","city":"Nanchang","country":"China","lines":["1"],"wikipedia":null,"merged_from":3,"merged_names":null,"is_terminus":false,"routes":[{"ref":"1","name":"南昌地铁1号线","route_color":"#e60039"}],"pass_count":1,"station_degree":2,"codes":null,"is_interchange":false,"station_role":"normal"},"geometry":{"type":"Point","coordinates":[115.85407216666665,28.7550446]},"__memberLines":{}},{"type":"Feature","properties":{"station_id":"n12953115770","station_name":"麻丘","station_name_local":"麻丘","station_name_en":"Maqiu","city":"Nanchang","country":"China","lines":["1"],"wikipedia":null,"merged_from":3,"merged_names":null,"is_terminus":true,"routes":[{"ref":"1","name":"南昌地铁1号线","route_color":"#e60039"}],"pass_count":1,"station_degree":1,"codes":null,"is_interchange":false,"station_role":"terminus"},"geometry":{"type":"Point","coordinates":[116.07279799999999,28.669634300000002]},"__memberLines":{}},{"type":"Feature","properties":{"station_id":"n12953115771","station_name":"瑶湖东","station_name_local":"瑶湖东","station_name_en":"Yaohu Lake East","city":"Nanchang","country":"China","lines":["1"],"wikipedia":null,"merged_from":3,"merged_names":null,"is_terminus":false,"routes":[{"ref":"1","name":"南昌地铁1号线","route_color":"#e60039"}],"pass_count":1,"station_degree":2,"codes":null,"is_interchange":false,"station_role":"normal"},"geometry":{"type":"Point","coordinates":[116.05645483333332,28.669262399999997]},"__memberLines":{}},{"type":"Feature","properties":{"station_id":"n12953386696","station_name":"方志敏大道","station_name_local":"方志敏大道","station_name_en":"Fangzhimin Avenue","city":"Nanchang","country":"China","lines":["1"],"wikipedia":null,"merged_from":3,"merged_names":null,"is_terminus":false,"routes":[{"ref":"1","name":"南昌地铁1号线","route_color":"#e60039"}],"pass_count":1,"station_degree":2,"codes":null,"is_interchange":false,"station_role":"normal"},"geometry":{"type":"Point","coordinates":[115.85053876666666,28.7623225]},"__memberLines":{}},{"type":"Feature","properties":{"station_id":"n12953386697","station_name":"南齿","station_name_local":"南齿","station_name_en":"Nanchang Gear Factory","city":"Nanchang","country":"China","lines":["1"],"wikipedia":null,"merged_from":3,"merged_names":null,"is_terminus":false,"routes":[{"ref":"1","name":"南昌地铁1号线","route_color":"#e60039"}],"pass_count":1,"station_degree":2,"codes":null,"is_interchange":false,"station_role":"normal"},"geometry":{"type":"Point","coordinates":[115.84648573333334,28.7682923]},"__memberLines":{}},{"type":"Feature","properties":{"station_id":"n12953386698","station_name":"冠山","station_name_local":"冠山","station_name_en":"Guanshan","city":"Nanchang","country":"China","lines":["1"],"wikipedia":null,"merged_from":3,"merged_names":null,"is_terminus":false,"routes":[{"ref":"1","name":"南昌地铁1号线","route_color":"#e60039"}],"pass_count":1,"station_degree":2,"codes":null,"is_interchange":false,"station_role":"normal"},"geometry":{"type":"Point","coordinates":[115.85666046666667,28.775777066666667]},"__memberLines":{}},{"type":"Feature","properties":{"station_id":"n12953386699","station_name":"定子山","station_name_local":"定子山","station_name_en":"Dingzishan","city":"Nanchang","country":"China","lines":["1"],"wikipedia":null,"merged_from":3,"merged_names":null,"is_terminus":false,"routes":[{"ref":"1","name":"南昌地铁1号线","route_color":"#e60039"}],"pass_count":1,"station_degree":2,"codes":null,"is_interchange":false,"station_role":"normal"},"geometry":{"type":"Point","coordinates":[115.86992033333333,28.7753867]},"__memberLines":{}},{"type":"Feature","properties":{"station_id":"n12953387202","station_name":"汇贤大道","station_name_local":"汇贤大道","station_name_en":"Huixian Avenue","city":"Nanchang","country":"China","lines":["1"],"wikipedia":null,"merged_from":3,"merged_names":null,"is_terminus":false,"routes":[{"ref":"1","name":"南昌地铁1号线","route_color":"#e60039"}],"pass_count":1,"station_degree":2,"codes":null,"is_interchange":false,"station_role":"normal"},"geometry":{"type":"Point","coordinates":[115.87714770000001,28.809684633333333]},"__memberLines":{}},{"type":"Feature","properties":{"station_id":"n12953387203","station_name":"昌北机场","station_name_local":"昌北机场","station_name_en":"Changbei Airport","city":"Nanchang","country":"China","lines":["1"],"wikipedia":"zh:昌北机场站 (地铁)","merged_from":3,"merged_names":null,"is_terminus":true,"routes":[{"ref":"1","name":"南昌地铁1号线","route_color":"#e60039"}],"pass_count":1,"station_degree":1,"codes":null,"is_interchange":false,"station_role":"terminus"},"geometry":{"type":"Point","coordinates":[115.91330936666668,28.858644533333333]},"__memberLines":{}}]}