{"type":"FeatureCollection","metro_system":{"continent":"asia","country":"Turkey","city":"Gaziantep","official_website":null,"official_map":null,"wikipedia":null,"line_count":3,"segment_count":8,"station_count":28,"modes":["tram"],"audit":{"strategies_tried":[],"passed":true,"checks":[{"id":"has_lines","ok":true,"detail":"3 lines","level":"error"},{"id":"has_stations","ok":true,"detail":"28 stations","level":"error"},{"id":"stations_have_lines","ok":true,"detail":"28/28 站皆有所屬路線","level":"error"},{"id":"line_geometry_stations","ok":true,"detail":"36 個折點/端點皆為車站","level":"error"},{"id":"route_stations_match_geometry","ok":true,"detail":"各線車站列表與圖面一致","level":"error"},{"id":"interchange_rule","ok":true,"detail":"所有車站紅/藍點符合骨架＋路線色規則（藍＝端點、紅＝交叉）","level":"error"},{"id":"stations_named","ok":true,"detail":"28/28 站皆有名稱","level":"error"},{"id":"station_order","ok":true,"detail":"所有線路站序合理","level":"warn"},{"id":"station_span","ok":true,"detail":"各線相鄰站距與系統站群跨度正常","level":"error"},{"id":"line_wiki_stations","ok":true,"detail":"各線站數與 wiki 線路條目相符（營運中站數）","level":"error"},{"id":"line_wiki_coverage","ok":false,"detail":"3 條線無 wiki 站數對照：T3、T2、T1","level":"warn"}],"reasons":[],"warnings":["3 條線無 wiki 站數對照：T3、T2、T1"],"audited_at":"2026-07-27T05:42:56.802Z"}},"features":[{"type":"Feature","properties":{"seg_id":"gaziantep-0","routes":[{"route_id":"rm15463466","route_name":"T3","route_name_local":"T3","route_name_en":null,"route_ref":"T3","route_color":"#0d0dff","wikipedia":null,"osm_route_ids":[15463464,15463465],"status":null,"order_suspect":0,"span_suspect":0,"stations":[{"station_id":"n3476299259","station_name":"Adliye"},{"station_id":"n3476299247","station_name":"Kolej Vakfı"},{"station_id":"n3476299238","station_name":"Güvenevler"},{"station_id":"n3476299232","station_name":"Duisburg"},{"station_id":"n3595975784","station_name":"İbrahimli Merkez"},{"station_id":"n5588091001","station_name":"Ali İhsan Göğüş"},{"station_id":"n3476299206","station_name":"Olimpik Havuz"},{"station_id":"n3476282925","station_name":"Sanko Okulları"},{"station_id":"n2076008903","station_name":"Kadı Değirmeni"},{"station_id":"n2076008906","station_name":"Rasaf Yolu"},{"station_id":"n2076008941","station_name":"Binevler"},{"station_id":"n2076008838","station_name":"Tıp Fakültesi"},{"station_id":"n3471312226","station_name":"Gaziantep Üniversitesi"},{"station_id":"n2076008951","station_name":"Burç Kavşağı"}]},{"route_id":"rm15471520","route_name":"T2","route_name_local":"T2","route_name_en":null,"route_ref":"T2","route_color":"#08ff08","wikipedia":null,"osm_route_ids":[15471517,15471518],"status":null,"order_suspect":0,"span_suspect":0,"stations":[{"station_id":"n2075964063","station_name":"Gar"},{"station_id":"n2076028952","station_name":"15 Temmuz Demokrasi Meydanı"},{"station_id":"n3529906550","station_name":"Gazimuhtarpaşa"},{"station_id":"n3529906549","station_name":"25 Aralık Devlet Hastanesi"},{"station_id":"n2075964079","station_name":"Masal Parkı"},{"station_id":"n2075964101","station_name":"Harikalar Diyarı"},{"station_id":"n3476282925","station_name":"Sanko Okulları"},{"station_id":"n3476299206","station_name":"Olimpik Havuz"},{"station_id":"n5588091001","station_name":"Ali İhsan Göğüş"},{"station_id":"n3595975784","station_name":"İbrahimli Merkez"},{"station_id":"n3476299232","station_name":"Duisburg"},{"station_id":"n3476299238","station_name":"Güvenevler"},{"station_id":"n3476299247","station_name":"Kolej Vakfı"},{"station_id":"n3476299259","station_name":"Adliye"}]}],"route_count":2,"route_refs":["T3","T2"],"route_colors":["#0d0dff","#08ff08"],"city":"Gaziantep","country":"Turkey"},"geometry":{"type":"MultiLineString","coordinates":[[[37.350668299999995,37.085464400000006],[37.34475845,37.089376650000005],[37.3383897,37.0903343],[37.3358662,37.0859619],[37.33198615,37.078885],[37.32868985,37.07301955],[37.331945950000005,37.0696225],[37.33999695,37.06687675]]]}},{"type":"Feature","properties":{"seg_id":"gaziantep-1","routes":[{"route_id":"rm15463466","route_name":"T3","route_name_local":"T3","route_name_en":null,"route_ref":"T3","route_color":"#0d0dff","wikipedia":null,"osm_route_ids":[15463464,15463465],"status":null,"order_suspect":0,"span_suspect":0,"stations":[{"station_id":"n3476299259","station_name":"Adliye"},{"station_id":"n3476299247","station_name":"Kolej Vakfı"},{"station_id":"n3476299238","station_name":"Güvenevler"},{"station_id":"n3476299232","station_name":"Duisburg"},{"station_id":"n3595975784","station_name":"İbrahimli Merkez"},{"station_id":"n5588091001","station_name":"Ali İhsan Göğüş"},{"station_id":"n3476299206","station_name":"Olimpik Havuz"},{"station_id":"n3476282925","station_name":"Sanko Okulları"},{"station_id":"n2076008903","station_name":"Kadı Değirmeni"},{"station_id":"n2076008906","station_name":"Rasaf Yolu"},{"station_id":"n2076008941","station_name":"Binevler"},{"station_id":"n2076008838","station_name":"Tıp Fakültesi"},{"station_id":"n3471312226","station_name":"Gaziantep Üniversitesi"},{"station_id":"n2076008951","station_name":"Burç Kavşağı"}]}],"route_count":1,"route_refs":["T3"],"route_colors":["#0d0dff"],"city":"Gaziantep","country":"Turkey"},"geometry":{"type":"MultiLineString","coordinates":[[[37.33999695,37.06687675],[37.33460985,37.0617625]]]}},{"type":"Feature","properties":{"seg_id":"gaziantep-2","routes":[{"route_id":"rm15463466","route_name":"T3","route_name_local":"T3","route_name_en":null,"route_ref":"T3","route_color":"#0d0dff","wikipedia":null,"osm_route_ids":[15463464,15463465],"status":null,"order_suspect":0,"span_suspect":0,"stations":[{"station_id":"n3476299259","station_name":"Adliye"},{"station_id":"n3476299247","station_name":"Kolej Vakfı"},{"station_id":"n3476299238","station_name":"Güvenevler"},{"station_id":"n3476299232","station_name":"Duisburg"},{"station_id":"n3595975784","station_name":"İbrahimli Merkez"},{"station_id":"n5588091001","station_name":"Ali İhsan Göğüş"},{"station_id":"n3476299206","station_name":"Olimpik Havuz"},{"station_id":"n3476282925","station_name":"Sanko Okulları"},{"station_id":"n2076008903","station_name":"Kadı Değirmeni"},{"station_id":"n2076008906","station_name":"Rasaf Yolu"},{"station_id":"n2076008941","station_name":"Binevler"},{"station_id":"n2076008838","station_name":"Tıp Fakültesi"},{"station_id":"n3471312226","station_name":"Gaziantep Üniversitesi"},{"station_id":"n2076008951","station_name":"Burç Kavşağı"}]}],"route_count":1,"route_refs":["T3"],"route_colors":["#0d0dff"],"city":"Gaziantep","country":"Turkey"},"geometry":{"type":"MultiLineString","coordinates":[[[37.31819123333333,37.0346066],[37.3116374,37.027346949999995]]]}},{"type":"Feature","properties":{"seg_id":"gaziantep-3","routes":[{"route_id":"rm15463466","route_name":"T3","route_name_local":"T3","route_name_en":null,"route_ref":"T3","route_color":"#0d0dff","wikipedia":null,"osm_route_ids":[15463464,15463465],"status":null,"order_suspect":0,"span_suspect":0,"stations":[{"station_id":"n3476299259","station_name":"Adliye"},{"station_id":"n3476299247","station_name":"Kolej Vakfı"},{"station_id":"n3476299238","station_name":"Güvenevler"},{"station_id":"n3476299232","station_name":"Duisburg"},{"station_id":"n3595975784","station_name":"İbrahimli Merkez"},{"station_id":"n5588091001","station_name":"Ali İhsan Göğüş"},{"station_id":"n3476299206","station_name":"Olimpik Havuz"},{"station_id":"n3476282925","station_name":"Sanko Okulları"},{"station_id":"n2076008903","station_name":"Kadı Değirmeni"},{"station_id":"n2076008906","station_name":"Rasaf Yolu"},{"station_id":"n2076008941","station_name":"Binevler"},{"station_id":"n2076008838","station_name":"Tıp Fakültesi"},{"station_id":"n3471312226","station_name":"Gaziantep Üniversitesi"},{"station_id":"n2076008951","station_name":"Burç Kavşağı"}]},{"route_id":"rm15471519","route_name":"T1","route_name_local":"T1","route_name_en":null,"route_ref":"T1","route_color":"#ff2b0a","wikipedia":null,"osm_route_ids":[15470242,15470243],"status":null,"order_suspect":0,"span_suspect":0,"stations":[{"station_id":"n3471372971","station_name":"İbn-i Sina"},{"station_id":"n4844402936","station_name":"Akkent"},{"station_id":"n4844402926","station_name":"Akkent Meydanı"},{"station_id":"n3471273399","station_name":"Akkent Parkı"},{"station_id":"n3471273402","station_name":"Karataş 1. Bölge"},{"station_id":"n3474969894","station_name":"Karataş Merkez"},{"station_id":"n3471273428","station_name":"Şahinbey Parkı"},{"station_id":"n3474969896","station_name":"Güneykent"},{"station_id":"n3471312226","station_name":"Gaziantep Üniversitesi"},{"station_id":"n2076008838","station_name":"Tıp Fakültesi"},{"station_id":"n2076008941","station_name":"Binevler"},{"station_id":"n2076008906","station_name":"Rasaf Yolu"},{"station_id":"n2076008903","station_name":"Kadı Değirmeni"},{"station_id":"n2075964101","station_name":"Harikalar Diyarı"},{"station_id":"n2075964079","station_name":"Masal Parkı"},{"station_id":"n3529906549","station_name":"25 Aralık Devlet Hastanesi"},{"station_id":"n3529906550","station_name":"Gazimuhtarpaşa"},{"station_id":"n2076028952","station_name":"15 Temmuz Demokrasi Meydanı"},{"station_id":"n2075964063","station_name":"Gar"},{"station_id":"n3471273399","station_name":"Akkent Parkı"},{"station_id":"n3471273402","station_name":"Karataş 1. Bölge"}]}],"route_count":2,"route_refs":["T3","T1"],"route_colors":["#0d0dff","#ff2b0a"],"city":"Gaziantep","country":"Turkey"},"geometry":{"type":"MultiLineString","coordinates":[[[37.33460985,37.0617625],[37.330657099999996,37.05623685],[37.3259357,37.048137600000004],[37.3220901,37.04098665],[37.31819123333333,37.0346066]]]}},{"type":"Feature","properties":{"seg_id":"gaziantep-4","routes":[{"route_id":"rm15471519","route_name":"T1","route_name_local":"T1","route_name_en":null,"route_ref":"T1","route_color":"#ff2b0a","wikipedia":null,"osm_route_ids":[15470242,15470243],"status":null,"order_suspect":0,"span_suspect":0,"stations":[{"station_id":"n3471372971","station_name":"İbn-i Sina"},{"station_id":"n4844402936","station_name":"Akkent"},{"station_id":"n4844402926","station_name":"Akkent Meydanı"},{"station_id":"n3471273399","station_name":"Akkent Parkı"},{"station_id":"n3471273402","station_name":"Karataş 1. Bölge"},{"station_id":"n3474969894","station_name":"Karataş Merkez"},{"station_id":"n3471273428","station_name":"Şahinbey Parkı"},{"station_id":"n3474969896","station_name":"Güneykent"},{"station_id":"n3471312226","station_name":"Gaziantep Üniversitesi"},{"station_id":"n2076008838","station_name":"Tıp Fakültesi"},{"station_id":"n2076008941","station_name":"Binevler"},{"station_id":"n2076008906","station_name":"Rasaf Yolu"},{"station_id":"n2076008903","station_name":"Kadı Değirmeni"},{"station_id":"n2075964101","station_name":"Harikalar Diyarı"},{"station_id":"n2075964079","station_name":"Masal Parkı"},{"station_id":"n3529906549","station_name":"25 Aralık Devlet Hastanesi"},{"station_id":"n3529906550","station_name":"Gazimuhtarpaşa"},{"station_id":"n2076028952","station_name":"15 Temmuz Demokrasi Meydanı"},{"station_id":"n2075964063","station_name":"Gar"},{"station_id":"n3471273399","station_name":"Akkent Parkı"},{"station_id":"n3471273402","station_name":"Karataş 1. Bölge"}]}],"route_count":1,"route_refs":["T1"],"route_colors":["#ff2b0a"],"city":"Gaziantep","country":"Turkey"},"geometry":{"type":"MultiLineString","coordinates":[[[37.38399905,37.01543905],[37.3737823,37.01531885],[37.36697925,37.01523125],[37.357504899999995,37.0152103],[37.350381299999995,37.01522679999999],[37.341120000000004,37.01952165],[37.33429905,37.0255171],[37.3273968,37.029343],[37.31819123333333,37.0346066]],[[37.3799679,37.07087175],[37.357504899999995,37.0152103]]]}},{"type":"Feature","properties":{"seg_id":"gaziantep-5","routes":[{"route_id":"rm15471519","route_name":"T1","route_name_local":"T1","route_name_en":null,"route_ref":"T1","route_color":"#ff2b0a","wikipedia":null,"osm_route_ids":[15470242,15470243],"status":null,"order_suspect":0,"span_suspect":0,"stations":[{"station_id":"n3471372971","station_name":"İbn-i Sina"},{"station_id":"n4844402936","station_name":"Akkent"},{"station_id":"n4844402926","station_name":"Akkent Meydanı"},{"station_id":"n3471273399","station_name":"Akkent Parkı"},{"station_id":"n3471273402","station_name":"Karataş 1. Bölge"},{"station_id":"n3474969894","station_name":"Karataş Merkez"},{"station_id":"n3471273428","station_name":"Şahinbey Parkı"},{"station_id":"n3474969896","station_name":"Güneykent"},{"station_id":"n3471312226","station_name":"Gaziantep Üniversitesi"},{"station_id":"n2076008838","station_name":"Tıp Fakültesi"},{"station_id":"n2076008941","station_name":"Binevler"},{"station_id":"n2076008906","station_name":"Rasaf Yolu"},{"station_id":"n2076008903","station_name":"Kadı Değirmeni"},{"station_id":"n2075964101","station_name":"Harikalar Diyarı"},{"station_id":"n2075964079","station_name":"Masal Parkı"},{"station_id":"n3529906549","station_name":"25 Aralık Devlet Hastanesi"},{"station_id":"n3529906550","station_name":"Gazimuhtarpaşa"},{"station_id":"n2076028952","station_name":"15 Temmuz Demokrasi Meydanı"},{"station_id":"n2075964063","station_name":"Gar"},{"station_id":"n3471273399","station_name":"Akkent Parkı"},{"station_id":"n3471273402","station_name":"Karataş 1. Bölge"}]}],"route_count":1,"route_refs":["T1"],"route_colors":["#ff2b0a"],"city":"Gaziantep","country":"Turkey"},"geometry":{"type":"MultiLineString","coordinates":[[[37.33460985,37.0617625],[37.346224649999996,37.0645527]]]}},{"type":"Feature","properties":{"seg_id":"gaziantep-6","routes":[{"route_id":"rm15471519","route_name":"T1","route_name_local":"T1","route_name_en":null,"route_ref":"T1","route_color":"#ff2b0a","wikipedia":null,"osm_route_ids":[15470242,15470243],"status":null,"order_suspect":0,"span_suspect":0,"stations":[{"station_id":"n3471372971","station_name":"İbn-i Sina"},{"station_id":"n4844402936","station_name":"Akkent"},{"station_id":"n4844402926","station_name":"Akkent Meydanı"},{"station_id":"n3471273399","station_name":"Akkent Parkı"},{"station_id":"n3471273402","station_name":"Karataş 1. Bölge"},{"station_id":"n3474969894","station_name":"Karataş Merkez"},{"station_id":"n3471273428","station_name":"Şahinbey Parkı"},{"station_id":"n3474969896","station_name":"Güneykent"},{"station_id":"n3471312226","station_name":"Gaziantep Üniversitesi"},{"station_id":"n2076008838","station_name":"Tıp Fakültesi"},{"station_id":"n2076008941","station_name":"Binevler"},{"station_id":"n2076008906","station_name":"Rasaf Yolu"},{"station_id":"n2076008903","station_name":"Kadı Değirmeni"},{"station_id":"n2075964101","station_name":"Harikalar Diyarı"},{"station_id":"n2075964079","station_name":"Masal Parkı"},{"station_id":"n3529906549","station_name":"25 Aralık Devlet Hastanesi"},{"station_id":"n3529906550","station_name":"Gazimuhtarpaşa"},{"station_id":"n2076028952","station_name":"15 Temmuz Demokrasi Meydanı"},{"station_id":"n2075964063","station_name":"Gar"},{"station_id":"n3471273399","station_name":"Akkent Parkı"},{"station_id":"n3471273402","station_name":"Karataş 1. Bölge"}]},{"route_id":"rm15471520","route_name":"T2","route_name_local":"T2","route_name_en":null,"route_ref":"T2","route_color":"#08ff08","wikipedia":null,"osm_route_ids":[15471517,15471518],"status":null,"order_suspect":0,"span_suspect":0,"stations":[{"station_id":"n2075964063","station_name":"Gar"},{"station_id":"n2076028952","station_name":"15 Temmuz Demokrasi Meydanı"},{"station_id":"n3529906550","station_name":"Gazimuhtarpaşa"},{"station_id":"n3529906549","station_name":"25 Aralık Devlet Hastanesi"},{"station_id":"n2075964079","station_name":"Masal Parkı"},{"station_id":"n2075964101","station_name":"Harikalar Diyarı"},{"station_id":"n3476282925","station_name":"Sanko Okulları"},{"station_id":"n3476299206","station_name":"Olimpik Havuz"},{"station_id":"n5588091001","station_name":"Ali İhsan Göğüş"},{"station_id":"n3595975784","station_name":"İbrahimli Merkez"},{"station_id":"n3476299232","station_name":"Duisburg"},{"station_id":"n3476299238","station_name":"Güvenevler"},{"station_id":"n3476299247","station_name":"Kolej Vakfı"},{"station_id":"n3476299259","station_name":"Adliye"}]}],"route_count":2,"route_refs":["T1","T2"],"route_colors":["#ff2b0a","#08ff08"],"city":"Gaziantep","country":"Turkey"},"geometry":{"type":"MultiLineString","coordinates":[[[37.346224649999996,37.0645527],[37.3549727,37.06485225],[37.36149195,37.06669075],[37.3714361,37.06878655],[37.3769705,37.06614655],[37.3799679,37.07087175]]]}},{"type":"Feature","properties":{"seg_id":"gaziantep-7","routes":[{"route_id":"rm15471520","route_name":"T2","route_name_local":"T2","route_name_en":null,"route_ref":"T2","route_color":"#08ff08","wikipedia":null,"osm_route_ids":[15471517,15471518],"status":null,"order_suspect":0,"span_suspect":0,"stations":[{"station_id":"n2075964063","station_name":"Gar"},{"station_id":"n2076028952","station_name":"15 Temmuz Demokrasi Meydanı"},{"station_id":"n3529906550","station_name":"Gazimuhtarpaşa"},{"station_id":"n3529906549","station_name":"25 Aralık Devlet Hastanesi"},{"station_id":"n2075964079","station_name":"Masal Parkı"},{"station_id":"n2075964101","station_name":"Harikalar Diyarı"},{"station_id":"n3476282925","station_name":"Sanko Okulları"},{"station_id":"n3476299206","station_name":"Olimpik Havuz"},{"station_id":"n5588091001","station_name":"Ali İhsan Göğüş"},{"station_id":"n3595975784","station_name":"İbrahimli Merkez"},{"station_id":"n3476299232","station_name":"Duisburg"},{"station_id":"n3476299238","station_name":"Güvenevler"},{"station_id":"n3476299247","station_name":"Kolej Vakfı"},{"station_id":"n3476299259","station_name":"Adliye"}]}],"route_count":1,"route_refs":["T2"],"route_colors":["#08ff08"],"city":"Gaziantep","country":"Turkey"},"geometry":{"type":"MultiLineString","coordinates":[[[37.346224649999996,37.0645527],[37.33999695,37.06687675]]]}},{"type":"Feature","properties":{"station_id":"n2075964063","station_name":"Gar","station_name_local":"Gar","station_name_en":null,"city":"Gaziantep","country":"Turkey","lines":["T1","T2"],"wikipedia":"tr:Gar (Gaziantep Tramvayı)","merged_from":2,"merged_names":null,"is_terminus":false,"routes":[{"ref":"T1","name":"T1","route_color":"#ff2b0a"},{"ref":"T2","name":"T2","route_color":"#08ff08"}],"pass_count":2,"station_degree":2,"codes":null,"is_interchange":true,"station_role":"interchange"},"geometry":{"type":"Point","coordinates":[37.3799679,37.07087175]},"__memberLines":{}},{"type":"Feature","properties":{"station_id":"n2075964079","station_name":"Masal Parkı","station_name_local":"Masal Parkı","station_name_en":null,"city":"Gaziantep","country":"Turkey","lines":["T1","T2"],"wikipedia":"tr:Masal Parkı (Gaziantep Tramvayı)","merged_from":2,"merged_names":null,"is_terminus":false,"routes":[{"ref":"T1","name":"T1","route_color":"#ff2b0a"},{"ref":"T2","name":"T2","route_color":"#08ff08"}],"pass_count":2,"station_degree":2,"codes":null,"is_interchange":false,"station_role":"normal"},"geometry":{"type":"Point","coordinates":[37.3549727,37.06485225]},"__memberLines":{}},{"type":"Feature","properties":{"station_id":"n2075964101","station_name":"Harikalar Diyarı","station_name_local":"Harikalar Diyarı","station_name_en":null,"city":"Gaziantep","country":"Turkey","lines":["T1","T2"],"wikipedia":"tr:Harikalar Diyarı (Gaziantep Tramvayı)","merged_from":2,"merged_names":null,"is_terminus":false,"routes":[{"ref":"T1","name":"T1","route_color":"#ff2b0a"},{"ref":"T2","name":"T2","route_color":"#08ff08"}],"pass_count":2,"station_degree":3,"codes":null,"is_interchange":true,"station_role":"interchange"},"geometry":{"type":"Point","coordinates":[37.346224649999996,37.0645527]},"__memberLines":{}},{"type":"Feature","properties":{"station_id":"n2076008838","station_name":"Tıp Fakültesi","station_name_local":"Tıp Fakültesi","station_name_en":null,"city":"Gaziantep","country":"Turkey","lines":["T1","T3"],"wikipedia":"tr:Tıp Fakültesi (Gaziantep Tramvayı)","merged_from":2,"merged_names":null,"is_terminus":false,"routes":[{"ref":"T1","name":"T1","route_color":"#ff2b0a"},{"ref":"T3","name":"T3","route_color":"#0d0dff"}],"pass_count":2,"station_degree":2,"codes":null,"is_interchange":false,"station_role":"normal"},"geometry":{"type":"Point","coordinates":[37.3220901,37.04098665]},"__memberLines":{}},{"type":"Feature","properties":{"station_id":"n2076008903","station_name":"Kadı Değirmeni","station_name_local":"Kadı Değirmeni","station_name_en":null,"city":"Gaziantep","country":"Turkey","lines":["T1","T3"],"wikipedia":"tr:Kadı Değirmeni (Gaziantep Tramvayı)","merged_from":2,"merged_names":null,"is_terminus":false,"routes":[{"ref":"T1","name":"T1","route_color":"#ff2b0a"},{"ref":"T3","name":"T3","route_color":"#0d0dff"}],"pass_count":2,"station_degree":3,"codes":null,"is_interchange":true,"station_role":"interchange"},"geometry":{"type":"Point","coordinates":[37.33460985,37.0617625]},"__memberLines":{}},{"type":"Feature","properties":{"station_id":"n2076008906","station_name":"Rasaf Yolu","station_name_local":"Rasaf Yolu","station_name_en":null,"city":"Gaziantep","country":"Turkey","lines":["T1","T3"],"wikipedia":"tr:Rasaf Yolu (Gaziantep Tramvayı)","merged_from":2,"merged_names":null,"is_terminus":false,"routes":[{"ref":"T1","name":"T1","route_color":"#ff2b0a"},{"ref":"T3","name":"T3","route_color":"#0d0dff"}],"pass_count":2,"station_degree":2,"codes":null,"is_interchange":false,"station_role":"normal"},"geometry":{"type":"Point","coordinates":[37.330657099999996,37.05623685]},"__memberLines":{}},{"type":"Feature","properties":{"station_id":"n2076008941","station_name":"Binevler","station_name_local":"Binevler","station_name_en":null,"city":"Gaziantep","country":"Turkey","lines":["T1","T3"],"wikipedia":"tr:Binevler (Gaziantep Tramvayı)","merged_from":2,"merged_names":null,"is_terminus":false,"routes":[{"ref":"T1","name":"T1","route_color":"#ff2b0a"},{"ref":"T3","name":"T3","route_color":"#0d0dff"}],"pass_count":2,"station_degree":2,"codes":null,"is_interchange":false,"station_role":"normal"},"geometry":{"type":"Point","coordinates":[37.3259357,37.048137600000004]},"__memberLines":{}},{"type":"Feature","properties":{"station_id":"n2076008951","station_name":"Burç Kavşağı","station_name_local":"Burç Kavşağı","station_name_en":null,"city":"Gaziantep","country":"Turkey","lines":["T3"],"wikipedia":"tr:Burç Kavşağı (Gaziantep Tramvayı)","merged_from":2,"merged_names":null,"is_terminus":true,"routes":[{"ref":"T3","name":"T3","route_color":"#0d0dff"}],"pass_count":1,"station_degree":1,"codes":null,"is_interchange":false,"station_role":"terminus"},"geometry":{"type":"Point","coordinates":[37.3116374,37.027346949999995]},"__memberLines":{}},{"type":"Feature","properties":{"station_id":"n2076028952","station_name":"15 Temmuz Demokrasi Meydanı","station_name_local":"15 Temmuz Demokrasi Meydanı","station_name_en":null,"city":"Gaziantep","country":"Turkey","lines":["T1","T2"],"wikipedia":"tr:15 Temmuz Demokrasi Meydanı (Gaziantep Tramvayı)","merged_from":2,"merged_names":null,"is_terminus":false,"routes":[{"ref":"T1","name":"T1","route_color":"#ff2b0a"},{"ref":"T2","name":"T2","route_color":"#08ff08"}],"pass_count":2,"station_degree":2,"codes":null,"is_interchange":false,"station_role":"normal"},"geometry":{"type":"Point","coordinates":[37.3769705,37.06614655]},"__memberLines":{}},{"type":"Feature","properties":{"station_id":"n3471273399","station_name":"Akkent Parkı","station_name_local":"Akkent Parkı","station_name_en":null,"city":"Gaziantep","country":"Turkey","lines":["T1"],"wikipedia":"tr:Akkent Parkı (Gaziantep Tramvayı)","merged_from":2,"merged_names":null,"is_terminus":false,"routes":[{"ref":"T1","name":"T1","route_color":"#ff2b0a"}],"pass_count":2,"station_degree":3,"codes":null,"is_interchange":true,"station_role":"interchange"},"geometry":{"type":"Point","coordinates":[37.357504899999995,37.0152103]},"__memberLines":{}},{"type":"Feature","properties":{"station_id":"n3471273402","station_name":"Karataş 1. Bölge","station_name_local":"Karataş 1. Bölge","station_name_en":null,"city":"Gaziantep","country":"Turkey","lines":["T1"],"wikipedia":"tr:Karataş 1. Bölge (Gaziantep Tramvayı)","merged_from":2,"merged_names":null,"is_terminus":false,"routes":[{"ref":"T1","name":"T1","route_color":"#ff2b0a"}],"pass_count":2,"station_degree":2,"codes":null,"is_interchange":false,"station_role":"normal"},"geometry":{"type":"Point","coordinates":[37.350381299999995,37.01522679999999]},"__memberLines":{}},{"type":"Feature","properties":{"station_id":"n3471273428","station_name":"Şahinbey Parkı","station_name_local":"Şahinbey Parkı","station_name_en":null,"city":"Gaziantep","country":"Turkey","lines":["T1"],"wikipedia":"tr:Şahinbey Parkı (Gaziantep Tramvayı)","merged_from":2,"merged_names":null,"is_terminus":false,"routes":[{"ref":"T1","name":"T1","route_color":"#ff2b0a"}],"pass_count":1,"station_degree":2,"codes":null,"is_interchange":false,"station_role":"normal"},"geometry":{"type":"Point","coordinates":[37.33429905,37.0255171]},"__memberLines":{}},{"type":"Feature","properties":{"station_id":"n3471312226","station_name":"Gaziantep Üniversitesi","station_name_local":"Gaziantep Üniversitesi","station_name_en":null,"city":"Gaziantep","country":"Turkey","lines":["T1","T3"],"wikipedia":"tr:Gaziantep Üniversitesi (Gaziantep Tramvayı)","merged_from":3,"merged_names":null,"is_terminus":false,"routes":[{"ref":"T1","name":"T1","route_color":"#ff2b0a"},{"ref":"T3","name":"T3","route_color":"#0d0dff"}],"pass_count":2,"station_degree":3,"codes":null,"is_interchange":true,"station_role":"interchange"},"geometry":{"type":"Point","coordinates":[37.31819123333333,37.0346066]},"__memberLines":{}},{"type":"Feature","properties":{"station_id":"n3471372971","station_name":"İbn-i Sina","station_name_local":"İbn-i Sina","station_name_en":null,"city":"Gaziantep","country":"Turkey","lines":["T1"],"wikipedia":"tr:İbn-i Sina (Gaziantep Tramvayı)","merged_from":2,"merged_names":null,"is_terminus":true,"routes":[{"ref":"T1","name":"T1","route_color":"#ff2b0a"}],"pass_count":1,"station_degree":1,"codes":null,"is_interchange":false,"station_role":"terminus"},"geometry":{"type":"Point","coordinates":[37.38399905,37.01543905]},"__memberLines":{}},{"type":"Feature","properties":{"station_id":"n3474969894","station_name":"Karataş Merkez","station_name_local":"Karataş Merkez","station_name_en":null,"city":"Gaziantep","country":"Turkey","lines":["T1"],"wikipedia":"tr:Karataş Merkez (Gaziantep Tramvayı)","merged_from":2,"merged_names":null,"is_terminus":false,"routes":[{"ref":"T1","name":"T1","route_color":"#ff2b0a"}],"pass_count":1,"station_degree":2,"codes":null,"is_interchange":false,"station_role":"normal"},"geometry":{"type":"Point","coordinates":[37.341120000000004,37.01952165]},"__memberLines":{}},{"type":"Feature","properties":{"station_id":"n3474969896","station_name":"Güneykent","station_name_local":"Güneykent","station_name_en":null,"city":"Gaziantep","country":"Turkey","lines":["T1"],"wikipedia":"tr:Güneykent (Gaziantep Tramvayı)","merged_from":2,"merged_names":null,"is_terminus":false,"routes":[{"ref":"T1","name":"T1","route_color":"#ff2b0a"}],"pass_count":1,"station_degree":2,"codes":null,"is_interchange":false,"station_role":"normal"},"geometry":{"type":"Point","coordinates":[37.3273968,37.029343]},"__memberLines":{}},{"type":"Feature","properties":{"station_id":"n3476282925","station_name":"Sanko Okulları","station_name_local":"Sanko Okulları","station_name_en":null,"city":"Gaziantep","country":"Turkey","lines":["T2","T3"],"wikipedia":"tr:Sanko Okulları (Gaziantep Tramvayı)","merged_from":2,"merged_names":null,"is_terminus":false,"routes":[{"ref":"T2","name":"T2","route_color":"#08ff08"},{"ref":"T3","name":"T3","route_color":"#0d0dff"}],"pass_count":2,"station_degree":3,"codes":null,"is_interchange":true,"station_role":"interchange"},"geometry":{"type":"Point","coordinates":[37.33999695,37.06687675]},"__memberLines":{}},{"type":"Feature","properties":{"station_id":"n3476299206","station_name":"Olimpik Havuz","station_name_local":"Olimpik Havuz","station_name_en":null,"city":"Gaziantep","country":"Turkey","lines":["T2","T3"],"wikipedia":"tr:Olimpik Havuz (Gaziantep Tramvayı)","merged_from":2,"merged_names":null,"is_terminus":false,"routes":[{"ref":"T2","name":"T2","route_color":"#08ff08"},{"ref":"T3","name":"T3","route_color":"#0d0dff"}],"pass_count":2,"station_degree":2,"codes":null,"is_interchange":false,"station_role":"normal"},"geometry":{"type":"Point","coordinates":[37.331945950000005,37.0696225]},"__memberLines":{}},{"type":"Feature","properties":{"station_id":"n3476299232","station_name":"Duisburg","station_name_local":"Duisburg","station_name_en":null,"city":"Gaziantep","country":"Turkey","lines":["T2","T3"],"wikipedia":"tr:Duisburg (Gaziantep Tramvayı)","merged_from":2,"merged_names":null,"is_terminus":false,"routes":[{"ref":"T2","name":"T2","route_color":"#08ff08"},{"ref":"T3","name":"T3","route_color":"#0d0dff"}],"pass_count":2,"station_degree":2,"codes":null,"is_interchange":false,"station_role":"normal"},"geometry":{"type":"Point","coordinates":[37.3358662,37.0859619]},"__memberLines":{}},{"type":"Feature","properties":{"station_id":"n3476299238","station_name":"Güvenevler","station_name_local":"Güvenevler","station_name_en":null,"city":"Gaziantep","country":"Turkey","lines":["T2","T3"],"wikipedia":"tr:Güvenevler (Gaziantep Tramvayı)","merged_from":2,"merged_names":null,"is_terminus":false,"routes":[{"ref":"T2","name":"T2","route_color":"#08ff08"},{"ref":"T3","name":"T3","route_color":"#0d0dff"}],"pass_count":2,"station_degree":2,"codes":null,"is_interchange":false,"station_role":"normal"},"geometry":{"type":"Point","coordinates":[37.3383897,37.0903343]},"__memberLines":{}},{"type":"Feature","properties":{"station_id":"n3476299247","station_name":"Kolej Vakfı","station_name_local":"Kolej Vakfı","station_name_en":null,"city":"Gaziantep","country":"Turkey","lines":["T2","T3"],"wikipedia":"tr:Kolej Vakfı (Gaziantep Tramvayı)","merged_from":2,"merged_names":null,"is_terminus":false,"routes":[{"ref":"T2","name":"T2","route_color":"#08ff08"},{"ref":"T3","name":"T3","route_color":"#0d0dff"}],"pass_count":2,"station_degree":2,"codes":null,"is_interchange":false,"station_role":"normal"},"geometry":{"type":"Point","coordinates":[37.34475845,37.089376650000005]},"__memberLines":{}},{"type":"Feature","properties":{"station_id":"n3476299259","station_name":"Adliye","station_name_local":"Adliye","station_name_en":null,"city":"Gaziantep","country":"Turkey","lines":["T2","T3"],"wikipedia":"tr:Adliye (Gaziantep Tramvayı)","merged_from":2,"merged_names":null,"is_terminus":true,"routes":[{"ref":"T2","name":"T2","route_color":"#08ff08"},{"ref":"T3","name":"T3","route_color":"#0d0dff"}],"pass_count":2,"station_degree":1,"codes":null,"is_interchange":false,"station_role":"terminus"},"geometry":{"type":"Point","coordinates":[37.350668299999995,37.085464400000006]},"__memberLines":{}},{"type":"Feature","properties":{"station_id":"n3529906549","station_name":"25 Aralık Devlet Hastanesi","station_name_local":"25 Aralık Devlet Hastanesi","station_name_en":null,"city":"Gaziantep","country":"Turkey","lines":["T1","T2"],"wikipedia":"tr:25 Aralık Devlet Hastanesi (Gaziantep Tramvayı)","merged_from":2,"merged_names":null,"is_terminus":false,"routes":[{"ref":"T1","name":"T1","route_color":"#ff2b0a"},{"ref":"T2","name":"T2","route_color":"#08ff08"}],"pass_count":2,"station_degree":2,"codes":null,"is_interchange":false,"station_role":"normal"},"geometry":{"type":"Point","coordinates":[37.36149195,37.06669075]},"__memberLines":{}},{"type":"Feature","properties":{"station_id":"n3529906550","station_name":"Gazimuhtarpaşa","station_name_local":"Gazimuhtarpaşa","station_name_en":null,"city":"Gaziantep","country":"Turkey","lines":["T1","T2"],"wikipedia":"tr:Gazi Muhtar Paşa (Gaziantep Tramvayı)","merged_from":2,"merged_names":null,"is_terminus":false,"routes":[{"ref":"T1","name":"T1","route_color":"#ff2b0a"},{"ref":"T2","name":"T2","route_color":"#08ff08"}],"pass_count":2,"station_degree":2,"codes":null,"is_interchange":false,"station_role":"normal"},"geometry":{"type":"Point","coordinates":[37.3714361,37.06878655]},"__memberLines":{}},{"type":"Feature","properties":{"station_id":"n3595975784","station_name":"İbrahimli Merkez","station_name_local":"İbrahimli Merkez","station_name_en":null,"city":"Gaziantep","country":"Turkey","lines":["T2","T3"],"wikipedia":"tr:İbrahimli Merkez (Gaziantep Tramvayı)","merged_from":2,"merged_names":null,"is_terminus":false,"routes":[{"ref":"T2","name":"T2","route_color":"#08ff08"},{"ref":"T3","name":"T3","route_color":"#0d0dff"}],"pass_count":2,"station_degree":2,"codes":null,"is_interchange":false,"station_role":"normal"},"geometry":{"type":"Point","coordinates":[37.33198615,37.078885]},"__memberLines":{}},{"type":"Feature","properties":{"station_id":"n4844402926","station_name":"Akkent Meydanı","station_name_local":"Akkent Meydanı","station_name_en":null,"city":"Gaziantep","country":"Turkey","lines":["T1"],"wikipedia":"tr:Akkent Meydanı (Gaziantep Tramvayı)","merged_from":2,"merged_names":null,"is_terminus":false,"codes":["(Gaziantep","T1","Tramvayı)"],"routes":[{"ref":"T1","name":"T1","route_color":"#ff2b0a"}],"pass_count":1,"station_degree":2,"is_interchange":false,"station_role":"normal"},"geometry":{"type":"Point","coordinates":[37.36697925,37.01523125]},"__memberLines":{}},{"type":"Feature","properties":{"station_id":"n4844402936","station_name":"Akkent","station_name_local":"Akkent","station_name_en":null,"city":"Gaziantep","country":"Turkey","lines":["T1"],"wikipedia":"tr:Akkent (Gaziantep Tramvayı)","merged_from":2,"merged_names":null,"is_terminus":false,"routes":[{"ref":"T1","name":"T1","route_color":"#ff2b0a"}],"pass_count":1,"station_degree":2,"codes":null,"is_interchange":false,"station_role":"normal"},"geometry":{"type":"Point","coordinates":[37.3737823,37.01531885]},"__memberLines":{}},{"type":"Feature","properties":{"station_id":"n5588091001","station_name":"Ali İhsan Göğüş","station_name_local":"Ali İhsan Göğüş","station_name_en":null,"city":"Gaziantep","country":"Turkey","lines":["T2","T3"],"wikipedia":"tr:Ali İhsan Göğüş (Gaziantep Tramvayı)","merged_from":2,"merged_names":null,"is_terminus":false,"routes":[{"ref":"T2","name":"T2","route_color":"#08ff08"},{"ref":"T3","name":"T3","route_color":"#0d0dff"}],"pass_count":2,"station_degree":2,"codes":null,"is_interchange":false,"station_role":"normal"},"geometry":{"type":"Point","coordinates":[37.32868985,37.07301955]},"__memberLines":{}}]}