{"type":"FeatureCollection","features":[{"type":"Feature","properties":{"way_id":436824802,"route_colors":[],"route_refs":["1. tramvaju maršruts"]},"geometry":{"type":"LineString","coordinates":[[21.0056335,56.4870012],[21.0056566,56.4869484],[21.0056751,56.4869063],[21.0057196,56.4868659],[21.0057759,56.4868287],[21.0058713,56.4867969],[21.0059623,56.4867665],[21.0060443,56.4867539],[21.006087,56.486751],[21.0062554,56.4867521],[21.0064186,56.4867527],[21.0065784,56.4867618],[21.0100325,56.4872225],[21.0100409,56.4872236],[21.0100655,56.4872256],[21.0101245,56.4872304],[21.0102133,56.4872311],[21.010282,56.4872263],[21.0103509,56.4872143],[21.0104138,56.4871962],[21.0104425,56.4871855],[21.010471,56.4871723],[21.0105269,56.4871406],[21.0105478,56.4871242],[21.0105807,56.4871013],[21.0118367,56.4860779],[21.012152,56.4858349],[21.0122669,56.4857447],[21.0122807,56.4857338],[21.0124443,56.485604],[21.0130366,56.4851378],[21.0140532,56.4842793],[21.0142338,56.4841309],[21.0142937,56.4840869],[21.0143572,56.4840508],[21.0144389,56.484016],[21.0145463,56.4839778],[21.0146876,56.4839415],[21.0148464,56.4839116],[21.0150294,56.4838817],[21.0150896,56.4838707],[21.0151255,56.4838642],[21.0152427,56.4838428],[21.0152886,56.4838356],[21.0154548,56.483804],[21.0155412,56.4837892],[21.0157132,56.4837576],[21.0157598,56.4837495],[21.0164593,56.4836279],[21.018315,56.4832903],[21.0185141,56.4832537],[21.0185367,56.4832496],[21.0186881,56.4832219],[21.0219616,56.4826235],[21.0219736,56.4826212],[21.0219923,56.4826178],[21.0221306,56.482595],[21.0223566,56.4825505],[21.0254967,56.481966],[21.0256716,56.4819334],[21.0258727,56.4818961],[21.0258927,56.4818924],[21.0267451,56.4817339]]}},{"type":"Feature","properties":{"way_id":446168262,"route_colors":[],"route_refs":["1. tramvaju maršruts"]},"geometry":{"type":"LineString","coordinates":[[21.0267451,56.4817339],[21.0269566,56.4816936]]}},{"type":"Feature","properties":{"way_id":614140094,"route_colors":[],"route_refs":["1. tramvaju maršruts"]},"geometry":{"type":"LineString","coordinates":[[21.0269566,56.4816936],[21.0270515,56.4816818],[21.0272178,56.4816685],[21.0272822,56.4816615],[21.0276087,56.4816015],[21.0276711,56.4815878],[21.0278387,56.4815374],[21.0279165,56.4815189]]}},{"type":"Feature","properties":{"way_id":779715127,"route_colors":[],"route_refs":["1. tramvaju maršruts"]},"geometry":{"type":"LineString","coordinates":[[21.0269566,56.4816936],[21.0279165,56.4815189]]}},{"type":"Feature","properties":{"way_id":614140093,"route_colors":[],"route_refs":["1. tramvaju maršruts"]},"geometry":{"type":"LineString","coordinates":[[21.0279165,56.4815189],[21.0280887,56.4814932],[21.0281728,56.4814876],[21.0282572,56.4814918],[21.0283382,56.4815056],[21.0284121,56.4815284],[21.0284759,56.4815593],[21.0285267,56.4815967],[21.0285623,56.4816392],[21.0285811,56.4816848],[21.0285823,56.4817316],[21.0285716,56.4817642],[21.0285659,56.4817775],[21.0285325,56.4818205],[21.0284837,56.4818588],[21.0284216,56.4818906],[21.0283488,56.4819146],[21.0282686,56.4819297],[21.0281845,56.4819352],[21.0281001,56.481931],[21.0280191,56.4819172],[21.0273248,56.4817642],[21.0271824,56.4817397],[21.027115,56.4817335],[21.027048,56.4817311],[21.0269092,56.4817376],[21.0267438,56.4817613]]}},{"type":"Feature","properties":{"way_id":481972069,"route_colors":[],"route_refs":["1. tramvaju maršruts"]},"geometry":{"type":"LineString","coordinates":[[21.0267438,56.4817613],[21.0259937,56.4818986]]}},{"type":"Feature","properties":{"way_id":257934447,"route_colors":[],"route_refs":["1. tramvaju maršruts"]},"geometry":{"type":"LineString","coordinates":[[21.0069694,56.5059737],[21.0069316,56.5059456],[21.0069019,56.5059175],[21.0068748,56.5058849],[21.0068543,56.5058672],[21.0068361,56.5058281],[21.0068298,56.5057926],[21.0066679,56.5048835],[21.0065845,56.504506],[21.0065545,56.5043725],[21.0065411,56.5042934],[21.0065333,56.5042445],[21.0065152,56.5041704],[21.0064804,56.5039905],[21.0064239,56.5035538],[21.0061311,56.5012816],[21.0061119,56.5012311],[21.0061117,56.50121],[21.0061182,56.5011598],[21.0061534,56.5008875],[21.0062103,56.5006353],[21.0065849,56.4984746],[21.0066035,56.4983829],[21.0066554,56.4979926],[21.0066694,56.497887],[21.006662,56.4978299],[21.0066337,56.4977504],[21.0066225,56.4977062],[21.0064676,56.4974336],[21.0063301,56.4972078],[21.0063078,56.4971711],[21.0062695,56.4970641],[21.0062374,56.4969337],[21.0060904,56.4963372],[21.0059641,56.4958247],[21.0058826,56.495488],[21.0053748,56.4935033],[21.0053103,56.4929919],[21.0053065,56.4928731],[21.0053211,56.4926728],[21.0053534,56.4921857],[21.0053918,56.4917068],[21.0054143,56.4912687],[21.0054182,56.4911909],[21.0054327,56.4909115],[21.0054572,56.4905471],[21.0054774,56.4902417],[21.0055099,56.4897236],[21.0056087,56.487973],[21.0056267,56.4876811],[21.0056332,56.4870105],[21.0056335,56.4870012]]}},{"type":"Feature","properties":{"way_id":436824819,"route_colors":[],"route_refs":["1. tramvaju maršruts"]},"geometry":{"type":"LineString","coordinates":[[21.0056703,56.4870083],[21.0056608,56.487273],[21.0056707,56.4876872],[21.0056529,56.4879739],[21.0055561,56.4897247],[21.0055226,56.4902424],[21.005502,56.4905489],[21.0054817,56.49088],[21.00548,56.4909134],[21.0054664,56.4911904],[21.0054618,56.4912709],[21.0054009,56.4921884],[21.0053584,56.4927041],[21.0053527,56.4928227],[21.0053519,56.4929715],[21.0053716,56.4932403],[21.0053903,56.4934005],[21.005926,56.4954774],[21.0060104,56.495829],[21.0061321,56.4963342],[21.0062761,56.4969316],[21.0063046,56.4970498],[21.0063667,56.4971855],[21.0063761,56.4972015],[21.0066681,56.4976952],[21.0067254,56.4978666],[21.006716,56.4979903],[21.0067157,56.4979946],[21.0066492,56.4983688],[21.0066336,56.4984768],[21.0062568,56.5006316],[21.0062074,56.5008912],[21.0061659,56.5011605],[21.0061569,56.5012188],[21.0061595,56.5012355],[21.0061668,56.5012853],[21.0064704,56.5035515],[21.0065276,56.5039765],[21.0065638,56.5041688],[21.0065783,56.5042416],[21.0065861,56.5042927],[21.0068111,56.5054586],[21.0068647,56.5057896],[21.00687,56.5058221],[21.0069055,56.5058649],[21.0069296,56.5058939],[21.0069618,56.5059228],[21.006998,56.5059496],[21.0070443,56.5059759],[21.0079508,56.5064836],[21.0079871,56.5065024],[21.0093013,56.5070131],[21.0096235,56.5071551],[21.0098086,56.5072332],[21.0099816,56.5073103],[21.0100444,56.5073414],[21.010091,56.5073713],[21.0101414,56.5074086],[21.010191,56.5074515],[21.0105974,56.5078655],[21.0108025,56.5080713],[21.01113,56.5084355],[21.0113579,56.5086853],[21.0114205,56.5087326],[21.0114685,56.5087833],[21.0115334,56.5088604],[21.0115571,56.5088883],[21.0120628,56.5094813],[21.0123795,56.5098051],[21.0125407,56.5099341],[21.012712,56.5100748],[21.0127363,56.5100929],[21.0130017,56.5103021],[21.0133617,56.5105734],[21.0136792,56.5108276],[21.0137593,56.5108883],[21.0138094,56.5109227],[21.0139397,56.5110235],[21.0140391,56.511103],[21.0140939,56.511167],[21.014202,56.5113637],[21.0142765,56.5118586],[21.0143088,56.5120111],[21.0143648,56.5122866]]}},{"type":"Feature","properties":{"way_id":446168261,"route_colors":[],"route_refs":["1. tramvaju maršruts"]},"geometry":{"type":"LineString","coordinates":[[21.0259937,56.4818986],[21.0259078,56.4819145],[21.0258865,56.4819185],[21.0256852,56.4819559],[21.0255101,56.4819884],[21.0223672,56.4825695],[21.0221363,56.4826139],[21.0220011,56.4826383],[21.021986,56.4826411],[21.0212483,56.4827777],[21.0187024,56.483245],[21.0185532,56.4832723],[21.0185284,56.4832769],[21.0183291,56.4833137],[21.0158124,56.483772],[21.0157772,56.4837784],[21.0157306,56.4837873],[21.0155556,56.4838195],[21.0154773,56.483835],[21.0153083,56.483863],[21.0152594,56.4838724],[21.0151411,56.4838933],[21.0151067,56.4838994],[21.0147301,56.4839646],[21.0146403,56.4839838],[21.0145494,56.4840042],[21.0144852,56.484028],[21.01442,56.4840519],[21.0143646,56.4840818],[21.0143183,56.4841117],[21.0142542,56.4841569],[21.0140802,56.4842912],[21.0127416,56.4854114],[21.0124773,56.485616],[21.0123296,56.485732],[21.0123117,56.4857461],[21.0121808,56.4858458],[21.0120971,56.485911],[21.0106034,56.4871289],[21.0105902,56.4871395],[21.0105502,56.4871679],[21.0104995,56.487197],[21.0104379,56.4872231],[21.0104008,56.4872331],[21.0103775,56.4872409],[21.0103056,56.4872539],[21.0102301,56.4872605],[21.0101514,56.4872607],[21.0100677,56.4872537],[21.010054,56.4872519],[21.0093524,56.4871576],[21.0067308,56.4868055],[21.0065871,56.486792],[21.0064867,56.4867839],[21.0062474,56.4867766],[21.0060809,56.4867752],[21.0060465,56.4867761],[21.005959,56.4867914],[21.0058709,56.4868201],[21.0058122,56.4868392],[21.005777,56.486859],[21.0057273,56.4868949],[21.0056994,56.4869505],[21.0056703,56.4870083]]}},{"type":"Feature","properties":{"way_id":446176722,"route_colors":[],"route_refs":["1. tramvaju maršruts"]},"geometry":{"type":"LineString","coordinates":[[21.0143648,56.5122866],[21.0145259,56.5132442]]}},{"type":"Feature","properties":{"way_id":446176723,"route_colors":[],"route_refs":["1. tramvaju maršruts"]},"geometry":{"type":"LineString","coordinates":[[21.0145259,56.5132442],[21.0145444,56.513355],[21.0145834,56.513578],[21.0145924,56.5136322],[21.0146515,56.5140281],[21.0147047,56.5143413],[21.0148151,56.5149675],[21.0148304,56.5150448],[21.0148799,56.5152784],[21.0149625,56.5156469],[21.0150278,56.515877],[21.0150743,56.5160534],[21.0151872,56.5164855],[21.0152703,56.5167864],[21.0153563,56.5171078],[21.0154768,56.5175598],[21.0155893,56.517985],[21.0156646,56.518259],[21.0158415,56.5189311],[21.0159146,56.5192008],[21.0159507,56.519334],[21.0159951,56.5195111],[21.016047,56.5197006],[21.0161561,56.520105],[21.0162931,56.5206203],[21.0163366,56.5207946],[21.016352,56.5208531],[21.0165924,56.5217395],[21.0166029,56.521786],[21.0166265,56.5218645],[21.0166333,56.5219116],[21.016646,56.5219492],[21.0169666,56.5231753],[21.0170533,56.5234888],[21.0170698,56.5235317],[21.0171115,56.5235742],[21.017153,56.5236112],[21.0171956,56.5236332],[21.0172539,56.5236559],[21.0173042,56.5236746],[21.0173959,56.5236916],[21.0174876,56.5236979],[21.017886,56.5236978],[21.0179942,56.5236925],[21.0180671,56.5236795],[21.0181012,56.52367],[21.0181821,56.5236436],[21.0182522,56.5236087],[21.0183163,56.5235638],[21.0198664,56.5224197],[21.0207785,56.5217464],[21.0208507,56.5217014],[21.0208969,56.521679],[21.0209412,56.5216645],[21.0210072,56.5216484],[21.0210891,56.5216398],[21.0211841,56.5216382],[21.0212772,56.5216473],[21.021362,56.5216749],[21.021445,56.5217104],[21.0221761,56.5220214],[21.0230147,56.5223834],[21.0234588,56.5225738],[21.0239278,56.522775],[21.0240009,56.5228062],[21.024706,56.5231088],[21.0248027,56.5231502],[21.0253412,56.5233814],[21.0269647,56.5240772],[21.0281654,56.5245917],[21.0289249,56.5249251],[21.0296082,56.5252152],[21.0305762,56.5256375],[21.0307106,56.5256948]]}},{"type":"Feature","properties":{"way_id":134695730,"route_colors":[],"route_refs":["1. tramvaju maršruts"]},"geometry":{"type":"LineString","coordinates":[[21.0307106,56.5256948],[21.0308221,56.5257105],[21.0309182,56.525708],[21.0310087,56.5256993],[21.0311169,56.5256804],[21.0312898,56.525645],[21.0314382,56.5256096],[21.0316308,56.5255507],[21.0319371,56.5254339],[21.0320169,56.5254132],[21.0321459,56.5254034],[21.032272,56.5254188],[21.0323459,56.5254457],[21.0324128,56.5254844],[21.0324853,56.5255719],[21.0324883,56.5256599],[21.0324534,56.525719],[21.0323671,56.525784],[21.0323079,56.5258098],[21.0322568,56.5258253],[21.0320938,56.5258462],[21.0318206,56.5258414],[21.0313747,56.5258189],[21.0311591,56.5258116],[21.0308789,56.5257757]]}},{"type":"Feature","properties":{"way_id":134695731,"route_colors":[],"route_refs":["1. tramvaju maršruts"]},"geometry":{"type":"LineString","coordinates":[[21.0308789,56.5257757],[21.0307058,56.5257295],[21.0305462,56.5256599],[21.0295795,56.5252358],[21.0288909,56.5249478],[21.0281366,56.5246135],[21.0271023,56.5241739],[21.0269297,56.5241],[21.0253086,56.5234061],[21.0247705,56.5231758],[21.0246742,56.5231346],[21.0239734,56.5228262],[21.0238983,56.5227954],[21.0234293,56.5225918],[21.0229886,56.522402],[21.0221488,56.52204],[21.0214273,56.5217294],[21.0213546,56.5217033],[21.0212773,56.5216856],[21.0211973,56.5216763],[21.0211213,56.5216749],[21.0210331,56.5216804],[21.0209833,56.5216869],[21.0209314,56.5217035],[21.0208822,56.521728],[21.0208174,56.5217652],[21.0199067,56.5224368],[21.0183575,56.5235791],[21.0183052,56.5236171],[21.0182347,56.5236551],[21.0181611,56.5236833],[21.0180957,56.5236989],[21.0180243,56.5237123],[21.0179615,56.5237179],[21.0178885,56.5237223],[21.0175096,56.5237244],[21.0174284,56.5237227],[21.0173574,56.5237162],[21.0172947,56.5237028],[21.0172364,56.5236859],[21.0172172,56.5236815],[21.0171764,56.5236612],[21.0171357,56.5236421],[21.0170914,56.5236077],[21.0170554,56.5235734],[21.0170299,56.5235278],[21.0169256,56.5231751],[21.016599,56.5219472],[21.016553,56.521788],[21.0163086,56.520856],[21.0163017,56.5208205],[21.0162949,56.5208015],[21.0162457,56.520618],[21.0161986,56.5204311],[21.0161513,56.5202527],[21.0160714,56.5199757],[21.0160348,56.5198233],[21.0159952,56.5196784],[21.0159465,56.519486],[21.0159022,56.5193245],[21.0158707,56.5192043],[21.0158028,56.5189453],[21.0156239,56.5182688],[21.0155469,56.5179874],[21.0154322,56.5175636],[21.0153127,56.5171143],[21.015226,56.5167924],[21.015146,56.5164885],[21.0149843,56.515877],[21.0149214,56.5156403],[21.0148358,56.5152823],[21.0147918,56.515075],[21.0147715,56.5149783],[21.0146991,56.5145645],[21.0146704,56.5144005],[21.0146117,56.5140403],[21.0145648,56.5136218],[21.0145582,56.5135846],[21.0145124,56.5133571],[21.0144937,56.5132458]]}},{"type":"Feature","properties":{"way_id":446176724,"route_colors":[],"route_refs":["1. tramvaju maršruts"]},"geometry":{"type":"LineString","coordinates":[[21.0144937,56.5132458],[21.0143318,56.5122893]]}},{"type":"Feature","properties":{"way_id":446176721,"route_colors":[],"route_refs":["1. tramvaju maršruts"]},"geometry":{"type":"LineString","coordinates":[[21.0143318,56.5122893],[21.0142636,56.5120115],[21.0142357,56.511859],[21.0142047,56.5116741],[21.0141517,56.5113741],[21.0140704,56.5112069],[21.0140088,56.511133],[21.0139139,56.5110467],[21.0138125,56.5109704],[21.0137735,56.5109387],[21.0136316,56.5108318],[21.0133199,56.5105899],[21.0131823,56.510478],[21.0129629,56.5103165],[21.0126685,56.5100902],[21.0125013,56.5099494],[21.0123487,56.5098203],[21.0120262,56.5094914],[21.0115978,56.5089923],[21.0115336,56.5088986],[21.011488,56.5088477],[21.0114393,56.5087893],[21.0113976,56.5087414],[21.0113375,56.5086951],[21.0109292,56.5082598],[21.0107607,56.5080851],[21.0105637,56.507878],[21.0101459,56.5074518],[21.0101109,56.5074198],[21.0100679,56.5073878],[21.0100191,56.5073583],[21.0099491,56.507326],[21.009792,56.5072548],[21.0096052,56.5071758],[21.0092688,56.5070318],[21.0079392,56.5065148],[21.0078557,56.5064806],[21.0070007,56.5059916],[21.0069694,56.5059737]]}}]}