{"type":"FeatureCollection","features":[{"type":"Feature","properties":{"route_ref":"7","route_color":"#b08c65"},"geometry":{"type":"LineString","coordinates":[[18.6057706,54.3224798],[18.605163687031176,54.32241306439408],[18.60482630863529,54.32263800009149],[18.605559987843233,54.32365044029422],[18.605520512657677,54.32396694982858],[18.603695700000003,54.3246304],[18.602746454657733,54.32519148322387],[18.596992277029067,54.330720291922695],[18.596504127161896,54.33135281715863],[18.5964126,54.333519499999994],[18.596692970744307,54.33440679360232],[18.5973902725798,54.33524185819166],[18.600094144174253,54.337288446592765],[18.600814543384395,54.337650598540534],[18.602408185748864,54.338167867533684],[18.60407964919802,54.338431538681384],[18.61476160307469,54.33799048550887],[18.61591139144777,54.33783065319276],[18.618221815888578,54.338094694565385],[18.61847876382534,54.338212889574784],[18.618555800087105,54.338431507684525],[18.61725050408623,54.343694821624375],[18.617640499999997,54.34416045],[18.618773636196376,54.344727072460124],[18.619771612699743,54.34502593529519],[18.62072871300879,54.34519181459379],[18.627911921794553,54.34546697532979],[18.62931895404645,54.34564405722912],[18.63079943692503,54.34617406139544],[18.6326754976906,54.347402628991176],[18.633506126683997,54.347821945558074],[18.6354093,54.3484321],[18.636222819431353,54.348594584458866],[18.637891109880098,54.348710179533846],[18.638979168972426,54.34866047174789],[18.64056768286767,54.348348776595934],[18.642213967483322,54.34789851632906],[18.64440025532238,54.34767847432789],[18.645081593969216,54.34773581183797],[18.645376310383604,54.34797979663011],[18.646501325219244,54.35170672266133],[18.646344176774914,54.35215593455909],[18.645430252129028,54.35325680179512],[18.6452469333086,54.35379540119065],[18.64604066129535,54.35751482269509],[18.646207147364336,54.35772798563024],[18.647115171428574,54.35830157142857],[18.648200369545396,54.35977072006596],[18.64819426598292,54.36011425807349],[18.646206734188738,54.36171968692641],[18.644675120909717,54.362498930343136],[18.643684319065855,54.36376255548415],[18.64306135806692,54.36436075652495],[18.640448314285717,54.36640164285715],[18.631387696033276,54.3739392557974],[18.631192889674555,54.37426542067298],[18.631341040620104,54.37499526899084],[18.63065820145628,54.37630547258862],[18.630867495340635,54.3767695520029],[18.631607814246077,54.37755199847394],[18.63241144651187,54.37818909659571],[18.641030765026056,54.38404734718808],[18.646331550000003,54.386347400000005],[18.64945295009798,54.38757936010382],[18.6544352,54.3898528],[18.665554153181013,54.39793153579869],[18.66669540467304,54.39864939214842],[18.667391356404387,54.39887062102144],[18.669620289841177,54.399153324038146],[18.673232400000003,54.3979692]]}},{"type":"Feature","properties":{"route_ref":"3","route_color":"#b08c65"},"geometry":{"type":"LineString","coordinates":[[18.6057706,54.3224798],[18.605163687031176,54.32241306439408],[18.60482630863529,54.32263800009149],[18.605559987843233,54.32365044029422],[18.605520512657677,54.32396694982858],[18.603695700000003,54.3246304],[18.602746454657733,54.32519148322387],[18.596992277029067,54.330720291922695],[18.596504127161896,54.33135281715863],[18.5964126,54.333519499999994],[18.596692970744307,54.33440679360232],[18.5973902725798,54.33524185819166],[18.600094144174253,54.337288446592765],[18.600814543384395,54.337650598540534],[18.602408185748864,54.338167867533684],[18.60407964919802,54.338431538681384],[18.61476160307469,54.33799048550887],[18.61591139144777,54.33783065319276],[18.618221815888578,54.338094694565385],[18.61847876382534,54.338212889574784],[18.618555800087105,54.338431507684525],[18.61725050408623,54.343694821624375],[18.617640499999997,54.34416045],[18.618773636196376,54.344727072460124],[18.619771612699743,54.34502593529519],[18.62072871300879,54.34519181459379],[18.627911921794553,54.34546697532979],[18.62931895404645,54.34564405722912],[18.63079943692503,54.34617406139544],[18.6326754976906,54.347402628991176],[18.633506126683997,54.347821945558074],[18.635301300000002,54.348401149999994],[18.63616801460857,54.34858784634496],[18.637891109880098,54.348710179533846],[18.638979168972426,54.34866047174789],[18.64056768286767,54.348348776595934],[18.642213967483322,54.34789851632906],[18.64440025532238,54.34767847432789],[18.64479161186835,54.347667148427874],[18.64519241388741,54.347776917344035],[18.64541143076923,54.348068061538456],[18.646501325219244,54.35170672266133],[18.64640262443565,54.35206977430401],[18.64548410304277,54.35317417769431],[18.64525437749064,54.35372190009806],[18.645939099999996,54.357045799999995],[18.645977018722302,54.35761779512446],[18.645677734082025,54.35827338121941],[18.64320672505471,54.360812787802125],[18.641483166666667,54.362157833333335],[18.625513099999996,54.37163795000001],[18.624552744714133,54.372299850220664],[18.624495076295215,54.37259081155023],[18.62511929300905,54.373092651774435],[18.6251467507996,54.37346030212226],[18.623748878859416,54.37502952111938],[18.62369635257126,54.37613034879677],[18.6219107,54.380699650000004],[18.621936265350264,54.38373709925255],[18.622433999930408,54.38781910321642],[18.6223145399434,54.401181800143135],[18.622448614274276,54.40168566489096],[18.622725475670435,54.402014410375926],[18.623098751667523,54.402111323684856],[18.623410518823167,54.40208249761182],[18.626427111689985,54.4002167838652],[18.62687846889297,54.400094761256575],[18.62734486284381,54.400143067453065],[18.637726333333333,54.406718033333334],[18.63811559584822,54.40703599688069],[18.63804427138125,54.40732725605599]]}},{"type":"Feature","properties":{"route_ref":"6","route_color":"#b08c65"},"geometry":{"type":"LineString","coordinates":[[18.6057706,54.3224798],[18.605163687031176,54.32241306439408],[18.60482630863529,54.32263800009149],[18.605559987843233,54.32365044029422],[18.605520512657677,54.32396694982858],[18.603695700000003,54.3246304],[18.602746454657733,54.32519148322387],[18.5966333702135,54.3311099091029],[18.596439512499998,54.3316822625],[18.596443866666668,54.33379353333333],[18.596692970744307,54.33440679360232],[18.597344127627593,54.33520263954497],[18.60041341074937,54.33747319783884],[18.602251113009782,54.338122417786536],[18.60346288482785,54.338381402199715],[18.60490395,54.338427],[18.61476160307469,54.33799048550887],[18.616088544167535,54.337826941346904],[18.618363836596764,54.338146071566705],[18.6185378523538,54.33828553718358],[18.61853716803928,54.33853188948816],[18.61725050408623,54.343694821624375],[18.617436974069644,54.34400099549849],[18.617945846430775,54.34435020328514],[18.619524665464898,54.34496496124051],[18.6209534909843,54.34520926989308],[18.627795337148825,54.34546086677573],[18.62931895404645,54.34564405722912],[18.63079943692503,54.34617406139544],[18.6326754976906,54.347402628991176],[18.633506126683997,54.347821945558074],[18.6354093,54.3484321],[18.636222819431353,54.348594584458866],[18.637816470785136,54.34870808199495],[18.638778988129346,54.348680622700854],[18.640513801202644,54.3483613984152],[18.642387843289498,54.34786926813488],[18.644701004232296,54.34766341766166],[18.64519241388741,54.347776917344035],[18.64541143076923,54.348068061538456],[18.646501325219244,54.35170672266133],[18.646344176774914,54.35215593455909],[18.645430252129028,54.35325680179512],[18.6452469333086,54.35379540119065],[18.645882249999996,54.356631349999994],[18.645977018722302,54.35761779512446],[18.645777147165216,54.358126803268824],[18.645245605286984,54.35879129140373],[18.64320672505471,54.360812787802125],[18.641483166666667,54.362157833333335],[18.620425649999998,54.37463700000001],[18.6193609358101,54.37498443956556],[18.61647296398365,54.37561400338006],[18.6141659504118,54.375993933677655],[18.61285935871721,54.3763323958579],[18.607319924937627,54.378071133686575],[18.60610224782609,54.37856439565218],[18.60062102634549,54.38098572729247],[18.600436513939727,54.38112526567001],[18.60027235851462,54.381602316135016],[18.59827495857133,54.38249868329752],[18.591420115041768,54.38699832291254],[18.590638711958206,54.38708097934727],[18.58449839120845,54.3869203283253],[18.583993608878256,54.38698553030977],[18.583503952620227,54.3871759082547],[18.573069333333333,54.39445187777778],[18.568296958350203,54.399181581217626],[18.563828933590035,54.405204157023],[18.56291436264049,54.40863693170197],[18.563196058571563,54.4090453496325],[18.564861099999998,54.40958834999999],[18.56570603083711,54.40972819231078],[18.566578131225224,54.409600699271024],[18.56706248106261,54.40978530000906],[18.56689624927451,54.41051474734547],[18.566189831301024,54.41152992709224],[18.565541605457963,54.412786894482224],[18.565522517422973,54.413233417699644],[18.565743648458504,54.41393506409842],[18.570498201527396,54.4154752098673],[18.57294782928596,54.41658147081014],[18.58097576666667,54.41930176666667],[18.590476244020692,54.42226267839387],[18.59158608032978,54.422793716552675],[18.59274360012948,54.42317704152764]]}},{"type":"Feature","properties":{"route_ref":"2","route_color":"#b08c65"},"geometry":{"type":"LineString","coordinates":[[18.5699615896147,54.32803183894979],[18.570358970083166,54.328920095920616],[18.570529283294796,54.32975293080947],[18.570201253971696,54.33109224594543],[18.570222824873557,54.33136492380459],[18.57044397190287,54.331514619080004],[18.57222283373774,54.331498057388785],[18.57458813169116,54.33167080711502],[18.576871222405117,54.331722600426765],[18.578251044488677,54.33161475526876],[18.57929422694411,54.331424430009825],[18.581008410924877,54.33134921741041],[18.588993842857143,54.331332128571425],[18.590684381797967,54.331439583214845],[18.593735917179803,54.33232906942338],[18.596204956629524,54.332486504192815],[18.596417076385915,54.33300569987401],[18.596279147364534,54.3334599710219],[18.59649174983824,54.334100414855115],[18.597330325602645,54.33520771501813],[18.600155610157408,54.33734454848027],[18.600882899182167,54.33768908405632],[18.602399303879015,54.338178473889755],[18.6034624,54.3383827],[18.604563728515817,54.33845889080098],[18.61428312369636,54.33803853957395],[18.61597841452375,54.33785680865942],[18.618278147345343,54.33813817534299],[18.618506850598386,54.338313102991954],[18.6184763,54.3387908],[18.617230244241313,54.34363070824348],[18.6173938,54.3439719],[18.618274607082775,54.34454014670776],[18.619513527559754,54.34497893627936],[18.620724364876242,54.345206984840274],[18.62801892120854,54.34549223052132],[18.62944840332608,54.345680714882455],[18.630777554923007,54.34618810580514],[18.633195007189244,54.347774430361945],[18.636167009091373,54.34859060112607],[18.63789000628292,54.3487254505628],[18.638874461199304,54.34868914429097],[18.64018827740611,54.348452905143006],[18.642335452124737,54.34790361960874],[18.644180732236073,54.34770772209884],[18.644986816474802,54.34773834464436],[18.64521313676144,54.34784492174106],[18.64543426153846,54.34815772307692],[18.645734757223735,54.34954296584207],[18.646465471561598,54.351536766048824],[18.646415884235378,54.3520063074508],[18.645392705758656,54.35324885695497],[18.64522361725608,54.35378593637549],[18.64586044493835,54.35653614037894],[18.645877730565037,54.35783627499325],[18.64529653063147,54.35873023072273],[18.64387179825857,54.36000011228434],[18.643290718451127,54.360730868505684],[18.641576586036006,54.36208147382776],[18.64061424545454,54.36268459090908],[18.626232516931992,54.37117260035707],[18.62506147944496,54.371961750822095],[18.624711865352158,54.372074634240875],[18.6244893441269,54.37233594888594],[18.624479530444106,54.37259512507016],[18.62503652342073,54.37303663465423],[18.62515248163152,54.37333322924193],[18.624973192740917,54.37368373268051],[18.6237445,54.375029],[18.623619619999992,54.37632698000001],[18.621926975578127,54.38036978200494],[18.621761069421506,54.383244808903264],[18.62107811920373,54.38335331178661],[18.619159528571426,54.38333024285714],[18.61688032473743,54.38323206048577],[18.61546009930535,54.383074001359425],[18.614938812922997,54.383229053988394],[18.613896554188468,54.38422775496425],[18.61171904626174,54.385959249336196],[18.6086380757701,54.38955845482002],[18.606779936587284,54.39141465458296],[18.60538805588235,54.392366435294115],[18.596174359004216,54.39778435994146],[18.59569917084919,54.3981863732935],[18.59543844383581,54.39886757593216],[18.594951049999995,54.3993504],[18.594244686162263,54.39985668351015],[18.593012989463737,54.400320596551296],[18.592592552739482,54.400762050410044],[18.59182753951921,54.40234418797019],[18.591132583876103,54.404255561064346],[18.589503095895186,54.406878129274396],[18.589066391755168,54.4084656911212],[18.588379561332033,54.40980130089347],[18.587597280390813,54.4137504186863],[18.58656875161237,54.416914458844474],[18.58561536128484,54.41823729280432],[18.583770221067834,54.41998004472682],[18.583846871779837,54.42016655316345],[18.584195347800843,54.420340106875024],[18.59034510193278,54.422221016957124],[18.591397520865325,54.422732905676895],[18.593050993711994,54.42330123990048],[18.593214408988814,54.4234714678306],[18.593159612809206,54.423618546681546],[18.59264752425864,54.42386315373137],[18.592247620276783,54.42378236025795],[18.591232585618393,54.4226958824669],[18.59075217894719,54.422379132783426],[18.584322670782242,54.4203837139318],[18.583830763603853,54.42015765906924],[18.58376624418867,54.41995132235584],[18.58522905873156,54.41865993626863],[18.586091924430164,54.41767998469314],[18.586531239090267,54.41697361012311],[18.58753802763273,54.41396226909385],[18.588316235814474,54.40996423550329],[18.58906707410998,54.40846900550351],[18.589438148126025,54.407017668783475],[18.591130934862015,54.404256880754374],[18.591921581722794,54.4020991581385],[18.592604678541278,54.400739020964316],[18.59306589159921,54.40028317978915],[18.59435701629922,54.399778635055824],[18.594854357802333,54.399425612951646],[18.594801055423616,54.39930408194853],[18.595442956584982,54.398787374150565],[18.595740896765548,54.39812674247218],[18.596173216444058,54.39778461064129],[18.60544326823894,54.39233342385246],[18.606686252954116,54.39148682932125],[18.608048438062678,54.39017846198191],[18.611765695601992,54.38588785858787],[18.613883087201057,54.384219148493095],[18.61490806976587,54.38324690503172],[18.61557602204096,54.38307165961483],[18.61697957436222,54.38323756007183],[18.61914970177885,54.38332978165311],[18.62140709223899,54.383340917769935],[18.621769988671677,54.383235252479054],[18.62189721778312,54.38291004573449],[18.621819444070336,54.38118472189294],[18.621929350388854,54.38036870184276],[18.62363563423912,54.3762759982633],[18.6237432363933,54.3750331629881],[18.6251508,54.3733475],[18.625033543467225,54.37303534134912],[18.624476976627182,54.372594521043816],[18.62447483925753,54.372322596938865],[18.62471122867374,54.37207190485272],[18.641386982527035,54.36221220398033],[18.642274648397656,54.36149866962746],[18.642939032281042,54.36065538300925],[18.645040208233482,54.35898572280999],[18.64569672461449,54.3581978441152],[18.64592534700515,54.35758629836056],[18.645858101502526,54.356535546932754],[18.64521273306558,54.3537475530426],[18.64541219055315,54.35320890564787],[18.64640103425653,54.35201073686093],[18.64646502894043,54.35153556329416],[18.64534988984652,54.34813530604356],[18.645152059482825,54.34783401004896],[18.644939735796196,54.34773338117362],[18.642336536415083,54.34790322150559],[18.64009080096646,54.348474721676645],[18.63878236205609,54.34869783442466],[18.63774701317792,54.34872218910149],[18.635374068330663,54.348488864689145],[18.635279126807802,54.34856622864998],[18.634894570928186,54.34852992059695],[18.633662359947316,54.34810872548721],[18.63098288602145,54.34630300718851],[18.63027921780424,54.34595853219191],[18.629444644239157,54.345694673504106],[18.628024200673316,54.34549241342927],[18.620653282604035,54.34519919178999],[18.61925024528609,54.344905532085484],[18.618194668775352,54.344502124969885],[18.61736269749296,54.34394517600701],[18.617219501058344,54.34346294295945],[18.618498148983402,54.33869686376939],[18.618498349347863,54.33829616155085],[18.61828653310283,54.338143142515996],[18.615947562510193,54.337857801215584],[18.614459985714287,54.33803080714284],[18.6050396,54.3384478],[18.60398021712778,54.338437659837275],[18.60290648238699,54.33829113032568],[18.600965601099542,54.33771870807063],[18.600065930481065,54.33729948613105],[18.597378757349787,54.335249967615624],[18.596557551419163,54.33423293728168],[18.5962777,54.33346773333333],[18.59627066416029,54.33266629714657],[18.595997802531528,54.332451367447455],[18.594539679617302,54.33243801416648],[18.593422757451926,54.332271969747765],[18.591577011801956,54.331651901711055],[18.59022305679002,54.33138271056944],[18.581372238230795,54.33134541617774],[18.57938289305687,54.331414526208015],[18.57771747429095,54.33168714081846],[18.576395030000004,54.331732599999995],[18.57230665814689,54.331502389916984],[18.57051115780406,54.33153072799927],[18.570199615760362,54.331311830450254],[18.57050069998208,54.329645181955975],[18.570018907886233,54.328142644286004]]}},{"type":"Feature","properties":{"route_ref":"10","route_color":"#b08c65"},"geometry":{"type":"LineString","coordinates":[[18.569961666165486,54.32803182477752],[18.570350982599766,54.328800802261675],[18.570532799729015,54.329642133092754],[18.570227027507613,54.33132036041332],[18.57060069025883,54.33152608319714],[18.57222472012963,54.33148747067452],[18.57705665,54.331706749999995],[18.579964733333334,54.33136066666667],[18.589620368408266,54.331338466670275],[18.591236333333327,54.33154786666667],[18.593824325119222,54.33234144132245],[18.596130826578715,54.33240148395314],[18.596389258406003,54.33256910911215],[18.59653458020626,54.33409464270167],[18.597344127627593,54.33520263954497],[18.600276016699297,54.33739922145366],[18.601044139408486,54.3377333162591],[18.602821002043648,54.338271787265924],[18.60361752760173,54.3384007223],[18.60465308938338,54.338435755139706],[18.61476160307469,54.33799048550887],[18.616088544167535,54.337826941346904],[18.618221815888578,54.338094694565385],[18.61847876382534,54.338212889574784],[18.618555800087105,54.338431507684525],[18.61725050408623,54.343694821624375],[18.617436974069644,54.34400099549849],[18.617945846430775,54.34435020328514],[18.619524665464898,54.34496496124051],[18.6209534909843,54.34520926989308],[18.627795337148825,54.34546086677573],[18.62931895404645,54.34564405722912],[18.63079943692503,54.34617406139544],[18.6326754976906,54.347402628991176],[18.633506126683997,54.347821945558074],[18.6354093,54.3484321],[18.636222819431353,54.348594584458866],[18.638673028301053,54.348689892802135],[18.6397977417153,54.34852081036806],[18.642454335009287,54.34786012816305],[18.644701004232296,54.34766341766166],[18.645261445233288,54.347823372445795],[18.646501325219244,54.35170672266133],[18.646344176774914,54.35215593455909],[18.645430252129028,54.35325680179512],[18.6452469333086,54.35379540119065],[18.64604066129535,54.35751482269509],[18.646207147364336,54.35772798563024],[18.647115171428574,54.35830157142857],[18.648200369545396,54.35977072006596],[18.64819426598292,54.36011425807349],[18.646206734188738,54.36171968692641],[18.644675120909717,54.362498930343136],[18.643684319065855,54.36376255548415],[18.64306135806692,54.36436075652495],[18.640448314285717,54.36640164285715],[18.631387696033276,54.3739392557974],[18.631192889674555,54.37426542067298],[18.631341040620104,54.37499526899084],[18.6306777404245,54.376212045605556],[18.63071260585554,54.376569830282456],[18.63149291565232,54.3774444148708],[18.632272866654418,54.37808939536353],[18.641030765026056,54.38404734718808],[18.646331550000003,54.386347400000005],[18.64945295009798,54.38757936010382],[18.6544352,54.3898528],[18.665554153181013,54.39793153579869],[18.66669540467304,54.39864939214842],[18.667391356404387,54.39887062102144],[18.669620289841177,54.399153324038146],[18.673232400000003,54.3979692]]}},{"type":"Feature","properties":{"route_ref":"9","route_color":"#b08c65"},"geometry":{"type":"MultiLineString","coordinates":[[[18.5782773656543,54.39121945617994],[18.578108944033385,54.39097069980431],[18.578235725890146,54.39075942209502],[18.578457493081025,54.39070450984362],[18.58094534034765,54.38887082007729],[18.583775345530523,54.387040265556635],[18.58450192361454,54.386896361755745],[18.59047551195031,54.38706501961393],[18.591436243816936,54.38696536933591],[18.598441165238786,54.38235404802389],[18.600266467536848,54.38156658229567],[18.600526690642372,54.381028926957825],[18.606525209774563,54.37833337576375],[18.613263600000003,54.37618485],[18.614826838516063,54.37583875013502],[18.61698914505843,54.37550111434364],[18.61937214121488,54.3749797927617],[18.62039099860653,54.37463974314501],[18.640227988349434,54.362914670766585],[18.641386982527035,54.36221220398033],[18.642274648397656,54.36149866962746],[18.642939032281042,54.36065538300925],[18.644281772554805,54.359675192516185],[18.645182718650414,54.358847286090715],[18.645878018255633,54.357834410127886],[18.645858101502526,54.356535546932754],[18.64521273306558,54.3537475530426],[18.64541219055315,54.35320890564787],[18.646251903357143,54.35222539722456],[18.64647815673053,54.35172544577683],[18.6455763,54.348968],[18.64539295454546,54.34823498181819],[18.645428883501754,54.347755595208255],[18.645745593834704,54.34761543040353],[18.648510627156526,54.34733596468412],[18.654251368530634,54.345901632979526],[18.648876433570788,54.34727310296158],[18.647643236018467,54.347481267008796],[18.645715208801484,54.347618919748044],[18.64542679229131,54.34776872010965],[18.645600205109975,54.34905972715311],[18.6464701825295,54.351593802814506],[18.646415884235378,54.3520063074508],[18.645392705758656,54.35324885695497],[18.64522361725608,54.35378593637549],[18.64592730126912,54.35696245396768],[18.645821411962544,54.35799274590999],[18.64529653063147,54.35873023072273],[18.64387179825857,54.36000011228434],[18.643093998246805,54.36090170381132],[18.641576586036006,54.36208147382776],[18.63920232727272,54.363526754545454],[18.62030375134795,54.37467979840994],[18.619229934320437,54.37501183446971],[18.616471095606528,54.37561078192261],[18.614542835024977,54.37590489117043],[18.612563741065248,54.37638067041662],[18.609333996495682,54.377482896213984],[18.607134038480776,54.37811480016503],[18.605814056083197,54.37864547288506],[18.600518970872034,54.38103905843601],[18.600245351543883,54.38158426222918],[18.59905624751116,54.38203329935436],[18.598001633231068,54.38262629747943],[18.59146092092524,54.386957260697045],[18.5904936,54.387065559999996],[18.58479501236235,54.38689505167391],[18.584078700521452,54.38695364717796],[18.58367218520647,54.38707982086736],[18.57896431732995,54.390249331311416],[18.57867684486588,54.3905289916412],[18.578784734753718,54.390811409497815]],[[18.670618132282765,54.351134008266555],[18.67008716585329,54.35002348694413],[18.66989232951669,54.34882372854027],[18.668991523144275,54.346724410408854],[18.668303785245232,54.34578518800585],[18.667321854036697,54.34526409689413],[18.66509909800471,54.344757114559634],[18.663101722645965,54.3445219466196],[18.6617126791073,54.34467494886853],[18.654248421987027,54.34592519576255],[18.661971611596996,54.344632224180046],[18.66328289773906,54.34451034696706],[18.665706809090903,54.34487211818182],[18.667565876871294,54.34534768960699],[18.66826234509247,54.345746288024195],[18.668714482095535,54.34625694218182],[18.669909224960595,54.348871983897894],[18.670278267695185,54.350479180223196],[18.67080951519669,54.35141874635563],[18.6714308,54.3520891]]]}},{"type":"Feature","properties":{"route_ref":"8","route_color":"#b08c65"},"geometry":{"type":"MultiLineString","coordinates":[[[18.646014397564986,54.357488046997325],[18.64521273306558,54.3537475530426],[18.64541219055315,54.35320890564787],[18.646251903357143,54.35222539722456],[18.64647815673053,54.35172544577683],[18.6455763,54.348968],[18.64539295454546,54.34823498181819],[18.645428883501754,54.347755595208255],[18.645745593834704,54.34761543040353],[18.648510627156526,54.34733596468412],[18.654251368530634,54.345901632979526],[18.648876433570788,54.34727310296158],[18.647643236018467,54.347481267008796],[18.645715208801484,54.347618919748044],[18.645385050556083,54.347833983505886],[18.645705320843525,54.34944485526773],[18.64646953707489,54.351738172866376],[18.646415884235378,54.3520063074508],[18.645308402898106,54.353381247577126],[18.645286128501038,54.35438200848835],[18.646057174649723,54.35758421003816],[18.647000477584985,54.35822820271548],[18.648097072174263,54.3596351957482],[18.648184025406408,54.36003144553002],[18.647790864597486,54.36047612131276],[18.64626230519623,54.361666284671045],[18.644614050346128,54.362534677436344],[18.643988044404704,54.36337952992115],[18.64284426772178,54.36453944685719],[18.64022407475739,54.36653224584505],[18.636922697620193,54.36942138095035],[18.634842629548327,54.37100562069593],[18.631501504642326,54.3738179321078],[18.631184469418134,54.37419546359872],[18.631324111239913,54.374898813506405],[18.631024768105128,54.375332901184294],[18.63028092977349,54.375537890707],[18.629216824230145,54.37558834381735],[18.62534136127172,54.37533343737478],[18.624615569208206,54.37549076031384],[18.62396539929837,54.3758561026034],[18.623465625533385,54.37658744101587],[18.621926975578127,54.38036978200494],[18.621761069421506,54.383244808903264],[18.62107811920373,54.38335331178661],[18.619159528571426,54.38333024285714],[18.61688032473743,54.38323206048577],[18.61546009930535,54.383074001359425],[18.614938812922997,54.383229053988394],[18.613896554188468,54.38422775496425],[18.61171904626174,54.385959249336196],[18.6086380757701,54.38955845482002],[18.606779936587284,54.39141465458296],[18.60538805588235,54.392366435294115],[18.596174359004216,54.39778435994146],[18.59569917084919,54.3981863732935],[18.59543844383581,54.39886757593216],[18.594951049999995,54.3993504],[18.594244686162263,54.39985668351015],[18.593012989463737,54.400320596551296],[18.592592552739482,54.400762050410044],[18.59182753951921,54.40234418797019],[18.591132583876103,54.404255561064346],[18.589503095895186,54.406878129274396],[18.589066391755168,54.4084656911212],[18.588379561332033,54.40980130089347],[18.587597280390813,54.4137504186863],[18.58656875161237,54.416914458844474],[18.58561536128484,54.41823729280432],[18.583770221067834,54.41998004472682],[18.583846871779837,54.42016655316345],[18.584195347800843,54.420340106875024],[18.59034510193278,54.422221016957124],[18.591397520865325,54.422732905676895],[18.593050993711994,54.42330123990048],[18.593214408988814,54.4234714678306],[18.593075510180107,54.423691438091176],[18.592706249503873,54.423857960457696],[18.592379215418948,54.42383338496612],[18.591232585618393,54.4226958824669],[18.59075217894719,54.422379132783426],[18.584322670782242,54.4203837139318],[18.583830763603853,54.42015765906924],[18.58376624418867,54.41995132235584],[18.58522905873156,54.41865993626863],[18.586091924430164,54.41767998469314],[18.586531239090267,54.41697361012311],[18.58753802763273,54.41396226909385],[18.588316235814474,54.40996423550329],[18.58906707410998,54.40846900550351],[18.589438148126025,54.407017668783475],[18.591130934862015,54.404256880754374],[18.59198907560249,54.401938195643346],[18.592734376395637,54.40057194414815],[18.59306589159921,54.40028317978915],[18.59435701629922,54.399778635055824],[18.594854357802333,54.399425612951646],[18.594801055423616,54.39930408194853],[18.595442956584982,54.398787374150565],[18.595740896765548,54.39812674247218],[18.596173216444058,54.39778461064129],[18.60544326823894,54.39233342385246],[18.606686252954116,54.39148682932125],[18.608048438062678,54.39017846198191],[18.611765695601992,54.38588785858787],[18.613883087201057,54.384219148493095],[18.61490806976587,54.38324690503172],[18.61557602204096,54.38307165961483],[18.61697957436222,54.38323756007183],[18.61914970177885,54.38332978165311],[18.62140709223899,54.383340917769935],[18.621769988671677,54.383235252479054],[18.62189721778312,54.38291004573449],[18.621819444070336,54.38118472189294],[18.621929350388854,54.38036870184276],[18.62343530320492,54.37664900045534],[18.62384475559907,54.37597523341059],[18.624387935136955,54.37557934705517],[18.62535026327872,54.375333023601975],[18.629077773849215,54.37557092179442],[18.630426567798537,54.37551254341163],[18.63107278641613,54.375297333941155],[18.631320798483536,54.37488799537717],[18.63118406724993,54.374192752542065],[18.631663481818183,54.37365633636364],[18.634826174734723,54.371018042496836],[18.63666082569005,54.369635737021895],[18.640276790852138,54.366485073976364],[18.64284117940409,54.364537694319715],[18.64402507215462,54.36332683557937],[18.644645088681308,54.36250937210825],[18.646145154354908,54.36173462015206],[18.648131269320853,54.36012665148551],[18.64810042120421,54.35964589610671],[18.647150449610443,54.35839690485203],[18.6468671574791,54.35811364604637],[18.6461747943696,54.35771711133994],[18.645992934005303,54.35748177181432]],[[18.670618132282765,54.351134008266555],[18.67008716585329,54.35002348694413],[18.66989232951669,54.34882372854027],[18.668991523144275,54.346724410408854],[18.668303785245232,54.34578518800585],[18.667321854036697,54.34526409689413],[18.66509909800471,54.344757114559634],[18.663101722645965,54.3445219466196],[18.6617126791073,54.34467494886853],[18.654248421987027,54.34592519576255],[18.661971611596996,54.344632224180046],[18.66328289773906,54.34451034696706],[18.665706809090903,54.34487211818182],[18.667565876871294,54.34534768960699],[18.66826234509247,54.345746288024195],[18.668714482095535,54.34625694218182],[18.669909224960595,54.348871983897894],[18.670278267695185,54.350479180223196],[18.67080951519669,54.35141874635563],[18.6714308,54.3520891]]]}},{"type":"Feature","properties":{"route_ref":"4","route_color":"#b08c65"},"geometry":{"type":"MultiLineString","coordinates":[[[18.6422414,54.3520443],[18.64246915,54.35344045],[18.643245001291305,54.35488415605293],[18.6437608,54.35920475],[18.643625024731474,54.36024547908578],[18.64137453333333,54.36222686666667],[18.625513099999996,54.37163795000001],[18.624552744714133,54.372299850220664],[18.624495076295215,54.37259081155023],[18.62511929300905,54.373092651774435],[18.62516572053624,54.37339604316331],[18.623748878859416,54.37502952111938],[18.62369635257126,54.37613034879677],[18.62196275155148,54.38044213038406],[18.621830542804503,54.38322151513283],[18.62140615751917,54.383366295763054],[18.619633433333334,54.3833452],[18.61670095,54.38322134999999],[18.61568477569808,54.383087092971536],[18.61494732618272,54.38323429048333],[18.61401510268468,54.38413280126332],[18.611742086333948,54.38596711198144],[18.608707674999994,54.389488375000006],[18.606701366666666,54.39148396666666],[18.605815074177738,54.39211975198258],[18.59602351701922,54.39791273213931],[18.59570994642326,54.398188756729546],[18.595276026825328,54.39909298460617],[18.594264303540495,54.39986742757732],[18.593195607803743,54.40024047912275],[18.592760502563852,54.40058390010668],[18.591986700000003,54.402077000000006],[18.591282800000002,54.40397183333333],[18.5893551,54.407368600000005],[18.589123230241267,54.408356494563044],[18.588253333333334,54.410357866666665],[18.587676749999996,54.41346430000001],[18.586618454488708,54.41682710490277],[18.585714799999995,54.418167125],[18.58378714028694,54.419937817917436],[18.583849729181413,54.420142035408546],[18.584083992151463,54.42028040861862],[18.590476244020692,54.42226267839387],[18.59158608032978,54.422793716552675],[18.59274360012948,54.42317704152764]],[[18.569961666165486,54.32803182477752],[18.570350982599766,54.328800802261675],[18.570532799729015,54.329642133092754],[18.570227027507613,54.33132036041332],[18.57060069025883,54.33152608319714],[18.57222472012963,54.33148747067452],[18.57705665,54.331706749999995],[18.579964733333334,54.33136066666667],[18.589620368408266,54.331338466670275],[18.591236333333327,54.33154786666667],[18.593824325119222,54.33234144132245],[18.596130826578715,54.33240148395314],[18.596389258406003,54.33256910911215],[18.59653458020626,54.33409464270167],[18.597344127627593,54.33520263954497],[18.600276016699297,54.33739922145366],[18.601044139408486,54.3377333162591],[18.602821002043648,54.338271787265924],[18.60361752760173,54.3384007223],[18.60465308938338,54.338435755139706],[18.61476160307469,54.33799048550887],[18.616088544167535,54.337826941346904],[18.618363836596764,54.338146071566705],[18.6185378523538,54.33828553718358],[18.61853716803928,54.33853188948816],[18.61724508352031,54.34359418354544],[18.617436974069644,54.34400099549849],[18.61847018223276,54.344605369085976],[18.619524665464898,54.34496496124051],[18.62072871300879,54.34519181459379],[18.627911921794553,54.34546697532979],[18.62931895404645,54.34564405722912],[18.63079943692503,54.34617406139544],[18.63342405076732,54.347786581185495],[18.63444931120429,54.34815493562257],[18.636113420011057,54.34858053123309],[18.63857127496253,54.34869698427973],[18.639676307242233,54.348546829563865],[18.64167356512824,54.34806416286123],[18.64205917082907,54.348079100150805],[18.64227840217161,54.348177898802255],[18.642363977784136,54.34841240788118],[18.64195603501648,54.3495229751899],[18.641943775574255,54.350059067904816],[18.6424195,54.353246649999996],[18.64318736120134,54.35470103801],[18.643337699999996,54.35569589999999]]]}},{"type":"Feature","properties":{"route_ref":"11","route_color":"#b08c65"},"geometry":{"type":"LineString","coordinates":[[18.5782773656543,54.39121945617994],[18.578108944033385,54.39097069980431],[18.578235725890146,54.39075942209502],[18.578457493081025,54.39070450984362],[18.58094534034765,54.38887082007729],[18.58367448687486,54.387080005088215],[18.58450192361454,54.386896361755745],[18.59047551195031,54.38706501961393],[18.591436243816936,54.38696536933591],[18.598441165238786,54.38235404802389],[18.600266467536848,54.38156658229567],[18.600526690642372,54.381028926957825],[18.606525209774563,54.37833337576375],[18.613263600000003,54.37618485],[18.614826838516063,54.37583875013502],[18.6165787789955,54.37558977381803],[18.61937214121488,54.3749797927617],[18.62071361714716,54.374473262880095],[18.641833047920176,54.36188368927943],[18.643397429622414,54.36044998608217],[18.643710081475007,54.35994338875902],[18.64373729722341,54.35900756261182],[18.64345800340596,54.35750882310836],[18.643265998434707,54.35506843995581],[18.64267205739837,54.3539672566489],[18.64230883,54.3528793],[18.64187642470915,54.34992430621188],[18.64231940124854,54.34837908950613],[18.642150599003813,54.348142007846256],[18.6416394,54.3480986],[18.639253556474102,54.34865217589364],[18.63839498775566,54.34872244828673],[18.635374068330663,54.348488864689145],[18.635279126807802,54.34856622864998],[18.63482981485964,54.34852103050269],[18.634125098210767,54.34832068459383],[18.63349856327321,54.34801702058258],[18.63078366662361,54.3461911611476],[18.629444644239157,54.345694673504106],[18.628024200673316,54.34549241342927],[18.620653282604035,54.34519919178999],[18.61915173030364,54.34487530201006],[18.617762385473124,54.34428596065294],[18.617323946938498,54.34389438982595],[18.617219501058344,54.34346294295945],[18.618498148983402,54.33869686376939],[18.618498349347863,54.33829616155085],[18.618311039260057,54.33815214954101],[18.615947562510193,54.337857801215584],[18.614459985714287,54.33803080714284],[18.6050396,54.3384478],[18.60398021712778,54.338437659837275],[18.60290648238699,54.33829113032568],[18.600965601099542,54.33771870807063],[18.600065930481065,54.33729948613105],[18.597378757349787,54.335249967615624],[18.596557551419163,54.33423293728168],[18.5962777,54.33346773333333],[18.59627066416029,54.33266629714657],[18.595997802531528,54.332451367447455],[18.594539679617302,54.33243801416648],[18.593422757451926,54.332271969747765],[18.591577011801956,54.331651901711055],[18.59022305679002,54.33138271056944],[18.581372238230795,54.33134541617774],[18.57938289305687,54.331414526208015],[18.57771747429095,54.33168714081846],[18.576395030000004,54.331732599999995],[18.57230665814689,54.331502389916984],[18.57051115780406,54.33153072799927],[18.570199615760362,54.331311830450254],[18.57050069998208,54.329645181955975],[18.570018907886233,54.328142644286004]]}},{"type":"Feature","properties":{"route_ref":"5","route_color":"#b08c65"},"geometry":{"type":"LineString","coordinates":[[18.565911368876566,54.40992301075922],[18.563218101494037,54.40908829517358],[18.56292801097078,54.40888401425445],[18.5628585,54.4086364],[18.563737861762093,54.40525850878153],[18.56813659666969,54.39927651209261],[18.57299605,54.394442850000004],[18.583469730686943,54.38715692455315],[18.583864527650547,54.386984074335814],[18.5845019684723,54.3868915099966],[18.5900303,54.3870275],[18.591327672395,54.3869907676895],[18.598415800754772,54.38233801026375],[18.600213631472066,54.381589221352556],[18.600501920109128,54.3810106903933],[18.606360788981405,54.3783921000838],[18.612984200000003,54.37625788333334],[18.61987253923569,54.374819961725436],[18.620576181806303,54.37452072745138],[18.62378860484524,54.37262180330891],[18.624160994662954,54.372546903182155],[18.6244640856471,54.37261602851306],[18.62499656047446,54.37296500455888],[18.62516572053624,54.37339604316331],[18.623748878859416,54.37502952111938],[18.62369635257126,54.37613034879677],[18.622053495300698,54.3801508631549],[18.62188716666667,54.38098266666667],[18.621936265350264,54.38373709925255],[18.622433999930408,54.38781910321642],[18.6223145399434,54.401181800143135],[18.622422356438506,54.401635083289136],[18.622725475670435,54.402014410375926],[18.623098751667523,54.402111323684856],[18.623410518823167,54.40208249761182],[18.626427111689985,54.4002167838652],[18.626832666707863,54.400098798215396],[18.627316910528815,54.40013441384131],[18.62847905138603,54.40078387726265],[18.638173790951107,54.40701143796601],[18.638626066752852,54.40715765138264],[18.63986529642934,54.40727507835415],[18.640690185714288,54.4071357],[18.645552347390325,54.4058092882093],[18.646183633529127,54.405513548303475],[18.647822449372846,54.40435580700803],[18.648484799339897,54.404109039042254],[18.649382340580726,54.40395313775502],[18.65077325,54.40397775000001],[18.65650477546186,54.40476091204668],[18.6590798742337,54.40461503952339],[18.66016190260753,54.40441517815749],[18.6637829,54.4029125],[18.664819311428452,54.40263303311109],[18.664891240000003,54.402371220000006],[18.664551205570802,54.40112156752516],[18.664824561566913,54.40082998557735],[18.67344197937339,54.397929784212415],[18.673871046984946,54.39805860984765],[18.676074246315277,54.400878699688285],[18.67589761529009,54.40115171222429],[18.6744556,54.40157109999999]]}},{"type":"Feature","properties":{"route_ref":"12","route_color":"#e10886"},"geometry":{"type":"LineString","coordinates":[[18.642183320369668,54.35204715612234],[18.642467917752423,54.35354055855958],[18.643198408171106,54.35488605254683],[18.643733445187728,54.35980646315569],[18.643534203354598,54.36032182937937],[18.64269549059535,54.36111956312824],[18.64174817920545,54.3619538860972],[18.64061424545454,54.36268459090908],[18.62030375134795,54.37467979840994],[18.619229934320437,54.37501183446971],[18.616471095606528,54.37561078192261],[18.614542835024977,54.37590489117043],[18.612563741065248,54.37638067041662],[18.609333996495682,54.377482896213984],[18.607134038480776,54.37811480016503],[18.605814056083197,54.37864547288506],[18.600518970872034,54.38103905843601],[18.600245351543883,54.38158426222918],[18.59905624751116,54.38203329935436],[18.598001633231068,54.38262629747943],[18.59146092092524,54.386957260697045],[18.5904936,54.387065559999996],[18.58479501236235,54.38689505167391],[18.584078700521452,54.38695364717796],[18.58367218520647,54.38707982086736],[18.57896431732995,54.390249331311416],[18.572840148053388,54.39458410583973],[18.568247074758784,54.39916847823041],[18.563656736208102,54.405475021535345],[18.562980006983057,54.4081767312479],[18.562970573074743,54.40889293303871],[18.563596158299873,54.40920248480329],[18.56499123168691,54.40962969172278],[18.5657039,54.40974409999999],[18.566578131225224,54.409600699271024],[18.56693825991069,54.40969683253979],[18.56709589463029,54.409849746580285],[18.56679804429352,54.41062801913514],[18.5655257761967,54.412785124565815],[18.565597582769684,54.4136626720272],[18.56577503507593,54.41397205692104],[18.570445838713816,54.4154669753],[18.573029503739253,54.416638587324414],[18.580700930959527,54.41922622579681],[18.583118675510107,54.41997245296402],[18.583614155262026,54.419938553540405],[18.58522905873156,54.41865993626863],[18.586091924430164,54.41767998469314],[18.586531239090267,54.41697361012311],[18.58753802763273,54.41396226909385],[18.588316235814474,54.40996423550329],[18.58906707410998,54.40846900550351],[18.589438148126025,54.407017668783475],[18.591130934862015,54.404256880754374],[18.591921581722794,54.4020991581385],[18.592508428571428,54.4009089],[18.59306589159921,54.40028317978915],[18.594398680161788,54.39979621805893],[18.5950553,54.39920909999999]]}}]}