{"type":"FeatureCollection","metro_system":{"continent":"asia","country":"Japan","city":"Kobe","official_website":null,"official_map":"https://en.wikipedia.org/wiki/Kobe_Municipal_Subway","wikipedia":"en:Kobe Municipal Subway","wiki":true,"wikipedia_zh":"zh:神戶市營地下鐵","line_count":5,"segment_count":6,"station_count":43,"modes":["metro","tram"],"audit":{"strategies_tried":[],"passed":true,"checks":[{"id":"system_exists","ok":true,"detail":"matched OSM system metro-maps/asia/japan/as-jpn-kobe/as-jpn-kobe.geojson","level":"error"},{"id":"has_lines","ok":true,"detail":"5 lines","level":"error"},{"id":"has_stations","ok":true,"detail":"43 stations","level":"error"},{"id":"station_count_info","ok":true,"detail":"OSM 43 站（wiki List 記 28，計法含轉乘重複，僅參考）","level":"warn"},{"id":"stations_have_lines","ok":true,"detail":"43/43 站皆有所屬路線","level":"error"},{"id":"line_geometry_stations","ok":true,"detail":"48 個折點/端點皆為車站","level":"error"},{"id":"route_stations_match_geometry","ok":true,"detail":"各線車站列表與圖面一致","level":"error"},{"id":"interchange_rule","ok":true,"detail":"所有車站紅/藍點符合骨架＋路線色規則（藍＝端點、紅＝交叉）","level":"error"},{"id":"stations_named","ok":true,"detail":"43/43 站皆有名稱","level":"error"},{"id":"station_order","ok":false,"detail":"1 條線站序可疑（路徑長 > 1.6× MST）：ポートライナー 1.64×，需以 Wikipedia 線路條目與 urbanrail.net 人工確認","level":"warn"},{"id":"line_wiki_stations","ok":true,"detail":"各線站數與 wiki 線路條目相符（營運中站數）","level":"error"},{"id":"line_wiki_coverage","ok":false,"detail":"2 條線無 wiki 站數對照：ポートライナー、ポートライナー","level":"warn"}],"reasons":[],"warnings":["1 條線站序可疑（路徑長 > 1.6× MST）：ポートライナー 1.64×，需以 Wikipedia 線路條目與 urbanrail.net 人工確認","2 條線無 wiki 站數對照：ポートライナー、ポートライナー"],"audited_at":"2026-07-27T02:38:22.631Z"}},"features":[{"type":"Feature","properties":{"seg_id":"kobe-0","routes":[{"route_id":"rm7712875","route_name":"ポートライナー","route_name_local":"ポートライナー","route_name_en":"Port Liner","route_ref":"P","route_color":"#3573bd","wikipedia":null,"osm_route_ids":[2431076,7712867],"status":null,"order_suspect":1.64,"span_suspect":0,"stations":[{"station_id":"n519699425","station_name":"三宮","code":"P01"},{"station_id":"n3854376854","station_name":"貿易センター","code":"P02"},{"station_id":"n3854376847","station_name":"ポートターミナル","code":"P03"},{"station_id":"n443057009","station_name":"中公園","code":"P04"},{"station_id":"n4044964912","station_name":"みなとじま","code":"P05"},{"station_id":"n3854376786","station_name":"市民広場","code":"P06"},{"station_id":"n3854376789","station_name":"南公園","code":"PL07"},{"station_id":"n4044964913","station_name":"中埠頭","code":"PL08"},{"station_id":"n4044964908","station_name":"北埠頭","code":"PL09"},{"station_id":"n443057009","station_name":"中公園","code":"P04"},{"station_id":"n3854376847","station_name":"ポートターミナル","code":"P03"},{"station_id":"n3854376854","station_name":"貿易センター","code":"P02"},{"station_id":"n519699425","station_name":"三宮","code":"P01"}]},{"route_id":"r6031863","route_name":"ポートライナー","route_name_local":"ポートライナー","route_name_en":"Port Liner","route_ref":"P","route_color":"#3573bd","wikipedia":null,"osm_route_ids":[6031863],"status":null,"order_suspect":0,"span_suspect":0,"stations":[{"station_id":"n519699425","station_name":"三宮","code":"P01"},{"station_id":"n3854376854","station_name":"貿易センター","code":"P02"},{"station_id":"n3854376847","station_name":"ポートターミナル","code":"P03"},{"station_id":"n443057009","station_name":"中公園","code":"P04"},{"station_id":"n4044964912","station_name":"みなとじま","code":"P05"},{"station_id":"n3854376786","station_name":"市民広場","code":"P06"},{"station_id":"n3854376780","station_name":"医療センター","code":"P07"},{"station_id":"n4044964907","station_name":"計算科学センター","code":"P08"},{"station_id":"n4044964909","station_name":"神戸空港","code":"P09"}]}],"route_count":2,"route_refs":["P","P"],"route_colors":["#3573bd","#3573bd"],"city":"Kobe","country":"Japan"},"geometry":{"type":"MultiLineString","coordinates":[[[135.19382851666666,34.694231916666666],[135.1994583,34.68942006666666],[135.2022914,34.68137986666667],[135.20744815,34.67329545],[135.21011603333332,34.66896566666667],[135.21261056666665,34.664808666666666]]]}},{"type":"Feature","properties":{"seg_id":"kobe-1","routes":[{"route_id":"rm7712875","route_name":"ポートライナー","route_name_local":"ポートライナー","route_name_en":"Port Liner","route_ref":"P","route_color":"#3573bd","wikipedia":null,"osm_route_ids":[2431076,7712867],"status":null,"order_suspect":1.64,"span_suspect":0,"stations":[{"station_id":"n519699425","station_name":"三宮","code":"P01"},{"station_id":"n3854376854","station_name":"貿易センター","code":"P02"},{"station_id":"n3854376847","station_name":"ポートターミナル","code":"P03"},{"station_id":"n443057009","station_name":"中公園","code":"P04"},{"station_id":"n4044964912","station_name":"みなとじま","code":"P05"},{"station_id":"n3854376786","station_name":"市民広場","code":"P06"},{"station_id":"n3854376789","station_name":"南公園","code":"PL07"},{"station_id":"n4044964913","station_name":"中埠頭","code":"PL08"},{"station_id":"n4044964908","station_name":"北埠頭","code":"PL09"},{"station_id":"n443057009","station_name":"中公園","code":"P04"},{"station_id":"n3854376847","station_name":"ポートターミナル","code":"P03"},{"station_id":"n3854376854","station_name":"貿易センター","code":"P02"},{"station_id":"n519699425","station_name":"三宮","code":"P01"}]}],"route_count":1,"route_refs":["P"],"route_colors":["#3573bd"],"city":"Kobe","country":"Japan"},"geometry":{"type":"MultiLineString","coordinates":[[[135.21261056666665,34.664808666666666],[135.2169794,34.66466775],[135.21715463333334,34.66946046666666],[135.214619,34.673641200000006],[135.20744815,34.67329545]]]}},{"type":"Feature","properties":{"seg_id":"kobe-2","routes":[{"route_id":"r6031863","route_name":"ポートライナー","route_name_local":"ポートライナー","route_name_en":"Port Liner","route_ref":"P","route_color":"#3573bd","wikipedia":null,"osm_route_ids":[6031863],"status":null,"order_suspect":0,"span_suspect":0,"stations":[{"station_id":"n519699425","station_name":"三宮","code":"P01"},{"station_id":"n3854376854","station_name":"貿易センター","code":"P02"},{"station_id":"n3854376847","station_name":"ポートターミナル","code":"P03"},{"station_id":"n443057009","station_name":"中公園","code":"P04"},{"station_id":"n4044964912","station_name":"みなとじま","code":"P05"},{"station_id":"n3854376786","station_name":"市民広場","code":"P06"},{"station_id":"n3854376780","station_name":"医療センター","code":"P07"},{"station_id":"n4044964907","station_name":"計算科学センター","code":"P08"},{"station_id":"n4044964909","station_name":"神戸空港","code":"P09"}]}],"route_count":1,"route_refs":["P"],"route_colors":["#3573bd"],"city":"Kobe","country":"Japan"},"geometry":{"type":"MultiLineString","coordinates":[[[135.21261056666665,34.664808666666666],[135.21642193333335,34.658512800000004],[135.2215152,34.65479153333334],[135.22911063333333,34.637262666666665]]]}},{"type":"Feature","properties":{"seg_id":"kobe-3","routes":[{"route_id":"rm7712694","route_name":"六甲ライナー","route_name_local":"六甲ライナー","route_name_en":"Rokko Liner","route_ref":"R","route_color":"#3e754e","wikipedia":null,"osm_route_ids":[6015207,7712693],"status":null,"order_suspect":0,"span_suspect":0,"stations":[{"station_id":"n5214160713","station_name":"住吉"},{"station_id":"n5214161150","station_name":"魚崎"},{"station_id":"n5214161165","station_name":"南魚崎","code":"R03"},{"station_id":"n5214161167","station_name":"アイランド北口","code":"R04"},{"station_id":"n5214161172","station_name":"アイランドセンター","code":"R05"},{"station_id":"n5214161169","station_name":"マリンパーク","code":"R06"}]}],"route_count":1,"route_refs":["R"],"route_colors":["#3e754e"],"city":"Kobe","country":"Japan"},"geometry":{"type":"MultiLineString","coordinates":[[[135.2623169,34.719485999999996],[135.2686034,34.713756499999995],[135.26773573333332,34.706830733333334],[135.2686929666667,34.6931926],[135.2693046,34.68923326666667],[135.27011353333333,34.68429113333333]]]}},{"type":"Feature","properties":{"seg_id":"kobe-4","routes":[{"route_id":"rm7712969","route_name":"Subway 神戸市営地下鉄海岸線","route_name_local":"Subway 神戸市営地下鉄海岸線","route_name_en":"Kaigan Line","route_ref":"K","route_color":"#267dce","wikipedia":"en:Kaigan Line","osm_route_ids":[7712959,7712960],"status":null,"order_suspect":0,"span_suspect":0,"stations":[{"station_id":"n519699233","station_name":"三宮・花時計前","code":"K01"},{"station_id":"n519698679","station_name":"旧居留地・大丸前","code":"K02"},{"station_id":"n519697169","station_name":"みなと元町","code":"K03"},{"station_id":"n519696319","station_name":"ハーバーランド","code":"K04"},{"station_id":"n519695783","station_name":"中央市場前","code":"K05"},{"station_id":"n519695206","station_name":"和田岬","code":"K06"},{"station_id":"n519692364","station_name":"御崎公園","code":"K07"},{"station_id":"n519691874","station_name":"苅藻","code":"K08"},{"station_id":"n519689570","station_name":"駒ヶ林","code":"K09"},{"station_id":"n519689481","station_name":"新長田","code":"K10"}]}],"route_count":1,"route_refs":["K"],"route_colors":["#267dce"],"city":"Kobe","country":"Japan"},"geometry":{"type":"MultiLineString","coordinates":[[[135.14573523333334,34.65734678333333],[135.14995580000001,34.65170923333333],[135.1575166,34.6539958],[135.16620386666668,34.65487339999999],[135.17681546666668,34.6587246],[135.1758811,34.66615306666667],[135.17888989999997,34.67900003333333],[135.1835477666667,34.6856337],[135.19057513333334,34.6895927],[135.1959053,34.69176493333333]]]}},{"type":"Feature","properties":{"seg_id":"kobe-5","routes":[{"route_id":"rm7720729","route_name":"Subway 神戸市営地下鉄西神・山手線/北神線","route_name_local":"Subway 神戸市営地下鉄西神・山手線/北神線","route_name_en":"Kobe City Subway Seishin-Yamate line / Hokushin line","route_ref":"S","route_color":"#00ae8e","wikipedia":null,"osm_route_ids":[7720717,7720727],"status":null,"order_suspect":0,"span_suspect":0,"stations":[{"station_id":"n5214409621","station_name":"谷上","code":"S01"},{"station_id":"n359798283","station_name":"新神戸","code":"S02"},{"station_id":"n519699425","station_name":"三宮","code":"S03"},{"station_id":"n519698048","station_name":"県庁前","code":"S04"},{"station_id":"n4611600441","station_name":"大倉山"},{"station_id":"n519694499","station_name":"湊川公園"},{"station_id":"n519694321","station_name":"上沢","code":"S07"},{"station_id":"n519691628","station_name":"長田","code":"S08"},{"station_id":"n519689481","station_name":"新長田"},{"station_id":"n519689171","station_name":"板宿","code":"S10"},{"station_id":"n519693912","station_name":"妙法寺","code":"S11"},{"station_id":"n3720362729","station_name":"名谷","code":"S12"},{"station_id":"n519686539","station_name":"総合運動公園","code":"S13"},{"station_id":"n519685287","station_name":"学園都市"},{"station_id":"n519682827","station_name":"伊川谷"},{"station_id":"n519684147","station_name":"西神南"},{"station_id":"n3721936227","station_name":"西神中央"}]}],"route_count":1,"route_refs":["S"],"route_colors":["#00ae8e"],"city":"Kobe","country":"Japan"},"geometry":{"type":"MultiLineString","coordinates":[[[135.01740186666666,34.7194035],[135.03003733333333,34.69955706666667],[135.04131710000001,34.687858033333335],[135.05751056666668,34.6815121],[135.07580106666668,34.681639233333335],[135.09457296,34.67931202],[135.11014063333334,34.675048233333335],[135.13435556666667,34.660100633333336],[135.14573523333334,34.65734678333333],[135.1513372,34.66841366666667],[135.1587903,34.673515566666666],[135.1665452,34.67875023333334],[135.1746514,34.684676599999996],[135.18399586666666,34.6910109],[135.19382851666666,34.694231916666666],[135.19569420000002,34.704706525],[135.1714852,34.76154476666667]]]}},{"type":"Feature","properties":{"station_id":"n443057009","station_name":"中公園","station_name_local":"中公園","station_name_en":"Naka Koen","city":"Kobe","country":"Japan","lines":["P"],"wikipedia":"ja:中公園駅","merged_from":4,"merged_names":null,"is_terminus":false,"codes":["P04"],"routes":[{"ref":"P","name":"ポートライナー","route_color":"#3573bd"}],"pass_count":3,"station_degree":3,"is_interchange":true,"station_role":"interchange"},"geometry":{"type":"Point","coordinates":[135.20744815,34.67329545]},"__memberLines":{}},{"type":"Feature","properties":{"station_id":"n4044964912","station_name":"みなとじま","station_name_local":"みなとじま","station_name_en":"Minatojima","city":"Kobe","country":"Japan","lines":["P"],"wikipedia":null,"merged_from":3,"merged_names":null,"is_terminus":false,"codes":["P05"],"routes":[{"ref":"P","name":"ポートライナー","route_color":"#3573bd"}],"pass_count":2,"station_degree":2,"is_interchange":false,"station_role":"normal"},"geometry":{"type":"Point","coordinates":[135.21011603333332,34.66896566666667]},"__memberLines":{}},{"type":"Feature","properties":{"station_id":"n3854376786","station_name":"市民広場","station_name_local":"市民広場","station_name_en":"Shimin Hiroba","city":"Kobe","country":"Japan","lines":["P"],"wikipedia":null,"merged_from":3,"merged_names":null,"is_terminus":false,"codes":["P06"],"routes":[{"ref":"P","name":"ポートライナー","route_color":"#3573bd"}],"pass_count":2,"station_degree":3,"is_interchange":true,"station_role":"interchange"},"geometry":{"type":"Point","coordinates":[135.21261056666665,34.664808666666666]},"__memberLines":{}},{"type":"Feature","properties":{"station_id":"n3854376789","station_name":"南公園","station_name_local":"南公園","station_name_en":"Minami Koen","city":"Kobe","country":"Japan","lines":["P"],"wikipedia":"ja:南公園駅","merged_from":2,"merged_names":null,"is_terminus":false,"codes":["PL07"],"routes":[{"ref":"P","name":"ポートライナー","route_color":"#3573bd"}],"pass_count":1,"station_degree":2,"is_interchange":false,"station_role":"normal"},"geometry":{"type":"Point","coordinates":[135.2169794,34.66466775]},"__memberLines":{}},{"type":"Feature","properties":{"station_id":"n3854376847","station_name":"ポートターミナル","station_name_local":"ポートターミナル","station_name_en":"Port Terminal","city":"Kobe","country":"Japan","lines":["P"],"wikipedia":"ja:ポートターミナル駅","merged_from":3,"merged_names":null,"is_terminus":false,"codes":["P03"],"routes":[{"ref":"P","name":"ポートライナー","route_color":"#3573bd"}],"pass_count":3,"station_degree":2,"is_interchange":false,"station_role":"normal"},"geometry":{"type":"Point","coordinates":[135.2022914,34.68137986666667]},"__memberLines":{}},{"type":"Feature","properties":{"station_id":"n3854376854","station_name":"貿易センター","station_name_local":"貿易センター","station_name_en":"Boeki Center","city":"Kobe","country":"Japan","lines":["P"],"wikipedia":"ja:貿易センター駅","merged_from":3,"merged_names":null,"is_terminus":false,"codes":["P02"],"routes":[{"ref":"P","name":"ポートライナー","route_color":"#3573bd"}],"pass_count":3,"station_degree":2,"is_interchange":false,"station_role":"normal"},"geometry":{"type":"Point","coordinates":[135.1994583,34.68942006666666]},"__memberLines":{}},{"type":"Feature","properties":{"station_id":"n3854376780","station_name":"医療センター","station_name_local":"医療センター","station_name_en":"Iryo Center","city":"Kobe","country":"Japan","lines":["P"],"wikipedia":null,"merged_from":3,"merged_names":null,"is_terminus":false,"codes":["P07"],"routes":[{"ref":"P","name":"ポートライナー","route_color":"#3573bd"}],"pass_count":2,"station_degree":2,"is_interchange":false,"station_role":"normal"},"geometry":{"type":"Point","coordinates":[135.21642193333335,34.658512800000004]},"__memberLines":{}},{"type":"Feature","properties":{"station_id":"n4044964907","station_name":"計算科学センター","station_name_local":"計算科学センター","station_name_en":"Keisan Kagaku Center","city":"Kobe","country":"Japan","lines":["P"],"wikipedia":"ja:計算科学センター駅","merged_from":3,"merged_names":null,"is_terminus":false,"codes":["P08"],"routes":[{"ref":"P","name":"ポートライナー","route_color":"#3573bd"}],"pass_count":2,"station_degree":2,"is_interchange":false,"station_role":"normal"},"geometry":{"type":"Point","coordinates":[135.2215152,34.65479153333334]},"__memberLines":{}},{"type":"Feature","properties":{"station_id":"n4044964908","station_name":"北埠頭","station_name_local":"北埠頭","station_name_en":"Kita Futo","city":"Kobe","country":"Japan","lines":["P"],"wikipedia":"ja:北埠頭駅","merged_from":2,"merged_names":null,"is_terminus":false,"codes":["PL09"],"routes":[{"ref":"P","name":"ポートライナー","route_color":"#3573bd"}],"pass_count":1,"station_degree":2,"is_interchange":false,"station_role":"normal"},"geometry":{"type":"Point","coordinates":[135.214619,34.673641200000006]},"__memberLines":{}},{"type":"Feature","properties":{"station_id":"n4044964909","station_name":"神戸空港","station_name_local":"神戸空港","station_name_en":"Kobe Airport","city":"Kobe","country":"Japan","lines":["P"],"wikipedia":"ja:神戸空港駅","merged_from":3,"merged_names":null,"is_terminus":true,"codes":["P09"],"routes":[{"ref":"P","name":"ポートライナー","route_color":"#3573bd"}],"pass_count":2,"station_degree":1,"is_interchange":false,"station_role":"terminus"},"geometry":{"type":"Point","coordinates":[135.22911063333333,34.637262666666665]},"__memberLines":{}},{"type":"Feature","properties":{"station_id":"n4044964913","station_name":"中埠頭","station_name_local":"中埠頭","station_name_en":"Naka Futo","city":"Kobe","country":"Japan","lines":["P"],"wikipedia":"ja:中埠頭駅","merged_from":3,"merged_names":null,"is_terminus":false,"codes":["PL08"],"routes":[{"ref":"P","name":"ポートライナー","route_color":"#3573bd"}],"pass_count":1,"station_degree":2,"is_interchange":false,"station_role":"normal"},"geometry":{"type":"Point","coordinates":[135.21715463333334,34.66946046666666]},"__memberLines":{}},{"type":"Feature","properties":{"station_id":"n5214160713","station_name":"住吉","station_name_local":"住吉","station_name_en":"Sumiyoshi","city":"Kobe","country":"Japan","lines":["R"],"wikipedia":"ja:住吉駅 (JR西日本・神戸新交通)","merged_from":3,"merged_names":null,"is_terminus":true,"routes":[{"ref":"R","name":"六甲ライナー","route_color":"#3e754e"}],"pass_count":1,"station_degree":1,"codes":null,"is_interchange":false,"station_role":"terminus"},"geometry":{"type":"Point","coordinates":[135.2623169,34.719485999999996]},"__memberLines":{}},{"type":"Feature","properties":{"station_id":"n5214161150","station_name":"魚崎","station_name_local":"魚崎","station_name_en":"Uozaki","city":"Kobe","country":"Japan","lines":["R"],"wikipedia":"ja:魚崎駅","merged_from":3,"merged_names":null,"is_terminus":false,"routes":[{"ref":"R","name":"六甲ライナー","route_color":"#3e754e"}],"pass_count":1,"station_degree":2,"codes":null,"is_interchange":false,"station_role":"normal"},"geometry":{"type":"Point","coordinates":[135.2686034,34.713756499999995]},"__memberLines":{}},{"type":"Feature","properties":{"station_id":"n5214161165","station_name":"南魚崎","station_name_local":"南魚崎","station_name_en":"Minami Uozaki","city":"Kobe","country":"Japan","lines":["R"],"wikipedia":"ja:南魚崎駅","merged_from":3,"merged_names":null,"is_terminus":false,"codes":["R03"],"routes":[{"ref":"R","name":"六甲ライナー","route_color":"#3e754e"}],"pass_count":1,"station_degree":2,"is_interchange":false,"station_role":"normal"},"geometry":{"type":"Point","coordinates":[135.26773573333332,34.706830733333334]},"__memberLines":{}},{"type":"Feature","properties":{"station_id":"n5214161167","station_name":"アイランド北口","station_name_local":"アイランド北口","station_name_en":"Island Kitaguchi","city":"Kobe","country":"Japan","lines":["R"],"wikipedia":"ja:アイランド北口駅","merged_from":3,"merged_names":null,"is_terminus":false,"codes":["R04"],"routes":[{"ref":"R","name":"六甲ライナー","route_color":"#3e754e"}],"pass_count":1,"station_degree":2,"is_interchange":false,"station_role":"normal"},"geometry":{"type":"Point","coordinates":[135.2686929666667,34.6931926]},"__memberLines":{}},{"type":"Feature","properties":{"station_id":"n5214161169","station_name":"マリンパーク","station_name_local":"マリンパーク","station_name_en":"Marine Park","city":"Kobe","country":"Japan","lines":["R"],"wikipedia":"ja:マリンパーク駅","merged_from":3,"merged_names":null,"is_terminus":true,"codes":["R06"],"routes":[{"ref":"R","name":"六甲ライナー","route_color":"#3e754e"}],"pass_count":1,"station_degree":1,"is_interchange":false,"station_role":"terminus"},"geometry":{"type":"Point","coordinates":[135.27011353333333,34.68429113333333]},"__memberLines":{}},{"type":"Feature","properties":{"station_id":"n5214161172","station_name":"アイランドセンター","station_name_local":"アイランドセンター","station_name_en":"Island Center","city":"Kobe","country":"Japan","lines":["R"],"wikipedia":"ja:アイランドセンター駅","merged_from":3,"merged_names":null,"is_terminus":false,"codes":["R05"],"routes":[{"ref":"R","name":"六甲ライナー","route_color":"#3e754e"}],"pass_count":1,"station_degree":2,"is_interchange":false,"station_role":"normal"},"geometry":{"type":"Point","coordinates":[135.2693046,34.68923326666667]},"__memberLines":{}},{"type":"Feature","properties":{"station_id":"n359798283","station_name":"新神戸","station_name_local":"新神戸","station_name_en":"Shin-Kobe","city":"Kobe","country":"Japan","lines":["S"],"wikipedia":"fr:Shin-Kōbe (métro municipal de Kobe)","merged_from":4,"merged_names":null,"is_terminus":false,"codes":["S02"],"routes":[{"ref":"S","name":"Subway 神戸市営地下鉄西神・山手線/北神線","route_color":"#00ae8e"}],"pass_count":1,"station_degree":2,"is_interchange":false,"station_role":"normal"},"geometry":{"type":"Point","coordinates":[135.19569420000002,34.704706525]},"__memberLines":{}},{"type":"Feature","properties":{"station_id":"n519682827","station_name":"伊川谷","station_name_local":"伊川谷","station_name_en":"Ikawadani","city":"Kobe","country":"Japan","lines":["S"],"wikipedia":null,"merged_from":3,"merged_names":null,"is_terminus":false,"routes":[{"ref":"S","name":"Subway 神戸市営地下鉄西神・山手線/北神線","route_color":"#00ae8e"}],"pass_count":1,"station_degree":2,"codes":null,"is_interchange":false,"station_role":"normal"},"geometry":{"type":"Point","coordinates":[135.04131710000001,34.687858033333335]},"__memberLines":{}},{"type":"Feature","properties":{"station_id":"n519684147","station_name":"西神南","station_name_local":"西神南","station_name_en":"Seishin-Minami","city":"Kobe","country":"Japan","lines":["S"],"wikipedia":null,"merged_from":3,"merged_names":null,"is_terminus":false,"routes":[{"ref":"S","name":"Subway 神戸市営地下鉄西神・山手線/北神線","route_color":"#00ae8e"}],"pass_count":1,"station_degree":2,"codes":null,"is_interchange":false,"station_role":"normal"},"geometry":{"type":"Point","coordinates":[135.03003733333333,34.69955706666667]},"__memberLines":{}},{"type":"Feature","properties":{"station_id":"n519685287","station_name":"学園都市","station_name_local":"学園都市","station_name_en":"Gakuentoshi","city":"Kobe","country":"Japan","lines":["S"],"wikipedia":null,"merged_from":3,"merged_names":null,"is_terminus":false,"routes":[{"ref":"S","name":"Subway 神戸市営地下鉄西神・山手線/北神線","route_color":"#00ae8e"}],"pass_count":1,"station_degree":2,"codes":null,"is_interchange":false,"station_role":"normal"},"geometry":{"type":"Point","coordinates":[135.05751056666668,34.6815121]},"__memberLines":{}},{"type":"Feature","properties":{"station_id":"n519686539","station_name":"総合運動公園","station_name_local":"総合運動公園","station_name_en":"Sogo Undo Koen","city":"Kobe","country":"Japan","lines":["S"],"wikipedia":null,"merged_from":3,"merged_names":null,"is_terminus":false,"codes":["S13"],"routes":[{"ref":"S","name":"Subway 神戸市営地下鉄西神・山手線/北神線","route_color":"#00ae8e"}],"pass_count":1,"station_degree":2,"is_interchange":false,"station_role":"normal"},"geometry":{"type":"Point","coordinates":[135.07580106666668,34.681639233333335]},"__memberLines":{}},{"type":"Feature","properties":{"station_id":"n519689171","station_name":"板宿","station_name_local":"板宿","station_name_en":"Itayado","city":"Kobe","country":"Japan","lines":["S"],"wikipedia":"ja:板宿駅","merged_from":3,"merged_names":null,"is_terminus":false,"codes":["S10"],"routes":[{"ref":"S","name":"Subway 神戸市営地下鉄西神・山手線/北神線","route_color":"#00ae8e"}],"pass_count":1,"station_degree":2,"is_interchange":false,"station_role":"normal"},"geometry":{"type":"Point","coordinates":[135.13435556666667,34.660100633333336]},"__memberLines":{}},{"type":"Feature","properties":{"station_id":"n519689481","station_name":"新長田","station_name_local":"新長田","station_name_en":"Shin-Nagata","city":"Kobe","country":"Japan","lines":["K","S"],"wikipedia":"ja:新長田駅","merged_from":6,"merged_names":null,"is_terminus":false,"codes":["K10"],"routes":[{"ref":"K","name":"Subway 神戸市営地下鉄海岸線","route_color":"#267dce"},{"ref":"S","name":"Subway 神戸市営地下鉄西神・山手線/北神線","route_color":"#00ae8e"}],"pass_count":2,"station_degree":3,"is_interchange":true,"station_role":"interchange"},"geometry":{"type":"Point","coordinates":[135.14573523333334,34.65734678333333]},"__memberLines":{}},{"type":"Feature","properties":{"station_id":"n519689570","station_name":"駒ヶ林","station_name_local":"駒ヶ林","station_name_en":"Komagabayashi","city":"Kobe","country":"Japan","lines":["K"],"wikipedia":"ja:駒ヶ林駅","merged_from":3,"merged_names":null,"is_terminus":false,"codes":["K09"],"routes":[{"ref":"K","name":"Subway 神戸市営地下鉄海岸線","route_color":"#267dce"}],"pass_count":1,"station_degree":2,"is_interchange":false,"station_role":"normal"},"geometry":{"type":"Point","coordinates":[135.14995580000001,34.65170923333333]},"__memberLines":{}},{"type":"Feature","properties":{"station_id":"n519691628","station_name":"長田","station_name_local":"長田","station_name_en":"Nagata","city":"Kobe","country":"Japan","lines":["S"],"wikipedia":"ja:長田駅(神戸市営地下鉄)","merged_from":3,"merged_names":null,"is_terminus":false,"codes":["S08"],"routes":[{"ref":"S","name":"Subway 神戸市営地下鉄西神・山手線/北神線","route_color":"#00ae8e"}],"pass_count":1,"station_degree":2,"is_interchange":false,"station_role":"normal"},"geometry":{"type":"Point","coordinates":[135.1513372,34.66841366666667]},"__memberLines":{}},{"type":"Feature","properties":{"station_id":"n519691874","station_name":"苅藻","station_name_local":"苅藻","station_name_en":"Karumo","city":"Kobe","country":"Japan","lines":["K"],"wikipedia":"ja:苅藻駅","merged_from":3,"merged_names":null,"is_terminus":false,"codes":["K08"],"routes":[{"ref":"K","name":"Subway 神戸市営地下鉄海岸線","route_color":"#267dce"}],"pass_count":1,"station_degree":2,"is_interchange":false,"station_role":"normal"},"geometry":{"type":"Point","coordinates":[135.1575166,34.6539958]},"__memberLines":{}},{"type":"Feature","properties":{"station_id":"n519692364","station_name":"御崎公園","station_name_local":"御崎公園","station_name_en":"Misakikōen","city":"Kobe","country":"Japan","lines":["K"],"wikipedia":"ja:御崎公園駅","merged_from":3,"merged_names":null,"is_terminus":false,"codes":["K07"],"routes":[{"ref":"K","name":"Subway 神戸市営地下鉄海岸線","route_color":"#267dce"}],"pass_count":1,"station_degree":2,"is_interchange":false,"station_role":"normal"},"geometry":{"type":"Point","coordinates":[135.16620386666668,34.65487339999999]},"__memberLines":{}},{"type":"Feature","properties":{"station_id":"n519693912","station_name":"妙法寺","station_name_local":"妙法寺","station_name_en":"Myohoji","city":"Kobe","country":"Japan","lines":["S"],"wikipedia":"ja:妙法寺駅 (兵庫県)","merged_from":3,"merged_names":null,"is_terminus":false,"codes":["S11"],"routes":[{"ref":"S","name":"Subway 神戸市営地下鉄西神・山手線/北神線","route_color":"#00ae8e"}],"pass_count":1,"station_degree":2,"is_interchange":false,"station_role":"normal"},"geometry":{"type":"Point","coordinates":[135.11014063333334,34.675048233333335]},"__memberLines":{}},{"type":"Feature","properties":{"station_id":"n519694321","station_name":"上沢","station_name_local":"上沢","station_name_en":"Kamisawa","city":"Kobe","country":"Japan","lines":["S"],"wikipedia":"ja:上沢駅","merged_from":3,"merged_names":null,"is_terminus":false,"codes":["S07"],"routes":[{"ref":"S","name":"Subway 神戸市営地下鉄西神・山手線/北神線","route_color":"#00ae8e"}],"pass_count":1,"station_degree":2,"is_interchange":false,"station_role":"normal"},"geometry":{"type":"Point","coordinates":[135.1587903,34.673515566666666]},"__memberLines":{}},{"type":"Feature","properties":{"station_id":"n519694499","station_name":"湊川公園","station_name_local":"湊川公園","station_name_en":"Minatogawa Kōen","city":"Kobe","country":"Japan","lines":["S"],"wikipedia":"ja:湊川公園駅","merged_from":3,"merged_names":null,"is_terminus":false,"routes":[{"ref":"S","name":"Subway 神戸市営地下鉄西神・山手線/北神線","route_color":"#00ae8e"}],"pass_count":1,"station_degree":2,"codes":null,"is_interchange":false,"station_role":"normal"},"geometry":{"type":"Point","coordinates":[135.1665452,34.67875023333334]},"__memberLines":{}},{"type":"Feature","properties":{"station_id":"n519695206","station_name":"和田岬","station_name_local":"和田岬","station_name_en":"Wadamisaki","city":"Kobe","country":"Japan","lines":["K"],"wikipedia":"ja:和田岬駅","merged_from":3,"merged_names":null,"is_terminus":false,"codes":["K06"],"routes":[{"ref":"K","name":"Subway 神戸市営地下鉄海岸線","route_color":"#267dce"}],"pass_count":1,"station_degree":2,"is_interchange":false,"station_role":"normal"},"geometry":{"type":"Point","coordinates":[135.17681546666668,34.6587246]},"__memberLines":{}},{"type":"Feature","properties":{"station_id":"n519695783","station_name":"中央市場前","station_name_local":"中央市場前","station_name_en":"Chūōichibamae","city":"Kobe","country":"Japan","lines":["K"],"wikipedia":"ja:中央市場前駅","merged_from":3,"merged_names":null,"is_terminus":false,"codes":["K05"],"routes":[{"ref":"K","name":"Subway 神戸市営地下鉄海岸線","route_color":"#267dce"}],"pass_count":1,"station_degree":2,"is_interchange":false,"station_role":"normal"},"geometry":{"type":"Point","coordinates":[135.1758811,34.66615306666667]},"__memberLines":{}},{"type":"Feature","properties":{"station_id":"n519696319","station_name":"ハーバーランド","station_name_local":"ハーバーランド","station_name_en":"Harborland","city":"Kobe","country":"Japan","lines":["K"],"wikipedia":"ja:ハーバーランド駅","merged_from":3,"merged_names":null,"is_terminus":false,"codes":["K04"],"routes":[{"ref":"K","name":"Subway 神戸市営地下鉄海岸線","route_color":"#267dce"}],"pass_count":1,"station_degree":2,"is_interchange":false,"station_role":"normal"},"geometry":{"type":"Point","coordinates":[135.17888989999997,34.67900003333333]},"__memberLines":{}},{"type":"Feature","properties":{"station_id":"n519697169","station_name":"みなと元町","station_name_local":"みなと元町","station_name_en":"Minato Motomachi","city":"Kobe","country":"Japan","lines":["K"],"wikipedia":"ja:みなと元町駅","merged_from":3,"merged_names":null,"is_terminus":false,"codes":["K03"],"routes":[{"ref":"K","name":"Subway 神戸市営地下鉄海岸線","route_color":"#267dce"}],"pass_count":1,"station_degree":2,"is_interchange":false,"station_role":"normal"},"geometry":{"type":"Point","coordinates":[135.1835477666667,34.6856337]},"__memberLines":{}},{"type":"Feature","properties":{"station_id":"n519698048","station_name":"県庁前","station_name_local":"県庁前","station_name_en":"Kenchomae","city":"Kobe","country":"Japan","lines":["S"],"wikipedia":"ja:県庁前駅 (兵庫県)","merged_from":3,"merged_names":null,"is_terminus":false,"codes":["S04"],"routes":[{"ref":"S","name":"Subway 神戸市営地下鉄西神・山手線/北神線","route_color":"#00ae8e"}],"pass_count":1,"station_degree":2,"is_interchange":false,"station_role":"normal"},"geometry":{"type":"Point","coordinates":[135.18399586666666,34.6910109]},"__memberLines":{}},{"type":"Feature","properties":{"station_id":"n519698679","station_name":"旧居留地・大丸前","station_name_local":"旧居留地・大丸前","station_name_en":"Kyukyoryuchi-Daimarumae","city":"Kobe","country":"Japan","lines":["K"],"wikipedia":"ja:旧居留地・大丸前駅","merged_from":3,"merged_names":null,"is_terminus":false,"codes":["K02"],"routes":[{"ref":"K","name":"Subway 神戸市営地下鉄海岸線","route_color":"#267dce"}],"pass_count":1,"station_degree":2,"is_interchange":false,"station_role":"normal"},"geometry":{"type":"Point","coordinates":[135.19057513333334,34.6895927]},"__memberLines":{}},{"type":"Feature","properties":{"station_id":"n519699233","station_name":"三宮・花時計前","station_name_local":"三宮・花時計前","station_name_en":"Sannomiya-Hanadokeimae","city":"Kobe","country":"Japan","lines":["K"],"wikipedia":null,"merged_from":3,"merged_names":null,"is_terminus":true,"codes":["K01"],"routes":[{"ref":"K","name":"Subway 神戸市営地下鉄海岸線","route_color":"#267dce"}],"pass_count":1,"station_degree":1,"is_interchange":false,"station_role":"terminus"},"geometry":{"type":"Point","coordinates":[135.1959053,34.69176493333333]},"__memberLines":{}},{"type":"Feature","properties":{"station_id":"n519699425","station_name":"三宮","station_name_local":"三宮","station_name_en":"Sannomiya","city":"Kobe","country":"Japan","lines":["P","S"],"wikipedia":null,"merged_from":6,"merged_names":null,"is_terminus":false,"codes":["P01","S03"],"routes":[{"ref":"P","name":"ポートライナー","route_color":"#3573bd"},{"ref":"S","name":"Subway 神戸市営地下鉄西神・山手線/北神線","route_color":"#00ae8e"}],"pass_count":3,"station_degree":3,"is_interchange":true,"station_role":"interchange"},"geometry":{"type":"Point","coordinates":[135.19382851666666,34.694231916666666]},"__memberLines":{}},{"type":"Feature","properties":{"station_id":"n3720362729","station_name":"名谷","station_name_local":"名谷","station_name_en":"Myōdani","city":"Kobe","country":"Japan","lines":["S"],"wikipedia":null,"merged_from":5,"merged_names":null,"is_terminus":false,"codes":["S12"],"routes":[{"ref":"S","name":"Subway 神戸市営地下鉄西神・山手線/北神線","route_color":"#00ae8e"}],"pass_count":1,"station_degree":2,"is_interchange":false,"station_role":"normal"},"geometry":{"type":"Point","coordinates":[135.09457296,34.67931202]},"__memberLines":{}},{"type":"Feature","properties":{"station_id":"n3721936227","station_name":"西神中央","station_name_local":"西神中央","station_name_en":"Seishin Chuo","city":"Kobe","country":"Japan","lines":["S"],"wikipedia":"ja:西神中央駅","merged_from":3,"merged_names":null,"is_terminus":true,"routes":[{"ref":"S","name":"Subway 神戸市営地下鉄西神・山手線/北神線","route_color":"#00ae8e"}],"pass_count":1,"station_degree":1,"codes":null,"is_interchange":false,"station_role":"terminus"},"geometry":{"type":"Point","coordinates":[135.01740186666666,34.7194035]},"__memberLines":{}},{"type":"Feature","properties":{"station_id":"n5214409621","station_name":"谷上","station_name_local":"谷上","station_name_en":"Tanigami","city":"Kobe","country":"Japan","lines":["S"],"wikipedia":null,"merged_from":3,"merged_names":null,"is_terminus":true,"codes":["S01"],"routes":[{"ref":"S","name":"Subway 神戸市営地下鉄西神・山手線/北神線","route_color":"#00ae8e"}],"pass_count":1,"station_degree":1,"is_interchange":false,"station_role":"terminus"},"geometry":{"type":"Point","coordinates":[135.1714852,34.76154476666667]},"__memberLines":{}},{"type":"Feature","properties":{"station_id":"n4611600441","station_name":"大倉山","station_name_local":"大倉山","station_name_en":"Okurayama","city":"Kobe","country":"Japan","lines":["S"],"wikipedia":"ja:大倉山駅(兵庫県)","merged_from":3,"merged_names":null,"is_terminus":false,"routes":[{"ref":"S","name":"Subway 神戸市営地下鉄西神・山手線/北神線","route_color":"#00ae8e"}],"pass_count":1,"station_degree":2,"codes":null,"is_interchange":false,"station_role":"normal"},"geometry":{"type":"Point","coordinates":[135.1746514,34.684676599999996]},"__memberLines":{}}]}