{"type":"FeatureCollection","metro_system":{"continent":"europe","country":"Romania","city":"Bucharest","official_website":null,"official_map":"https://en.wikipedia.org/wiki/Bucharest_Metro","wikipedia":"en:Bucharest Metro","wiki":true,"wikipedia_zh":"zh:布加勒斯特地铁","line_count":6,"segment_count":12,"station_count":57,"modes":["metro"],"audit":{"strategies_tried":[],"passed":true,"checks":[{"id":"system_exists","ok":true,"detail":"matched OSM system metro-maps/europe/romania/eu-rou-bucharest/eu-rou-bucharest.geojson","level":"error"},{"id":"has_lines","ok":true,"detail":"6 lines","level":"error"},{"id":"has_stations","ok":true,"detail":"59 stations","level":"error"},{"id":"station_count_info","ok":true,"detail":"OSM 59 站（wiki List 記 64，計法含轉乘重複，僅參考）","level":"warn"},{"id":"stations_have_lines","ok":true,"detail":"59/59 站皆有所屬路線","level":"error"},{"id":"line_geometry_stations","ok":true,"detail":"69 個折點/端點皆為車站","level":"error"},{"id":"route_stations_match_geometry","ok":true,"detail":"各線車站列表與圖面一致","level":"error"},{"id":"interchange_rule","ok":true,"detail":"所有車站紅/藍點符合骨架＋路線色規則（藍＝端點、紅＝交叉）","level":"error"},{"id":"stations_named","ok":true,"detail":"59/59 站皆有名稱","level":"error"},{"id":"station_order","ok":true,"detail":"所有線路站序合理","level":"warn"},{"id":"station_span","ok":true,"detail":"各線相鄰站距與系統站群跨度正常","level":"error"},{"id":"line_wiki_stations","ok":true,"detail":"各線站數與 wiki 線路條目相符（營運中站數）","level":"error"},{"id":"line_wiki_coverage","ok":false,"detail":"24 條線無 wiki 站數對照：Magistrala 5、Magistrala 5、Tram 21","level":"warn"}],"reasons":[],"warnings":["24 條線無 wiki 站數對照：Magistrala 5、Magistrala 5、Tram 21"],"audited_at":"2026-07-29T11:38:41.088Z"}},"features":[{"type":"Feature","properties":{"seg_id":"bucharest-0","routes":[{"route_id":"rm7772846","route_name":"Magistrala 3","route_name_local":"Magistrala 3","route_name_en":null,"route_ref":"M3","route_color":"#bc1725","wikipedia":"en:Bucharest Metro Line M3","osm_route_ids":[358039,7772843],"status":null,"order_suspect":0,"span_suspect":0,"stations":[{"station_id":"n5916880386","station_name":"Preciziei"},{"station_id":"n343206043","station_name":"Păcii"},{"station_id":"n5916877079","station_name":"Gorjului"},{"station_id":"n5916877081","station_name":"Lujerului"},{"station_id":"n2817755345","station_name":"Politehnica"},{"station_id":"n8429628727","station_name":"Eroilor"},{"station_id":"n31983306","station_name":"Izvor"},{"station_id":"n8450731676","station_name":"Piața Unirii 1"},{"station_id":"n2817826933","station_name":"Timpuri Noi"},{"station_id":"n8450731673","station_name":"Mihai Bravu"},{"station_id":"n8450731671","station_name":"Dristor 1"},{"station_id":"n8450731648","station_name":"Nicolae Grigorescu 1"},{"station_id":"n8445669562","station_name":"1 Decembrie 1918"},{"station_id":"n8445669551","station_name":"Nicolae Teclu"},{"station_id":"n5351714727","station_name":"Anghel Saligny"}]}],"route_count":1,"route_refs":["M3"],"route_colors":["#bc1725"],"city":"Bucharest","country":"Romania"},"geometry":{"type":"MultiLineString","coordinates":[[[25.99096693333333,44.43058216666666],[26.004127166666667,44.43391483333334],[26.021201633333334,44.434226233333334],[26.03278416666667,44.4343836],[26.055389133333335,44.43527056666667],[26.075049171428567,44.43496725714285]]]}},{"type":"Feature","properties":{"seg_id":"bucharest-1","routes":[{"route_id":"rm7772846","route_name":"Magistrala 3","route_name_local":"Magistrala 3","route_name_en":null,"route_ref":"M3","route_color":"#bc1725","wikipedia":"en:Bucharest Metro Line M3","osm_route_ids":[358039,7772843],"status":null,"order_suspect":0,"span_suspect":0,"stations":[{"station_id":"n5916880386","station_name":"Preciziei"},{"station_id":"n343206043","station_name":"Păcii"},{"station_id":"n5916877079","station_name":"Gorjului"},{"station_id":"n5916877081","station_name":"Lujerului"},{"station_id":"n2817755345","station_name":"Politehnica"},{"station_id":"n8429628727","station_name":"Eroilor"},{"station_id":"n31983306","station_name":"Izvor"},{"station_id":"n8450731676","station_name":"Piața Unirii 1"},{"station_id":"n2817826933","station_name":"Timpuri Noi"},{"station_id":"n8450731673","station_name":"Mihai Bravu"},{"station_id":"n8450731671","station_name":"Dristor 1"},{"station_id":"n8450731648","station_name":"Nicolae Grigorescu 1"},{"station_id":"n8445669562","station_name":"1 Decembrie 1918"},{"station_id":"n8445669551","station_name":"Nicolae Teclu"},{"station_id":"n5351714727","station_name":"Anghel Saligny"}]}],"route_count":1,"route_refs":["M3"],"route_colors":["#bc1725"],"city":"Bucharest","country":"Romania"},"geometry":{"type":"MultiLineString","coordinates":[[[26.160836080000003,44.41345834],[26.1741379,44.4104916],[26.1945793,44.40725943333334],[26.209485666666666,44.405401000000005]]]}},{"type":"Feature","properties":{"seg_id":"bucharest-2","routes":[{"route_id":"rm7772846","route_name":"Magistrala 3","route_name_local":"Magistrala 3","route_name_en":null,"route_ref":"M3","route_color":"#bc1725","wikipedia":"en:Bucharest Metro Line M3","osm_route_ids":[358039,7772843],"status":null,"order_suspect":0,"span_suspect":0,"stations":[{"station_id":"n5916880386","station_name":"Preciziei"},{"station_id":"n343206043","station_name":"Păcii"},{"station_id":"n5916877079","station_name":"Gorjului"},{"station_id":"n5916877081","station_name":"Lujerului"},{"station_id":"n2817755345","station_name":"Politehnica"},{"station_id":"n8429628727","station_name":"Eroilor"},{"station_id":"n31983306","station_name":"Izvor"},{"station_id":"n8450731676","station_name":"Piața Unirii 1"},{"station_id":"n2817826933","station_name":"Timpuri Noi"},{"station_id":"n8450731673","station_name":"Mihai Bravu"},{"station_id":"n8450731671","station_name":"Dristor 1"},{"station_id":"n8450731648","station_name":"Nicolae Grigorescu 1"},{"station_id":"n8445669562","station_name":"1 Decembrie 1918"},{"station_id":"n8445669551","station_name":"Nicolae Teclu"},{"station_id":"n5351714727","station_name":"Anghel Saligny"}]},{"route_id":"rm7772847","route_name":"Magistrala 1","route_name_local":"Magistrala 1","route_name_en":null,"route_ref":"M1","route_color":"#ffff00","wikipedia":"en:Bucharest Metro Line M1","osm_route_ids":[358046,7772817],"status":null,"order_suspect":0,"span_suspect":0,"stations":[{"station_id":"n256671289","station_name":"Pantelimon"},{"station_id":"n256681569","station_name":"Republica"},{"station_id":"n8450711714","station_name":"Costin Georgian"},{"station_id":"n8450711713","station_name":"Titan"},{"station_id":"n8450731648","station_name":"Nicolae Grigorescu 2"},{"station_id":"n8450731671","station_name":"Dristor 2"},{"station_id":"n8450731673","station_name":"Mihai Bravu"},{"station_id":"n2817826933","station_name":"Timpuri Noi"},{"station_id":"n8450731676","station_name":"Piața Unirii 1"},{"station_id":"n31983306","station_name":"Izvor"},{"station_id":"n8429628727","station_name":"Eroilor"},{"station_id":"n9486047004","station_name":"Grozăvești"},{"station_id":"n9486047008","station_name":"Petrache Poenaru"},{"station_id":"n9486047009","station_name":"Crângași"},{"station_id":"n8426597558","station_name":"Basarab 1 - M1"},{"station_id":"n2844885590","station_name":"Gara de Nord 1"},{"station_id":"n582553758","station_name":"Piața Victoriei 1"},{"station_id":"n9486047010","station_name":"Ștefan cel Mare"},{"station_id":"n8452436794","station_name":"Obor"},{"station_id":"n559959472","station_name":"Piața Iancului"},{"station_id":"n9486050647","station_name":"Piața Muncii"},{"station_id":"n8450731671","station_name":"Dristor 2"}]}],"route_count":2,"route_refs":["M3","M1"],"route_colors":["#bc1725","#ffff00"],"city":"Bucharest","country":"Romania"},"geometry":{"type":"MultiLineString","coordinates":[[[26.075049171428567,44.43496725714285],[26.089650633333335,44.433099],[26.103020283333333,44.4276394],[26.113458766666668,44.41685486666666],[26.125807766666668,44.411254500000005],[26.140094249999997,44.4197551],[26.160836080000003,44.41345834]]]}},{"type":"Feature","properties":{"seg_id":"bucharest-3","routes":[{"route_id":"rm7772847","route_name":"Magistrala 1","route_name_local":"Magistrala 1","route_name_en":null,"route_ref":"M1","route_color":"#ffff00","wikipedia":"en:Bucharest Metro Line M1","osm_route_ids":[358046,7772817],"status":null,"order_suspect":0,"span_suspect":0,"stations":[{"station_id":"n256671289","station_name":"Pantelimon"},{"station_id":"n256681569","station_name":"Republica"},{"station_id":"n8450711714","station_name":"Costin Georgian"},{"station_id":"n8450711713","station_name":"Titan"},{"station_id":"n8450731648","station_name":"Nicolae Grigorescu 2"},{"station_id":"n8450731671","station_name":"Dristor 2"},{"station_id":"n8450731673","station_name":"Mihai Bravu"},{"station_id":"n2817826933","station_name":"Timpuri Noi"},{"station_id":"n8450731676","station_name":"Piața Unirii 1"},{"station_id":"n31983306","station_name":"Izvor"},{"station_id":"n8429628727","station_name":"Eroilor"},{"station_id":"n9486047004","station_name":"Grozăvești"},{"station_id":"n9486047008","station_name":"Petrache Poenaru"},{"station_id":"n9486047009","station_name":"Crângași"},{"station_id":"n8426597558","station_name":"Basarab 1 - M1"},{"station_id":"n2844885590","station_name":"Gara de Nord 1"},{"station_id":"n582553758","station_name":"Piața Victoriei 1"},{"station_id":"n9486047010","station_name":"Ștefan cel Mare"},{"station_id":"n8452436794","station_name":"Obor"},{"station_id":"n559959472","station_name":"Piața Iancului"},{"station_id":"n9486050647","station_name":"Piața Muncii"},{"station_id":"n8450731671","station_name":"Dristor 2"}]}],"route_count":1,"route_refs":["M1"],"route_colors":["#ffff00"],"city":"Bucharest","country":"Romania"},"geometry":{"type":"MultiLineString","coordinates":[[[26.187137200000002,44.44035074],[26.185351739999998,44.43421932],[26.169120333333336,44.435114266666666],[26.162719666666664,44.425795533333336],[26.160836080000003,44.41345834]]]}},{"type":"Feature","properties":{"seg_id":"bucharest-4","routes":[{"route_id":"rm7772847","route_name":"Magistrala 1","route_name_local":"Magistrala 1","route_name_en":null,"route_ref":"M1","route_color":"#ffff00","wikipedia":"en:Bucharest Metro Line M1","osm_route_ids":[358046,7772817],"status":null,"order_suspect":0,"span_suspect":0,"stations":[{"station_id":"n256671289","station_name":"Pantelimon"},{"station_id":"n256681569","station_name":"Republica"},{"station_id":"n8450711714","station_name":"Costin Georgian"},{"station_id":"n8450711713","station_name":"Titan"},{"station_id":"n8450731648","station_name":"Nicolae Grigorescu 2"},{"station_id":"n8450731671","station_name":"Dristor 2"},{"station_id":"n8450731673","station_name":"Mihai Bravu"},{"station_id":"n2817826933","station_name":"Timpuri Noi"},{"station_id":"n8450731676","station_name":"Piața Unirii 1"},{"station_id":"n31983306","station_name":"Izvor"},{"station_id":"n8429628727","station_name":"Eroilor"},{"station_id":"n9486047004","station_name":"Grozăvești"},{"station_id":"n9486047008","station_name":"Petrache Poenaru"},{"station_id":"n9486047009","station_name":"Crângași"},{"station_id":"n8426597558","station_name":"Basarab 1 - M1"},{"station_id":"n2844885590","station_name":"Gara de Nord 1"},{"station_id":"n582553758","station_name":"Piața Victoriei 1"},{"station_id":"n9486047010","station_name":"Ștefan cel Mare"},{"station_id":"n8452436794","station_name":"Obor"},{"station_id":"n559959472","station_name":"Piața Iancului"},{"station_id":"n9486050647","station_name":"Piața Muncii"},{"station_id":"n8450731671","station_name":"Dristor 2"}]}],"route_count":1,"route_refs":["M1"],"route_colors":["#ffff00"],"city":"Bucharest","country":"Romania"},"geometry":{"type":"MultiLineString","coordinates":[[[26.075049171428567,44.43496725714285],[26.060408033333335,44.44272706666666],[26.046536833333334,44.44542936666667],[26.0471976,44.451950133333334],[26.06841371666667,44.45074888333334]]]}},{"type":"Feature","properties":{"seg_id":"bucharest-5","routes":[{"route_id":"rm7772847","route_name":"Magistrala 1","route_name_local":"Magistrala 1","route_name_en":null,"route_ref":"M1","route_color":"#ffff00","wikipedia":"en:Bucharest Metro Line M1","osm_route_ids":[358046,7772817],"status":null,"order_suspect":0,"span_suspect":0,"stations":[{"station_id":"n256671289","station_name":"Pantelimon"},{"station_id":"n256681569","station_name":"Republica"},{"station_id":"n8450711714","station_name":"Costin Georgian"},{"station_id":"n8450711713","station_name":"Titan"},{"station_id":"n8450731648","station_name":"Nicolae Grigorescu 2"},{"station_id":"n8450731671","station_name":"Dristor 2"},{"station_id":"n8450731673","station_name":"Mihai Bravu"},{"station_id":"n2817826933","station_name":"Timpuri Noi"},{"station_id":"n8450731676","station_name":"Piața Unirii 1"},{"station_id":"n31983306","station_name":"Izvor"},{"station_id":"n8429628727","station_name":"Eroilor"},{"station_id":"n9486047004","station_name":"Grozăvești"},{"station_id":"n9486047008","station_name":"Petrache Poenaru"},{"station_id":"n9486047009","station_name":"Crângași"},{"station_id":"n8426597558","station_name":"Basarab 1 - M1"},{"station_id":"n2844885590","station_name":"Gara de Nord 1"},{"station_id":"n582553758","station_name":"Piața Victoriei 1"},{"station_id":"n9486047010","station_name":"Ștefan cel Mare"},{"station_id":"n8452436794","station_name":"Obor"},{"station_id":"n559959472","station_name":"Piața Iancului"},{"station_id":"n9486050647","station_name":"Piața Muncii"},{"station_id":"n8450731671","station_name":"Dristor 2"}]}],"route_count":1,"route_refs":["M1"],"route_colors":["#ffff00"],"city":"Bucharest","country":"Romania"},"geometry":{"type":"MultiLineString","coordinates":[[[26.074957299999998,44.44743643333334],[26.086714799999996,44.452367983333325],[26.1045383,44.45291846666667],[26.12468743333333,44.449356800000004],[26.133353057142852,44.44148054285715],[26.138688933333338,44.431836833333335],[26.140094249999997,44.4197551]]]}},{"type":"Feature","properties":{"seg_id":"bucharest-6","routes":[{"route_id":"rm7772847","route_name":"Magistrala 1","route_name_local":"Magistrala 1","route_name_en":null,"route_ref":"M1","route_color":"#ffff00","wikipedia":"en:Bucharest Metro Line M1","osm_route_ids":[358046,7772817],"status":null,"order_suspect":0,"span_suspect":0,"stations":[{"station_id":"n256671289","station_name":"Pantelimon"},{"station_id":"n256681569","station_name":"Republica"},{"station_id":"n8450711714","station_name":"Costin Georgian"},{"station_id":"n8450711713","station_name":"Titan"},{"station_id":"n8450731648","station_name":"Nicolae Grigorescu 2"},{"station_id":"n8450731671","station_name":"Dristor 2"},{"station_id":"n8450731673","station_name":"Mihai Bravu"},{"station_id":"n2817826933","station_name":"Timpuri Noi"},{"station_id":"n8450731676","station_name":"Piața Unirii 1"},{"station_id":"n31983306","station_name":"Izvor"},{"station_id":"n8429628727","station_name":"Eroilor"},{"station_id":"n9486047004","station_name":"Grozăvești"},{"station_id":"n9486047008","station_name":"Petrache Poenaru"},{"station_id":"n9486047009","station_name":"Crângași"},{"station_id":"n8426597558","station_name":"Basarab 1 - M1"},{"station_id":"n2844885590","station_name":"Gara de Nord 1"},{"station_id":"n582553758","station_name":"Piața Victoriei 1"},{"station_id":"n9486047010","station_name":"Ștefan cel Mare"},{"station_id":"n8452436794","station_name":"Obor"},{"station_id":"n559959472","station_name":"Piața Iancului"},{"station_id":"n9486050647","station_name":"Piața Muncii"},{"station_id":"n8450731671","station_name":"Dristor 2"}]},{"route_id":"rm2568424","route_name":"Magistrala 4","route_name_local":"Magistrala 4","route_name_en":null,"route_ref":"M4","route_color":"#228b22","wikipedia":"en:Bucharest Metro Line M4","osm_route_ids":[380909,2565649],"status":null,"order_suspect":0,"span_suspect":0,"stations":[{"station_id":"n2844885590","station_name":"Gara de Nord 2"},{"station_id":"n8426597558","station_name":"Basarab 1 - M1"},{"station_id":"n2844729447","station_name":"Grivița"},{"station_id":"n610921616","station_name":"1 Mai"},{"station_id":"n2844677026","station_name":"Jiului"},{"station_id":"n8413348839","station_name":"Parc Bazilescu"},{"station_id":"n8413348838","station_name":"Laminorului"},{"station_id":"n8413348837","station_name":"Străulești"}]}],"route_count":2,"route_refs":["M1","M4"],"route_colors":["#ffff00","#228b22"],"city":"Bucharest","country":"Romania"},"geometry":{"type":"MultiLineString","coordinates":[[[26.06841371666667,44.45074888333334],[26.074957299999998,44.44743643333334]]]}},{"type":"Feature","properties":{"seg_id":"bucharest-7","routes":[{"route_id":"rm2568424","route_name":"Magistrala 4","route_name_local":"Magistrala 4","route_name_en":null,"route_ref":"M4","route_color":"#228b22","wikipedia":"en:Bucharest Metro Line M4","osm_route_ids":[380909,2565649],"status":null,"order_suspect":0,"span_suspect":0,"stations":[{"station_id":"n2844885590","station_name":"Gara de Nord 2"},{"station_id":"n8426597558","station_name":"Basarab 1 - M1"},{"station_id":"n2844729447","station_name":"Grivița"},{"station_id":"n610921616","station_name":"1 Mai"},{"station_id":"n2844677026","station_name":"Jiului"},{"station_id":"n8413348839","station_name":"Parc Bazilescu"},{"station_id":"n8413348838","station_name":"Laminorului"},{"station_id":"n8413348837","station_name":"Străulești"}]}],"route_count":1,"route_refs":["M4"],"route_colors":["#228b22"],"city":"Bucharest","country":"Romania"},"geometry":{"type":"MultiLineString","coordinates":[[[26.06841371666667,44.45074888333334],[26.057480766666668,44.46179246666666],[26.0506393,44.470523033333336],[26.0415462,44.48159263333333],[26.0375653,44.48665083333333],[26.031778433333333,44.494555],[26.02620573333333,44.50170673333333]]]}},{"type":"Feature","properties":{"seg_id":"bucharest-8","routes":[{"route_id":"rm2947130","route_name":"Magistrala 2","route_name_local":"Magistrala 2","route_name_en":null,"route_ref":"M2","route_color":"#4b5799","wikipedia":"en:Bucharest Metro Line M2","osm_route_ids":[2947020,2947113],"status":null,"order_suspect":0,"span_suspect":0,"stations":[{"station_id":"n11350522261","station_name":"Tudor Arghezi"},{"station_id":"n8455390596","station_name":"Berceni"},{"station_id":"n5916880987","station_name":"Dimitrie Leonida"},{"station_id":"n5916880783","station_name":"Apărătorii Patriei"},{"station_id":"n113932810","station_name":"Piața Sudului"},{"station_id":"n5916880767","station_name":"Constantin Brâncoveanu"},{"station_id":"n5916880758","station_name":"Eroii Revoluției"},{"station_id":"n8455390588","station_name":"Tineretului"},{"station_id":"n8450731676","station_name":"Piața Unirii 2"},{"station_id":"n5916881049","station_name":"Universitate"},{"station_id":"n5916881047","station_name":"Piața Romană"},{"station_id":"n582553758","station_name":"Piața Victoriei 2"},{"station_id":"n8455390578","station_name":"Aviatorilor"},{"station_id":"n5916881009","station_name":"Aurel Vlaicu"},{"station_id":"n5916880995","station_name":"Pipera"}]}],"route_count":1,"route_refs":["M2"],"route_colors":["#4b5799"],"city":"Bucharest","country":"Romania"},"geometry":{"type":"MultiLineString","coordinates":[[[26.159301433333336,44.347985666666666],[26.149306166666666,44.36123596666667],[26.1435611,44.3688347],[26.135061133333334,44.37938346666667],[26.12159395714286,44.39332784285715],[26.109098466666666,44.398654300000004],[26.09672026666667,44.403825100000006],[26.104502666666665,44.41548306666667],[26.103020283333333,44.4276394],[26.102112266666666,44.43622836666666],[26.097694066666666,44.445375033333335],[26.086714799999996,44.452367983333325],[26.086647233333334,44.4660072],[26.100299500000002,44.479169333333324],[26.116628533333337,44.480622833333335]]]}},{"type":"Feature","properties":{"seg_id":"bucharest-9","routes":[{"route_id":"rm11697885","route_name":"Magistrala 5","route_name_local":"Magistrala 5","route_name_en":null,"route_ref":"M5","route_color":"#ff8040","wikipedia":"en:Bucharest Metro Line M5","osm_route_ids":[11697879,11697882,11697884],"status":null,"order_suspect":0,"span_suspect":0,"stations":[{"station_id":"n7925090328","station_name":"Râul Doamnei"},{"station_id":"n7925090313","station_name":"Constantin Brâncuși"},{"station_id":"n1558217880","station_name":"Romancierilor"},{"station_id":"n7925084881","station_name":"Parc Drumul Taberei"},{"station_id":"n9491084760","station_name":"Tudor Vladimirescu"},{"station_id":"n9497950459","station_name":"Favorit"},{"station_id":"n9497950456","station_name":"Orizont"},{"station_id":"n9492184764","station_name":"Academia Militară"},{"station_id":"n8429628727","station_name":"Eroilor"}]}],"route_count":1,"route_refs":["M5"],"route_colors":["#ff8040"],"city":"Bucharest","country":"Romania"},"geometry":{"type":"MultiLineString","coordinates":[[[26.0243966,44.415012233333336],[26.020308733333334,44.4190702],[26.02420292,44.42443049999999]]]}},{"type":"Feature","properties":{"seg_id":"bucharest-10","routes":[{"route_id":"rm11697885","route_name":"Magistrala 5","route_name_local":"Magistrala 5","route_name_en":null,"route_ref":"M5","route_color":"#ff8040","wikipedia":"en:Bucharest Metro Line M5","osm_route_ids":[11697879,11697882,11697884],"status":null,"order_suspect":0,"span_suspect":0,"stations":[{"station_id":"n7925090328","station_name":"Râul Doamnei"},{"station_id":"n7925090313","station_name":"Constantin Brâncuși"},{"station_id":"n1558217880","station_name":"Romancierilor"},{"station_id":"n7925084881","station_name":"Parc Drumul Taberei"},{"station_id":"n9491084760","station_name":"Tudor Vladimirescu"},{"station_id":"n9497950459","station_name":"Favorit"},{"station_id":"n9497950456","station_name":"Orizont"},{"station_id":"n9492184764","station_name":"Academia Militară"},{"station_id":"n8429628727","station_name":"Eroilor"}]},{"route_id":"r11697878","route_name":"Magistrala 5","route_name_local":"Magistrala 5","route_name_en":null,"route_ref":"M5","route_color":"#ff8040","wikipedia":"en:Bucharest Metro Line M5","osm_route_ids":[11697878],"status":null,"order_suspect":0,"span_suspect":0,"stations":[{"station_id":"n7925090353","station_name":"Valea Ialomiței"},{"station_id":"n1558217880","station_name":"Romancierilor"},{"station_id":"n7925084881","station_name":"Parc Drumul Taberei"},{"station_id":"n9491084760","station_name":"Tudor Vladimirescu"},{"station_id":"n9497950459","station_name":"Favorit"},{"station_id":"n9497950456","station_name":"Orizont"},{"station_id":"n9492184764","station_name":"Academia Militară"},{"station_id":"n8429628727","station_name":"Eroilor"}]}],"route_count":2,"route_refs":["M5","M5"],"route_colors":["#ff8040","#ff8040"],"city":"Bucharest","country":"Romania"},"geometry":{"type":"MultiLineString","coordinates":[[[26.02420292,44.42443049999999],[26.033061533333335,44.4222215],[26.04131343333333,44.42305376666667],[26.048340299999996,44.42464853333333],[26.055872433333334,44.42587356666667],[26.0628506,44.42891383333333],[26.075049171428567,44.43496725714285]]]}},{"type":"Feature","properties":{"seg_id":"bucharest-11","routes":[{"route_id":"r11697878","route_name":"Magistrala 5","route_name_local":"Magistrala 5","route_name_en":null,"route_ref":"M5","route_color":"#ff8040","wikipedia":"en:Bucharest Metro Line M5","osm_route_ids":[11697878],"status":null,"order_suspect":0,"span_suspect":0,"stations":[{"station_id":"n7925090353","station_name":"Valea Ialomiței"},{"station_id":"n1558217880","station_name":"Romancierilor"},{"station_id":"n7925084881","station_name":"Parc Drumul Taberei"},{"station_id":"n9491084760","station_name":"Tudor Vladimirescu"},{"station_id":"n9497950459","station_name":"Favorit"},{"station_id":"n9497950456","station_name":"Orizont"},{"station_id":"n9492184764","station_name":"Academia Militară"},{"station_id":"n8429628727","station_name":"Eroilor"}]}],"route_count":1,"route_refs":["M5"],"route_colors":["#ff8040"],"city":"Bucharest","country":"Romania"},"geometry":{"type":"MultiLineString","coordinates":[[[26.013968133333332,44.421068],[26.02420292,44.42443049999999]]]}},{"type":"Feature","properties":{"station_id":"n31983306","station_name":"Izvor","station_name_local":"Izvor","station_name_en":null,"city":"Bucharest","country":"Romania","lines":["M1","M3"],"wikipedia":null,"merged_from":3,"merged_names":null,"is_terminus":false,"routes":[{"ref":"M1","name":"Magistrala 1","route_color":"#ffff00"},{"ref":"M3","name":"Magistrala 3","route_color":"#bc1725"}],"pass_count":2,"station_degree":2,"codes":null,"is_interchange":false,"station_role":"normal"},"geometry":{"type":"Point","coordinates":[26.089650633333335,44.433099]},"__memberLines":{}},{"type":"Feature","properties":{"station_id":"n113932810","station_name":"Piața Sudului","station_name_local":"Piața Sudului","station_name_en":null,"city":"Bucharest","country":"Romania","lines":["M2"],"wikipedia":null,"merged_from":7,"merged_names":null,"is_terminus":false,"codes":["1","10","232","610"],"routes":[{"ref":"M2","name":"Magistrala 2","route_color":"#4b5799"}],"pass_count":1,"station_degree":2,"is_interchange":false,"station_role":"normal"},"geometry":{"type":"Point","coordinates":[26.12159395714286,44.39332784285715]},"__memberLines":{}},{"type":"Feature","properties":{"station_id":"n256671289","station_name":"Pantelimon","station_name_local":"Pantelimon","station_name_en":null,"city":"Bucharest","country":"Romania","lines":["M1"],"wikipedia":null,"merged_from":5,"merged_names":null,"is_terminus":true,"routes":[{"ref":"M1","name":"Magistrala 1","route_color":"#ffff00"}],"pass_count":1,"station_degree":1,"codes":null,"is_interchange":false,"station_role":"terminus"},"geometry":{"type":"Point","coordinates":[26.187137200000002,44.44035074]},"__memberLines":{}},{"type":"Feature","properties":{"station_id":"n256681569","station_name":"Republica","station_name_local":"Republica","station_name_en":null,"city":"Bucharest","country":"Romania","lines":["M1"],"wikipedia":null,"merged_from":5,"merged_names":null,"is_terminus":false,"routes":[{"ref":"M1","name":"Magistrala 1","route_color":"#ffff00"}],"pass_count":1,"station_degree":2,"codes":null,"is_interchange":false,"station_role":"normal"},"geometry":{"type":"Point","coordinates":[26.185351739999998,44.43421932]},"__memberLines":{}},{"type":"Feature","properties":{"station_id":"n343206043","station_name":"Păcii","station_name_local":"Păcii","station_name_en":null,"city":"Bucharest","country":"Romania","lines":["M3"],"wikipedia":null,"merged_from":3,"merged_names":null,"is_terminus":false,"routes":[{"ref":"M3","name":"Magistrala 3","route_color":"#bc1725"}],"pass_count":1,"station_degree":2,"codes":null,"is_interchange":false,"station_role":"normal"},"geometry":{"type":"Point","coordinates":[26.004127166666667,44.43391483333334]},"__memberLines":{}},{"type":"Feature","properties":{"station_id":"n8450731671","station_name":"Dristor 1 / Dristorului / Dristor 2","station_name_local":"Dristor 1 / Dristorului / Dristor 2","station_name_en":null,"city":"Bucharest","country":"Romania","lines":["M1","M3"],"wikipedia":null,"merged_from":8,"merged_names":[{"station_id":"n8450731671","station_name":"Dristor 1","station_name_local":"Dristor 1","lines":["M1","M3"]},{"station_id":"n419022077","station_name":"Dristorului","station_name_local":"Dristorului","lines":["M1","M3"]},{"station_id":"n9486050652","station_name":"Dristor 2","station_name_local":"Dristor 2","lines":["M1"]}],"is_terminus":false,"routes":[{"ref":"M1","name":"Magistrala 1","route_color":"#ffff00"},{"ref":"M3","name":"Magistrala 3","route_color":"#bc1725"}],"pass_count":3,"station_degree":3,"codes":null,"is_interchange":true,"station_role":"interchange"},"geometry":{"type":"Point","coordinates":[26.140094249999997,44.4197551]},"__memberLines":{}},{"type":"Feature","properties":{"station_id":"n559959472","station_name":"Piața Iancului","station_name_local":"Piața Iancului","station_name_en":null,"city":"Bucharest","country":"Romania","lines":["M1"],"wikipedia":null,"merged_from":7,"merged_names":null,"is_terminus":false,"codes":["1"],"routes":[{"ref":"M1","name":"Magistrala 1","route_color":"#ffff00"}],"pass_count":1,"station_degree":2,"is_interchange":false,"station_role":"normal"},"geometry":{"type":"Point","coordinates":[26.133353057142852,44.44148054285715]},"__memberLines":{}},{"type":"Feature","properties":{"station_id":"n582553758","station_name":"Piața Victoriei 2 / Piața Victoriei 1","station_name_local":"Piața Victoriei 2 / Piața Victoriei 1","station_name_en":null,"city":"Bucharest","country":"Romania","lines":["M1","M2"],"wikipedia":null,"merged_from":6,"merged_names":[{"station_id":"n582553758","station_name":"Piața Victoriei 2","station_name_local":"Piața Victoriei 2","lines":["M2"]},{"station_id":"n9486047015","station_name":"Piața Victoriei 1","station_name_local":"Piața Victoriei 1","lines":["M1"]}],"is_terminus":false,"routes":[{"ref":"M1","name":"Magistrala 1","route_color":"#ffff00"},{"ref":"M2","name":"Magistrala 2","route_color":"#4b5799"}],"pass_count":2,"station_degree":4,"codes":null,"is_interchange":true,"station_role":"interchange"},"geometry":{"type":"Point","coordinates":[26.086714799999996,44.452367983333325]},"__memberLines":{}},{"type":"Feature","properties":{"station_id":"n610921616","station_name":"1 Mai","station_name_local":"1 Mai","station_name_en":null,"city":"Bucharest","country":"Romania","lines":["M4"],"wikipedia":null,"merged_from":3,"merged_names":null,"is_terminus":false,"routes":[{"ref":"M4","name":"Magistrala 4","route_color":"#228b22"}],"pass_count":1,"station_degree":2,"codes":null,"is_interchange":false,"station_role":"normal"},"geometry":{"type":"Point","coordinates":[26.0506393,44.470523033333336]},"__memberLines":{}},{"type":"Feature","properties":{"station_id":"n1558217880","station_name":"Romancierilor","station_name_local":"Romancierilor","station_name_en":null,"city":"Bucharest","country":"Romania","lines":["M5"],"wikipedia":null,"merged_from":5,"merged_names":null,"is_terminus":false,"routes":[{"ref":"M5","name":"Magistrala 5","route_color":"#ff8040"}],"pass_count":2,"station_degree":3,"codes":null,"is_interchange":true,"station_role":"interchange"},"geometry":{"type":"Point","coordinates":[26.02420292,44.42443049999999]},"__memberLines":{}},{"type":"Feature","properties":{"station_id":"n2817755345","station_name":"Politehnica","station_name_local":"Politehnica","station_name_en":null,"city":"Bucharest","country":"Romania","lines":["M3"],"wikipedia":null,"merged_from":3,"merged_names":null,"is_terminus":false,"routes":[{"ref":"M3","name":"Magistrala 3","route_color":"#bc1725"}],"pass_count":1,"station_degree":2,"codes":null,"is_interchange":false,"station_role":"normal"},"geometry":{"type":"Point","coordinates":[26.055389133333335,44.43527056666667]},"__memberLines":{}},{"type":"Feature","properties":{"station_id":"n2817826933","station_name":"Timpuri Noi","station_name_local":"Timpuri Noi","station_name_en":null,"city":"Bucharest","country":"Romania","lines":["M1","M3"],"wikipedia":null,"merged_from":3,"merged_names":null,"is_terminus":false,"routes":[{"ref":"M1","name":"Magistrala 1","route_color":"#ffff00"},{"ref":"M3","name":"Magistrala 3","route_color":"#bc1725"}],"pass_count":2,"station_degree":2,"codes":null,"is_interchange":false,"station_role":"normal"},"geometry":{"type":"Point","coordinates":[26.113458766666668,44.41685486666666]},"__memberLines":{}},{"type":"Feature","properties":{"station_id":"n2844677026","station_name":"Jiului","station_name_local":"Jiului","station_name_en":null,"city":"Bucharest","country":"Romania","lines":["M4"],"wikipedia":"ro:Jiului (stație de metrou)","merged_from":3,"merged_names":null,"is_terminus":false,"routes":[{"ref":"M4","name":"Magistrala 4","route_color":"#228b22"}],"pass_count":1,"station_degree":2,"codes":null,"is_interchange":false,"station_role":"normal"},"geometry":{"type":"Point","coordinates":[26.0415462,44.48159263333333]},"__memberLines":{}},{"type":"Feature","properties":{"station_id":"n2844729447","station_name":"Grivița","station_name_local":"Grivița","station_name_en":null,"city":"Bucharest","country":"Romania","lines":["M4"],"wikipedia":null,"merged_from":3,"merged_names":null,"is_terminus":false,"routes":[{"ref":"M4","name":"Magistrala 4","route_color":"#228b22"}],"pass_count":1,"station_degree":2,"codes":null,"is_interchange":false,"station_role":"normal"},"geometry":{"type":"Point","coordinates":[26.057480766666668,44.46179246666666]},"__memberLines":{}},{"type":"Feature","properties":{"station_id":"n2844885590","station_name":"Gara de Nord 2 / Gara de Nord 1","station_name_local":"Gara de Nord 2 / Gara de Nord 1","station_name_en":null,"city":"Bucharest","country":"Romania","lines":["M1","M4"],"wikipedia":null,"merged_from":6,"merged_names":[{"station_id":"n2844885590","station_name":"Gara de Nord 2","station_name_local":"Gara de Nord 2","lines":["M4"]},{"station_id":"n9486047014","station_name":"Gara de Nord 1","station_name_local":"Gara de Nord 1","lines":["M1"]}],"is_terminus":false,"codes":["M4"],"routes":[{"ref":"M1","name":"Magistrala 1","route_color":"#ffff00"},{"ref":"M4","name":"Magistrala 4","route_color":"#228b22"}],"pass_count":2,"station_degree":2,"is_interchange":true,"station_role":"interchange"},"geometry":{"type":"Point","coordinates":[26.074957299999998,44.44743643333334]},"__memberLines":{}},{"type":"Feature","properties":{"station_id":"n5351714727","station_name":"Anghel Saligny","station_name_local":"Anghel Saligny","station_name_en":null,"city":"Bucharest","country":"Romania","lines":["M3"],"wikipedia":null,"merged_from":3,"merged_names":null,"is_terminus":true,"routes":[{"ref":"M3","name":"Magistrala 3","route_color":"#bc1725"}],"pass_count":1,"station_degree":1,"codes":null,"is_interchange":false,"station_role":"terminus"},"geometry":{"type":"Point","coordinates":[26.209485666666666,44.405401000000005]},"__memberLines":{}},{"type":"Feature","properties":{"station_id":"n5916877079","station_name":"Gorjului","station_name_local":"Gorjului","station_name_en":null,"city":"Bucharest","country":"Romania","lines":["M3"],"wikipedia":null,"merged_from":3,"merged_names":null,"is_terminus":false,"routes":[{"ref":"M3","name":"Magistrala 3","route_color":"#bc1725"}],"pass_count":1,"station_degree":2,"codes":null,"is_interchange":false,"station_role":"normal"},"geometry":{"type":"Point","coordinates":[26.021201633333334,44.434226233333334]},"__memberLines":{}},{"type":"Feature","properties":{"station_id":"n5916877081","station_name":"Lujerului","station_name_local":"Lujerului","station_name_en":null,"city":"Bucharest","country":"Romania","lines":["M3"],"wikipedia":null,"merged_from":3,"merged_names":null,"is_terminus":false,"routes":[{"ref":"M3","name":"Magistrala 3","route_color":"#bc1725"}],"pass_count":1,"station_degree":2,"codes":null,"is_interchange":false,"station_role":"normal"},"geometry":{"type":"Point","coordinates":[26.03278416666667,44.4343836]},"__memberLines":{}},{"type":"Feature","properties":{"station_id":"n5916880386","station_name":"Preciziei","station_name_local":"Preciziei","station_name_en":null,"city":"Bucharest","country":"Romania","lines":["M3"],"wikipedia":null,"merged_from":3,"merged_names":null,"is_terminus":true,"routes":[{"ref":"M3","name":"Magistrala 3","route_color":"#bc1725"}],"pass_count":1,"station_degree":1,"codes":null,"is_interchange":false,"station_role":"terminus"},"geometry":{"type":"Point","coordinates":[25.99096693333333,44.43058216666666]},"__memberLines":{}},{"type":"Feature","properties":{"station_id":"n5916880758","station_name":"Eroii Revoluției","station_name_local":"Eroii Revoluției","station_name_en":null,"city":"Bucharest","country":"Romania","lines":["M2"],"wikipedia":null,"merged_from":3,"merged_names":null,"is_terminus":false,"routes":[{"ref":"M2","name":"Magistrala 2","route_color":"#4b5799"}],"pass_count":1,"station_degree":2,"codes":null,"is_interchange":false,"station_role":"normal"},"geometry":{"type":"Point","coordinates":[26.09672026666667,44.403825100000006]},"__memberLines":{}},{"type":"Feature","properties":{"station_id":"n5916880767","station_name":"Constantin Brâncoveanu","station_name_local":"Constantin Brâncoveanu","station_name_en":null,"city":"Bucharest","country":"Romania","lines":["M2"],"wikipedia":null,"merged_from":3,"merged_names":null,"is_terminus":false,"routes":[{"ref":"M2","name":"Magistrala 2","route_color":"#4b5799"}],"pass_count":1,"station_degree":2,"codes":null,"is_interchange":false,"station_role":"normal"},"geometry":{"type":"Point","coordinates":[26.109098466666666,44.398654300000004]},"__memberLines":{}},{"type":"Feature","properties":{"station_id":"n5916880783","station_name":"Apărătorii Patriei","station_name_local":"Apărătorii Patriei","station_name_en":null,"city":"Bucharest","country":"Romania","lines":["M2"],"wikipedia":null,"merged_from":3,"merged_names":null,"is_terminus":false,"routes":[{"ref":"M2","name":"Magistrala 2","route_color":"#4b5799"}],"pass_count":1,"station_degree":2,"codes":null,"is_interchange":false,"station_role":"normal"},"geometry":{"type":"Point","coordinates":[26.135061133333334,44.37938346666667]},"__memberLines":{}},{"type":"Feature","properties":{"station_id":"n5916880987","station_name":"Dimitrie Leonida","station_name_local":"Dimitrie Leonida","station_name_en":null,"city":"Bucharest","country":"Romania","lines":["M2"],"wikipedia":null,"merged_from":3,"merged_names":null,"is_terminus":false,"routes":[{"ref":"M2","name":"Magistrala 2","route_color":"#4b5799"}],"pass_count":1,"station_degree":2,"codes":null,"is_interchange":false,"station_role":"normal"},"geometry":{"type":"Point","coordinates":[26.1435611,44.3688347]},"__memberLines":{}},{"type":"Feature","properties":{"station_id":"n5916880995","station_name":"Pipera","station_name_local":"Pipera","station_name_en":null,"city":"Bucharest","country":"Romania","lines":["M2"],"wikipedia":null,"merged_from":3,"merged_names":null,"is_terminus":true,"routes":[{"ref":"M2","name":"Magistrala 2","route_color":"#4b5799"}],"pass_count":1,"station_degree":1,"codes":null,"is_interchange":false,"station_role":"terminus"},"geometry":{"type":"Point","coordinates":[26.116628533333337,44.480622833333335]},"__memberLines":{}},{"type":"Feature","properties":{"station_id":"n5916881009","station_name":"Aurel Vlaicu","station_name_local":"Aurel Vlaicu","station_name_en":null,"city":"Bucharest","country":"Romania","lines":["M2"],"wikipedia":null,"merged_from":3,"merged_names":null,"is_terminus":false,"routes":[{"ref":"M2","name":"Magistrala 2","route_color":"#4b5799"}],"pass_count":1,"station_degree":2,"codes":null,"is_interchange":false,"station_role":"normal"},"geometry":{"type":"Point","coordinates":[26.100299500000002,44.479169333333324]},"__memberLines":{}},{"type":"Feature","properties":{"station_id":"n5916881047","station_name":"Piața Romană","station_name_local":"Piața Romană","station_name_en":null,"city":"Bucharest","country":"Romania","lines":["M2"],"wikipedia":null,"merged_from":3,"merged_names":null,"is_terminus":false,"routes":[{"ref":"M2","name":"Magistrala 2","route_color":"#4b5799"}],"pass_count":1,"station_degree":2,"codes":null,"is_interchange":false,"station_role":"normal"},"geometry":{"type":"Point","coordinates":[26.097694066666666,44.445375033333335]},"__memberLines":{}},{"type":"Feature","properties":{"station_id":"n5916881049","station_name":"Universitate","station_name_local":"Universitate","station_name_en":null,"city":"Bucharest","country":"Romania","lines":["M2"],"wikipedia":null,"merged_from":3,"merged_names":null,"is_terminus":false,"routes":[{"ref":"M2","name":"Magistrala 2","route_color":"#4b5799"}],"pass_count":1,"station_degree":2,"codes":null,"is_interchange":false,"station_role":"normal"},"geometry":{"type":"Point","coordinates":[26.102112266666666,44.43622836666666]},"__memberLines":{}},{"type":"Feature","properties":{"station_id":"n7925084881","station_name":"Parc Drumul Taberei","station_name_local":"Parc Drumul Taberei","station_name_en":null,"city":"Bucharest","country":"Romania","lines":["M5"],"wikipedia":null,"merged_from":3,"merged_names":null,"is_terminus":false,"routes":[{"ref":"M5","name":"Magistrala 5","route_color":"#ff8040"}],"pass_count":2,"station_degree":2,"codes":null,"is_interchange":false,"station_role":"normal"},"geometry":{"type":"Point","coordinates":[26.033061533333335,44.4222215]},"__memberLines":{}},{"type":"Feature","properties":{"station_id":"n7925090313","station_name":"Constantin Brâncuși","station_name_local":"Constantin Brâncuși","station_name_en":null,"city":"Bucharest","country":"Romania","lines":["M5"],"wikipedia":null,"merged_from":3,"merged_names":null,"is_terminus":false,"routes":[{"ref":"M5","name":"Magistrala 5","route_color":"#ff8040"}],"pass_count":1,"station_degree":2,"codes":null,"is_interchange":false,"station_role":"normal"},"geometry":{"type":"Point","coordinates":[26.020308733333334,44.4190702]},"__memberLines":{}},{"type":"Feature","properties":{"station_id":"n7925090328","station_name":"Râul Doamnei","station_name_local":"Râul Doamnei","station_name_en":null,"city":"Bucharest","country":"Romania","lines":["M5"],"wikipedia":null,"merged_from":3,"merged_names":null,"is_terminus":true,"routes":[{"ref":"M5","name":"Magistrala 5","route_color":"#ff8040"}],"pass_count":1,"station_degree":1,"codes":null,"is_interchange":false,"station_role":"terminus"},"geometry":{"type":"Point","coordinates":[26.0243966,44.415012233333336]},"__memberLines":{}},{"type":"Feature","properties":{"station_id":"n7925090353","station_name":"Valea Ialomiței","station_name_local":"Valea Ialomiței","station_name_en":null,"city":"Bucharest","country":"Romania","lines":["M5"],"wikipedia":null,"merged_from":3,"merged_names":null,"is_terminus":true,"routes":[{"ref":"M5","name":"Magistrala 5","route_color":"#ff8040"}],"pass_count":2,"station_degree":1,"codes":null,"is_interchange":false,"station_role":"terminus"},"geometry":{"type":"Point","coordinates":[26.013968133333332,44.421068]},"__memberLines":{}},{"type":"Feature","properties":{"station_id":"n8413348837","station_name":"Străulești","station_name_local":"Străulești","station_name_en":null,"city":"Bucharest","country":"Romania","lines":["M4"],"wikipedia":null,"merged_from":3,"merged_names":null,"is_terminus":true,"codes":["M4"],"routes":[{"ref":"M4","name":"Magistrala 4","route_color":"#228b22"}],"pass_count":1,"station_degree":1,"is_interchange":false,"station_role":"terminus"},"geometry":{"type":"Point","coordinates":[26.02620573333333,44.50170673333333]},"__memberLines":{}},{"type":"Feature","properties":{"station_id":"n8413348838","station_name":"Laminorului","station_name_local":"Laminorului","station_name_en":null,"city":"Bucharest","country":"Romania","lines":["M4"],"wikipedia":null,"merged_from":3,"merged_names":null,"is_terminus":false,"codes":["M4"],"routes":[{"ref":"M4","name":"Magistrala 4","route_color":"#228b22"}],"pass_count":1,"station_degree":2,"is_interchange":false,"station_role":"normal"},"geometry":{"type":"Point","coordinates":[26.031778433333333,44.494555]},"__memberLines":{}},{"type":"Feature","properties":{"station_id":"n8413348839","station_name":"Parc Bazilescu","station_name_local":"Parc Bazilescu","station_name_en":null,"city":"Bucharest","country":"Romania","lines":["M4"],"wikipedia":null,"merged_from":3,"merged_names":null,"is_terminus":false,"codes":["M4"],"routes":[{"ref":"M4","name":"Magistrala 4","route_color":"#228b22"}],"pass_count":1,"station_degree":2,"is_interchange":false,"station_role":"normal"},"geometry":{"type":"Point","coordinates":[26.0375653,44.48665083333333]},"__memberLines":{}},{"type":"Feature","properties":{"station_id":"n8426597558","station_name":"Basarab 1 - M1 / Basarab 2 - M4","station_name_local":"Basarab 1 - M1 / Basarab 2 - M4","station_name_en":null,"city":"Bucharest","country":"Romania","lines":["M1","M4"],"wikipedia":null,"merged_from":6,"merged_names":[{"station_id":"n8426597558","station_name":"Basarab 1 - M1","station_name_local":"Basarab 1 - M1","lines":["M1","M4"]},{"station_id":"n8426597560","station_name":"Basarab 2 - M4","station_name_local":"Basarab 2 - M4","lines":["M1","M4"]}],"is_terminus":false,"routes":[{"ref":"M1","name":"Magistrala 1","route_color":"#ffff00"},{"ref":"M4","name":"Magistrala 4","route_color":"#228b22"}],"pass_count":2,"station_degree":3,"codes":null,"is_interchange":true,"station_role":"interchange"},"geometry":{"type":"Point","coordinates":[26.06841371666667,44.45074888333334]},"__memberLines":{}},{"type":"Feature","properties":{"station_id":"n8429628727","station_name":"Eroilor","station_name_local":"Eroilor","station_name_en":null,"city":"Bucharest","country":"Romania","lines":["M1","M3","M5"],"wikipedia":null,"merged_from":7,"merged_names":null,"is_terminus":false,"codes":["M5"],"routes":[{"ref":"M1","name":"Magistrala 1","route_color":"#ffff00"},{"ref":"M3","name":"Magistrala 3","route_color":"#bc1725"},{"ref":"M5","name":"Magistrala 5","route_color":"#ff8040"}],"pass_count":4,"station_degree":4,"is_interchange":true,"station_role":"interchange"},"geometry":{"type":"Point","coordinates":[26.075049171428567,44.43496725714285]},"__memberLines":{}},{"type":"Feature","properties":{"station_id":"n8445669551","station_name":"Nicolae Teclu","station_name_local":"Nicolae Teclu","station_name_en":null,"city":"Bucharest","country":"Romania","lines":["M3"],"wikipedia":null,"merged_from":3,"merged_names":null,"is_terminus":false,"routes":[{"ref":"M3","name":"Magistrala 3","route_color":"#bc1725"}],"pass_count":1,"station_degree":2,"codes":null,"is_interchange":false,"station_role":"normal"},"geometry":{"type":"Point","coordinates":[26.1945793,44.40725943333334]},"__memberLines":{}},{"type":"Feature","properties":{"station_id":"n8445669562","station_name":"1 Decembrie 1918","station_name_local":"1 Decembrie 1918","station_name_en":null,"city":"Bucharest","country":"Romania","lines":["M3"],"wikipedia":null,"merged_from":3,"merged_names":null,"is_terminus":false,"routes":[{"ref":"M3","name":"Magistrala 3","route_color":"#bc1725"}],"pass_count":1,"station_degree":2,"codes":null,"is_interchange":false,"station_role":"normal"},"geometry":{"type":"Point","coordinates":[26.1741379,44.4104916]},"__memberLines":{}},{"type":"Feature","properties":{"station_id":"n8450711713","station_name":"Titan","station_name_local":"Titan","station_name_en":null,"city":"Bucharest","country":"Romania","lines":["M1"],"wikipedia":null,"merged_from":3,"merged_names":null,"is_terminus":false,"routes":[{"ref":"M1","name":"Magistrala 1","route_color":"#ffff00"}],"pass_count":1,"station_degree":2,"codes":null,"is_interchange":false,"station_role":"normal"},"geometry":{"type":"Point","coordinates":[26.162719666666664,44.425795533333336]},"__memberLines":{}},{"type":"Feature","properties":{"station_id":"n8450711714","station_name":"Costin Georgian","station_name_local":"Costin Georgian","station_name_en":null,"city":"Bucharest","country":"Romania","lines":["M1"],"wikipedia":null,"merged_from":3,"merged_names":null,"is_terminus":false,"routes":[{"ref":"M1","name":"Magistrala 1","route_color":"#ffff00"}],"pass_count":1,"station_degree":2,"codes":null,"is_interchange":false,"station_role":"normal"},"geometry":{"type":"Point","coordinates":[26.169120333333336,44.435114266666666]},"__memberLines":{}},{"type":"Feature","properties":{"station_id":"n8450731648","station_name":"Nicolae Grigorescu 1 / Nicolae Grigorescu 2","station_name_local":"Nicolae Grigorescu 1 / Nicolae Grigorescu 2","station_name_en":null,"city":"Bucharest","country":"Romania","lines":["M1","M3"],"wikipedia":null,"merged_from":5,"merged_names":[{"station_id":"n8450731648","station_name":"Nicolae Grigorescu 1","station_name_local":"Nicolae Grigorescu 1","lines":["M1","M3"]},{"station_id":"n8450731649","station_name":"Nicolae Grigorescu 2","station_name_local":"Nicolae Grigorescu 2","lines":["M1"]}],"is_terminus":false,"routes":[{"ref":"M1","name":"Magistrala 1","route_color":"#ffff00"},{"ref":"M3","name":"Magistrala 3","route_color":"#bc1725"}],"pass_count":2,"station_degree":3,"codes":null,"is_interchange":true,"station_role":"interchange"},"geometry":{"type":"Point","coordinates":[26.160836080000003,44.41345834]},"__memberLines":{}},{"type":"Feature","properties":{"station_id":"n8450731673","station_name":"Mihai Bravu","station_name_local":"Mihai Bravu","station_name_en":null,"city":"Bucharest","country":"Romania","lines":["M1","M3"],"wikipedia":null,"merged_from":3,"merged_names":null,"is_terminus":false,"routes":[{"ref":"M1","name":"Magistrala 1","route_color":"#ffff00"},{"ref":"M3","name":"Magistrala 3","route_color":"#bc1725"}],"pass_count":2,"station_degree":2,"codes":null,"is_interchange":false,"station_role":"normal"},"geometry":{"type":"Point","coordinates":[26.125807766666668,44.411254500000005]},"__memberLines":{}},{"type":"Feature","properties":{"station_id":"n8450731676","station_name":"Piața Unirii 1 / Piața Unirii 2","station_name_local":"Piața Unirii 1 / Piața Unirii 2","station_name_en":null,"city":"Bucharest","country":"Romania","lines":["M1","M2","M3"],"wikipedia":null,"merged_from":6,"merged_names":[{"station_id":"n8450731676","station_name":"Piața Unirii 1","station_name_local":"Piața Unirii 1","lines":["M1","M3"]},{"station_id":"n8455390584","station_name":"Piața Unirii 2","station_name_local":"Piața Unirii 2","lines":["M2"]}],"is_terminus":false,"routes":[{"ref":"M1","name":"Magistrala 1","route_color":"#ffff00"},{"ref":"M2","name":"Magistrala 2","route_color":"#4b5799"},{"ref":"M3","name":"Magistrala 3","route_color":"#bc1725"}],"pass_count":3,"station_degree":4,"codes":null,"is_interchange":true,"station_role":"interchange"},"geometry":{"type":"Point","coordinates":[26.103020283333333,44.4276394]},"__memberLines":{}},{"type":"Feature","properties":{"station_id":"n8452436794","station_name":"Obor","station_name_local":"Obor","station_name_en":null,"city":"Bucharest","country":"Romania","lines":["M1"],"wikipedia":null,"merged_from":3,"merged_names":null,"is_terminus":false,"routes":[{"ref":"M1","name":"Magistrala 1","route_color":"#ffff00"}],"pass_count":1,"station_degree":2,"codes":null,"is_interchange":false,"station_role":"normal"},"geometry":{"type":"Point","coordinates":[26.12468743333333,44.449356800000004]},"__memberLines":{}},{"type":"Feature","properties":{"station_id":"n8455390578","station_name":"Aviatorilor","station_name_local":"Aviatorilor","station_name_en":null,"city":"Bucharest","country":"Romania","lines":["M2"],"wikipedia":null,"merged_from":3,"merged_names":null,"is_terminus":false,"routes":[{"ref":"M2","name":"Magistrala 2","route_color":"#4b5799"}],"pass_count":1,"station_degree":2,"codes":null,"is_interchange":false,"station_role":"normal"},"geometry":{"type":"Point","coordinates":[26.086647233333334,44.4660072]},"__memberLines":{}},{"type":"Feature","properties":{"station_id":"n8455390588","station_name":"Tineretului","station_name_local":"Tineretului","station_name_en":null,"city":"Bucharest","country":"Romania","lines":["M2"],"wikipedia":null,"merged_from":3,"merged_names":null,"is_terminus":false,"routes":[{"ref":"M2","name":"Magistrala 2","route_color":"#4b5799"}],"pass_count":1,"station_degree":2,"codes":null,"is_interchange":false,"station_role":"normal"},"geometry":{"type":"Point","coordinates":[26.104502666666665,44.41548306666667]},"__memberLines":{}},{"type":"Feature","properties":{"station_id":"n8455390596","station_name":"Berceni","station_name_local":"Berceni","station_name_en":null,"city":"Bucharest","country":"Romania","lines":["M2"],"wikipedia":null,"merged_from":3,"merged_names":null,"is_terminus":false,"routes":[{"ref":"M2","name":"Magistrala 2","route_color":"#4b5799"}],"pass_count":1,"station_degree":2,"codes":null,"is_interchange":false,"station_role":"normal"},"geometry":{"type":"Point","coordinates":[26.149306166666666,44.36123596666667]},"__memberLines":{}},{"type":"Feature","properties":{"station_id":"n9486047004","station_name":"Grozăvești","station_name_local":"Grozăvești","station_name_en":null,"city":"Bucharest","country":"Romania","lines":["M1"],"wikipedia":null,"merged_from":3,"merged_names":null,"is_terminus":false,"routes":[{"ref":"M1","name":"Magistrala 1","route_color":"#ffff00"}],"pass_count":1,"station_degree":2,"codes":null,"is_interchange":false,"station_role":"normal"},"geometry":{"type":"Point","coordinates":[26.060408033333335,44.44272706666666]},"__memberLines":{}},{"type":"Feature","properties":{"station_id":"n9486047008","station_name":"Petrache Poenaru","station_name_local":"Petrache Poenaru","station_name_en":null,"city":"Bucharest","country":"Romania","lines":["M1"],"wikipedia":null,"merged_from":3,"merged_names":null,"is_terminus":false,"routes":[{"ref":"M1","name":"Magistrala 1","route_color":"#ffff00"}],"pass_count":1,"station_degree":2,"codes":null,"is_interchange":false,"station_role":"normal"},"geometry":{"type":"Point","coordinates":[26.046536833333334,44.44542936666667]},"__memberLines":{}},{"type":"Feature","properties":{"station_id":"n9486047009","station_name":"Crângași","station_name_local":"Crângași","station_name_en":null,"city":"Bucharest","country":"Romania","lines":["M1"],"wikipedia":null,"merged_from":3,"merged_names":null,"is_terminus":false,"routes":[{"ref":"M1","name":"Magistrala 1","route_color":"#ffff00"}],"pass_count":1,"station_degree":2,"codes":null,"is_interchange":false,"station_role":"normal"},"geometry":{"type":"Point","coordinates":[26.0471976,44.451950133333334]},"__memberLines":{}},{"type":"Feature","properties":{"station_id":"n9486047010","station_name":"Ștefan cel Mare","station_name_local":"Ștefan cel Mare","station_name_en":null,"city":"Bucharest","country":"Romania","lines":["M1"],"wikipedia":null,"merged_from":3,"merged_names":null,"is_terminus":false,"routes":[{"ref":"M1","name":"Magistrala 1","route_color":"#ffff00"}],"pass_count":1,"station_degree":2,"codes":null,"is_interchange":false,"station_role":"normal"},"geometry":{"type":"Point","coordinates":[26.1045383,44.45291846666667]},"__memberLines":{}},{"type":"Feature","properties":{"station_id":"n9486050647","station_name":"Piața Muncii","station_name_local":"Piața Muncii","station_name_en":null,"city":"Bucharest","country":"Romania","lines":["M1"],"wikipedia":null,"merged_from":3,"merged_names":null,"is_terminus":false,"routes":[{"ref":"M1","name":"Magistrala 1","route_color":"#ffff00"}],"pass_count":1,"station_degree":2,"codes":null,"is_interchange":false,"station_role":"normal"},"geometry":{"type":"Point","coordinates":[26.138688933333338,44.431836833333335]},"__memberLines":{}},{"type":"Feature","properties":{"station_id":"n9491084760","station_name":"Tudor Vladimirescu","station_name_local":"Tudor Vladimirescu","station_name_en":null,"city":"Bucharest","country":"Romania","lines":["M5"],"wikipedia":null,"merged_from":3,"merged_names":null,"is_terminus":false,"routes":[{"ref":"M5","name":"Magistrala 5","route_color":"#ff8040"}],"pass_count":2,"station_degree":2,"codes":null,"is_interchange":false,"station_role":"normal"},"geometry":{"type":"Point","coordinates":[26.04131343333333,44.42305376666667]},"__memberLines":{}},{"type":"Feature","properties":{"station_id":"n9492184764","station_name":"Academia Militară","station_name_local":"Academia Militară","station_name_en":null,"city":"Bucharest","country":"Romania","lines":["M5"],"wikipedia":null,"merged_from":3,"merged_names":null,"is_terminus":false,"routes":[{"ref":"M5","name":"Magistrala 5","route_color":"#ff8040"}],"pass_count":2,"station_degree":2,"codes":null,"is_interchange":false,"station_role":"normal"},"geometry":{"type":"Point","coordinates":[26.0628506,44.42891383333333]},"__memberLines":{}},{"type":"Feature","properties":{"station_id":"n9497950456","station_name":"Orizont","station_name_local":"Orizont","station_name_en":null,"city":"Bucharest","country":"Romania","lines":["M5"],"wikipedia":null,"merged_from":3,"merged_names":null,"is_terminus":false,"routes":[{"ref":"M5","name":"Magistrala 5","route_color":"#ff8040"}],"pass_count":2,"station_degree":2,"codes":null,"is_interchange":false,"station_role":"normal"},"geometry":{"type":"Point","coordinates":[26.055872433333334,44.42587356666667]},"__memberLines":{}},{"type":"Feature","properties":{"station_id":"n9497950459","station_name":"Favorit","station_name_local":"Favorit","station_name_en":null,"city":"Bucharest","country":"Romania","lines":["M5"],"wikipedia":null,"merged_from":3,"merged_names":null,"is_terminus":false,"routes":[{"ref":"M5","name":"Magistrala 5","route_color":"#ff8040"}],"pass_count":2,"station_degree":2,"codes":null,"is_interchange":false,"station_role":"normal"},"geometry":{"type":"Point","coordinates":[26.048340299999996,44.42464853333333]},"__memberLines":{}},{"type":"Feature","properties":{"station_id":"n11350522261","station_name":"Tudor Arghezi","station_name_local":"Tudor Arghezi","station_name_en":null,"city":"Bucharest","country":"Romania","lines":["M2"],"wikipedia":null,"merged_from":3,"merged_names":null,"is_terminus":true,"routes":[{"ref":"M2","name":"Magistrala 2","route_color":"#4b5799"}],"pass_count":1,"station_degree":1,"codes":null,"is_interchange":false,"station_role":"terminus"},"geometry":{"type":"Point","coordinates":[26.159301433333336,44.347985666666666]},"__memberLines":{}}]}