{"type":"FeatureCollection","metro_system":{"continent":"europe","country":"France","city":"Aubagne","official_website":null,"official_map":"https://fr.wikipedia.org/wiki/Tramway_d'Aubagne","wikipedia":"fr:Tramway d'Aubagne","line_count":1,"segment_count":1,"station_count":7,"modes":["tram"],"audit":{"strategies_tried":[],"passed":true,"checks":[{"id":"has_lines","ok":true,"detail":"1 lines","level":"error"},{"id":"has_stations","ok":true,"detail":"7 stations","level":"error"},{"id":"stations_have_lines","ok":true,"detail":"7/7 站皆有所屬路線","level":"error"},{"id":"line_geometry_stations","ok":true,"detail":"7 個折點/端點皆為車站","level":"error"},{"id":"route_stations_match_geometry","ok":true,"detail":"各線車站列表與圖面一致","level":"error"},{"id":"interchange_rule","ok":true,"detail":"所有車站紅/藍點符合骨架＋路線色規則（藍＝端點、紅＝交叉）","level":"error"},{"id":"stations_named","ok":true,"detail":"7/7 站皆有名稱","level":"error"},{"id":"station_order","ok":true,"detail":"所有線路站序合理","level":"warn"},{"id":"station_span","ok":true,"detail":"各線相鄰站距與系統站群跨度正常","level":"error"},{"id":"line_wiki_stations","ok":true,"detail":"各線站數與 wiki 線路條目相符（營運中站數）","level":"error"},{"id":"line_wiki_coverage","ok":false,"detail":"1 條線無 wiki 站數對照：Ligne T","level":"warn"}],"reasons":[],"warnings":["1 條線無 wiki 站數對照：Ligne T"],"audited_at":"2026-07-27T05:39:52.983Z"}},"features":[{"type":"Feature","properties":{"seg_id":"aubagne-0","routes":[{"route_id":"r6497377","route_name":"Line T","route_name_local":"Ligne T","route_name_en":"Line T","route_ref":"T","route_color":"#ed1c24","wikipedia":null,"osm_route_ids":[6497377,6497378],"status":null,"order_suspect":0,"span_suspect":0,"stations":[{"station_id":"n4353112282","station_name":"Colette Molina - Le Charrel"},{"station_id":"n4353112267","station_name":"Château Blanc"},{"station_id":"n4353112298","station_name":"Piscine Alain Bernard - Oasis du Charrel"},{"station_id":"n4353112276","station_name":"La Tourtelle"},{"station_id":"n4353112306","station_name":"Ravel Decroix"},{"station_id":"n4353112290","station_name":"Martin Luther King"},{"station_id":"n4200453227","station_name":"Gare d'Aubagne"}]}],"route_count":1,"route_refs":["T"],"route_colors":["#ed1c24"],"city":"Aubagne","country":"France"},"geometry":{"type":"MultiLineString","coordinates":[[[5.5511486,43.2791671],[5.550095000000001,43.281722],[5.54802675,43.2846683],[5.55444595,43.28564055],[5.5598786,43.2904781],[5.5627526,43.29295315],[5.5658023,43.295825]]]}},{"type":"Feature","properties":{"station_id":"n4200453227","station_name":"Gare d'Aubagne","station_name_local":"Gare d'Aubagne","station_name_en":null,"city":"Aubagne","country":"France","lines":["T"],"wikipedia":null,"merged_from":2,"merged_names":null,"is_terminus":true,"routes":[{"ref":"T","name":"Line T","route_color":"#ed1c24"}],"pass_count":1,"station_degree":1,"codes":null,"is_interchange":false,"station_role":"terminus"},"geometry":{"type":"Point","coordinates":[5.5658023,43.295825]},"__memberLines":{}},{"type":"Feature","properties":{"station_id":"n4353112267","station_name":"Château Blanc","station_name_local":"Château Blanc","station_name_en":null,"city":"Aubagne","country":"France","lines":["T"],"wikipedia":null,"merged_from":2,"merged_names":null,"is_terminus":false,"routes":[{"ref":"T","name":"Line T","route_color":"#ed1c24"}],"pass_count":1,"station_degree":2,"codes":null,"is_interchange":false,"station_role":"normal"},"geometry":{"type":"Point","coordinates":[5.550095000000001,43.281722]},"__memberLines":{}},{"type":"Feature","properties":{"station_id":"n4353112276","station_name":"La Tourtelle","station_name_local":"La Tourtelle","station_name_en":null,"city":"Aubagne","country":"France","lines":["T"],"wikipedia":null,"merged_from":2,"merged_names":null,"is_terminus":false,"routes":[{"ref":"T","name":"Line T","route_color":"#ed1c24"}],"pass_count":1,"station_degree":2,"codes":null,"is_interchange":false,"station_role":"normal"},"geometry":{"type":"Point","coordinates":[5.55444595,43.28564055]},"__memberLines":{}},{"type":"Feature","properties":{"station_id":"n4353112282","station_name":"Colette Molina - Le Charrel","station_name_local":"Colette Molina - Le Charrel","station_name_en":null,"city":"Aubagne","country":"France","lines":["T"],"wikipedia":null,"is_terminus":true,"routes":[{"ref":"T","name":"Line T","route_color":"#ed1c24"}],"pass_count":1,"station_degree":1,"codes":null,"merged_from":null,"merged_names":null,"is_interchange":false,"station_role":"terminus"},"geometry":{"type":"Point","coordinates":[5.5511486,43.2791671]},"__memberLines":{}},{"type":"Feature","properties":{"station_id":"n4353112290","station_name":"Martin Luther King","station_name_local":"Martin Luther King","station_name_en":null,"city":"Aubagne","country":"France","lines":["T"],"wikipedia":null,"merged_from":2,"merged_names":null,"is_terminus":false,"routes":[{"ref":"T","name":"Line T","route_color":"#ed1c24"}],"pass_count":1,"station_degree":2,"codes":null,"is_interchange":false,"station_role":"normal"},"geometry":{"type":"Point","coordinates":[5.5627526,43.29295315]},"__memberLines":{}},{"type":"Feature","properties":{"station_id":"n4353112298","station_name":"Piscine Alain Bernard - Oasis du Charrel","station_name_local":"Piscine Alain Bernard - Oasis du Charrel","station_name_en":null,"city":"Aubagne","country":"France","lines":["T"],"wikipedia":null,"merged_from":2,"merged_names":null,"is_terminus":false,"routes":[{"ref":"T","name":"Line T","route_color":"#ed1c24"}],"pass_count":1,"station_degree":2,"codes":null,"is_interchange":false,"station_role":"normal"},"geometry":{"type":"Point","coordinates":[5.54802675,43.2846683]},"__memberLines":{}},{"type":"Feature","properties":{"station_id":"n4353112306","station_name":"Ravel Decroix","station_name_local":"Ravel Decroix","station_name_en":null,"city":"Aubagne","country":"France","lines":["T"],"wikipedia":null,"merged_from":2,"merged_names":null,"is_terminus":false,"routes":[{"ref":"T","name":"Line T","route_color":"#ed1c24"}],"pass_count":1,"station_degree":2,"codes":null,"is_interchange":false,"station_role":"normal"},"geometry":{"type":"Point","coordinates":[5.5598786,43.2904781]},"__memberLines":{}}]}