{"type":"FeatureCollection","metro_system":{"continent":"north-america","country":"United States","city":"Charlotte","official_website":null,"official_map":"https://en.wikipedia.org/wiki/Charlotte_Area_Transit_System","wikipedia":"en:Charlotte Area Transit System","line_count":2,"segment_count":2,"station_count":42,"modes":["tram"],"audit":{"strategies_tried":[],"passed":true,"checks":[{"id":"has_lines","ok":true,"detail":"2 lines","level":"error"},{"id":"has_stations","ok":true,"detail":"42 stations","level":"error"},{"id":"stations_have_lines","ok":true,"detail":"42/42 站皆有所屬路線","level":"error"},{"id":"line_geometry_stations","ok":true,"detail":"43 個折點/端點皆為車站","level":"error"},{"id":"route_stations_match_geometry","ok":true,"detail":"各線車站列表與圖面一致","level":"error"},{"id":"interchange_rule","ok":true,"detail":"所有車站紅/藍點符合骨架＋路線色規則（藍＝端點、紅＝交叉）","level":"error"},{"id":"stations_named","ok":true,"detail":"42/42 站皆有名稱","level":"error"},{"id":"station_order","ok":true,"detail":"所有線路站序合理","level":"warn"},{"id":"station_span","ok":true,"detail":"各線相鄰站距與系統站群跨度正常","level":"error"},{"id":"line_wiki_stations","ok":true,"detail":"各線站數與 wiki 線路條目相符（營運中站數）","level":"error"}],"reasons":[],"warnings":[],"audited_at":"2026-07-29T15:22:12.489Z"}},"features":[{"type":"Feature","properties":{"seg_id":"charlotte-0","routes":[{"route_id":"rm10012484","route_name":"LYNX Blue Line","route_name_local":"LYNX Blue Line","route_name_en":null,"route_ref":"Blue","route_color":"#0000ff","wikipedia":"en:Lynx Blue Line","osm_route_ids":[10012482,10012483],"status":null,"order_suspect":0,"span_suspect":0,"stations":[{"station_id":"n5189367086","station_name":"UNC Charlotte–Main"},{"station_id":"n8419403061","station_name":"JW Clay Boulevard/UNC Charlotte"},{"station_id":"n5189366111","station_name":"McCullough"},{"station_id":"n5189278965","station_name":"University City Boulevard"},{"station_id":"n8419403064","station_name":"Tom Hunter"},{"station_id":"n8419403066","station_name":"Old Concord Road"},{"station_id":"n8419403068","station_name":"Sugar Creek"},{"station_id":"n5189146319","station_name":"36th Street"},{"station_id":"n8419403073","station_name":"25th Street"},{"station_id":"n8419403075","station_name":"Parkwood"},{"station_id":"n5189013534","station_name":"9th Street"},{"station_id":"n8419403078","station_name":"7th Street"},{"station_id":"n4069129776","station_name":"CTC/Arena"},{"station_id":"n8419403082","station_name":"3rd Street/Convention Center"},{"station_id":"n8419403084","station_name":"Brooklyn Village"},{"station_id":"n8419403087","station_name":"Carson"},{"station_id":"n8419403091","station_name":"Bland Street"},{"station_id":"n8419403093","station_name":"East/West Boulevard"},{"station_id":"n8419403095","station_name":"New Bern"},{"station_id":"n8419403097","station_name":"Scaleybark"},{"station_id":"n8419403099","station_name":"Woodlawn"},{"station_id":"n618124184","station_name":"Tyvola"},{"station_id":"n6779598704","station_name":"Archdale"},{"station_id":"n6779598707","station_name":"Arrowood"},{"station_id":"n4511355339","station_name":"Sharon Road West"},{"station_id":"n6779598709","station_name":"I-485/South Boulevard"}]}],"route_count":1,"route_refs":["Blue"],"route_colors":["#0000ff"],"city":"Charlotte","country":"United States"},"geometry":{"type":"MultiLineString","coordinates":[[[-80.73343206666667,35.31215456666666],[-80.74523766666665,35.31070376666667],[-80.7528909,35.30111096666667],[-80.76089276666666,35.286763199999996],[-80.76628276666666,35.277938533333334],[-80.77278226666668,35.259954666666665],[-80.79284306666666,35.251423566666666],[-80.80626116666666,35.24911323333333],[-80.8170908,35.24173819999999],[-80.8232925,35.23690486666666],[-80.835011,35.229656966666674],[-80.83818326666666,35.22731886666667],[-80.84053852,35.2250303],[-80.8430247,35.2237548],[-80.84716546666668,35.221256700000005],[-80.85089099999999,35.21880783333333],[-80.85522033333335,35.2157658],[-80.85903023333333,35.212090366666665],[-80.8690442,35.199751133333336],[-80.87497963333333,35.190871699999995],[-80.87909806666666,35.17574246666667],[-80.87753833333333,35.16296406666667],[-80.87751676666666,35.15291093333334],[-80.87637360000001,35.1356041],[-80.88207403333332,35.11947966666666],[-80.88284253333335,35.10659836666667]]]}},{"type":"Feature","properties":{"seg_id":"charlotte-1","routes":[{"route_id":"rm11873946","route_name":"CityLynx Gold Line","route_name_local":"CityLynx Gold Line","route_name_en":null,"route_ref":"Gold","route_color":"#fece0c","wikipedia":"en:CityLynx Gold Line","osm_route_ids":[11873944,11873945],"status":null,"order_suspect":0,"span_suspect":0,"stations":[{"station_id":"n9102089256","station_name":"French Street"},{"station_id":"n9102089277","station_name":"Johnson C. Smith University"},{"station_id":"n9094942971","station_name":"Bruns Avenue"},{"station_id":"n9102120923","station_name":"Wesley Heights"},{"station_id":"n8225157912","station_name":"Irwin Avenue"},{"station_id":"n9094786813","station_name":"Johnson & Wales"},{"station_id":"n8225157894","station_name":"Gateway Station"},{"station_id":"n8225130432","station_name":"Mint Street"},{"station_id":"n9108307132","station_name":"Tryon Street"},{"station_id":"n4069129776","station_name":"CTC/Arena"},{"station_id":"n4069128359","station_name":"Davidson Street"},{"station_id":"n4069128357","station_name":"McDowell Street"},{"station_id":"n4069131348","station_name":"CPCC Central Campus"},{"station_id":"n4069131349","station_name":"Elizabeth & Hawthorne"},{"station_id":"n8104462904","station_name":"Hawthorne & 5th Street"},{"station_id":"n9098905258","station_name":"Hawthorne & 8th"},{"station_id":"n9099099567","station_name":"Sunnyside Avenue"}]}],"route_count":1,"route_refs":["Gold"],"route_colors":["#fece0c"],"city":"Charlotte","country":"United States"},"geometry":{"type":"MultiLineString","coordinates":[[[-80.85688755000001,35.246027299999994],[-80.85836674999999,35.24307425],[-80.85845979999999,35.23999355],[-80.85879965,35.2373344],[-80.85277515,35.235005099999995],[-80.85060179999999,35.23347095],[-80.8479571,35.23140255],[-80.84594575,35.22968405],[-80.84335035000001,35.22743305],[-80.84053852,35.2250303],[-80.8378204,35.222756399999994],[-80.83587729999999,35.22106315],[-80.83122835,35.2174405],[-80.8264428,35.2135863],[-80.82453774999999,35.213773700000004],[-80.82124815,35.21648625],[-80.8188925,35.2194313]]]}},{"type":"Feature","properties":{"station_id":"n618124184","station_name":"Tyvola","station_name_local":"Tyvola","station_name_en":null,"city":"Charlotte","country":"United States","lines":["Blue"],"wikipedia":null,"merged_from":3,"merged_names":null,"is_terminus":false,"routes":[{"ref":"Blue","name":"LYNX Blue Line","route_color":"#0000ff"}],"pass_count":1,"station_degree":2,"codes":null,"is_interchange":false,"station_role":"normal"},"geometry":{"type":"Point","coordinates":[-80.87753833333333,35.16296406666667]},"__memberLines":{}},{"type":"Feature","properties":{"station_id":"n4069128357","station_name":"McDowell Street","station_name_local":"McDowell Street","station_name_en":null,"city":"Charlotte","country":"United States","lines":["Gold"],"wikipedia":null,"merged_from":2,"merged_names":null,"is_terminus":false,"routes":[{"ref":"Gold","name":"CityLynx Gold Line","route_color":"#fece0c"}],"pass_count":1,"station_degree":2,"codes":null,"is_interchange":false,"station_role":"normal"},"geometry":{"type":"Point","coordinates":[-80.83587729999999,35.22106315]},"__memberLines":{}},{"type":"Feature","properties":{"station_id":"n4069128359","station_name":"Davidson Street","station_name_local":"Davidson Street","station_name_en":null,"city":"Charlotte","country":"United States","lines":["Gold"],"wikipedia":null,"merged_from":2,"merged_names":null,"is_terminus":false,"routes":[{"ref":"Gold","name":"CityLynx Gold Line","route_color":"#fece0c"}],"pass_count":1,"station_degree":2,"codes":null,"is_interchange":false,"station_role":"normal"},"geometry":{"type":"Point","coordinates":[-80.8378204,35.222756399999994]},"__memberLines":{}},{"type":"Feature","properties":{"station_id":"n4069129776","station_name":"CTC/Arena","station_name_local":"CTC/Arena","station_name_en":null,"city":"Charlotte","country":"United States","lines":["Blue","Gold"],"wikipedia":null,"merged_from":5,"merged_names":null,"is_terminus":false,"routes":[{"ref":"Blue","name":"LYNX Blue Line","route_color":"#0000ff"},{"ref":"Gold","name":"CityLynx Gold Line","route_color":"#fece0c"}],"pass_count":2,"station_degree":4,"codes":null,"is_interchange":true,"station_role":"interchange"},"geometry":{"type":"Point","coordinates":[-80.84053852,35.2250303]},"__memberLines":{}},{"type":"Feature","properties":{"station_id":"n4069131348","station_name":"CPCC Central Campus","station_name_local":"CPCC Central Campus","station_name_en":null,"city":"Charlotte","country":"United States","lines":["Gold"],"wikipedia":null,"merged_from":2,"merged_names":null,"is_terminus":false,"routes":[{"ref":"Gold","name":"CityLynx Gold Line","route_color":"#fece0c"}],"pass_count":1,"station_degree":2,"codes":null,"is_interchange":false,"station_role":"normal"},"geometry":{"type":"Point","coordinates":[-80.83122835,35.2174405]},"__memberLines":{}},{"type":"Feature","properties":{"station_id":"n4069131349","station_name":"Elizabeth & Hawthorne","station_name_local":"Elizabeth & Hawthorne","station_name_en":null,"city":"Charlotte","country":"United States","lines":["Gold"],"wikipedia":null,"merged_from":2,"merged_names":null,"is_terminus":false,"routes":[{"ref":"Gold","name":"CityLynx Gold Line","route_color":"#fece0c"}],"pass_count":1,"station_degree":2,"codes":null,"is_interchange":false,"station_role":"normal"},"geometry":{"type":"Point","coordinates":[-80.8264428,35.2135863]},"__memberLines":{}},{"type":"Feature","properties":{"station_id":"n4511355339","station_name":"Sharon Road West","station_name_local":"Sharon Road West","station_name_en":null,"city":"Charlotte","country":"United States","lines":["Blue"],"wikipedia":null,"merged_from":3,"merged_names":null,"is_terminus":false,"routes":[{"ref":"Blue","name":"LYNX Blue Line","route_color":"#0000ff"}],"pass_count":1,"station_degree":2,"codes":null,"is_interchange":false,"station_role":"normal"},"geometry":{"type":"Point","coordinates":[-80.88207403333332,35.11947966666666]},"__memberLines":{}},{"type":"Feature","properties":{"station_id":"n5189013534","station_name":"9th Street","station_name_local":"9th Street","station_name_en":null,"city":"Charlotte","country":"United States","lines":["Blue"],"wikipedia":null,"merged_from":3,"merged_names":null,"is_terminus":false,"routes":[{"ref":"Blue","name":"LYNX Blue Line","route_color":"#0000ff"}],"pass_count":1,"station_degree":2,"codes":null,"is_interchange":false,"station_role":"normal"},"geometry":{"type":"Point","coordinates":[-80.835011,35.229656966666674]},"__memberLines":{}},{"type":"Feature","properties":{"station_id":"n5189146319","station_name":"36th Street","station_name_local":"36th Street","station_name_en":null,"city":"Charlotte","country":"United States","lines":["Blue"],"wikipedia":null,"merged_from":3,"merged_names":null,"is_terminus":false,"routes":[{"ref":"Blue","name":"LYNX Blue Line","route_color":"#0000ff"}],"pass_count":1,"station_degree":2,"codes":null,"is_interchange":false,"station_role":"normal"},"geometry":{"type":"Point","coordinates":[-80.80626116666666,35.24911323333333]},"__memberLines":{}},{"type":"Feature","properties":{"station_id":"n5189278965","station_name":"University City Boulevard","station_name_local":"University City Boulevard","station_name_en":null,"city":"Charlotte","country":"United States","lines":["Blue"],"wikipedia":null,"merged_from":3,"merged_names":null,"is_terminus":false,"routes":[{"ref":"Blue","name":"LYNX Blue Line","route_color":"#0000ff"}],"pass_count":1,"station_degree":2,"codes":null,"is_interchange":false,"station_role":"normal"},"geometry":{"type":"Point","coordinates":[-80.76089276666666,35.286763199999996]},"__memberLines":{}},{"type":"Feature","properties":{"station_id":"n5189366111","station_name":"McCullough","station_name_local":"McCullough","station_name_en":null,"city":"Charlotte","country":"United States","lines":["Blue"],"wikipedia":null,"merged_from":3,"merged_names":null,"is_terminus":false,"routes":[{"ref":"Blue","name":"LYNX Blue Line","route_color":"#0000ff"}],"pass_count":1,"station_degree":2,"codes":null,"is_interchange":false,"station_role":"normal"},"geometry":{"type":"Point","coordinates":[-80.7528909,35.30111096666667]},"__memberLines":{}},{"type":"Feature","properties":{"station_id":"n5189367086","station_name":"UNC Charlotte–Main","station_name_local":"UNC Charlotte–Main","station_name_en":null,"city":"Charlotte","country":"United States","lines":["Blue"],"wikipedia":null,"merged_from":3,"merged_names":null,"is_terminus":true,"routes":[{"ref":"Blue","name":"LYNX Blue Line","route_color":"#0000ff"}],"pass_count":1,"station_degree":1,"codes":null,"is_interchange":false,"station_role":"terminus"},"geometry":{"type":"Point","coordinates":[-80.73343206666667,35.31215456666666]},"__memberLines":{}},{"type":"Feature","properties":{"station_id":"n6779598704","station_name":"Archdale","station_name_local":"Archdale","station_name_en":null,"city":"Charlotte","country":"United States","lines":["Blue"],"wikipedia":null,"merged_from":3,"merged_names":null,"is_terminus":false,"routes":[{"ref":"Blue","name":"LYNX Blue Line","route_color":"#0000ff"}],"pass_count":1,"station_degree":2,"codes":null,"is_interchange":false,"station_role":"normal"},"geometry":{"type":"Point","coordinates":[-80.87751676666666,35.15291093333334]},"__memberLines":{}},{"type":"Feature","properties":{"station_id":"n6779598707","station_name":"Arrowood","station_name_local":"Arrowood","station_name_en":null,"city":"Charlotte","country":"United States","lines":["Blue"],"wikipedia":null,"merged_from":3,"merged_names":null,"is_terminus":false,"routes":[{"ref":"Blue","name":"LYNX Blue Line","route_color":"#0000ff"}],"pass_count":1,"station_degree":2,"codes":null,"is_interchange":false,"station_role":"normal"},"geometry":{"type":"Point","coordinates":[-80.87637360000001,35.1356041]},"__memberLines":{}},{"type":"Feature","properties":{"station_id":"n6779598709","station_name":"I-485/South Boulevard","station_name_local":"I-485/South Boulevard","station_name_en":null,"city":"Charlotte","country":"United States","lines":["Blue"],"wikipedia":null,"merged_from":3,"merged_names":null,"is_terminus":true,"routes":[{"ref":"Blue","name":"LYNX Blue Line","route_color":"#0000ff"}],"pass_count":1,"station_degree":1,"codes":null,"is_interchange":false,"station_role":"terminus"},"geometry":{"type":"Point","coordinates":[-80.88284253333335,35.10659836666667]},"__memberLines":{}},{"type":"Feature","properties":{"station_id":"n8104462904","station_name":"Hawthorne & 5th Street","station_name_local":"Hawthorne & 5th Street","station_name_en":null,"city":"Charlotte","country":"United States","lines":["Gold"],"wikipedia":null,"merged_from":2,"merged_names":null,"is_terminus":false,"routes":[{"ref":"Gold","name":"CityLynx Gold Line","route_color":"#fece0c"}],"pass_count":1,"station_degree":2,"codes":null,"is_interchange":false,"station_role":"normal"},"geometry":{"type":"Point","coordinates":[-80.82453774999999,35.213773700000004]},"__memberLines":{}},{"type":"Feature","properties":{"station_id":"n8225130432","station_name":"Mint Street","station_name_local":"Mint Street","station_name_en":null,"city":"Charlotte","country":"United States","lines":["Gold"],"wikipedia":null,"merged_from":2,"merged_names":null,"is_terminus":false,"routes":[{"ref":"Gold","name":"CityLynx Gold Line","route_color":"#fece0c"}],"pass_count":1,"station_degree":2,"codes":null,"is_interchange":false,"station_role":"normal"},"geometry":{"type":"Point","coordinates":[-80.84594575,35.22968405]},"__memberLines":{}},{"type":"Feature","properties":{"station_id":"n8225157894","station_name":"Gateway Station","station_name_local":"Gateway Station","station_name_en":null,"city":"Charlotte","country":"United States","lines":["Gold"],"wikipedia":null,"merged_from":2,"merged_names":null,"is_terminus":false,"routes":[{"ref":"Gold","name":"CityLynx Gold Line","route_color":"#fece0c"}],"pass_count":1,"station_degree":2,"codes":null,"is_interchange":false,"station_role":"normal"},"geometry":{"type":"Point","coordinates":[-80.8479571,35.23140255]},"__memberLines":{}},{"type":"Feature","properties":{"station_id":"n8225157912","station_name":"Irwin Avenue","station_name_local":"Irwin Avenue","station_name_en":null,"city":"Charlotte","country":"United States","lines":["Gold"],"wikipedia":null,"merged_from":2,"merged_names":null,"is_terminus":false,"routes":[{"ref":"Gold","name":"CityLynx Gold Line","route_color":"#fece0c"}],"pass_count":1,"station_degree":2,"codes":null,"is_interchange":false,"station_role":"normal"},"geometry":{"type":"Point","coordinates":[-80.85277515,35.235005099999995]},"__memberLines":{}},{"type":"Feature","properties":{"station_id":"n8419403061","station_name":"JW Clay Boulevard/UNC Charlotte","station_name_local":"JW Clay Boulevard/UNC Charlotte","station_name_en":null,"city":"Charlotte","country":"United States","lines":["Blue"],"wikipedia":null,"merged_from":3,"merged_names":null,"is_terminus":false,"routes":[{"ref":"Blue","name":"LYNX Blue Line","route_color":"#0000ff"}],"pass_count":1,"station_degree":2,"codes":null,"is_interchange":false,"station_role":"normal"},"geometry":{"type":"Point","coordinates":[-80.74523766666665,35.31070376666667]},"__memberLines":{}},{"type":"Feature","properties":{"station_id":"n8419403064","station_name":"Tom Hunter","station_name_local":"Tom Hunter","station_name_en":null,"city":"Charlotte","country":"United States","lines":["Blue"],"wikipedia":null,"merged_from":3,"merged_names":null,"is_terminus":false,"routes":[{"ref":"Blue","name":"LYNX Blue Line","route_color":"#0000ff"}],"pass_count":1,"station_degree":2,"codes":null,"is_interchange":false,"station_role":"normal"},"geometry":{"type":"Point","coordinates":[-80.76628276666666,35.277938533333334]},"__memberLines":{}},{"type":"Feature","properties":{"station_id":"n8419403066","station_name":"Old Concord Road","station_name_local":"Old Concord Road","station_name_en":null,"city":"Charlotte","country":"United States","lines":["Blue"],"wikipedia":null,"merged_from":3,"merged_names":null,"is_terminus":false,"routes":[{"ref":"Blue","name":"LYNX Blue Line","route_color":"#0000ff"}],"pass_count":1,"station_degree":2,"codes":null,"is_interchange":false,"station_role":"normal"},"geometry":{"type":"Point","coordinates":[-80.77278226666668,35.259954666666665]},"__memberLines":{}},{"type":"Feature","properties":{"station_id":"n8419403068","station_name":"Sugar Creek","station_name_local":"Sugar Creek","station_name_en":null,"city":"Charlotte","country":"United States","lines":["Blue"],"wikipedia":null,"merged_from":3,"merged_names":null,"is_terminus":false,"routes":[{"ref":"Blue","name":"LYNX Blue Line","route_color":"#0000ff"}],"pass_count":1,"station_degree":2,"codes":null,"is_interchange":false,"station_role":"normal"},"geometry":{"type":"Point","coordinates":[-80.79284306666666,35.251423566666666]},"__memberLines":{}},{"type":"Feature","properties":{"station_id":"n8419403073","station_name":"25th Street","station_name_local":"25th Street","station_name_en":null,"city":"Charlotte","country":"United States","lines":["Blue"],"wikipedia":null,"merged_from":3,"merged_names":null,"is_terminus":false,"routes":[{"ref":"Blue","name":"LYNX Blue Line","route_color":"#0000ff"}],"pass_count":1,"station_degree":2,"codes":null,"is_interchange":false,"station_role":"normal"},"geometry":{"type":"Point","coordinates":[-80.8170908,35.24173819999999]},"__memberLines":{}},{"type":"Feature","properties":{"station_id":"n8419403075","station_name":"Parkwood","station_name_local":"Parkwood","station_name_en":null,"city":"Charlotte","country":"United States","lines":["Blue"],"wikipedia":null,"merged_from":3,"merged_names":null,"is_terminus":false,"routes":[{"ref":"Blue","name":"LYNX Blue Line","route_color":"#0000ff"}],"pass_count":1,"station_degree":2,"codes":null,"is_interchange":false,"station_role":"normal"},"geometry":{"type":"Point","coordinates":[-80.8232925,35.23690486666666]},"__memberLines":{}},{"type":"Feature","properties":{"station_id":"n8419403078","station_name":"7th Street","station_name_local":"7th Street","station_name_en":null,"city":"Charlotte","country":"United States","lines":["Blue"],"wikipedia":null,"merged_from":3,"merged_names":null,"is_terminus":false,"routes":[{"ref":"Blue","name":"LYNX Blue Line","route_color":"#0000ff"}],"pass_count":1,"station_degree":2,"codes":null,"is_interchange":false,"station_role":"normal"},"geometry":{"type":"Point","coordinates":[-80.83818326666666,35.22731886666667]},"__memberLines":{}},{"type":"Feature","properties":{"station_id":"n8419403082","station_name":"3rd Street/Convention Center","station_name_local":"3rd Street/Convention Center","station_name_en":null,"city":"Charlotte","country":"United States","lines":["Blue"],"wikipedia":null,"merged_from":3,"merged_names":null,"is_terminus":false,"routes":[{"ref":"Blue","name":"LYNX Blue Line","route_color":"#0000ff"}],"pass_count":1,"station_degree":2,"codes":null,"is_interchange":false,"station_role":"normal"},"geometry":{"type":"Point","coordinates":[-80.8430247,35.2237548]},"__memberLines":{}},{"type":"Feature","properties":{"station_id":"n8419403084","station_name":"Brooklyn Village","station_name_local":"Brooklyn Village","station_name_en":null,"city":"Charlotte","country":"United States","lines":["Blue"],"wikipedia":null,"merged_from":3,"merged_names":null,"is_terminus":false,"routes":[{"ref":"Blue","name":"LYNX Blue Line","route_color":"#0000ff"}],"pass_count":1,"station_degree":2,"codes":null,"is_interchange":false,"station_role":"normal"},"geometry":{"type":"Point","coordinates":[-80.84716546666668,35.221256700000005]},"__memberLines":{}},{"type":"Feature","properties":{"station_id":"n8419403087","station_name":"Carson","station_name_local":"Carson","station_name_en":null,"city":"Charlotte","country":"United States","lines":["Blue"],"wikipedia":null,"merged_from":3,"merged_names":null,"is_terminus":false,"routes":[{"ref":"Blue","name":"LYNX Blue Line","route_color":"#0000ff"}],"pass_count":1,"station_degree":2,"codes":null,"is_interchange":false,"station_role":"normal"},"geometry":{"type":"Point","coordinates":[-80.85089099999999,35.21880783333333]},"__memberLines":{}},{"type":"Feature","properties":{"station_id":"n8419403091","station_name":"Bland Street","station_name_local":"Bland Street","station_name_en":null,"city":"Charlotte","country":"United States","lines":["Blue"],"wikipedia":null,"merged_from":3,"merged_names":null,"is_terminus":false,"routes":[{"ref":"Blue","name":"LYNX Blue Line","route_color":"#0000ff"}],"pass_count":1,"station_degree":2,"codes":null,"is_interchange":false,"station_role":"normal"},"geometry":{"type":"Point","coordinates":[-80.85522033333335,35.2157658]},"__memberLines":{}},{"type":"Feature","properties":{"station_id":"n8419403093","station_name":"East/West Boulevard","station_name_local":"East/West Boulevard","station_name_en":null,"city":"Charlotte","country":"United States","lines":["Blue"],"wikipedia":null,"merged_from":3,"merged_names":null,"is_terminus":false,"routes":[{"ref":"Blue","name":"LYNX Blue Line","route_color":"#0000ff"}],"pass_count":1,"station_degree":2,"codes":null,"is_interchange":false,"station_role":"normal"},"geometry":{"type":"Point","coordinates":[-80.85903023333333,35.212090366666665]},"__memberLines":{}},{"type":"Feature","properties":{"station_id":"n8419403095","station_name":"New Bern","station_name_local":"New Bern","station_name_en":null,"city":"Charlotte","country":"United States","lines":["Blue"],"wikipedia":null,"merged_from":3,"merged_names":null,"is_terminus":false,"routes":[{"ref":"Blue","name":"LYNX Blue Line","route_color":"#0000ff"}],"pass_count":1,"station_degree":2,"codes":null,"is_interchange":false,"station_role":"normal"},"geometry":{"type":"Point","coordinates":[-80.8690442,35.199751133333336]},"__memberLines":{}},{"type":"Feature","properties":{"station_id":"n8419403097","station_name":"Scaleybark","station_name_local":"Scaleybark","station_name_en":null,"city":"Charlotte","country":"United States","lines":["Blue"],"wikipedia":null,"merged_from":3,"merged_names":null,"is_terminus":false,"routes":[{"ref":"Blue","name":"LYNX Blue Line","route_color":"#0000ff"}],"pass_count":1,"station_degree":2,"codes":null,"is_interchange":false,"station_role":"normal"},"geometry":{"type":"Point","coordinates":[-80.87497963333333,35.190871699999995]},"__memberLines":{}},{"type":"Feature","properties":{"station_id":"n8419403099","station_name":"Woodlawn","station_name_local":"Woodlawn","station_name_en":null,"city":"Charlotte","country":"United States","lines":["Blue"],"wikipedia":null,"merged_from":3,"merged_names":null,"is_terminus":false,"routes":[{"ref":"Blue","name":"LYNX Blue Line","route_color":"#0000ff"}],"pass_count":1,"station_degree":2,"codes":null,"is_interchange":false,"station_role":"normal"},"geometry":{"type":"Point","coordinates":[-80.87909806666666,35.17574246666667]},"__memberLines":{}},{"type":"Feature","properties":{"station_id":"n9094786813","station_name":"Johnson & Wales","station_name_local":"Johnson & Wales","station_name_en":null,"city":"Charlotte","country":"United States","lines":["Gold"],"wikipedia":null,"merged_from":2,"merged_names":null,"is_terminus":false,"routes":[{"ref":"Gold","name":"CityLynx Gold Line","route_color":"#fece0c"}],"pass_count":1,"station_degree":2,"codes":null,"is_interchange":false,"station_role":"normal"},"geometry":{"type":"Point","coordinates":[-80.85060179999999,35.23347095]},"__memberLines":{}},{"type":"Feature","properties":{"station_id":"n9094942971","station_name":"Bruns Avenue","station_name_local":"Bruns Avenue","station_name_en":null,"city":"Charlotte","country":"United States","lines":["Gold"],"wikipedia":null,"merged_from":2,"merged_names":null,"is_terminus":false,"routes":[{"ref":"Gold","name":"CityLynx Gold Line","route_color":"#fece0c"}],"pass_count":1,"station_degree":2,"codes":null,"is_interchange":false,"station_role":"normal"},"geometry":{"type":"Point","coordinates":[-80.85845979999999,35.23999355]},"__memberLines":{}},{"type":"Feature","properties":{"station_id":"n9098905258","station_name":"Hawthorne & 8th","station_name_local":"Hawthorne & 8th","station_name_en":null,"city":"Charlotte","country":"United States","lines":["Gold"],"wikipedia":null,"merged_from":2,"merged_names":null,"is_terminus":false,"routes":[{"ref":"Gold","name":"CityLynx Gold Line","route_color":"#fece0c"}],"pass_count":1,"station_degree":2,"codes":null,"is_interchange":false,"station_role":"normal"},"geometry":{"type":"Point","coordinates":[-80.82124815,35.21648625]},"__memberLines":{}},{"type":"Feature","properties":{"station_id":"n9099099567","station_name":"Sunnyside Avenue","station_name_local":"Sunnyside Avenue","station_name_en":null,"city":"Charlotte","country":"United States","lines":["Gold"],"wikipedia":null,"merged_from":2,"merged_names":null,"is_terminus":true,"routes":[{"ref":"Gold","name":"CityLynx Gold Line","route_color":"#fece0c"}],"pass_count":1,"station_degree":1,"codes":null,"is_interchange":false,"station_role":"terminus"},"geometry":{"type":"Point","coordinates":[-80.8188925,35.2194313]},"__memberLines":{}},{"type":"Feature","properties":{"station_id":"n9102089256","station_name":"French Street","station_name_local":"French Street","station_name_en":null,"city":"Charlotte","country":"United States","lines":["Gold"],"wikipedia":null,"merged_from":2,"merged_names":null,"is_terminus":true,"routes":[{"ref":"Gold","name":"CityLynx Gold Line","route_color":"#fece0c"}],"pass_count":1,"station_degree":1,"codes":null,"is_interchange":false,"station_role":"terminus"},"geometry":{"type":"Point","coordinates":[-80.85688755000001,35.246027299999994]},"__memberLines":{}},{"type":"Feature","properties":{"station_id":"n9102089277","station_name":"Johnson C. Smith University","station_name_local":"Johnson C. Smith University","station_name_en":null,"city":"Charlotte","country":"United States","lines":["Gold"],"wikipedia":null,"merged_from":2,"merged_names":null,"is_terminus":false,"routes":[{"ref":"Gold","name":"CityLynx Gold Line","route_color":"#fece0c"}],"pass_count":1,"station_degree":2,"codes":null,"is_interchange":false,"station_role":"normal"},"geometry":{"type":"Point","coordinates":[-80.85836674999999,35.24307425]},"__memberLines":{}},{"type":"Feature","properties":{"station_id":"n9102120923","station_name":"Wesley Heights","station_name_local":"Wesley Heights","station_name_en":null,"city":"Charlotte","country":"United States","lines":["Gold"],"wikipedia":null,"merged_from":2,"merged_names":null,"is_terminus":false,"routes":[{"ref":"Gold","name":"CityLynx Gold Line","route_color":"#fece0c"}],"pass_count":1,"station_degree":2,"codes":null,"is_interchange":false,"station_role":"normal"},"geometry":{"type":"Point","coordinates":[-80.85879965,35.2373344]},"__memberLines":{}},{"type":"Feature","properties":{"station_id":"n9108307132","station_name":"Tryon Street","station_name_local":"Tryon Street","station_name_en":null,"city":"Charlotte","country":"United States","lines":["Gold"],"wikipedia":null,"merged_from":2,"merged_names":null,"is_terminus":false,"routes":[{"ref":"Gold","name":"CityLynx Gold Line","route_color":"#fece0c"}],"pass_count":1,"station_degree":2,"codes":null,"is_interchange":false,"station_role":"normal"},"geometry":{"type":"Point","coordinates":[-80.84335035000001,35.22743305]},"__memberLines":{}}]}