{"type":"FeatureCollection","metro_system":{"continent":"asia","country":"China","city":"Changchun","official_website":null,"official_map":"https://en.wikipedia.org/wiki/Changchun_Rail_Transit","wikipedia":"en:Changchun Rail Transit","wiki":true,"wikipedia_zh":"zh:长春轨道交通","line_count":3,"segment_count":5,"station_count":60,"modes":["metro"],"audit":{"strategies_tried":[],"passed":true,"checks":[{"id":"system_exists","ok":true,"detail":"matched OSM system metro-maps/asia/china/as-chn-changchun/as-chn-changchun.geojson","level":"error"},{"id":"has_lines","ok":true,"detail":"3 lines","level":"error"},{"id":"has_stations","ok":true,"detail":"60 stations","level":"error"},{"id":"station_count_info","ok":true,"detail":"OSM 60 站（wiki List 記 89，計法含轉乘重複，僅參考）","level":"warn"},{"id":"stations_have_lines","ok":true,"detail":"60/60 站皆有所屬路線","level":"error"},{"id":"line_geometry_stations","ok":true,"detail":"65 個折點/端點皆為車站","level":"error"},{"id":"route_stations_match_geometry","ok":true,"detail":"各線車站列表與圖面一致","level":"error"},{"id":"interchange_rule","ok":true,"detail":"所有車站紅/藍點符合骨架＋路線色規則（藍＝端點、紅＝交叉）","level":"error"},{"id":"stations_named","ok":true,"detail":"60/60 站皆有名稱","level":"error"},{"id":"station_order","ok":true,"detail":"所有線路站序合理","level":"warn"},{"id":"line_wiki_stations","ok":true,"detail":"各線站數與 wiki 線路條目相符（營運中站數）","level":"error"}],"reasons":[],"warnings":[],"audited_at":"2026-07-27T02:38:22.433Z"}},"features":[{"type":"Feature","properties":{"seg_id":"changchun-0","routes":[{"route_id":"rm7949339","route_name":"长春轨道交通1号线","route_name_local":"长春轨道交通1号线","route_name_en":"Line 1","route_ref":"1","route_color":"#e50011","wikipedia":"en:Line 1 (Changchun Subway)","osm_route_ids":[7875901,9650341],"status":null,"order_suspect":0,"span_suspect":0,"stations":[{"station_id":"n6520150612","station_name":"北环城路"},{"station_id":"n6520150614","station_name":"庆丰路"},{"station_id":"n6520150615","station_name":"一匡街"},{"station_id":"n6520150616","station_name":"长春站北"},{"station_id":"n6521278780","station_name":"长春站"},{"station_id":"n6520150649","station_name":"胜利公园"},{"station_id":"n6520150650","station_name":"人民广场"},{"station_id":"n6520150651","station_name":"解放大路"},{"station_id":"n6520150653","station_name":"东北师大"},{"station_id":"n6520150654","station_name":"工农广场"},{"station_id":"n6520150655","station_name":"繁荣路"},{"station_id":"n6520150656","station_name":"卫星广场"},{"station_id":"n6520150657","station_name":"市政府"},{"station_id":"n6520150658","station_name":"华庆路"},{"station_id":"n6520150659","station_name":"红嘴子"}]}],"route_count":1,"route_refs":["1"],"route_colors":["#e50011"],"city":"Changchun","country":"China"},"geometry":{"type":"MultiLineString","coordinates":[[[125.31833303333333,43.94599123333333],[125.31765123333332,43.93452486666666],[125.31764126666667,43.92271896666667],[125.31682078333334,43.91157245],[125.31718038333334,43.90684003333334],[125.3177835,43.8978443],[125.3180646,43.886054075],[125.318415,43.875804933333335],[125.31861789999999,43.861666899999996],[125.31940152499999,43.848697425000005],[125.31911473333332,43.83775773333334],[125.31799296666668,43.83024908333334],[125.31967766666666,43.817053466666664],[125.31944636,43.797632799999995],[125.32102366666668,43.787245066666664]]]}},{"type":"Feature","properties":{"seg_id":"changchun-1","routes":[{"route_id":"rm9642906","route_name":"长春轨道交通2号线","route_name_local":"长春轨道交通2号线","route_name_en":"Changchun Subway Line 2","route_ref":"2","route_color":"#3b6a96","wikipedia":"en:Line 2 (Changchun Rail Transit)","osm_route_ids":[9642904,9689345],"status":null,"order_suspect":0,"span_suspect":0,"stations":[{"station_id":"n9160356671","station_name":"汽车公园"},{"station_id":"n9160356669","station_name":"捷达大路"},{"station_id":"n9160356670","station_name":"西湖"},{"station_id":"n6520538354","station_name":"双丰"},{"station_id":"n6520538355","station_name":"长春西站"},{"station_id":"n6520538356","station_name":"兴隆堡"},{"station_id":"n6520538357","station_name":"西环城路"},{"station_id":"n6520538358","station_name":"和平大街"},{"station_id":"n6520538359","station_name":"万福街"},{"station_id":"n6520538365","station_name":"景阳广场"},{"station_id":"n6520538366","station_name":"解放桥"},{"station_id":"n6520538367","station_name":"建设广场"},{"station_id":"n6520538368","station_name":"文化广场"},{"station_id":"n6520150651","station_name":"解放大路"},{"station_id":"n6520538369","station_name":"平阳街"},{"station_id":"n6520538370","station_name":"南关"},{"station_id":"n6514090354","station_name":"吉林大路"},{"station_id":"n6520538371","station_name":"东盛大街"},{"station_id":"n6520538372","station_name":"东环城路"},{"station_id":"n6520538373","station_name":"长青"},{"station_id":"n6520538374","station_name":"东方广场"},{"station_id":"n13174729383","station_name":"哈尔滨大街"},{"station_id":"n13174729386","station_name":"窦家沟"},{"station_id":"n13174729389","station_name":"英俊大街"},{"station_id":"n13174729392","station_name":"英凯大街"},{"station_id":"n13174729395","station_name":"林溪大街"},{"station_id":"n13174729398","station_name":"雾开河大街"}]}],"route_count":1,"route_refs":["2"],"route_colors":["#3b6a96"],"city":"Changchun","country":"China"},"geometry":{"type":"MultiLineString","coordinates":[[[125.1652838,43.8308189],[125.16123716666668,43.84470166666667],[125.16319303333334,43.853534599999996],[125.17795075,43.864593533333334]]]}},{"type":"Feature","properties":{"seg_id":"changchun-2","routes":[{"route_id":"rm9642906","route_name":"长春轨道交通2号线","route_name_local":"长春轨道交通2号线","route_name_en":"Changchun Subway Line 2","route_ref":"2","route_color":"#3b6a96","wikipedia":"en:Line 2 (Changchun Rail Transit)","osm_route_ids":[9642904,9689345],"status":null,"order_suspect":0,"span_suspect":0,"stations":[{"station_id":"n9160356671","station_name":"汽车公园"},{"station_id":"n9160356669","station_name":"捷达大路"},{"station_id":"n9160356670","station_name":"西湖"},{"station_id":"n6520538354","station_name":"双丰"},{"station_id":"n6520538355","station_name":"长春西站"},{"station_id":"n6520538356","station_name":"兴隆堡"},{"station_id":"n6520538357","station_name":"西环城路"},{"station_id":"n6520538358","station_name":"和平大街"},{"station_id":"n6520538359","station_name":"万福街"},{"station_id":"n6520538365","station_name":"景阳广场"},{"station_id":"n6520538366","station_name":"解放桥"},{"station_id":"n6520538367","station_name":"建设广场"},{"station_id":"n6520538368","station_name":"文化广场"},{"station_id":"n6520150651","station_name":"解放大路"},{"station_id":"n6520538369","station_name":"平阳街"},{"station_id":"n6520538370","station_name":"南关"},{"station_id":"n6514090354","station_name":"吉林大路"},{"station_id":"n6520538371","station_name":"东盛大街"},{"station_id":"n6520538372","station_name":"东环城路"},{"station_id":"n6520538373","station_name":"长青"},{"station_id":"n6520538374","station_name":"东方广场"},{"station_id":"n13174729383","station_name":"哈尔滨大街"},{"station_id":"n13174729386","station_name":"窦家沟"},{"station_id":"n13174729389","station_name":"英俊大街"},{"station_id":"n13174729392","station_name":"英凯大街"},{"station_id":"n13174729395","station_name":"林溪大街"},{"station_id":"n13174729398","station_name":"雾开河大街"}]}],"route_count":1,"route_refs":["2"],"route_colors":["#3b6a96"],"city":"Changchun","country":"China"},"geometry":{"type":"MultiLineString","coordinates":[[[125.19510218333333,43.87401886666667],[125.21699836666666,43.88159753333334],[125.2336197,43.88165136666667],[125.24838343333333,43.8818209],[125.25968493333333,43.8819574],[125.26969046666666,43.88031806666667],[125.28045872499999,43.8758356],[125.29014286666666,43.8754414],[125.30160269999999,43.875921825],[125.318415,43.875804933333335],[125.32764986666666,43.8758694],[125.33832109999999,43.878070900000004],[125.35789448333333,43.87917858333333],[125.37015743333335,43.87976156666667],[125.387959925,43.879587375],[125.4033658,43.8798356],[125.41950893333335,43.87930886666667],[125.4377248,43.88264066666667],[125.4667829,43.889055299999995],[125.48322133333333,43.889296800000004],[125.50562860000001,43.889099466666664],[125.52737230000001,43.889341],[125.5472028,43.88928836666667]]]}},{"type":"Feature","properties":{"seg_id":"changchun-3","routes":[{"route_id":"rm9642906","route_name":"长春轨道交通2号线","route_name_local":"长春轨道交通2号线","route_name_en":"Changchun Subway Line 2","route_ref":"2","route_color":"#3b6a96","wikipedia":"en:Line 2 (Changchun Rail Transit)","osm_route_ids":[9642904,9689345],"status":null,"order_suspect":0,"span_suspect":0,"stations":[{"station_id":"n9160356671","station_name":"汽车公园"},{"station_id":"n9160356669","station_name":"捷达大路"},{"station_id":"n9160356670","station_name":"西湖"},{"station_id":"n6520538354","station_name":"双丰"},{"station_id":"n6520538355","station_name":"长春西站"},{"station_id":"n6520538356","station_name":"兴隆堡"},{"station_id":"n6520538357","station_name":"西环城路"},{"station_id":"n6520538358","station_name":"和平大街"},{"station_id":"n6520538359","station_name":"万福街"},{"station_id":"n6520538365","station_name":"景阳广场"},{"station_id":"n6520538366","station_name":"解放桥"},{"station_id":"n6520538367","station_name":"建设广场"},{"station_id":"n6520538368","station_name":"文化广场"},{"station_id":"n6520150651","station_name":"解放大路"},{"station_id":"n6520538369","station_name":"平阳街"},{"station_id":"n6520538370","station_name":"南关"},{"station_id":"n6514090354","station_name":"吉林大路"},{"station_id":"n6520538371","station_name":"东盛大街"},{"station_id":"n6520538372","station_name":"东环城路"},{"station_id":"n6520538373","station_name":"长青"},{"station_id":"n6520538374","station_name":"东方广场"},{"station_id":"n13174729383","station_name":"哈尔滨大街"},{"station_id":"n13174729386","station_name":"窦家沟"},{"station_id":"n13174729389","station_name":"英俊大街"},{"station_id":"n13174729392","station_name":"英凯大街"},{"station_id":"n13174729395","station_name":"林溪大街"},{"station_id":"n13174729398","station_name":"雾开河大街"}]},{"route_id":"rm17399102","route_name":"长春轨道交通6号线","route_name_local":"长春轨道交通6号线","route_name_en":"Changchun Rail Transit Line 6","route_ref":"6","route_color":"#e88f99","wikipedia":null,"osm_route_ids":[17399100,17399101],"status":null,"order_suspect":0,"span_suspect":0,"stations":[{"station_id":"n6520538354","station_name":"双丰"},{"station_id":"n6520538355","station_name":"长春西站"},{"station_id":"n11766362157","station_name":"腾跃街"},{"station_id":"n11766362156","station_name":"支农大街"},{"station_id":"n11766362155","station_name":"飞跃广场"},{"station_id":"n11766362154","station_name":"欧亚卖场"},{"station_id":"n11766362153","station_name":"光谷大街"},{"station_id":"n11766362152","station_name":"硅谷广场"},{"station_id":"n11766349882","station_name":"百花园"},{"station_id":"n11766349881","station_name":"市法院"},{"station_id":"n11766349880","station_name":"兰桡湖公园"},{"station_id":"n11766349879","station_name":"轨道集团"},{"station_id":"n11766349878","station_name":"新明街"},{"station_id":"n6520150658","station_name":"华庆路"},{"station_id":"n11766316581","station_name":"南溪湿地公园"},{"station_id":"n10966530428","station_name":"福祉大路"},{"station_id":"n11766316579","station_name":"吴家店"},{"station_id":"n11766230935","station_name":"亚泰足球基地"},{"station_id":"n11766230934","station_name":"樱花街"},{"station_id":"n11766230933","station_name":"聚业大街"},{"station_id":"n11766230932","station_name":"省博物院"},{"station_id":"n1274495663","station_name":"长影世纪城"}]}],"route_count":2,"route_refs":["2","6"],"route_colors":["#3b6a96","#e88f99"],"city":"Changchun","country":"China"},"geometry":{"type":"MultiLineString","coordinates":[[[125.17795075,43.864593533333334],[125.19510218333333,43.87401886666667]]]}},{"type":"Feature","properties":{"seg_id":"changchun-4","routes":[{"route_id":"rm17399102","route_name":"长春轨道交通6号线","route_name_local":"长春轨道交通6号线","route_name_en":"Changchun Rail Transit Line 6","route_ref":"6","route_color":"#e88f99","wikipedia":null,"osm_route_ids":[17399100,17399101],"status":null,"order_suspect":0,"span_suspect":0,"stations":[{"station_id":"n6520538354","station_name":"双丰"},{"station_id":"n6520538355","station_name":"长春西站"},{"station_id":"n11766362157","station_name":"腾跃街"},{"station_id":"n11766362156","station_name":"支农大街"},{"station_id":"n11766362155","station_name":"飞跃广场"},{"station_id":"n11766362154","station_name":"欧亚卖场"},{"station_id":"n11766362153","station_name":"光谷大街"},{"station_id":"n11766362152","station_name":"硅谷广场"},{"station_id":"n11766349882","station_name":"百花园"},{"station_id":"n11766349881","station_name":"市法院"},{"station_id":"n11766349880","station_name":"兰桡湖公园"},{"station_id":"n11766349879","station_name":"轨道集团"},{"station_id":"n11766349878","station_name":"新明街"},{"station_id":"n6520150658","station_name":"华庆路"},{"station_id":"n11766316581","station_name":"南溪湿地公园"},{"station_id":"n10966530428","station_name":"福祉大路"},{"station_id":"n11766316579","station_name":"吴家店"},{"station_id":"n11766230935","station_name":"亚泰足球基地"},{"station_id":"n11766230934","station_name":"樱花街"},{"station_id":"n11766230933","station_name":"聚业大街"},{"station_id":"n11766230932","station_name":"省博物院"},{"station_id":"n1274495663","station_name":"长影世纪城"}]}],"route_count":1,"route_refs":["6"],"route_colors":["#e88f99"],"city":"Changchun","country":"China"},"geometry":{"type":"MultiLineString","coordinates":[[[125.19510218333333,43.87401886666667],[125.20893603333333,43.8686423],[125.21629826666667,43.8575265],[125.22436055000001,43.847237150000005],[125.23468033333332,43.83605086666666],[125.24396256666667,43.830165099999995],[125.25528055,43.822860975],[125.26923166666667,43.810940966666664],[125.27003316666668,43.802075133333325],[125.28976176666667,43.79769863333333],[125.29904570000001,43.79767493333333],[125.30645276666667,43.7976845],[125.31944636,43.797632799999995],[125.34884453333332,43.798091066666665],[125.36020655,43.784422283333335],[125.37191153333333,43.7753997],[125.38855686666666,43.77011163333333],[125.40222139999999,43.768606299999995],[125.41584166666667,43.76716553333333],[125.42428356666666,43.76704786666667],[125.44212420000001,43.768303]]]}},{"type":"Feature","properties":{"station_id":"n1274495663","station_name":"长影世纪城","station_name_local":"长影世纪城","station_name_en":"Changchun Movie Wonderland","city":"Changchun","country":"China","lines":["6"],"wikipedia":null,"merged_from":6,"merged_names":null,"is_terminus":true,"routes":[{"ref":"6","name":"长春轨道交通6号线","route_color":"#e88f99"}],"pass_count":1,"station_degree":1,"codes":null,"is_interchange":false,"station_role":"terminus"},"geometry":{"type":"Point","coordinates":[125.44212420000001,43.768303]},"__memberLines":{}},{"type":"Feature","properties":{"station_id":"n6514090354","station_name":"吉林大路","station_name_local":"吉林大路","station_name_en":"Jilin Avenue","city":"Changchun","country":"China","lines":["2"],"wikipedia":null,"merged_from":6,"merged_names":null,"is_terminus":false,"routes":[{"ref":"2","name":"长春轨道交通2号线","route_color":"#3b6a96"}],"pass_count":1,"station_degree":2,"codes":null,"is_interchange":false,"station_role":"normal"},"geometry":{"type":"Point","coordinates":[125.35789448333333,43.87917858333333]},"__memberLines":{}},{"type":"Feature","properties":{"station_id":"n6520150612","station_name":"北环城路","station_name_local":"北环城路","station_name_en":"North Ring Road","city":"Changchun","country":"China","lines":["1"],"wikipedia":null,"merged_from":6,"merged_names":null,"is_terminus":true,"routes":[{"ref":"1","name":"长春轨道交通1号线","route_color":"#e50011"}],"pass_count":1,"station_degree":1,"codes":null,"is_interchange":false,"station_role":"terminus"},"geometry":{"type":"Point","coordinates":[125.31833303333333,43.94599123333333]},"__memberLines":{}},{"type":"Feature","properties":{"station_id":"n6520150614","station_name":"庆丰路","station_name_local":"庆丰路","station_name_en":"Qingfeng Road","city":"Changchun","country":"China","lines":["1"],"wikipedia":null,"merged_from":3,"merged_names":null,"is_terminus":false,"routes":[{"ref":"1","name":"长春轨道交通1号线","route_color":"#e50011"}],"pass_count":1,"station_degree":2,"codes":null,"is_interchange":false,"station_role":"normal"},"geometry":{"type":"Point","coordinates":[125.31765123333332,43.93452486666666]},"__memberLines":{}},{"type":"Feature","properties":{"station_id":"n6520150615","station_name":"一匡街","station_name_local":"一匡街","station_name_en":"Yikuang Street","city":"Changchun","country":"China","lines":["1"],"wikipedia":null,"merged_from":3,"merged_names":null,"is_terminus":false,"routes":[{"ref":"1","name":"长春轨道交通1号线","route_color":"#e50011"}],"pass_count":1,"station_degree":2,"codes":null,"is_interchange":false,"station_role":"normal"},"geometry":{"type":"Point","coordinates":[125.31764126666667,43.92271896666667]},"__memberLines":{}},{"type":"Feature","properties":{"station_id":"n6520150616","station_name":"长春站北","station_name_local":"长春站北","station_name_en":"Changchun Railway Station (North)","city":"Changchun","country":"China","lines":["1"],"wikipedia":null,"merged_from":6,"merged_names":null,"is_terminus":false,"routes":[{"ref":"1","name":"长春轨道交通1号线","route_color":"#e50011"}],"pass_count":1,"station_degree":2,"codes":null,"is_interchange":false,"station_role":"normal"},"geometry":{"type":"Point","coordinates":[125.31682078333334,43.91157245]},"__memberLines":{}},{"type":"Feature","properties":{"station_id":"n6520150649","station_name":"胜利公园","station_name_local":"胜利公园","station_name_en":"Shengli Park","city":"Changchun","country":"China","lines":["1"],"wikipedia":null,"merged_from":3,"merged_names":null,"is_terminus":false,"routes":[{"ref":"1","name":"长春轨道交通1号线","route_color":"#e50011"}],"pass_count":1,"station_degree":2,"codes":null,"is_interchange":false,"station_role":"normal"},"geometry":{"type":"Point","coordinates":[125.3177835,43.8978443]},"__memberLines":{}},{"type":"Feature","properties":{"station_id":"n6520150650","station_name":"人民广场","station_name_local":"人民广场","station_name_en":"RENMIN Square","city":"Changchun","country":"China","lines":["1"],"wikipedia":null,"merged_from":4,"merged_names":null,"is_terminus":false,"routes":[{"ref":"1","name":"长春轨道交通1号线","route_color":"#e50011"}],"pass_count":1,"station_degree":2,"codes":null,"is_interchange":false,"station_role":"normal"},"geometry":{"type":"Point","coordinates":[125.3180646,43.886054075]},"__memberLines":{}},{"type":"Feature","properties":{"station_id":"n6520150651","station_name":"解放大路","station_name_local":"解放大路","station_name_en":"Jiefang Avenue","city":"Changchun","country":"China","lines":["1","2"],"wikipedia":null,"merged_from":6,"merged_names":null,"is_terminus":false,"routes":[{"ref":"1","name":"长春轨道交通1号线","route_color":"#e50011"},{"ref":"2","name":"长春轨道交通2号线","route_color":"#3b6a96"}],"pass_count":2,"station_degree":4,"codes":null,"is_interchange":true,"station_role":"interchange"},"geometry":{"type":"Point","coordinates":[125.318415,43.875804933333335]},"__memberLines":{}},{"type":"Feature","properties":{"station_id":"n6520150653","station_name":"东北师大","station_name_local":"东北师大","station_name_en":"Northeast Normal University","city":"Changchun","country":"China","lines":["1"],"wikipedia":null,"merged_from":3,"merged_names":null,"is_terminus":false,"routes":[{"ref":"1","name":"长春轨道交通1号线","route_color":"#e50011"}],"pass_count":1,"station_degree":2,"codes":null,"is_interchange":false,"station_role":"normal"},"geometry":{"type":"Point","coordinates":[125.31861789999999,43.861666899999996]},"__memberLines":{}},{"type":"Feature","properties":{"station_id":"n6520150654","station_name":"工农广场","station_name_local":"工农广场","station_name_en":"Gongnong Square","city":"Changchun","country":"China","lines":["1"],"wikipedia":null,"merged_from":4,"merged_names":null,"is_terminus":false,"routes":[{"ref":"1","name":"长春轨道交通1号线","route_color":"#e50011"}],"pass_count":1,"station_degree":2,"codes":null,"is_interchange":false,"station_role":"normal"},"geometry":{"type":"Point","coordinates":[125.31940152499999,43.848697425000005]},"__memberLines":{}},{"type":"Feature","properties":{"station_id":"n6520150655","station_name":"繁荣路","station_name_local":"繁荣路","station_name_en":"Fanrong Road","city":"Changchun","country":"China","lines":["1"],"wikipedia":null,"merged_from":3,"merged_names":null,"is_terminus":false,"routes":[{"ref":"1","name":"长春轨道交通1号线","route_color":"#e50011"}],"pass_count":1,"station_degree":2,"codes":null,"is_interchange":false,"station_role":"normal"},"geometry":{"type":"Point","coordinates":[125.31911473333332,43.83775773333334]},"__memberLines":{}},{"type":"Feature","properties":{"station_id":"n6520150656","station_name":"卫星广场","station_name_local":"卫星广场","station_name_en":"Weixing Square","city":"Changchun","country":"China","lines":["1"],"wikipedia":null,"merged_from":6,"merged_names":null,"is_terminus":false,"routes":[{"ref":"1","name":"长春轨道交通1号线","route_color":"#e50011"}],"pass_count":1,"station_degree":2,"codes":null,"is_interchange":false,"station_role":"normal"},"geometry":{"type":"Point","coordinates":[125.31799296666668,43.83024908333334]},"__memberLines":{}},{"type":"Feature","properties":{"station_id":"n6520150657","station_name":"市政府","station_name_local":"市政府","station_name_en":"Municipal Government","city":"Changchun","country":"China","lines":["1"],"wikipedia":null,"merged_from":3,"merged_names":null,"is_terminus":false,"routes":[{"ref":"1","name":"长春轨道交通1号线","route_color":"#e50011"}],"pass_count":1,"station_degree":2,"codes":null,"is_interchange":false,"station_role":"normal"},"geometry":{"type":"Point","coordinates":[125.31967766666666,43.817053466666664]},"__memberLines":{}},{"type":"Feature","properties":{"station_id":"n6520150658","station_name":"华庆路","station_name_local":"华庆路","station_name_en":"Huaqing Road","city":"Changchun","country":"China","lines":["1","6"],"wikipedia":"zh:华庆路站","merged_from":5,"merged_names":null,"is_terminus":false,"routes":[{"ref":"1","name":"长春轨道交通1号线","route_color":"#e50011"},{"ref":"6","name":"长春轨道交通6号线","route_color":"#e88f99"}],"pass_count":2,"station_degree":4,"codes":null,"is_interchange":true,"station_role":"interchange"},"geometry":{"type":"Point","coordinates":[125.31944636,43.797632799999995]},"__memberLines":{}},{"type":"Feature","properties":{"station_id":"n6520150659","station_name":"红嘴子","station_name_local":"红嘴子","station_name_en":"Hongzuizi","city":"Changchun","country":"China","lines":["1"],"wikipedia":null,"merged_from":3,"merged_names":null,"is_terminus":true,"routes":[{"ref":"1","name":"长春轨道交通1号线","route_color":"#e50011"}],"pass_count":1,"station_degree":1,"codes":null,"is_interchange":false,"station_role":"terminus"},"geometry":{"type":"Point","coordinates":[125.32102366666668,43.787245066666664]},"__memberLines":{}},{"type":"Feature","properties":{"station_id":"n6520538354","station_name":"双丰","station_name_local":"双丰","station_name_en":"Shuangfeng","city":"Changchun","country":"China","lines":["2","6"],"wikipedia":null,"merged_from":6,"merged_names":null,"is_terminus":false,"routes":[{"ref":"2","name":"长春轨道交通2号线","route_color":"#3b6a96"},{"ref":"6","name":"长春轨道交通6号线","route_color":"#e88f99"}],"pass_count":2,"station_degree":2,"codes":null,"is_interchange":true,"station_role":"interchange"},"geometry":{"type":"Point","coordinates":[125.17795075,43.864593533333334]},"__memberLines":{}},{"type":"Feature","properties":{"station_id":"n6520538355","station_name":"长春西站","station_name_local":"长春西站","station_name_en":"Changchun West Railway Station","city":"Changchun","country":"China","lines":["2","6"],"wikipedia":null,"merged_from":6,"merged_names":null,"is_terminus":false,"routes":[{"ref":"2","name":"长春轨道交通2号线","route_color":"#3b6a96"},{"ref":"6","name":"长春轨道交通6号线","route_color":"#e88f99"}],"pass_count":2,"station_degree":3,"codes":null,"is_interchange":true,"station_role":"interchange"},"geometry":{"type":"Point","coordinates":[125.19510218333333,43.87401886666667]},"__memberLines":{}},{"type":"Feature","properties":{"station_id":"n6520538356","station_name":"兴隆堡","station_name_local":"兴隆堡","station_name_en":"Xinglongpu","city":"Changchun","country":"China","lines":["2"],"wikipedia":null,"merged_from":3,"merged_names":null,"is_terminus":false,"routes":[{"ref":"2","name":"长春轨道交通2号线","route_color":"#3b6a96"}],"pass_count":1,"station_degree":2,"codes":null,"is_interchange":false,"station_role":"normal"},"geometry":{"type":"Point","coordinates":[125.21699836666666,43.88159753333334]},"__memberLines":{}},{"type":"Feature","properties":{"station_id":"n6520538357","station_name":"西环城路","station_name_local":"西环城路","station_name_en":"West Ring Road","city":"Changchun","country":"China","lines":["2"],"wikipedia":null,"merged_from":3,"merged_names":null,"is_terminus":false,"routes":[{"ref":"2","name":"长春轨道交通2号线","route_color":"#3b6a96"}],"pass_count":1,"station_degree":2,"codes":null,"is_interchange":false,"station_role":"normal"},"geometry":{"type":"Point","coordinates":[125.2336197,43.88165136666667]},"__memberLines":{}},{"type":"Feature","properties":{"station_id":"n6520538358","station_name":"和平大街","station_name_local":"和平大街","station_name_en":"Heping Street","city":"Changchun","country":"China","lines":["2"],"wikipedia":null,"merged_from":3,"merged_names":null,"is_terminus":false,"routes":[{"ref":"2","name":"长春轨道交通2号线","route_color":"#3b6a96"}],"pass_count":1,"station_degree":2,"codes":null,"is_interchange":false,"station_role":"normal"},"geometry":{"type":"Point","coordinates":[125.24838343333333,43.8818209]},"__memberLines":{}},{"type":"Feature","properties":{"station_id":"n6520538359","station_name":"万福街","station_name_local":"万福街","station_name_en":"Wanfu Street","city":"Changchun","country":"China","lines":["2"],"wikipedia":null,"merged_from":3,"merged_names":null,"is_terminus":false,"routes":[{"ref":"2","name":"长春轨道交通2号线","route_color":"#3b6a96"}],"pass_count":1,"station_degree":2,"codes":null,"is_interchange":false,"station_role":"normal"},"geometry":{"type":"Point","coordinates":[125.25968493333333,43.8819574]},"__memberLines":{}},{"type":"Feature","properties":{"station_id":"n6520538365","station_name":"景阳广场","station_name_local":"景阳广场","station_name_en":"Jingyang Square","city":"Changchun","country":"China","lines":["2"],"wikipedia":null,"merged_from":3,"merged_names":null,"is_terminus":false,"routes":[{"ref":"2","name":"长春轨道交通2号线","route_color":"#3b6a96"}],"pass_count":1,"station_degree":2,"codes":null,"is_interchange":false,"station_role":"normal"},"geometry":{"type":"Point","coordinates":[125.26969046666666,43.88031806666667]},"__memberLines":{}},{"type":"Feature","properties":{"station_id":"n6520538366","station_name":"解放桥","station_name_local":"解放桥","station_name_en":"Jiefang Overpass","city":"Changchun","country":"China","lines":["2"],"wikipedia":null,"merged_from":4,"merged_names":null,"is_terminus":false,"routes":[{"ref":"2","name":"长春轨道交通2号线","route_color":"#3b6a96"}],"pass_count":1,"station_degree":2,"codes":null,"is_interchange":false,"station_role":"normal"},"geometry":{"type":"Point","coordinates":[125.28045872499999,43.8758356]},"__memberLines":{}},{"type":"Feature","properties":{"station_id":"n6520538367","station_name":"建设广场","station_name_local":"建设广场","station_name_en":"Jianshe Square","city":"Changchun","country":"China","lines":["2"],"wikipedia":"zh:建设广场站","merged_from":3,"merged_names":null,"is_terminus":false,"routes":[{"ref":"2","name":"长春轨道交通2号线","route_color":"#3b6a96"}],"pass_count":1,"station_degree":2,"codes":null,"is_interchange":false,"station_role":"normal"},"geometry":{"type":"Point","coordinates":[125.29014286666666,43.8754414]},"__memberLines":{}},{"type":"Feature","properties":{"station_id":"n6520538368","station_name":"文化广场","station_name_local":"文化广场","station_name_en":"Wenhua Square","city":"Changchun","country":"China","lines":["2"],"wikipedia":null,"merged_from":4,"merged_names":null,"is_terminus":false,"routes":[{"ref":"2","name":"长春轨道交通2号线","route_color":"#3b6a96"}],"pass_count":1,"station_degree":2,"codes":null,"is_interchange":false,"station_role":"normal"},"geometry":{"type":"Point","coordinates":[125.30160269999999,43.875921825]},"__memberLines":{}},{"type":"Feature","properties":{"station_id":"n6520538369","station_name":"平阳街","station_name_local":"平阳街","station_name_en":"Pingyang Street","city":"Changchun","country":"China","lines":["2"],"wikipedia":null,"merged_from":3,"merged_names":null,"is_terminus":false,"routes":[{"ref":"2","name":"长春轨道交通2号线","route_color":"#3b6a96"}],"pass_count":1,"station_degree":2,"codes":null,"is_interchange":false,"station_role":"normal"},"geometry":{"type":"Point","coordinates":[125.32764986666666,43.8758694]},"__memberLines":{}},{"type":"Feature","properties":{"station_id":"n6520538370","station_name":"南关","station_name_local":"南关","station_name_en":"Nanguan","city":"Changchun","country":"China","lines":["2"],"wikipedia":null,"merged_from":3,"merged_names":null,"is_terminus":false,"routes":[{"ref":"2","name":"长春轨道交通2号线","route_color":"#3b6a96"}],"pass_count":1,"station_degree":2,"codes":null,"is_interchange":false,"station_role":"normal"},"geometry":{"type":"Point","coordinates":[125.33832109999999,43.878070900000004]},"__memberLines":{}},{"type":"Feature","properties":{"station_id":"n6520538371","station_name":"东盛大街","station_name_local":"东盛大街","station_name_en":"Dongsheng Street","city":"Changchun","country":"China","lines":["2"],"wikipedia":null,"merged_from":3,"merged_names":null,"is_terminus":false,"routes":[{"ref":"2","name":"长春轨道交通2号线","route_color":"#3b6a96"}],"pass_count":1,"station_degree":2,"codes":null,"is_interchange":false,"station_role":"normal"},"geometry":{"type":"Point","coordinates":[125.37015743333335,43.87976156666667]},"__memberLines":{}},{"type":"Feature","properties":{"station_id":"n6520538372","station_name":"东环城路","station_name_local":"东环城路","station_name_en":"East Ring Road","city":"Changchun","country":"China","lines":["2"],"wikipedia":null,"merged_from":4,"merged_names":null,"is_terminus":false,"routes":[{"ref":"2","name":"长春轨道交通2号线","route_color":"#3b6a96"}],"pass_count":1,"station_degree":2,"codes":null,"is_interchange":false,"station_role":"normal"},"geometry":{"type":"Point","coordinates":[125.387959925,43.879587375]},"__memberLines":{}},{"type":"Feature","properties":{"station_id":"n6520538373","station_name":"长青","station_name_local":"长青","station_name_en":"Changqing","city":"Changchun","country":"China","lines":["2"],"wikipedia":null,"merged_from":3,"merged_names":null,"is_terminus":false,"routes":[{"ref":"2","name":"长春轨道交通2号线","route_color":"#3b6a96"}],"pass_count":1,"station_degree":2,"codes":null,"is_interchange":false,"station_role":"normal"},"geometry":{"type":"Point","coordinates":[125.4033658,43.8798356]},"__memberLines":{}},{"type":"Feature","properties":{"station_id":"n6520538374","station_name":"东方广场","station_name_local":"东方广场","station_name_en":"Dongfang Square","city":"Changchun","country":"China","lines":["2"],"wikipedia":null,"merged_from":3,"merged_names":null,"is_terminus":false,"routes":[{"ref":"2","name":"长春轨道交通2号线","route_color":"#3b6a96"}],"pass_count":1,"station_degree":2,"codes":null,"is_interchange":false,"station_role":"normal"},"geometry":{"type":"Point","coordinates":[125.41950893333335,43.87930886666667]},"__memberLines":{}},{"type":"Feature","properties":{"station_id":"n6521278780","station_name":"长春站","station_name_local":"长春站","station_name_en":"Changchun Railway Station","city":"Changchun","country":"China","lines":["1"],"wikipedia":null,"merged_from":6,"merged_names":null,"is_terminus":false,"routes":[{"ref":"1","name":"长春轨道交通1号线","route_color":"#e50011"}],"pass_count":1,"station_degree":2,"codes":null,"is_interchange":false,"station_role":"normal"},"geometry":{"type":"Point","coordinates":[125.31718038333334,43.90684003333334]},"__memberLines":{}},{"type":"Feature","properties":{"station_id":"n9160356669","station_name":"捷达大路","station_name_local":"捷达大路","station_name_en":"Jieda Avenue","city":"Changchun","country":"China","lines":["2"],"wikipedia":null,"merged_from":3,"merged_names":null,"is_terminus":false,"routes":[{"ref":"2","name":"长春轨道交通2号线","route_color":"#3b6a96"}],"pass_count":1,"station_degree":2,"codes":null,"is_interchange":false,"station_role":"normal"},"geometry":{"type":"Point","coordinates":[125.16123716666668,43.84470166666667]},"__memberLines":{}},{"type":"Feature","properties":{"station_id":"n9160356670","station_name":"西湖","station_name_local":"西湖","station_name_en":"West Lake","city":"Changchun","country":"China","lines":["2"],"wikipedia":null,"merged_from":3,"merged_names":null,"is_terminus":false,"routes":[{"ref":"2","name":"长春轨道交通2号线","route_color":"#3b6a96"}],"pass_count":1,"station_degree":2,"codes":null,"is_interchange":false,"station_role":"normal"},"geometry":{"type":"Point","coordinates":[125.16319303333334,43.853534599999996]},"__memberLines":{}},{"type":"Feature","properties":{"station_id":"n9160356671","station_name":"汽车公园","station_name_local":"汽车公园","station_name_en":"Automobile Park","city":"Changchun","country":"China","lines":["2"],"wikipedia":null,"merged_from":4,"merged_names":null,"is_terminus":true,"routes":[{"ref":"2","name":"长春轨道交通2号线","route_color":"#3b6a96"}],"pass_count":1,"station_degree":1,"codes":null,"is_interchange":false,"station_role":"terminus"},"geometry":{"type":"Point","coordinates":[125.1652838,43.8308189]},"__memberLines":{}},{"type":"Feature","properties":{"station_id":"n10966530428","station_name":"福祉大路","station_name_local":"福祉大路","station_name_en":"Fuzhi Avenue","city":"Changchun","country":"China","lines":["6"],"wikipedia":null,"merged_from":6,"merged_names":null,"is_terminus":false,"routes":[{"ref":"6","name":"长春轨道交通6号线","route_color":"#e88f99"}],"pass_count":1,"station_degree":2,"codes":null,"is_interchange":false,"station_role":"normal"},"geometry":{"type":"Point","coordinates":[125.36020655,43.784422283333335]},"__memberLines":{}},{"type":"Feature","properties":{"station_id":"n11766230932","station_name":"省博物院","station_name_local":"省博物院","station_name_en":"Shengbowuyuan","city":"Changchun","country":"China","lines":["6"],"wikipedia":null,"merged_from":3,"merged_names":null,"is_terminus":false,"routes":[{"ref":"6","name":"长春轨道交通6号线","route_color":"#e88f99"}],"pass_count":1,"station_degree":2,"codes":null,"is_interchange":false,"station_role":"normal"},"geometry":{"type":"Point","coordinates":[125.42428356666666,43.76704786666667]},"__memberLines":{}},{"type":"Feature","properties":{"station_id":"n11766230933","station_name":"聚业大街","station_name_local":"聚业大街","station_name_en":"Juye Dajie","city":"Changchun","country":"China","lines":["6"],"wikipedia":null,"merged_from":3,"merged_names":null,"is_terminus":false,"routes":[{"ref":"6","name":"长春轨道交通6号线","route_color":"#e88f99"}],"pass_count":1,"station_degree":2,"codes":null,"is_interchange":false,"station_role":"normal"},"geometry":{"type":"Point","coordinates":[125.41584166666667,43.76716553333333]},"__memberLines":{}},{"type":"Feature","properties":{"station_id":"n11766230934","station_name":"樱花街","station_name_local":"樱花街","station_name_en":"Yinghua Jie","city":"Changchun","country":"China","lines":["6"],"wikipedia":null,"merged_from":3,"merged_names":null,"is_terminus":false,"routes":[{"ref":"6","name":"长春轨道交通6号线","route_color":"#e88f99"}],"pass_count":1,"station_degree":2,"codes":null,"is_interchange":false,"station_role":"normal"},"geometry":{"type":"Point","coordinates":[125.40222139999999,43.768606299999995]},"__memberLines":{}},{"type":"Feature","properties":{"station_id":"n11766230935","station_name":"亚泰足球基地","station_name_local":"亚泰足球基地","station_name_en":"Yatai Zuqiu Jidi","city":"Changchun","country":"China","lines":["6"],"wikipedia":null,"merged_from":3,"merged_names":null,"is_terminus":false,"routes":[{"ref":"6","name":"长春轨道交通6号线","route_color":"#e88f99"}],"pass_count":1,"station_degree":2,"codes":null,"is_interchange":false,"station_role":"normal"},"geometry":{"type":"Point","coordinates":[125.38855686666666,43.77011163333333]},"__memberLines":{}},{"type":"Feature","properties":{"station_id":"n11766316579","station_name":"吴家店","station_name_local":"吴家店","station_name_en":"Wujiadian","city":"Changchun","country":"China","lines":["6"],"wikipedia":null,"merged_from":3,"merged_names":null,"is_terminus":false,"routes":[{"ref":"6","name":"长春轨道交通6号线","route_color":"#e88f99"}],"pass_count":1,"station_degree":2,"codes":null,"is_interchange":false,"station_role":"normal"},"geometry":{"type":"Point","coordinates":[125.37191153333333,43.7753997]},"__memberLines":{}},{"type":"Feature","properties":{"station_id":"n11766316581","station_name":"南溪湿地公园","station_name_local":"南溪湿地公园","station_name_en":"Nanxi Shidi Gongyuan","city":"Changchun","country":"China","lines":["6"],"wikipedia":null,"merged_from":3,"merged_names":null,"is_terminus":false,"routes":[{"ref":"6","name":"长春轨道交通6号线","route_color":"#e88f99"}],"pass_count":1,"station_degree":2,"codes":null,"is_interchange":false,"station_role":"normal"},"geometry":{"type":"Point","coordinates":[125.34884453333332,43.798091066666665]},"__memberLines":{}},{"type":"Feature","properties":{"station_id":"n11766349878","station_name":"新明街","station_name_local":"新明街","station_name_en":"Xinming Jie","city":"Changchun","country":"China","lines":["6"],"wikipedia":null,"merged_from":3,"merged_names":null,"is_terminus":false,"routes":[{"ref":"6","name":"长春轨道交通6号线","route_color":"#e88f99"}],"pass_count":1,"station_degree":2,"codes":null,"is_interchange":false,"station_role":"normal"},"geometry":{"type":"Point","coordinates":[125.30645276666667,43.7976845]},"__memberLines":{}},{"type":"Feature","properties":{"station_id":"n11766349879","station_name":"轨道集团","station_name_local":"轨道集团","station_name_en":"Guidao Jituan","city":"Changchun","country":"China","lines":["6"],"wikipedia":null,"merged_from":3,"merged_names":null,"is_terminus":false,"routes":[{"ref":"6","name":"长春轨道交通6号线","route_color":"#e88f99"}],"pass_count":1,"station_degree":2,"codes":null,"is_interchange":false,"station_role":"normal"},"geometry":{"type":"Point","coordinates":[125.29904570000001,43.79767493333333]},"__memberLines":{}},{"type":"Feature","properties":{"station_id":"n11766349880","station_name":"兰桡湖公园","station_name_local":"兰桡湖公园","station_name_en":"Lanraohu Gongyuan","city":"Changchun","country":"China","lines":["6"],"wikipedia":null,"merged_from":3,"merged_names":null,"is_terminus":false,"routes":[{"ref":"6","name":"长春轨道交通6号线","route_color":"#e88f99"}],"pass_count":1,"station_degree":2,"codes":null,"is_interchange":false,"station_role":"normal"},"geometry":{"type":"Point","coordinates":[125.28976176666667,43.79769863333333]},"__memberLines":{}},{"type":"Feature","properties":{"station_id":"n11766349881","station_name":"市法院","station_name_local":"市法院","station_name_en":"Shifayuan","city":"Changchun","country":"China","lines":["6"],"wikipedia":null,"merged_from":3,"merged_names":null,"is_terminus":false,"routes":[{"ref":"6","name":"长春轨道交通6号线","route_color":"#e88f99"}],"pass_count":1,"station_degree":2,"codes":null,"is_interchange":false,"station_role":"normal"},"geometry":{"type":"Point","coordinates":[125.27003316666668,43.802075133333325]},"__memberLines":{}},{"type":"Feature","properties":{"station_id":"n11766349882","station_name":"百花园","station_name_local":"百花园","station_name_en":"Baihuayuan","city":"Changchun","country":"China","lines":["6"],"wikipedia":null,"merged_from":3,"merged_names":null,"is_terminus":false,"routes":[{"ref":"6","name":"长春轨道交通6号线","route_color":"#e88f99"}],"pass_count":1,"station_degree":2,"codes":null,"is_interchange":false,"station_role":"normal"},"geometry":{"type":"Point","coordinates":[125.26923166666667,43.810940966666664]},"__memberLines":{}},{"type":"Feature","properties":{"station_id":"n11766362152","station_name":"硅谷广场","station_name_local":"硅谷广场","station_name_en":"Guigu Guangchang","city":"Changchun","country":"China","lines":["6"],"wikipedia":null,"merged_from":4,"merged_names":null,"is_terminus":false,"routes":[{"ref":"6","name":"长春轨道交通6号线","route_color":"#e88f99"}],"pass_count":1,"station_degree":2,"codes":null,"is_interchange":false,"station_role":"normal"},"geometry":{"type":"Point","coordinates":[125.25528055,43.822860975]},"__memberLines":{}},{"type":"Feature","properties":{"station_id":"n11766362153","station_name":"光谷大街","station_name_local":"光谷大街","station_name_en":"Guanggu Dajie","city":"Changchun","country":"China","lines":["6"],"wikipedia":null,"merged_from":3,"merged_names":null,"is_terminus":false,"routes":[{"ref":"6","name":"长春轨道交通6号线","route_color":"#e88f99"}],"pass_count":1,"station_degree":2,"codes":null,"is_interchange":false,"station_role":"normal"},"geometry":{"type":"Point","coordinates":[125.24396256666667,43.830165099999995]},"__memberLines":{}},{"type":"Feature","properties":{"station_id":"n11766362154","station_name":"欧亚卖场","station_name_local":"欧亚卖场","station_name_en":"Ouya Maichang","city":"Changchun","country":"China","lines":["6"],"wikipedia":null,"merged_from":3,"merged_names":null,"is_terminus":false,"routes":[{"ref":"6","name":"长春轨道交通6号线","route_color":"#e88f99"}],"pass_count":1,"station_degree":2,"codes":null,"is_interchange":false,"station_role":"normal"},"geometry":{"type":"Point","coordinates":[125.23468033333332,43.83605086666666]},"__memberLines":{}},{"type":"Feature","properties":{"station_id":"n11766362155","station_name":"飞跃广场","station_name_local":"飞跃广场","station_name_en":"Feiyue Guangchang","city":"Changchun","country":"China","lines":["6"],"wikipedia":null,"merged_from":4,"merged_names":null,"is_terminus":false,"routes":[{"ref":"6","name":"长春轨道交通6号线","route_color":"#e88f99"}],"pass_count":1,"station_degree":2,"codes":null,"is_interchange":false,"station_role":"normal"},"geometry":{"type":"Point","coordinates":[125.22436055000001,43.847237150000005]},"__memberLines":{}},{"type":"Feature","properties":{"station_id":"n11766362156","station_name":"支农大街","station_name_local":"支农大街","station_name_en":"Zhinong Dajie","city":"Changchun","country":"China","lines":["6"],"wikipedia":null,"merged_from":3,"merged_names":null,"is_terminus":false,"routes":[{"ref":"6","name":"长春轨道交通6号线","route_color":"#e88f99"}],"pass_count":1,"station_degree":2,"codes":null,"is_interchange":false,"station_role":"normal"},"geometry":{"type":"Point","coordinates":[125.21629826666667,43.8575265]},"__memberLines":{}},{"type":"Feature","properties":{"station_id":"n11766362157","station_name":"腾跃街","station_name_local":"腾跃街","station_name_en":"Tengyue Jie","city":"Changchun","country":"China","lines":["6"],"wikipedia":null,"merged_from":3,"merged_names":null,"is_terminus":false,"routes":[{"ref":"6","name":"长春轨道交通6号线","route_color":"#e88f99"}],"pass_count":1,"station_degree":2,"codes":null,"is_interchange":false,"station_role":"normal"},"geometry":{"type":"Point","coordinates":[125.20893603333333,43.8686423]},"__memberLines":{}},{"type":"Feature","properties":{"station_id":"n13174729383","station_name":"哈尔滨大街","station_name_local":"哈尔滨大街","station_name_en":"Ha'erbin Dajie","city":"Changchun","country":"China","lines":["2"],"wikipedia":null,"merged_from":3,"merged_names":null,"is_terminus":false,"routes":[{"ref":"2","name":"长春轨道交通2号线","route_color":"#3b6a96"}],"pass_count":1,"station_degree":2,"codes":null,"is_interchange":false,"station_role":"normal"},"geometry":{"type":"Point","coordinates":[125.4377248,43.88264066666667]},"__memberLines":{}},{"type":"Feature","properties":{"station_id":"n13174729386","station_name":"窦家沟","station_name_local":"窦家沟","station_name_en":"Doujiagou","city":"Changchun","country":"China","lines":["2"],"wikipedia":null,"merged_from":3,"merged_names":null,"is_terminus":false,"routes":[{"ref":"2","name":"长春轨道交通2号线","route_color":"#3b6a96"}],"pass_count":1,"station_degree":2,"codes":null,"is_interchange":false,"station_role":"normal"},"geometry":{"type":"Point","coordinates":[125.4667829,43.889055299999995]},"__memberLines":{}},{"type":"Feature","properties":{"station_id":"n13174729389","station_name":"英俊大街","station_name_local":"英俊大街","station_name_en":"Yingjun Dajie","city":"Changchun","country":"China","lines":["2"],"wikipedia":null,"merged_from":3,"merged_names":null,"is_terminus":false,"routes":[{"ref":"2","name":"长春轨道交通2号线","route_color":"#3b6a96"}],"pass_count":1,"station_degree":2,"codes":null,"is_interchange":false,"station_role":"normal"},"geometry":{"type":"Point","coordinates":[125.48322133333333,43.889296800000004]},"__memberLines":{}},{"type":"Feature","properties":{"station_id":"n13174729392","station_name":"英凯大街","station_name_local":"英凯大街","station_name_en":"Yingkai Dajie","city":"Changchun","country":"China","lines":["2"],"wikipedia":null,"merged_from":3,"merged_names":null,"is_terminus":false,"routes":[{"ref":"2","name":"长春轨道交通2号线","route_color":"#3b6a96"}],"pass_count":1,"station_degree":2,"codes":null,"is_interchange":false,"station_role":"normal"},"geometry":{"type":"Point","coordinates":[125.50562860000001,43.889099466666664]},"__memberLines":{}},{"type":"Feature","properties":{"station_id":"n13174729395","station_name":"林溪大街","station_name_local":"林溪大街","station_name_en":"Linxi Dajie","city":"Changchun","country":"China","lines":["2"],"wikipedia":null,"merged_from":3,"merged_names":null,"is_terminus":false,"routes":[{"ref":"2","name":"长春轨道交通2号线","route_color":"#3b6a96"}],"pass_count":1,"station_degree":2,"codes":null,"is_interchange":false,"station_role":"normal"},"geometry":{"type":"Point","coordinates":[125.52737230000001,43.889341]},"__memberLines":{}},{"type":"Feature","properties":{"station_id":"n13174729398","station_name":"雾开河大街","station_name_local":"雾开河大街","station_name_en":"Wukaihe Dajie","city":"Changchun","country":"China","lines":["2"],"wikipedia":null,"merged_from":3,"merged_names":null,"is_terminus":true,"routes":[{"ref":"2","name":"长春轨道交通2号线","route_color":"#3b6a96"}],"pass_count":1,"station_degree":1,"codes":null,"is_interchange":false,"station_role":"terminus"},"geometry":{"type":"Point","coordinates":[125.5472028,43.88928836666667]},"__memberLines":{}}]}