{"type":"FeatureCollection","features":[{"type":"Feature","properties":{"route_ref":"PATCO","route_color":"#db5450"},"geometry":{"type":"LineString","coordinates":[[-75.16624802270185,39.948431701825264],[-75.1557765375,39.947102262499996],[-75.15475515683406,39.94713730681574],[-75.1544593105488,39.947381922451626],[-75.15424452413794,39.94804394827586],[-75.15345846429378,39.95188711212156],[-75.15333853333334,39.95206126666667],[-75.15297289123802,39.95396288288451],[-75.1528017,39.9543497],[-75.15285450950321,39.954442984087486],[-75.15229306040737,39.95492443543647],[-75.1518531753977,39.9550390154092],[-75.14755083636364,39.95506592727272],[-75.129214508,39.95193148],[-75.12334151670856,39.95083916363075],[-75.12234865,39.95054445],[-75.12076363795119,39.94990078713575],[-75.12029854419902,39.949485137688676],[-75.12015060913917,39.94909318222538],[-75.12022926614283,39.94841836885255],[-75.12149282727272,39.94438532727273],[-75.12152448957096,39.94391536846007],[-75.12133590213989,39.94353948885289],[-75.12067695311733,39.94323119133673],[-75.11849287499999,39.9430014625],[-75.11522528243971,39.94295063248044],[-75.11426665456602,39.942731301040524],[-75.11366418694182,39.942407807505845],[-75.11309480090304,39.94185557864927],[-75.11278401654307,39.941383107880704],[-75.11103703700678,39.93558157065015],[-75.1105800310818,39.934703518898445],[-75.1100665331015,39.93402379697181],[-75.1092872697133,39.93324334283092],[-75.10756250873722,39.9319838293946],[-75.10220249798235,39.92925713985735],[-75.1002948266074,39.92815649382934],[-75.09317496751643,39.92347340863102],[-75.08999977006319,39.92182489995096],[-75.08635165,39.92047945000001],[-75.05259361316048,39.90983613536889],[-75.04986536215529,39.90874595063162],[-75.04763076555346,39.907668976102855],[-75.04387655931825,39.90542997286691],[-75.04186737830831,39.90393131382576],[-75.04000182764865,39.90226854148341],[-75.03870029206419,39.90061026490714],[-75.03675610735046,39.89717486337555],[-75.03663648381793,39.89712526650534],[-75.03666028398472,39.89702334378809],[-75.03483592673007,39.89426827019613],[-75.03389310087684,39.892164001126275],[-75.03200788571428,39.887415857142855],[-75.03111937012564,39.885993035339645],[-75.03052728958005,39.88531628566703],[-75.0268332,39.882056975000005],[-75.02461800243394,39.880404665613646],[-75.022169345,39.878931055],[-75.01803021638081,39.876746405630755],[-75.01633271744456,39.8757045416742],[-75.0134666160629,39.87333934517374],[-75.01226049048547,39.87188393166901],[-75.01160594583106,39.870897147378585],[-75.01069446377613,39.869316707724636],[-75.0107756,39.86919339999999],[-75.010320119485,39.868438216665695],[-75.01036312,39.86833814],[-75.00980684901398,39.86697693113875],[-75.00952260970293,39.86590592938219],[-75.00932618009259,39.8639987568715],[-75.00915267272727,39.85519878181818],[-75.00869817499998,39.852531549999995],[-75.00842587142856,39.851673771428565],[-75.00255737493715,39.83788221983204],[-75.0018011640855,39.83586545459937],[-75.00097864315559,39.83440343720069],[-74.99996318634403,39.83318860338849]]}},{"type":"Feature","properties":{"route_ref":"L","route_color":"#0097d6"},"geometry":{"type":"LineString","coordinates":[[-75.25860989797283,39.96251153843557],[-75.25801488604917,39.962559590484595],[-75.25527468488664,39.96429797026808],[-75.25408157500196,39.964593457090594],[-75.25359946347051,39.964605140205535],[-75.25080575281677,39.96413398612258],[-75.24911780074072,39.96316374383183],[-75.24878589098981,39.96302342538099],[-75.24772998235294,39.962817535294114],[-75.21324156615583,39.95854946748191],[-75.20933242142965,39.95853960548933],[-75.20651648896317,39.95777028580942],[-75.20374560629006,39.9573869241935],[-75.1437949,39.9499074],[-75.14312381115184,39.94985715609929],[-75.14241774990727,39.94996598955552],[-75.14198004790622,39.950220406249834],[-75.14161309694876,39.95068253307781],[-75.14131795981726,39.95186002565512],[-75.14148862868076,39.95502205985934],[-75.14129273647784,39.95710255654055],[-75.14069105,39.9594438],[-75.14078285636732,39.95954848657951],[-75.140639425,39.95961222500001],[-75.14073319093825,39.95971998169841],[-75.14055727373899,39.95986615201985],[-75.14020746274524,39.96114542919426],[-75.13978742634917,39.96197248262511],[-75.1388668122379,39.96341949349507],[-75.1377509618861,39.96471934902918],[-75.13717643787282,39.96581296837366],[-75.1341733,39.975527166666666],[-75.13217777374827,39.985082163528894],[-75.13183653177522,39.98627902446048],[-75.13126489977692,39.986700088237626],[-75.12474526363637,39.99019542727273],[-75.12295093589408,39.991269674146345],[-75.08981480272152,40.00947931262091],[-75.089446446913,40.00983941473834],[-75.0881151664482,40.01190784528963],[-75.08738663485657,40.01279105061525],[-75.07881300122682,40.02208430997238],[-75.0775094,40.0233696]]}},{"type":"Feature","properties":{"route_ref":"B1","route_color":"#f58220"},"geometry":{"type":"LineString","coordinates":[[-75.16389605854292,39.95183948301508],[-75.16416267238881,39.95288172135378],[-75.16416353625877,39.95337461542899],[-75.16389058418757,39.9538179709319],[-75.16320086524556,39.954537313101355],[-75.16304889284793,39.95494797967934],[-75.14434726608538,40.04079415456429],[-75.14412478976865,40.041147476888355],[-75.14371285066356,40.041287751276],[-75.14078247500001,40.041007875],[-75.13999022865517,40.04081046145219],[-75.13939849701428,40.04105330188727],[-75.1384152944109,40.04167632335501],[-75.13793146746723,40.04184398424555],[-75.13751585836687,40.04186805263496],[-75.13584052296859,40.04165607230945],[-75.13543450059879,40.041534149185],[-75.13526647482668,40.04135956677749],[-75.1352611,40.040291950000004],[-75.13557344895153,40.03942466962196],[-75.13591044400533,40.03918127888836],[-75.1362572719607,40.0390965053697],[-75.13849842654015,40.039392824856385],[-75.13885056142347,40.039637498747055],[-75.13969044109051,40.04065011188784],[-75.14056167983388,40.040922305212455],[-75.14366816974304,40.04128901402782],[-75.14408129002868,40.04114368177211],[-75.14436645593858,40.04073824329215],[-75.14429011538463,40.04063595384616],[-75.1444296846154,40.04000794615384],[-75.1445436281859,40.03993050785789],[-75.1444976887925,40.03974007913074],[-75.15480876885276,39.99290354214761],[-75.16300716923077,39.95503187692308],[-75.16324308081413,39.9544585700566],[-75.16400667972033,39.95367207581679],[-75.16416244313886,39.95337552762456],[-75.16414007599835,39.95288752642603],[-75.1638295003216,39.95167776913269],[-75.16387188749565,39.95115435183322],[-75.16911093990115,39.9270309544741],[-75.1693215,39.92477280000001],[-75.17218773021258,39.91155829999044],[-75.17253605496545,39.90974238814903],[-75.17283594000001,39.90667594],[-75.17305921858835,39.905989107891855]]}},{"type":"Feature","properties":{"route_ref":"B2","route_color":"#f58220"},"geometry":{"type":"LineString","coordinates":[[-75.16389601735074,39.95183948923559],[-75.16414263996269,39.95279453813811],[-75.16416353625877,39.95337461542899],[-75.16389058418757,39.9538179709319],[-75.16320086524556,39.954537313101355],[-75.16304889284793,39.95494797967934],[-75.1443736399079,40.04070817262602],[-75.14412473240515,40.04114743549857],[-75.14371285066356,40.041287751276],[-75.14078247500001,40.041007875],[-75.13999022865517,40.04081046145219],[-75.13939849701428,40.04105330188727],[-75.1384152944109,40.04167632335501],[-75.13793146746723,40.04184398424555],[-75.13751585836687,40.04186805263496],[-75.13584052296859,40.04165607230945],[-75.13543450059879,40.041534149185],[-75.13526647482668,40.04135956677749],[-75.1352611,40.040291950000004],[-75.13557344895153,40.03942466962196],[-75.13591044400533,40.03918127888836],[-75.1362572719607,40.0390965053697],[-75.13849842654015,40.039392824856385],[-75.13885056142347,40.039637498747055],[-75.13969044109051,40.04065011188784],[-75.14056167983388,40.040922305212455],[-75.1436682,40.04129],[-75.1440834577693,40.04114520036166],[-75.14436645593858,40.04073824329215],[-75.14429011538463,40.04063595384616],[-75.1444296846154,40.04000794615384],[-75.1445436281859,40.03993050785789],[-75.16300716923077,39.95503187692308],[-75.16324308081413,39.9544585700566],[-75.16400667972033,39.95367207581679],[-75.16416244313886,39.95337552762456],[-75.16414007599835,39.95288752642603],[-75.16386512520465,39.95184496173077]]}},{"type":"Feature","properties":{"route_ref":"B3","route_color":"#f58220"},"geometry":{"type":"LineString","coordinates":[[-75.1535754,39.9512703],[-75.15281639018245,39.95461188754903],[-75.15284138408049,39.95524527134491],[-75.15524805479248,39.9589948305632],[-75.1575172190317,39.96174905462741],[-75.157625675,39.9619948375],[-75.15774626518727,39.96203721719246],[-75.1587216308491,39.96340597444593],[-75.1603588,39.9666273],[-75.16029824794727,39.96755218876403],[-75.16020350000001,39.967640349999996],[-75.15878583603005,39.974644815545254],[-75.14661502077924,40.03009016623377],[-75.1445436281859,40.03993050785789],[-75.1444296846154,40.04000794615384],[-75.14429011538463,40.04063595384616],[-75.14436645593858,40.04073824329215],[-75.1440834577693,40.04114520036166],[-75.1436682,40.04129],[-75.14056167983388,40.040922305212455],[-75.13969044109051,40.04065011188784],[-75.13885056142347,40.039637498747055],[-75.13849842654015,40.039392824856385],[-75.13654355786913,40.03909079660902],[-75.13601169665806,40.03914661106426],[-75.13557344895153,40.03942466962196],[-75.1353855,40.039770350000005],[-75.1352124,40.04072673333333],[-75.13526647482668,40.04135956677749],[-75.13543450059879,40.041534149185],[-75.13572435292355,40.041631725440205],[-75.13751585836687,40.04186805263496],[-75.13821456078301,40.041770188827286],[-75.13987012672686,40.040819232542255],[-75.14022626344284,40.0408240626248],[-75.140318225,40.040946424999994],[-75.14056248245443,40.04092328608612],[-75.14078247500001,40.041007875],[-75.14371285066356,40.041287751276],[-75.14412473240515,40.04114743549857],[-75.1443736399079,40.04070817262602],[-75.15861003820525,39.975221801885176],[-75.1603299,39.9677587],[-75.16029787479518,39.967553999446785],[-75.16043648567295,39.967270663312455],[-75.16038420908876,39.96661646763097],[-75.15973050968998,39.96553228298983],[-75.15967821538462,39.96526342307693],[-75.15866274999998,39.963303970000005],[-75.15514421516184,39.9588063329333],[-75.15283460999996,39.95524176667239],[-75.1527839,39.9549115],[-75.1529453,39.95415119999999]]}}]}