{"type":"FeatureCollection","features":[{"type":"Feature","properties":{"route_ref":"18","route_color":"#b82f89"},"geometry":{"type":"LineString","coordinates":[[6.122128599999998,46.1770151],[6.122402404771272,46.176097685240805],[6.122842469330695,46.17533474962415],[6.123403265425213,46.173326330192864],[6.124057492472872,46.171531939701424],[6.124362195202815,46.17133546377122],[6.124863881037798,46.17131795894222],[6.127207258326381,46.17246709269674],[6.128401079051579,46.172846165833455],[6.1291487,46.17327509999999],[6.130255495179671,46.174606791780604],[6.13228194021727,46.17586479560069],[6.1339309808294455,46.1772397138182],[6.13816107744093,46.17969093720487],[6.140064360968313,46.1804799421322],[6.140781224439026,46.1811596797411],[6.141389550598961,46.18311615562308],[6.141259307472579,46.183396393209875],[6.140419225747683,46.18431996635405],[6.139960385271953,46.18653951940084],[6.1408977413919414,46.18711833360601],[6.141395070487492,46.187850277583756],[6.142472351599564,46.18824107640522],[6.1428597,46.188537600000004],[6.143686496657331,46.19093743441508],[6.143905963803662,46.192132902260255],[6.143832178317657,46.19171758102948],[6.14389810727917,46.19231442801118],[6.143155121428572,46.19619815714285],[6.142990403909933,46.197773207799536],[6.143208399818778,46.20040838173355],[6.143910730491864,46.20127891379839],[6.142893533575415,46.203728506930474],[6.142928848741915,46.20411131057213],[6.143464502050632,46.20448076230591],[6.143413922997626,46.20487932509529],[6.142074624851609,46.207137171412406],[6.142409583715191,46.208069576343185],[6.142257632618632,46.20823939851564],[6.141589279521188,46.208378705659264],[6.141372468542176,46.20855540619633],[6.141424289775795,46.20877039126558],[6.141985930474647,46.20930212798817],[6.141952315570003,46.20957636883096],[6.141222767005249,46.20993875737274],[6.141005315444681,46.209930193238336],[6.139946040696381,46.20942047075755],[6.139260469844128,46.20940467802337],[6.13480372180398,46.21121475470529],[6.1295633238460905,46.21374388019233],[6.127107535310737,46.21463162780972],[6.118390936226698,46.216268141481095],[6.117850306482595,46.216475518126956],[6.1110327,46.2182548],[6.1109684875,46.2183489625],[6.110045591020669,46.21857064722294],[6.111057848718168,46.21831210635823],[6.110041023962172,46.21860076584799],[6.106998916786071,46.219395103146894],[6.105953203284411,46.219582763691456],[6.100854966593573,46.22104105748028],[6.083183499990836,46.22577841130446],[6.084020529207803,46.22559532011248],[6.071990233333336,46.22883970000001],[6.05556486797062,46.233439805453564],[6.071960932028221,46.22884838733814],[6.0971777,46.2220248],[6.09671561699033,46.22218431731268],[6.104606539999997,46.220025099999994],[6.104948597331252,46.21985819691629],[6.110090583629989,46.2185873198781],[6.118303999479187,46.21629495452628],[6.12710722827694,46.21463128544128],[6.129567918764415,46.213743192697],[6.134784032500789,46.21122348482626],[6.1392787432552325,46.209399119214936],[6.140048908722581,46.209455508197166],[6.141005588926081,46.20993808134452],[6.141230321551867,46.209942468931864],[6.142030389389041,46.20953204057476],[6.1412332769457025,46.20994500627837],[6.141935017828605,46.20959077363423],[6.142599887752546,46.208992222423404],[6.1423889681201995,46.207855752334176],[6.142074087426121,46.20713597521043],[6.143091146265025,46.20555819122304],[6.143566883631012,46.20460972672698],[6.143480356338825,46.20453203696214],[6.143483259883868,46.20484637858997],[6.143460425158548,46.20442580967764],[6.14294631565649,46.20411945777524],[6.142902404947533,46.20372904707511],[6.1438541414885375,46.20155954826145],[6.143910365204665,46.2012163667141],[6.143225405812783,46.20043703838624],[6.143008419196563,46.1977734229187],[6.143135063489255,46.19630918426955],[6.1439027365600865,46.192066908538365],[6.143741190716511,46.19113047346264],[6.142930483071239,46.18862221260314],[6.143162075292441,46.18929307496571],[6.142747116035171,46.18841166316111],[6.142341240993734,46.188175744889364],[6.1413827411777815,46.187841279786],[6.1408999448477415,46.18711844225741],[6.139977914444724,46.186583841764715],[6.140435709422105,46.184282549924305],[6.141392052683871,46.18313426802127],[6.140781210189268,46.18115966472945],[6.14006980106472,46.18047589300104],[6.137730091944565,46.17945289658033],[6.133931128077614,46.17723981610614],[6.132273439999998,46.17585770000001],[6.130416369008922,46.1747471910348],[6.129156348646286,46.173279257988916],[6.1284032390418774,46.172855534933845],[6.1270851532724295,46.172405322219376],[6.124893907776826,46.1713235329183],[6.124378782481442,46.17133059400557],[6.124055312751646,46.171539944509924],[6.1235017,46.1730137],[6.122841775901903,46.17533570285542],[6.122396551939078,46.17611415828076],[6.122241220411095,46.17663156305534]]}},{"type":"Feature","properties":{"route_ref":"15","route_color":"#b82f89"},"geometry":{"type":"MultiLineString","coordinates":[[[6.141430186599144,46.22099374914161],[6.1471654284336505,46.21966046106861],[6.148444088272502,46.219102700651206],[6.1486992096327295,46.21880324175268],[6.147713051028928,46.21649946813616],[6.1454096627893575,46.213217606331675],[6.144053905542431,46.2108200979597],[6.142962823575688,46.2098389285233],[6.142386779410772,46.20959338211976],[6.141829113516336,46.2091953927343],[6.1396431724061715,46.2073110422866],[6.139413512750159,46.20698239799562],[6.13951606722771,46.20598731617684],[6.139682024350824,46.205668407023715],[6.1395866,46.2055804],[6.13983752476811,46.20382310187844],[6.13997609059027,46.20369696398615],[6.140316125269618,46.20131994984855],[6.141962304410807,46.198729300460776],[6.141730984778363,46.195412890164725],[6.141424517851757,46.1950079424317],[6.139681684833982,46.193373115994966],[6.128869414548939,46.187821286198734],[6.128372614625443,46.18765666365832],[6.12750646869294,46.18756174862918],[6.1251403448033335,46.18748472553248],[6.128040877455335,46.18761138195202],[6.1288702419444325,46.18782171981812],[6.139682251683204,46.19337333636481],[6.140182008955737,46.193774469707854],[6.141732933244056,46.19541603929673],[6.141966932753149,46.19873192169991],[6.1403476,46.2012211],[6.139965980420995,46.20402524657166],[6.140002082983254,46.20356623518904],[6.139903512287016,46.20421739795275],[6.139782718145363,46.204297652128226],[6.139878677680686,46.20439302660333],[6.13968660436361,46.205784961787344],[6.142461209945059,46.20850125526895],[6.142810053367351,46.20967854312403],[6.144046064021574,46.2108052096752],[6.145408144497756,46.21321520410532],[6.147565103485223,46.21625950903576],[6.148697229118332,46.21877472443872],[6.148463118489151,46.21909150577205],[6.147014097529471,46.21971107018953],[6.1425529780313735,46.220701419970105],[6.1414444,46.2210196]],[[6.1251325560739085,46.187492946646636],[6.123634144141938,46.187350905968565],[6.123166798289436,46.18716654029536],[6.1227772433401215,46.18685816548036],[6.122446623292731,46.18621954387406],[6.122602343800994,46.18522707232838],[6.122538855694532,46.18498517461887],[6.1214644040819275,46.183644370319314],[6.120425470893278,46.183177721642025],[6.120308042715426,46.183039063677136],[6.121661915358823,46.17881653446917],[6.122096575609782,46.17640453882512],[6.122013001750208,46.176186151370295],[6.121712421729992,46.17605183399105],[6.121171022282334,46.17606359272581],[6.118014386207073,46.17669646228463],[6.11745844330029,46.17671170681044],[6.116584972757014,46.17557117384379],[6.11453617609944,46.17419344165453],[6.11160396360586,46.17279183863048],[6.109682620427538,46.171981412658],[6.108453340000006,46.17160162],[6.106227659751812,46.17058109328038],[6.10581992789924,46.170479896852626],[6.1052711,46.1704827],[6.102550646772613,46.17081688107529],[6.101982084467296,46.17069210966264],[6.100970909435788,46.170252711509285],[6.100661993918714,46.17002613998178],[6.100680959765286,46.16976235877848],[6.10341332280969,46.16692748050555],[6.103326526830456,46.16670166395466],[6.102518614934174,46.16626383545711],[6.103295548083266,46.16667825250607],[6.103409944356534,46.16694644546954],[6.100658822476845,46.169793689365704],[6.100660024928425,46.1700146316186],[6.1009822081874905,46.17023520070736],[6.102048072676008,46.170716810084976],[6.102623505711839,46.17081722318677],[6.105315275091892,46.17047999898776],[6.105847271776662,46.17048481019748],[6.1062311538287535,46.17058388656787],[6.108573237731374,46.171630534524716],[6.1099116399999955,46.1720591],[6.1109361249999985,46.17249935],[6.114664899999998,46.17424475],[6.115574023274135,46.174796088260486],[6.116575298290286,46.175563996555205],[6.117442974159396,46.176704968650334],[6.118008974384297,46.176696325243306],[6.121172330185083,46.176064719970746],[6.121722738150909,46.17605154043757],[6.1219926754064495,46.176164918558435],[6.122098562752008,46.17639046991132],[6.121799784615383,46.17835156923077],[6.121074157142854,46.1809044],[6.120313709711286,46.18306001357977],[6.121499470660456,46.18367208146331],[6.122538648354585,46.18498480060083],[6.122603159958078,46.185223138290695],[6.122442350814007,46.185741521018635],[6.122455123277121,46.18625119523648],[6.1228975,46.1869682],[6.123221765665049,46.18719561480384],[6.1237365,46.1873689],[6.1251268065624975,46.18749344806514]]]}},{"type":"Feature","properties":{"route_ref":"12","route_color":"#b82f89"},"geometry":{"type":"LineString","coordinates":[[6.1295196,46.173811199999996],[6.130114733583134,46.174511206068495],[6.13228194021727,46.17586479560069],[6.1339309808294455,46.1772397138182],[6.13816107744093,46.17969093720487],[6.140064360968313,46.1804799421322],[6.1408042,46.1812039],[6.141389550598961,46.18311615562308],[6.141259307472579,46.183396393209875],[6.140419225747683,46.18431996635405],[6.139960385271953,46.18653951940084],[6.1408977413919414,46.18711833360601],[6.141395070487492,46.187850277583756],[6.142472351599564,46.18824107640522],[6.1428597,46.188537600000004],[6.143686496657331,46.19093743441508],[6.143900228677482,46.19206689695081],[6.143878492559817,46.192151626160715],[6.143832178317657,46.19171758102948],[6.14389810727917,46.19231442801118],[6.142997102942439,46.197446726238304],[6.143208399818778,46.20040838173355],[6.143909889262824,46.20121705672755],[6.143018519405173,46.20356178823715],[6.143117785118924,46.203765154415294],[6.143449457973734,46.20387545599841],[6.14388717215699,46.20388511914076],[6.146348955644154,46.20333027788626],[6.147531946920508,46.20300108792171],[6.1504309637044505,46.20239147216337],[6.152473002555648,46.20181744701863],[6.161453076566915,46.20007575691761],[6.1626563189033225,46.20000991536091],[6.164617071428571,46.200128057142855],[6.1662241659829595,46.20003191257739],[6.171616076287197,46.200046617586544],[6.174199894448927,46.19969891977797],[6.1767161820070084,46.199236318220926],[6.1857286000155325,46.19828978804682],[6.187514108978469,46.1978330403125],[6.1887071820340775,46.19736337229825],[6.190245756999365,46.19643961593123],[6.194618842984001,46.19434404754668],[6.19654626648427,46.19394842413594],[6.203002903614231,46.19287808104681],[6.205237219601031,46.192408404377865],[6.206112062525887,46.192496996337276],[6.206813923480665,46.192816648915375],[6.207119110407072,46.19269128897291],[6.207056922784449,46.19255024674185],[6.2068170449058035,46.19245393329554],[6.205967854674215,46.19249797031484],[6.205619984831598,46.19238973169887],[6.205232452423699,46.192401020917245],[6.201626458952485,46.19313076540191],[6.199946650111201,46.19335666282567],[6.194615872093789,46.194342288381534],[6.190080795059241,46.196525334962544],[6.188975609993896,46.19724480835375],[6.187400052427066,46.197857248993046],[6.185728632520302,46.1982898572851],[6.177376145691246,46.19914808620136],[6.174016221388635,46.19972857695305],[6.17161604004236,46.20004661041831],[6.1663894625,46.200032750000005],[6.164785635601675,46.200113776165814],[6.162380246730046,46.19999870548394],[6.161452208674599,46.200076528403706],[6.152468533333334,46.201815466666666],[6.150270604195798,46.20241373390771],[6.144005344025077,46.20385809416867],[6.143437090457811,46.20387149521913],[6.143127003811174,46.203764219122206],[6.143021826460813,46.203551053793966],[6.143910365204665,46.2012163667141],[6.143225405812783,46.20043703838624],[6.143008419196563,46.1977734229187],[6.143135063489255,46.19630918426955],[6.1439027365600865,46.192066908538365],[6.143741190716511,46.19113047346264],[6.142930483071239,46.18862221260314],[6.143162075292441,46.18929307496571],[6.142747116035171,46.18841166316111],[6.142341240993734,46.188175744889364],[6.1413827411777815,46.187841279786],[6.1408999448477415,46.18711844225741],[6.139977914444724,46.186583841764715],[6.140435709422105,46.184282549924305],[6.141392052683871,46.18313426802127],[6.140828248780853,46.18124786970046],[6.14006980106472,46.18047589300104],[6.137730091944565,46.17945289658033],[6.133931128077614,46.17723981610614],[6.132273439999998,46.17585770000001],[6.130414916005993,46.17474829446175],[6.1301347,46.1744697],[6.1297251,46.1737456]]}},{"type":"Feature","properties":{"route_ref":"17","route_color":"#b82f89"},"geometry":{"type":"LineString","coordinates":[[6.23146928709008,46.19436925620707],[6.228648049213933,46.193610922707],[6.2241701,46.1927722],[6.221643884950375,46.1920196967996],[6.220662199279522,46.191832667113445],[6.215693102018685,46.19130912681625],[6.214398782734986,46.19133264889251],[6.211060951300227,46.19167958493366],[6.206364652547208,46.192372895433785],[6.205233439202063,46.192400208755735],[6.203002903614231,46.19287808104681],[6.19654626648427,46.19394842413594],[6.194618842984001,46.19434404754668],[6.190245756999365,46.19643961593123],[6.1887071820340775,46.19736337229825],[6.187514108978469,46.1978330403125],[6.1857286000155325,46.19828978804682],[6.1767161820070084,46.199236318220926],[6.174199894448927,46.19969891977797],[6.171616076287197,46.200046617586544],[6.1662241659829595,46.20003191257739],[6.164617071428571,46.200128057142855],[6.1626563189033225,46.20000991536091],[6.161453076566915,46.20007575691761],[6.152473002555648,46.20181744701863],[6.1504309637044505,46.20239147216337],[6.1437371765754545,46.20389643867331],[6.143177857600198,46.20379784484594],[6.143016788657882,46.203574670560606],[6.143863622960487,46.20153147149228],[6.143904421301505,46.201191217586256],[6.143252776336602,46.20051280759385],[6.143131350205421,46.1998256197729],[6.142983813971549,46.19965491512973],[6.141826473770033,46.19915658700498],[6.141988344749349,46.198058248205314],[6.14175803314638,46.195481753747075],[6.141424517851757,46.1950079424317],[6.140106138768787,46.19369773961194],[6.1391839140992985,46.19309322922372],[6.128671573233029,46.18773323094628],[6.127220196155576,46.1875438308439],[6.125098709314561,46.187488407229985],[6.124743172531605,46.18773915166411],[6.124804022087086,46.18797026073022],[6.125068455088043,46.188157109441555],[6.124853900733264,46.188292626945916],[6.124650526204217,46.18809570382728],[6.124891670156832,46.187517376306765],[6.126908694721248,46.18752542136737],[6.1286679,46.1877376],[6.139805134932827,46.19344555314098],[6.141708712356267,46.1953690747131],[6.14197596827815,46.19786687652022],[6.142067267906804,46.198015596290375],[6.1422617186853055,46.19806765595796]]}},{"type":"Feature","properties":{"route_ref":"14","route_color":"#b82f89"},"geometry":{"type":"MultiLineString","coordinates":[[[6.0828492,46.2291519],[6.083360341016522,46.22865645350346],[6.083533530460038,46.22826725152767],[6.083485944772213,46.22785707662091],[6.082700896058188,46.226284303235765],[6.0827777,46.226062],[6.083246963288442,46.22577991430535],[6.0971777,46.2220248],[6.09671561699033,46.22218431731268],[6.104606539999997,46.220025099999994],[6.104948597331252,46.21985819691629],[6.110090583629989,46.2185873198781],[6.118303999479187,46.21629495452628],[6.12710722827694,46.21463128544128],[6.129567918764415,46.213743192697],[6.134784032500789,46.21122348482626],[6.1392787432552325,46.209399119214936],[6.140048908722581,46.209455508197166],[6.141005588926081,46.20993808134452],[6.141230321551867,46.209942468931864],[6.142030389389041,46.20953204057476],[6.1412332769457025,46.20994500627837],[6.141935017828605,46.20959077363423],[6.142599887752546,46.208992222423404],[6.1423889681201995,46.207855752334176],[6.142074087426121,46.20713597521043],[6.143137162165105,46.205479542936146],[6.143417009366653,46.20482208930906],[6.143493071361904,46.20485503975243],[6.143566883631012,46.20460972672698],[6.143480356338825,46.20453203696214],[6.143483259883868,46.20484637858997],[6.143460425158548,46.20442580967764],[6.143006854061933,46.20416642443891],[6.142796736013641,46.20381948639411],[6.142509526844242,46.20372234913384],[6.13439850645316,46.2031251332626],[6.131749289237713,46.20262916799804],[6.131100674606222,46.20222803350117],[6.12991219311177,46.20092403662807],[6.1287183,46.199828],[6.129083642145915,46.200115616854816],[6.12913366,46.200315079999996],[6.129398048390967,46.2004175232912],[6.129358190470009,46.20054770393614],[6.129555240200526,46.20056891446047],[6.129642600000003,46.2008412],[6.131097050000003,46.20222585],[6.131695378769596,46.20262091731854],[6.134349216645947,46.20312147664677],[6.138965118173357,46.203488702846904],[6.139126639539321,46.20357754942415],[6.139205918597704,46.20404742712536],[6.13940295252432,46.20411672288096],[6.141953835289762,46.20418503219153],[6.142600842000224,46.20429359074549],[6.143149845165825,46.204285275694716],[6.143419837579331,46.20441963894412],[6.143413922997626,46.20487932509529],[6.143074840708938,46.20558395829811],[6.14208792935757,46.207086208904386],[6.142409583715191,46.208069576343185],[6.142257632618632,46.20823939851564],[6.141589279521188,46.208378705659264],[6.141372468542176,46.20855540619633],[6.141424289775795,46.20877039126558],[6.141985930474647,46.20930212798817],[6.141952315570003,46.20957636883096],[6.141222767005249,46.20993875737274],[6.141005315444681,46.209930193238336],[6.139946040696381,46.20942047075755],[6.139260469844128,46.20940467802337],[6.13480372180398,46.21121475470529],[6.1295633238460905,46.21374388019233],[6.127107535310737,46.21463162780972],[6.118390936226698,46.216268141481095],[6.117850306482595,46.216475518126956],[6.1110327,46.2182548],[6.1109684875,46.2183489625],[6.110045591020669,46.21857064722294],[6.111057848718168,46.21831210635823],[6.110041023962172,46.21860076584799],[6.106998916786071,46.219395103146894],[6.105953203284411,46.219582763691456],[6.100854966593573,46.22104105748028],[6.083183499990836,46.22577841130446],[6.084020529207803,46.22559532011248],[6.083023255393141,46.225881517468565],[6.082703784795453,46.22620621704684],[6.0834864749586774,46.22785795483911],[6.083533589600175,46.22826666118839],[6.083360272061192,46.228656490959864],[6.080594477166723,46.23104714961936],[6.077637980511924,46.233216821202475],[6.077452524881091,46.23344568366562],[6.0778322,46.2338779],[6.08200103947037,46.23671851237606],[6.0777715564454855,46.23383636253479],[6.077461504602302,46.23344679191693],[6.077701626885923,46.2331746552079],[6.080443917330839,46.23117042051241],[6.0828492,46.2291519]],[[6.060781266126526,46.175004446607176],[6.064265851731929,46.17547426654979],[6.067223994463124,46.176234232054796],[6.072229636963927,46.178001947866036],[6.07229347581902,46.178092208882106],[6.0763568658029765,46.1794565066472],[6.078674507259578,46.17966643294962],[6.080158683574241,46.17965412436859],[6.083084224079681,46.179205574045184],[6.0831759000000005,46.17912516666667],[6.083315539542477,46.17915870654333],[6.0834073,46.1790785],[6.085740408264635,46.17863941763778],[6.0879334576965505,46.17849184752068],[6.089242124955517,46.178667985321646],[6.090518714623207,46.17905123007025],[6.098047823170879,46.182211118652305],[6.101328583438213,46.18404222761132],[6.102707903042055,46.184679845756925],[6.112660199999998,46.187923425],[6.112744898293321,46.18802186805452],[6.113526714154864,46.1882079793299],[6.114160561018034,46.18848743485906],[6.114327379990167,46.188470829089475],[6.114753445327221,46.188682758135435],[6.115375349999995,46.18881601000001],[6.118799212010828,46.190036900141386],[6.123838141557062,46.19374676771475],[6.124550776037665,46.19412666797836],[6.125962128473056,46.19460066535518],[6.126449871230158,46.19492146593921],[6.126789641141417,46.19548225657332],[6.127828,46.19879519999999],[6.128707731569045,46.19985364743423],[6.127843167850279,46.198831762240076],[6.126767122744614,46.19541737086577],[6.126448805564902,46.194920549819095],[6.125962430911614,46.194600346636115],[6.124472426816328,46.19409695712394],[6.12383274955988,46.19374460880487],[6.118830164580846,46.19005299726953],[6.115791668254065,46.18895861067781],[6.1150536,46.18878163333333],[6.112767850000001,46.188029449999995],[6.11269583119054,46.18793518883527],[6.112422927319509,46.18791549501558],[6.112340202896229,46.18781811095433],[6.111934383333335,46.1877542],[6.111851610680132,46.18765688281614],[6.111583716065846,46.187638243157906],[6.109121833422406,46.18682851783412],[6.108910404238237,46.18668793889937],[6.1077727108865325,46.18638408417142],[6.107661999812778,46.186276105090016],[6.107130380000002,46.18617112],[6.106675528331927,46.185951574057924],[6.106382753257898,46.18592558234884],[6.106113734618989,46.185766579773585],[6.105971104757379,46.18579059308198],[6.105779375242718,46.185656416792604],[6.105392253846158,46.185599869230764],[6.1046219544704545,46.185274560429534],[6.1043906580432745,46.18526837124734],[6.102707524223248,46.18468228457127],[6.101328560454162,46.184042234425334],[6.098046712220928,46.18221224019344],[6.090518859067446,46.17905119836974],[6.088471470088871,46.1785205877056],[6.087350637986958,46.178511915715816],[6.085513746797815,46.17867918208711],[6.082796813205425,46.17926389403566],[6.080237384010559,46.17964908613181],[6.07874911944123,46.17966941941579],[6.076508123874483,46.179481657264304],[6.075172138965264,46.179136878441874],[6.069079191553873,46.17685758243245],[6.066366124046141,46.17600998032928],[6.064272076288697,46.17547521707848],[6.060779380264707,46.17500423993131]]]}}]}