{"type":"FeatureCollection","metro_system":{"continent":"europe","country":"Czechia","city":"Most","official_website":"https://www.dpmost.cz","official_map":"https://cs.wikipedia.org/wiki/Tramvajová_doprava_v_Mostě_a_v_Litvínově","wikipedia":"cs:Tramvajová doprava v Mostě a v Litvínově","line_count":4,"segment_count":7,"station_count":27,"modes":["tram"],"audit":{"strategies_tried":[],"passed":true,"checks":[{"id":"has_lines","ok":true,"detail":"4 lines","level":"error"},{"id":"has_stations","ok":true,"detail":"27 stations","level":"error"},{"id":"stations_have_lines","ok":true,"detail":"27/27 站皆有所屬路線","level":"error"},{"id":"line_geometry_stations","ok":true,"detail":"34 個折點/端點皆為車站","level":"error"},{"id":"route_stations_match_geometry","ok":true,"detail":"各線車站列表與圖面一致","level":"error"},{"id":"interchange_rule","ok":true,"detail":"所有車站紅/藍點符合骨架＋路線色規則（藍＝端點、紅＝交叉）","level":"error"},{"id":"stations_named","ok":true,"detail":"27/27 站皆有名稱","level":"error"},{"id":"station_order","ok":true,"detail":"所有線路站序合理","level":"warn"},{"id":"station_span","ok":true,"detail":"各線相鄰站距與系統站群跨度正常","level":"error"},{"id":"line_wiki_stations","ok":true,"detail":"各線站數與 wiki 線路條目相符（營運中站數）","level":"error"},{"id":"line_wiki_coverage","ok":false,"detail":"4 條線無 wiki 站數對照：Tram 2、Tram 1、Tram 4","level":"warn"}],"reasons":[],"warnings":["4 條線無 wiki 站數對照：Tram 2、Tram 1、Tram 4"],"audited_at":"2026-07-27T05:26:25.849Z"}},"features":[{"type":"Feature","properties":{"seg_id":"most-0","routes":[{"route_id":"rm14630830","route_name":"Tram 2","route_name_local":"Tram 2","route_name_en":null,"route_ref":"2","route_color":null,"wikipedia":null,"osm_route_ids":[915427,14630829],"status":null,"order_suspect":0,"span_suspect":0,"stations":[{"station_id":"n418118279","station_name":"Velebudická"},{"station_id":"n418118272","station_name":"Severografia"},{"station_id":"n418118259","station_name":"Dopravní podnik"},{"station_id":"n2569754722","station_name":"Československé mládeže"},{"station_id":"n418118247","station_name":"1. Náměstí"},{"station_id":"n418118243","station_name":"Obchodní dům Prior"},{"station_id":"n418118348","station_name":"Sportovní hala"},{"station_id":"n270050046","station_name":"Zimní stadion"},{"station_id":"n270050049","station_name":"Tesco"},{"station_id":"n270050069","station_name":"Most, nádraží"}]},{"route_id":"rm14630831","route_name":"Tram 1","route_name_local":"Tram 1","route_name_en":null,"route_ref":"1","route_color":null,"wikipedia":null,"osm_route_ids":[915428,14630828],"status":null,"order_suspect":0,"span_suspect":0,"stations":[{"station_id":"n418118279","station_name":"Velebudická"},{"station_id":"n418118272","station_name":"Severografia"},{"station_id":"n418118259","station_name":"Dopravní podnik"},{"station_id":"n2569754722","station_name":"Československé mládeže"},{"station_id":"n418118247","station_name":"1. Náměstí"},{"station_id":"n418118243","station_name":"Obchodní dům Prior"},{"station_id":"n418118348","station_name":"Sportovní hala"},{"station_id":"n270050046","station_name":"Zimní stadion"},{"station_id":"n4079925903","station_name":"Souš"},{"station_id":"n270049984","station_name":"Sídliště ČD"},{"station_id":"n4079925901","station_name":"Rozcestí Kopisty"},{"station_id":"n1994690931","station_name":"Záluží, Důl Julius IV"},{"station_id":"n270049954","station_name":"Záluží, Zdravotní středisko"},{"station_id":"n270049937","station_name":"Záluží, Chemopetrol"},{"station_id":"n270049906","station_name":"Záluží, Petrochemie"},{"station_id":"n3283661176","station_name":"Záluží, areál Hlubina"},{"station_id":"n4079925896","station_name":"Litvínov, Báňské stavby"},{"station_id":"n270049854","station_name":"Litvínov, nádraží"},{"station_id":"n1842648845","station_name":"Litvínov, obchodní dům"},{"station_id":"n1994334445","station_name":"Litvínov, poliklinika"},{"station_id":"n4079925898","station_name":"Litvínov, Technické služby"},{"station_id":"n2089425373","station_name":"Litvínov, stadion"},{"station_id":"n639297139","station_name":"Litvínov, U Dílen"},{"station_id":"n2089425507","station_name":"Litvínov, Citadela"}]}],"route_count":2,"route_refs":["2","1"],"route_colors":["#e11d48","#e11d48"],"city":"Most","country":"Czechia"},"geometry":{"type":"MultiLineString","coordinates":[[[13.650665499999999,50.48659155],[13.640601100000001,50.48784275],[13.6354787,50.49213745]]]}},{"type":"Feature","properties":{"seg_id":"most-1","routes":[{"route_id":"rm14630830","route_name":"Tram 2","route_name_local":"Tram 2","route_name_en":null,"route_ref":"2","route_color":null,"wikipedia":null,"osm_route_ids":[915427,14630829],"status":null,"order_suspect":0,"span_suspect":0,"stations":[{"station_id":"n418118279","station_name":"Velebudická"},{"station_id":"n418118272","station_name":"Severografia"},{"station_id":"n418118259","station_name":"Dopravní podnik"},{"station_id":"n2569754722","station_name":"Československé mládeže"},{"station_id":"n418118247","station_name":"1. Náměstí"},{"station_id":"n418118243","station_name":"Obchodní dům Prior"},{"station_id":"n418118348","station_name":"Sportovní hala"},{"station_id":"n270050046","station_name":"Zimní stadion"},{"station_id":"n270050049","station_name":"Tesco"},{"station_id":"n270050069","station_name":"Most, nádraží"}]},{"route_id":"rm14630831","route_name":"Tram 1","route_name_local":"Tram 1","route_name_en":null,"route_ref":"1","route_color":null,"wikipedia":null,"osm_route_ids":[915428,14630828],"status":null,"order_suspect":0,"span_suspect":0,"stations":[{"station_id":"n418118279","station_name":"Velebudická"},{"station_id":"n418118272","station_name":"Severografia"},{"station_id":"n418118259","station_name":"Dopravní podnik"},{"station_id":"n2569754722","station_name":"Československé mládeže"},{"station_id":"n418118247","station_name":"1. Náměstí"},{"station_id":"n418118243","station_name":"Obchodní dům Prior"},{"station_id":"n418118348","station_name":"Sportovní hala"},{"station_id":"n270050046","station_name":"Zimní stadion"},{"station_id":"n4079925903","station_name":"Souš"},{"station_id":"n270049984","station_name":"Sídliště ČD"},{"station_id":"n4079925901","station_name":"Rozcestí Kopisty"},{"station_id":"n1994690931","station_name":"Záluží, Důl Julius IV"},{"station_id":"n270049954","station_name":"Záluží, Zdravotní středisko"},{"station_id":"n270049937","station_name":"Záluží, Chemopetrol"},{"station_id":"n270049906","station_name":"Záluží, Petrochemie"},{"station_id":"n3283661176","station_name":"Záluží, areál Hlubina"},{"station_id":"n4079925896","station_name":"Litvínov, Báňské stavby"},{"station_id":"n270049854","station_name":"Litvínov, nádraží"},{"station_id":"n1842648845","station_name":"Litvínov, obchodní dům"},{"station_id":"n1994334445","station_name":"Litvínov, poliklinika"},{"station_id":"n4079925898","station_name":"Litvínov, Technické služby"},{"station_id":"n2089425373","station_name":"Litvínov, stadion"},{"station_id":"n639297139","station_name":"Litvínov, U Dílen"},{"station_id":"n2089425507","station_name":"Litvínov, Citadela"}]},{"route_id":"rm14630832","route_name":"Tram 4","route_name_local":"Tram 4","route_name_en":null,"route_ref":"4","route_color":null,"wikipedia":null,"osm_route_ids":[916332,14630826],"status":null,"order_suspect":0,"span_suspect":0,"stations":[{"station_id":"n418118259","station_name":"Dopravní podnik"},{"station_id":"n2569754722","station_name":"Československé mládeže"},{"station_id":"n418118247","station_name":"1. Náměstí"},{"station_id":"n418118243","station_name":"Obchodní dům Prior"},{"station_id":"n418118348","station_name":"Sportovní hala"},{"station_id":"n270050046","station_name":"Zimní stadion"},{"station_id":"n4079925903","station_name":"Souš"},{"station_id":"n270049984","station_name":"Sídliště ČD"},{"station_id":"n4079925901","station_name":"Rozcestí Kopisty"},{"station_id":"n1994690931","station_name":"Záluží, Důl Julius IV"},{"station_id":"n270049954","station_name":"Záluží, Zdravotní středisko"},{"station_id":"n270049937","station_name":"Záluží, Chemopetrol"},{"station_id":"n270049906","station_name":"Záluží, Petrochemie"},{"station_id":"n3283661176","station_name":"Záluží, areál Hlubina"},{"station_id":"n4079925896","station_name":"Litvínov, Báňské stavby"},{"station_id":"n270049854","station_name":"Litvínov, nádraží"},{"station_id":"n1842648845","station_name":"Litvínov, obchodní dům"},{"station_id":"n1994334445","station_name":"Litvínov, poliklinika"},{"station_id":"n4079925898","station_name":"Litvínov, Technické služby"},{"station_id":"n2089425373","station_name":"Litvínov, stadion"},{"station_id":"n639297139","station_name":"Litvínov, U Dílen"},{"station_id":"n2089425507","station_name":"Litvínov, Citadela"}]}],"route_count":3,"route_refs":["2","1","4"],"route_colors":["#e11d48","#e11d48","#e11d48"],"city":"Most","country":"Czechia"},"geometry":{"type":"MultiLineString","coordinates":[[[13.6354787,50.49213745],[13.63565755,50.495551649999996],[13.6389785,50.501042850000005],[13.64049585,50.50566325],[13.64311915,50.510573449999995],[13.64561485,50.51348125]]]}},{"type":"Feature","properties":{"seg_id":"most-2","routes":[{"route_id":"rm14630830","route_name":"Tram 2","route_name_local":"Tram 2","route_name_en":null,"route_ref":"2","route_color":null,"wikipedia":null,"osm_route_ids":[915427,14630829],"status":null,"order_suspect":0,"span_suspect":0,"stations":[{"station_id":"n418118279","station_name":"Velebudická"},{"station_id":"n418118272","station_name":"Severografia"},{"station_id":"n418118259","station_name":"Dopravní podnik"},{"station_id":"n2569754722","station_name":"Československé mládeže"},{"station_id":"n418118247","station_name":"1. Náměstí"},{"station_id":"n418118243","station_name":"Obchodní dům Prior"},{"station_id":"n418118348","station_name":"Sportovní hala"},{"station_id":"n270050046","station_name":"Zimní stadion"},{"station_id":"n270050049","station_name":"Tesco"},{"station_id":"n270050069","station_name":"Most, nádraží"}]}],"route_count":1,"route_refs":["2"],"route_colors":["#e11d48"],"city":"Most","country":"Czechia"},"geometry":{"type":"MultiLineString","coordinates":[[[13.64561485,50.51348125],[13.65253705,50.51199895]]]}},{"type":"Feature","properties":{"seg_id":"most-3","routes":[{"route_id":"rm14630830","route_name":"Tram 2","route_name_local":"Tram 2","route_name_en":null,"route_ref":"2","route_color":null,"wikipedia":null,"osm_route_ids":[915427,14630829],"status":null,"order_suspect":0,"span_suspect":0,"stations":[{"station_id":"n418118279","station_name":"Velebudická"},{"station_id":"n418118272","station_name":"Severografia"},{"station_id":"n418118259","station_name":"Dopravní podnik"},{"station_id":"n2569754722","station_name":"Československé mládeže"},{"station_id":"n418118247","station_name":"1. Náměstí"},{"station_id":"n418118243","station_name":"Obchodní dům Prior"},{"station_id":"n418118348","station_name":"Sportovní hala"},{"station_id":"n270050046","station_name":"Zimní stadion"},{"station_id":"n270050049","station_name":"Tesco"},{"station_id":"n270050069","station_name":"Most, nádraží"}]},{"route_id":"rm14630833","route_name":"Tram 3","route_name_local":"Tram 3","route_name_en":null,"route_ref":"3","route_color":null,"wikipedia":null,"osm_route_ids":[916333,14630827],"status":null,"order_suspect":0,"span_suspect":0,"stations":[{"station_id":"n270050069","station_name":"Most, nádraží"},{"station_id":"n270050049","station_name":"Tesco"},{"station_id":"n2089341849","station_name":"Chomutovská"},{"station_id":"n4079925903","station_name":"Souš"},{"station_id":"n270049984","station_name":"Sídliště ČD"},{"station_id":"n4079925901","station_name":"Rozcestí Kopisty"},{"station_id":"n1994690931","station_name":"Záluží, Důl Julius IV"},{"station_id":"n270049954","station_name":"Záluží, Zdravotní středisko"},{"station_id":"n270049937","station_name":"Záluží, Chemopetrol"},{"station_id":"n270049906","station_name":"Záluží, Petrochemie"},{"station_id":"n3283661176","station_name":"Záluží, areál Hlubina"},{"station_id":"n4079925896","station_name":"Litvínov, Báňské stavby"},{"station_id":"n270049854","station_name":"Litvínov, nádraží"},{"station_id":"n1842648845","station_name":"Litvínov, obchodní dům"},{"station_id":"n1994334445","station_name":"Litvínov, poliklinika"},{"station_id":"n4079925898","station_name":"Litvínov, Technické služby"},{"station_id":"n2089425373","station_name":"Litvínov, stadion"},{"station_id":"n639297139","station_name":"Litvínov, U Dílen"},{"station_id":"n2089425507","station_name":"Litvínov, Citadela"}]}],"route_count":2,"route_refs":["2","3"],"route_colors":["#e11d48","#e11d48"],"city":"Most","country":"Czechia"},"geometry":{"type":"MultiLineString","coordinates":[[[13.65253705,50.51199895],[13.658412066666665,50.5089733]]]}},{"type":"Feature","properties":{"seg_id":"most-4","routes":[{"route_id":"rm14630831","route_name":"Tram 1","route_name_local":"Tram 1","route_name_en":null,"route_ref":"1","route_color":null,"wikipedia":null,"osm_route_ids":[915428,14630828],"status":null,"order_suspect":0,"span_suspect":0,"stations":[{"station_id":"n418118279","station_name":"Velebudická"},{"station_id":"n418118272","station_name":"Severografia"},{"station_id":"n418118259","station_name":"Dopravní podnik"},{"station_id":"n2569754722","station_name":"Československé mládeže"},{"station_id":"n418118247","station_name":"1. Náměstí"},{"station_id":"n418118243","station_name":"Obchodní dům Prior"},{"station_id":"n418118348","station_name":"Sportovní hala"},{"station_id":"n270050046","station_name":"Zimní stadion"},{"station_id":"n4079925903","station_name":"Souš"},{"station_id":"n270049984","station_name":"Sídliště ČD"},{"station_id":"n4079925901","station_name":"Rozcestí Kopisty"},{"station_id":"n1994690931","station_name":"Záluží, Důl Julius IV"},{"station_id":"n270049954","station_name":"Záluží, Zdravotní středisko"},{"station_id":"n270049937","station_name":"Záluží, Chemopetrol"},{"station_id":"n270049906","station_name":"Záluží, Petrochemie"},{"station_id":"n3283661176","station_name":"Záluží, areál Hlubina"},{"station_id":"n4079925896","station_name":"Litvínov, Báňské stavby"},{"station_id":"n270049854","station_name":"Litvínov, nádraží"},{"station_id":"n1842648845","station_name":"Litvínov, obchodní dům"},{"station_id":"n1994334445","station_name":"Litvínov, poliklinika"},{"station_id":"n4079925898","station_name":"Litvínov, Technické služby"},{"station_id":"n2089425373","station_name":"Litvínov, stadion"},{"station_id":"n639297139","station_name":"Litvínov, U Dílen"},{"station_id":"n2089425507","station_name":"Litvínov, Citadela"}]},{"route_id":"rm14630832","route_name":"Tram 4","route_name_local":"Tram 4","route_name_en":null,"route_ref":"4","route_color":null,"wikipedia":null,"osm_route_ids":[916332,14630826],"status":null,"order_suspect":0,"span_suspect":0,"stations":[{"station_id":"n418118259","station_name":"Dopravní podnik"},{"station_id":"n2569754722","station_name":"Československé mládeže"},{"station_id":"n418118247","station_name":"1. Náměstí"},{"station_id":"n418118243","station_name":"Obchodní dům Prior"},{"station_id":"n418118348","station_name":"Sportovní hala"},{"station_id":"n270050046","station_name":"Zimní stadion"},{"station_id":"n4079925903","station_name":"Souš"},{"station_id":"n270049984","station_name":"Sídliště ČD"},{"station_id":"n4079925901","station_name":"Rozcestí Kopisty"},{"station_id":"n1994690931","station_name":"Záluží, Důl Julius IV"},{"station_id":"n270049954","station_name":"Záluží, Zdravotní středisko"},{"station_id":"n270049937","station_name":"Záluží, Chemopetrol"},{"station_id":"n270049906","station_name":"Záluží, Petrochemie"},{"station_id":"n3283661176","station_name":"Záluží, areál Hlubina"},{"station_id":"n4079925896","station_name":"Litvínov, Báňské stavby"},{"station_id":"n270049854","station_name":"Litvínov, nádraží"},{"station_id":"n1842648845","station_name":"Litvínov, obchodní dům"},{"station_id":"n1994334445","station_name":"Litvínov, poliklinika"},{"station_id":"n4079925898","station_name":"Litvínov, Technické služby"},{"station_id":"n2089425373","station_name":"Litvínov, stadion"},{"station_id":"n639297139","station_name":"Litvínov, U Dílen"},{"station_id":"n2089425507","station_name":"Litvínov, Citadela"}]}],"route_count":2,"route_refs":["1","4"],"route_colors":["#e11d48","#e11d48"],"city":"Most","country":"Czechia"},"geometry":{"type":"MultiLineString","coordinates":[[[13.64561485,50.51348125],[13.6302087,50.5254142]]]}},{"type":"Feature","properties":{"seg_id":"most-5","routes":[{"route_id":"rm14630831","route_name":"Tram 1","route_name_local":"Tram 1","route_name_en":null,"route_ref":"1","route_color":null,"wikipedia":null,"osm_route_ids":[915428,14630828],"status":null,"order_suspect":0,"span_suspect":0,"stations":[{"station_id":"n418118279","station_name":"Velebudická"},{"station_id":"n418118272","station_name":"Severografia"},{"station_id":"n418118259","station_name":"Dopravní podnik"},{"station_id":"n2569754722","station_name":"Československé mládeže"},{"station_id":"n418118247","station_name":"1. Náměstí"},{"station_id":"n418118243","station_name":"Obchodní dům Prior"},{"station_id":"n418118348","station_name":"Sportovní hala"},{"station_id":"n270050046","station_name":"Zimní stadion"},{"station_id":"n4079925903","station_name":"Souš"},{"station_id":"n270049984","station_name":"Sídliště ČD"},{"station_id":"n4079925901","station_name":"Rozcestí Kopisty"},{"station_id":"n1994690931","station_name":"Záluží, Důl Julius IV"},{"station_id":"n270049954","station_name":"Záluží, Zdravotní středisko"},{"station_id":"n270049937","station_name":"Záluží, Chemopetrol"},{"station_id":"n270049906","station_name":"Záluží, Petrochemie"},{"station_id":"n3283661176","station_name":"Záluží, areál Hlubina"},{"station_id":"n4079925896","station_name":"Litvínov, Báňské stavby"},{"station_id":"n270049854","station_name":"Litvínov, nádraží"},{"station_id":"n1842648845","station_name":"Litvínov, obchodní dům"},{"station_id":"n1994334445","station_name":"Litvínov, poliklinika"},{"station_id":"n4079925898","station_name":"Litvínov, Technické služby"},{"station_id":"n2089425373","station_name":"Litvínov, stadion"},{"station_id":"n639297139","station_name":"Litvínov, U Dílen"},{"station_id":"n2089425507","station_name":"Litvínov, Citadela"}]},{"route_id":"rm14630832","route_name":"Tram 4","route_name_local":"Tram 4","route_name_en":null,"route_ref":"4","route_color":null,"wikipedia":null,"osm_route_ids":[916332,14630826],"status":null,"order_suspect":0,"span_suspect":0,"stations":[{"station_id":"n418118259","station_name":"Dopravní podnik"},{"station_id":"n2569754722","station_name":"Československé mládeže"},{"station_id":"n418118247","station_name":"1. Náměstí"},{"station_id":"n418118243","station_name":"Obchodní dům Prior"},{"station_id":"n418118348","station_name":"Sportovní hala"},{"station_id":"n270050046","station_name":"Zimní stadion"},{"station_id":"n4079925903","station_name":"Souš"},{"station_id":"n270049984","station_name":"Sídliště ČD"},{"station_id":"n4079925901","station_name":"Rozcestí Kopisty"},{"station_id":"n1994690931","station_name":"Záluží, Důl Julius IV"},{"station_id":"n270049954","station_name":"Záluží, Zdravotní středisko"},{"station_id":"n270049937","station_name":"Záluží, Chemopetrol"},{"station_id":"n270049906","station_name":"Záluží, Petrochemie"},{"station_id":"n3283661176","station_name":"Záluží, areál Hlubina"},{"station_id":"n4079925896","station_name":"Litvínov, Báňské stavby"},{"station_id":"n270049854","station_name":"Litvínov, nádraží"},{"station_id":"n1842648845","station_name":"Litvínov, obchodní dům"},{"station_id":"n1994334445","station_name":"Litvínov, poliklinika"},{"station_id":"n4079925898","station_name":"Litvínov, Technické služby"},{"station_id":"n2089425373","station_name":"Litvínov, stadion"},{"station_id":"n639297139","station_name":"Litvínov, U Dílen"},{"station_id":"n2089425507","station_name":"Litvínov, Citadela"}]},{"route_id":"rm14630833","route_name":"Tram 3","route_name_local":"Tram 3","route_name_en":null,"route_ref":"3","route_color":null,"wikipedia":null,"osm_route_ids":[916333,14630827],"status":null,"order_suspect":0,"span_suspect":0,"stations":[{"station_id":"n270050069","station_name":"Most, nádraží"},{"station_id":"n270050049","station_name":"Tesco"},{"station_id":"n2089341849","station_name":"Chomutovská"},{"station_id":"n4079925903","station_name":"Souš"},{"station_id":"n270049984","station_name":"Sídliště ČD"},{"station_id":"n4079925901","station_name":"Rozcestí Kopisty"},{"station_id":"n1994690931","station_name":"Záluží, Důl Julius IV"},{"station_id":"n270049954","station_name":"Záluží, Zdravotní středisko"},{"station_id":"n270049937","station_name":"Záluží, Chemopetrol"},{"station_id":"n270049906","station_name":"Záluží, Petrochemie"},{"station_id":"n3283661176","station_name":"Záluží, areál Hlubina"},{"station_id":"n4079925896","station_name":"Litvínov, Báňské stavby"},{"station_id":"n270049854","station_name":"Litvínov, nádraží"},{"station_id":"n1842648845","station_name":"Litvínov, obchodní dům"},{"station_id":"n1994334445","station_name":"Litvínov, poliklinika"},{"station_id":"n4079925898","station_name":"Litvínov, Technické služby"},{"station_id":"n2089425373","station_name":"Litvínov, stadion"},{"station_id":"n639297139","station_name":"Litvínov, U Dílen"},{"station_id":"n2089425507","station_name":"Litvínov, Citadela"}]}],"route_count":3,"route_refs":["1","4","3"],"route_colors":["#e11d48","#e11d48","#e11d48"],"city":"Most","country":"Czechia"},"geometry":{"type":"MultiLineString","coordinates":[[[13.6302087,50.5254142],[13.628351599999998,50.53370955],[13.618255000000001,50.542477149999996],[13.6108875,50.5484489],[13.60234235,50.55588505],[13.601709249999999,50.56056585],[13.604029350000001,50.5711785],[13.6018965,50.5771316],[13.60395815,50.58857665],[13.6099639,50.59362955],[13.6130315,50.5977419],[13.6141203,50.601426399999994],[13.61845035,50.60326085],[13.62260345,50.604012299999994],[13.6262472,50.60482065],[13.6267752,50.6079801]]]}},{"type":"Feature","properties":{"seg_id":"most-6","routes":[{"route_id":"rm14630833","route_name":"Tram 3","route_name_local":"Tram 3","route_name_en":null,"route_ref":"3","route_color":null,"wikipedia":null,"osm_route_ids":[916333,14630827],"status":null,"order_suspect":0,"span_suspect":0,"stations":[{"station_id":"n270050069","station_name":"Most, nádraží"},{"station_id":"n270050049","station_name":"Tesco"},{"station_id":"n2089341849","station_name":"Chomutovská"},{"station_id":"n4079925903","station_name":"Souš"},{"station_id":"n270049984","station_name":"Sídliště ČD"},{"station_id":"n4079925901","station_name":"Rozcestí Kopisty"},{"station_id":"n1994690931","station_name":"Záluží, Důl Julius IV"},{"station_id":"n270049954","station_name":"Záluží, Zdravotní středisko"},{"station_id":"n270049937","station_name":"Záluží, Chemopetrol"},{"station_id":"n270049906","station_name":"Záluží, Petrochemie"},{"station_id":"n3283661176","station_name":"Záluží, areál Hlubina"},{"station_id":"n4079925896","station_name":"Litvínov, Báňské stavby"},{"station_id":"n270049854","station_name":"Litvínov, nádraží"},{"station_id":"n1842648845","station_name":"Litvínov, obchodní dům"},{"station_id":"n1994334445","station_name":"Litvínov, poliklinika"},{"station_id":"n4079925898","station_name":"Litvínov, Technické služby"},{"station_id":"n2089425373","station_name":"Litvínov, stadion"},{"station_id":"n639297139","station_name":"Litvínov, U Dílen"},{"station_id":"n2089425507","station_name":"Litvínov, Citadela"}]}],"route_count":1,"route_refs":["3"],"route_colors":["#e11d48"],"city":"Most","country":"Czechia"},"geometry":{"type":"MultiLineString","coordinates":[[[13.65253705,50.51199895],[13.645483200000001,50.51502615],[13.6302087,50.5254142]]]}},{"type":"Feature","properties":{"station_id":"n270049854","station_name":"Litvínov, nádraží","station_name_local":"Litvínov, nádraží","station_name_en":null,"city":"Most","country":"Czechia","lines":["1","3","4"],"wikipedia":null,"merged_from":2,"merged_names":null,"is_terminus":false,"routes":[{"ref":"1","name":"Tram 1","route_color":null},{"ref":"3","name":"Tram 3","route_color":null},{"ref":"4","name":"Tram 4","route_color":null}],"pass_count":3,"station_degree":2,"codes":null,"is_interchange":false,"station_role":"normal"},"geometry":{"type":"Point","coordinates":[13.6099639,50.59362955]},"__memberLines":{}},{"type":"Feature","properties":{"station_id":"n270049906","station_name":"Záluží, Petrochemie","station_name_local":"Záluží, Petrochemie","station_name_en":null,"city":"Most","country":"Czechia","lines":["1","3","4"],"wikipedia":null,"merged_from":2,"merged_names":null,"is_terminus":false,"routes":[{"ref":"1","name":"Tram 1","route_color":null},{"ref":"3","name":"Tram 3","route_color":null},{"ref":"4","name":"Tram 4","route_color":null}],"pass_count":3,"station_degree":2,"codes":null,"is_interchange":false,"station_role":"normal"},"geometry":{"type":"Point","coordinates":[13.604029350000001,50.5711785]},"__memberLines":{}},{"type":"Feature","properties":{"station_id":"n270049937","station_name":"Záluží, Chemopetrol","station_name_local":"Záluží, Chemopetrol","station_name_en":null,"city":"Most","country":"Czechia","lines":["1","3","4"],"wikipedia":null,"merged_from":2,"merged_names":null,"is_terminus":false,"routes":[{"ref":"1","name":"Tram 1","route_color":null},{"ref":"3","name":"Tram 3","route_color":null},{"ref":"4","name":"Tram 4","route_color":null}],"pass_count":3,"station_degree":2,"codes":null,"is_interchange":false,"station_role":"normal"},"geometry":{"type":"Point","coordinates":[13.601709249999999,50.56056585]},"__memberLines":{}},{"type":"Feature","properties":{"station_id":"n270049954","station_name":"Záluží, Zdravotní středisko","station_name_local":"Záluží, Zdravotní středisko","station_name_en":null,"city":"Most","country":"Czechia","lines":["1","3","4"],"wikipedia":null,"merged_from":2,"merged_names":null,"is_terminus":false,"routes":[{"ref":"1","name":"Tram 1","route_color":null},{"ref":"3","name":"Tram 3","route_color":null},{"ref":"4","name":"Tram 4","route_color":null}],"pass_count":3,"station_degree":2,"codes":null,"is_interchange":false,"station_role":"normal"},"geometry":{"type":"Point","coordinates":[13.60234235,50.55588505]},"__memberLines":{}},{"type":"Feature","properties":{"station_id":"n270049984","station_name":"Sídliště ČD","station_name_local":"Sídliště ČD","station_name_en":null,"city":"Most","country":"Czechia","lines":["1","3","4"],"wikipedia":null,"merged_from":2,"merged_names":null,"is_terminus":false,"routes":[{"ref":"1","name":"Tram 1","route_color":null},{"ref":"3","name":"Tram 3","route_color":null},{"ref":"4","name":"Tram 4","route_color":null}],"pass_count":3,"station_degree":2,"codes":null,"is_interchange":false,"station_role":"normal"},"geometry":{"type":"Point","coordinates":[13.628351599999998,50.53370955]},"__memberLines":{}},{"type":"Feature","properties":{"station_id":"n270050046","station_name":"Zimní stadion","station_name_local":"Zimní stadion","station_name_en":null,"city":"Most","country":"Czechia","lines":["1","2","4"],"wikipedia":null,"merged_from":2,"merged_names":null,"is_terminus":false,"routes":[{"ref":"1","name":"Tram 1","route_color":null},{"ref":"2","name":"Tram 2","route_color":null},{"ref":"4","name":"Tram 4","route_color":null}],"pass_count":3,"station_degree":3,"codes":null,"is_interchange":true,"station_role":"interchange"},"geometry":{"type":"Point","coordinates":[13.64561485,50.51348125]},"__memberLines":{}},{"type":"Feature","properties":{"station_id":"n270050049","station_name":"Tesco","station_name_local":"Tesco","station_name_en":null,"city":"Most","country":"Czechia","lines":["2","3"],"wikipedia":null,"merged_from":2,"merged_names":null,"is_terminus":false,"routes":[{"ref":"2","name":"Tram 2","route_color":null},{"ref":"3","name":"Tram 3","route_color":null}],"pass_count":2,"station_degree":3,"codes":null,"is_interchange":true,"station_role":"interchange"},"geometry":{"type":"Point","coordinates":[13.65253705,50.51199895]},"__memberLines":{}},{"type":"Feature","properties":{"station_id":"n270050069","station_name":"Most, nádraží","station_name_local":"Most, nádraží","station_name_en":null,"city":"Most","country":"Czechia","lines":["2","3"],"wikipedia":null,"merged_from":3,"merged_names":null,"is_terminus":true,"routes":[{"ref":"2","name":"Tram 2","route_color":null},{"ref":"3","name":"Tram 3","route_color":null}],"pass_count":2,"station_degree":1,"codes":null,"is_interchange":false,"station_role":"terminus"},"geometry":{"type":"Point","coordinates":[13.658412066666665,50.5089733]},"__memberLines":{}},{"type":"Feature","properties":{"station_id":"n418118243","station_name":"Obchodní dům Prior","station_name_local":"Obchodní dům Prior","station_name_en":null,"city":"Most","country":"Czechia","lines":["1","2","4"],"wikipedia":null,"merged_from":2,"merged_names":null,"is_terminus":false,"routes":[{"ref":"1","name":"Tram 1","route_color":null},{"ref":"2","name":"Tram 2","route_color":null},{"ref":"4","name":"Tram 4","route_color":null}],"pass_count":3,"station_degree":2,"codes":null,"is_interchange":false,"station_role":"normal"},"geometry":{"type":"Point","coordinates":[13.64049585,50.50566325]},"__memberLines":{}},{"type":"Feature","properties":{"station_id":"n418118247","station_name":"1. Náměstí","station_name_local":"1. Náměstí","station_name_en":null,"city":"Most","country":"Czechia","lines":["1","2","4"],"wikipedia":null,"merged_from":2,"merged_names":null,"is_terminus":false,"routes":[{"ref":"1","name":"Tram 1","route_color":null},{"ref":"2","name":"Tram 2","route_color":null},{"ref":"4","name":"Tram 4","route_color":null}],"pass_count":3,"station_degree":2,"codes":null,"is_interchange":false,"station_role":"normal"},"geometry":{"type":"Point","coordinates":[13.6389785,50.501042850000005]},"__memberLines":{}},{"type":"Feature","properties":{"station_id":"n418118259","station_name":"Dopravní podnik","station_name_local":"Dopravní podnik","station_name_en":null,"city":"Most","country":"Czechia","lines":["1","2","4"],"wikipedia":null,"merged_from":2,"merged_names":null,"is_terminus":false,"routes":[{"ref":"1","name":"Tram 1","route_color":null},{"ref":"2","name":"Tram 2","route_color":null},{"ref":"4","name":"Tram 4","route_color":null}],"pass_count":3,"station_degree":2,"codes":null,"is_interchange":true,"station_role":"interchange"},"geometry":{"type":"Point","coordinates":[13.6354787,50.49213745]},"__memberLines":{}},{"type":"Feature","properties":{"station_id":"n418118272","station_name":"Severografia","station_name_local":"Severografia","station_name_en":null,"city":"Most","country":"Czechia","lines":["1","2"],"wikipedia":null,"merged_from":2,"merged_names":null,"is_terminus":false,"routes":[{"ref":"1","name":"Tram 1","route_color":null},{"ref":"2","name":"Tram 2","route_color":null}],"pass_count":2,"station_degree":2,"codes":null,"is_interchange":false,"station_role":"normal"},"geometry":{"type":"Point","coordinates":[13.640601100000001,50.48784275]},"__memberLines":{}},{"type":"Feature","properties":{"station_id":"n418118279","station_name":"Velebudická","station_name_local":"Velebudická","station_name_en":"Velebudická","city":"Most","country":"Czechia","lines":["1","2"],"wikipedia":null,"merged_from":2,"merged_names":null,"is_terminus":true,"routes":[{"ref":"1","name":"Tram 1","route_color":null},{"ref":"2","name":"Tram 2","route_color":null}],"pass_count":2,"station_degree":1,"codes":null,"is_interchange":false,"station_role":"terminus"},"geometry":{"type":"Point","coordinates":[13.650665499999999,50.48659155]},"__memberLines":{}},{"type":"Feature","properties":{"station_id":"n418118348","station_name":"Sportovní hala","station_name_local":"Sportovní hala","station_name_en":null,"city":"Most","country":"Czechia","lines":["1","2","4"],"wikipedia":null,"merged_from":2,"merged_names":null,"is_terminus":false,"routes":[{"ref":"1","name":"Tram 1","route_color":null},{"ref":"2","name":"Tram 2","route_color":null},{"ref":"4","name":"Tram 4","route_color":null}],"pass_count":3,"station_degree":2,"codes":null,"is_interchange":false,"station_role":"normal"},"geometry":{"type":"Point","coordinates":[13.64311915,50.510573449999995]},"__memberLines":{}},{"type":"Feature","properties":{"station_id":"n1842648845","station_name":"Litvínov, obchodní dům","station_name_local":"Litvínov, obchodní dům","station_name_en":null,"city":"Most","country":"Czechia","lines":["1","3","4"],"wikipedia":null,"merged_from":2,"merged_names":null,"is_terminus":false,"routes":[{"ref":"1","name":"Tram 1","route_color":null},{"ref":"3","name":"Tram 3","route_color":null},{"ref":"4","name":"Tram 4","route_color":null}],"pass_count":3,"station_degree":2,"codes":null,"is_interchange":false,"station_role":"normal"},"geometry":{"type":"Point","coordinates":[13.6130315,50.5977419]},"__memberLines":{}},{"type":"Feature","properties":{"station_id":"n1994334445","station_name":"Litvínov, poliklinika","station_name_local":"Litvínov, poliklinika","station_name_en":null,"city":"Most","country":"Czechia","lines":["1","3","4"],"wikipedia":null,"merged_from":2,"merged_names":null,"is_terminus":false,"routes":[{"ref":"1","name":"Tram 1","route_color":null},{"ref":"3","name":"Tram 3","route_color":null},{"ref":"4","name":"Tram 4","route_color":null}],"pass_count":3,"station_degree":2,"codes":null,"is_interchange":false,"station_role":"normal"},"geometry":{"type":"Point","coordinates":[13.6141203,50.601426399999994]},"__memberLines":{}},{"type":"Feature","properties":{"station_id":"n1994690931","station_name":"Záluží, Důl Julius IV","station_name_local":"Záluží, Důl Julius IV","station_name_en":null,"city":"Most","country":"Czechia","lines":["1","3","4"],"wikipedia":null,"merged_from":2,"merged_names":null,"is_terminus":false,"routes":[{"ref":"1","name":"Tram 1","route_color":null},{"ref":"3","name":"Tram 3","route_color":null},{"ref":"4","name":"Tram 4","route_color":null}],"pass_count":3,"station_degree":2,"codes":null,"is_interchange":false,"station_role":"normal"},"geometry":{"type":"Point","coordinates":[13.6108875,50.5484489]},"__memberLines":{}},{"type":"Feature","properties":{"station_id":"n2089341849","station_name":"Chomutovská","station_name_local":"Chomutovská","station_name_en":null,"city":"Most","country":"Czechia","lines":["3"],"wikipedia":null,"merged_from":2,"merged_names":null,"is_terminus":false,"routes":[{"ref":"3","name":"Tram 3","route_color":null}],"pass_count":1,"station_degree":2,"codes":null,"is_interchange":false,"station_role":"normal"},"geometry":{"type":"Point","coordinates":[13.645483200000001,50.51502615]},"__memberLines":{}},{"type":"Feature","properties":{"station_id":"n2089425373","station_name":"Litvínov, stadion","station_name_local":"Litvínov, stadion","station_name_en":null,"city":"Most","country":"Czechia","lines":["1","3","4"],"wikipedia":null,"merged_from":2,"merged_names":null,"is_terminus":false,"routes":[{"ref":"1","name":"Tram 1","route_color":null},{"ref":"3","name":"Tram 3","route_color":null},{"ref":"4","name":"Tram 4","route_color":null}],"pass_count":3,"station_degree":2,"codes":null,"is_interchange":false,"station_role":"normal"},"geometry":{"type":"Point","coordinates":[13.62260345,50.604012299999994]},"__memberLines":{}},{"type":"Feature","properties":{"station_id":"n2089425507","station_name":"Litvínov, Citadela","station_name_local":"Litvínov, Citadela","station_name_en":null,"city":"Most","country":"Czechia","lines":["1","3","4"],"wikipedia":null,"is_terminus":true,"routes":[{"ref":"1","name":"Tram 1","route_color":null},{"ref":"3","name":"Tram 3","route_color":null},{"ref":"4","name":"Tram 4","route_color":null}],"pass_count":3,"station_degree":1,"codes":null,"merged_from":null,"merged_names":null,"is_interchange":false,"station_role":"terminus"},"geometry":{"type":"Point","coordinates":[13.6267752,50.6079801]},"__memberLines":{}},{"type":"Feature","properties":{"station_id":"n2569754722","station_name":"Československé mládeže","station_name_local":"Československé mládeže","station_name_en":null,"city":"Most","country":"Czechia","lines":["1","2","4"],"wikipedia":null,"merged_from":2,"merged_names":null,"is_terminus":false,"routes":[{"ref":"1","name":"Tram 1","route_color":null},{"ref":"2","name":"Tram 2","route_color":null},{"ref":"4","name":"Tram 4","route_color":null}],"pass_count":3,"station_degree":2,"codes":null,"is_interchange":false,"station_role":"normal"},"geometry":{"type":"Point","coordinates":[13.63565755,50.495551649999996]},"__memberLines":{}},{"type":"Feature","properties":{"station_id":"n3283661176","station_name":"Záluží, areál Hlubina","station_name_local":"Záluží, areál Hlubina","station_name_en":null,"city":"Most","country":"Czechia","lines":["1","3","4"],"wikipedia":null,"merged_from":2,"merged_names":null,"is_terminus":false,"routes":[{"ref":"1","name":"Tram 1","route_color":null},{"ref":"3","name":"Tram 3","route_color":null},{"ref":"4","name":"Tram 4","route_color":null}],"pass_count":3,"station_degree":2,"codes":null,"is_interchange":false,"station_role":"normal"},"geometry":{"type":"Point","coordinates":[13.6018965,50.5771316]},"__memberLines":{}},{"type":"Feature","properties":{"station_id":"n4079925896","station_name":"Litvínov, Báňské stavby","station_name_local":"Litvínov, Báňské stavby","station_name_en":null,"city":"Most","country":"Czechia","lines":["1","3","4"],"wikipedia":null,"merged_from":2,"merged_names":null,"is_terminus":false,"routes":[{"ref":"1","name":"Tram 1","route_color":null},{"ref":"3","name":"Tram 3","route_color":null},{"ref":"4","name":"Tram 4","route_color":null}],"pass_count":3,"station_degree":2,"codes":null,"is_interchange":false,"station_role":"normal"},"geometry":{"type":"Point","coordinates":[13.60395815,50.58857665]},"__memberLines":{}},{"type":"Feature","properties":{"station_id":"n4079925898","station_name":"Litvínov, Technické služby","station_name_local":"Litvínov, Technické služby","station_name_en":null,"city":"Most","country":"Czechia","lines":["1","3","4"],"wikipedia":null,"merged_from":2,"merged_names":null,"is_terminus":false,"routes":[{"ref":"1","name":"Tram 1","route_color":null},{"ref":"3","name":"Tram 3","route_color":null},{"ref":"4","name":"Tram 4","route_color":null}],"pass_count":3,"station_degree":2,"codes":null,"is_interchange":false,"station_role":"normal"},"geometry":{"type":"Point","coordinates":[13.61845035,50.60326085]},"__memberLines":{}},{"type":"Feature","properties":{"station_id":"n4079925901","station_name":"Rozcestí Kopisty","station_name_local":"Rozcestí Kopisty","station_name_en":null,"city":"Most","country":"Czechia","lines":["1","3","4"],"wikipedia":null,"merged_from":2,"merged_names":null,"is_terminus":false,"routes":[{"ref":"1","name":"Tram 1","route_color":null},{"ref":"3","name":"Tram 3","route_color":null},{"ref":"4","name":"Tram 4","route_color":null}],"pass_count":3,"station_degree":2,"codes":null,"is_interchange":false,"station_role":"normal"},"geometry":{"type":"Point","coordinates":[13.618255000000001,50.542477149999996]},"__memberLines":{}},{"type":"Feature","properties":{"station_id":"n4079925903","station_name":"Souš","station_name_local":"Souš","station_name_en":null,"city":"Most","country":"Czechia","lines":["1","3","4"],"wikipedia":null,"merged_from":2,"merged_names":null,"is_terminus":false,"routes":[{"ref":"1","name":"Tram 1","route_color":null},{"ref":"3","name":"Tram 3","route_color":null},{"ref":"4","name":"Tram 4","route_color":null}],"pass_count":3,"station_degree":3,"codes":null,"is_interchange":true,"station_role":"interchange"},"geometry":{"type":"Point","coordinates":[13.6302087,50.5254142]},"__memberLines":{}},{"type":"Feature","properties":{"station_id":"n639297139","station_name":"Litvínov, U Dílen","station_name_local":"Litvínov, U Dílen","station_name_en":null,"city":"Most","country":"Czechia","lines":["1","3","4"],"wikipedia":null,"merged_from":2,"merged_names":null,"is_terminus":false,"routes":[{"ref":"1","name":"Tram 1","route_color":null},{"ref":"3","name":"Tram 3","route_color":null},{"ref":"4","name":"Tram 4","route_color":null}],"pass_count":3,"station_degree":2,"codes":null,"is_interchange":false,"station_role":"normal"},"geometry":{"type":"Point","coordinates":[13.6262472,50.60482065]},"__memberLines":{}}]}