{"type":"FeatureCollection","features":[{"type":"Feature","properties":{"way_id":1330508166,"route_colors":[],"route_refs":["16","18","1"]},"geometry":{"type":"LineString","coordinates":[[56.0068601,54.7190527],[56.0069586,54.7189977],[56.0070975,54.7189046],[56.0071614,54.7187659],[56.0071205,54.7186257]]}},{"type":"Feature","properties":{"way_id":290251212,"route_colors":[],"route_refs":["16","18","1"]},"geometry":{"type":"LineString","coordinates":[[56.0071205,54.7186257],[56.0070022,54.7185307],[56.003501,54.7160459],[56.0030148,54.7157271],[56.0029291,54.7156709],[56.0029034,54.7156547],[56.0027494,54.715573],[56.0025138,54.7154715],[56.0022418,54.7153749],[55.9983242,54.7139468],[55.9980167,54.7138431],[55.9970672,54.7135228],[55.9967365,54.7134112]]}},{"type":"Feature","properties":{"way_id":95496986,"route_colors":[],"route_refs":["16","18","1"]},"geometry":{"type":"LineString","coordinates":[[55.9967365,54.7134112],[55.9931896,54.7125288],[55.9896456,54.7116472],[55.988969,54.7115277],[55.9881274,54.711379],[55.9879628,54.7113659],[55.9877199,54.7113465],[55.9856896,54.7112099],[55.9851863,54.7111709],[55.9849505,54.7111544],[55.9846692,54.7111347],[55.9839124,54.7110816],[55.9836724,54.7110768],[55.9835088,54.7110735],[55.9830255,54.7111697],[55.9826641,54.7113893],[55.9824996,54.7115494],[55.9823633,54.7117417],[55.9820749,54.7120408],[55.9815353,54.7126668],[55.9813969,54.7127389],[55.9812665,54.7128069],[55.9785684,54.7137521],[55.9783049,54.7138458],[55.9767181,54.7144094],[55.9755732,54.714816],[55.9751558,54.7149743],[55.9735797,54.7154922],[55.9727166,54.7158295],[55.9723551,54.7160843],[55.9721716,54.7162244],[55.9719046,54.7164487],[55.9713524,54.717532],[55.9711775,54.7179658],[55.9711214,54.7180207],[55.971077,54.7180567],[55.9709925,54.7180842],[55.9709001,54.718087],[55.9706605,54.7180658],[55.9703406,54.718001],[55.9700493,54.717961],[55.9698738,54.7179369],[55.9697222,54.7179105],[55.969605,54.7178957],[55.9695341,54.7178906],[55.9694624,54.7178943],[55.9693817,54.7179059],[55.9693022,54.7179303],[55.9692348,54.7179643],[55.9691837,54.7179928],[55.9691362,54.7180352],[55.9690913,54.7180994],[55.9690058,54.718208],[55.968918,54.7183994],[55.9688849,54.7184587],[55.9688492,54.7185228]]}},{"type":"Feature","properties":{"way_id":95496990,"route_colors":[],"route_refs":["16","18","1"]},"geometry":{"type":"LineString","coordinates":[[55.9688492,54.7185228],[55.9685063,54.71914]]}},{"type":"Feature","properties":{"way_id":129835803,"route_colors":[],"route_refs":["16","18","1"]},"geometry":{"type":"LineString","coordinates":[[55.9685063,54.71914],[55.9684442,54.7192734],[55.9683383,54.7194805],[55.9670513,54.7219974],[55.9670036,54.7220847],[55.9664353,54.7231261],[55.9659568,54.7240673],[55.9659304,54.7241224],[55.9659385,54.7242147],[55.9666519,54.7257245],[55.9667191,54.7258645],[55.9667756,54.7259864],[55.9677145,54.7280104],[55.9677909,54.728175],[55.9679978,54.7286137],[55.9689036,54.7305299],[55.9689371,54.7306008],[55.9689619,54.7306531],[55.9690004,54.7307357],[55.9699045,54.7326314],[55.9699196,54.7326632]]}},{"type":"Feature","properties":{"way_id":31959846,"route_colors":[],"route_refs":["16"]},"geometry":{"type":"LineString","coordinates":[[55.9699196,54.7326632],[55.9699111,54.7327152],[55.9699114,54.7327685],[55.9699004,54.7328015],[55.9698931,54.7328159],[55.9698657,54.7328693],[55.969814,54.7329114],[55.9696859,54.7329613],[55.9696704,54.7329672],[55.9696133,54.7329967]]}},{"type":"Feature","properties":{"way_id":1027611350,"route_colors":[],"route_refs":["16","5"]},"geometry":{"type":"LineString","coordinates":[[55.9696133,54.7329967],[55.9688493,54.7331172],[55.9676241,54.7333121],[55.9641498,54.7338603],[55.9640229,54.7338819],[55.9638041,54.7339162],[55.9621654,54.7341751],[55.9618004,54.7342351],[55.9599625,54.7345308],[55.9597206,54.734569],[55.9594894,54.7346075],[55.958766,54.7347281],[55.957988,54.7348492],[55.9576729,54.7349096],[55.9524982,54.7357239],[55.9521566,54.7357775],[55.9518146,54.7358262],[55.9508492,54.7359756],[55.9492433,54.7362172],[55.9490543,54.736253],[55.9489011,54.7362791],[55.9466214,54.736664],[55.9463371,54.7367113],[55.9461081,54.7367945],[55.9460764,54.7368047],[55.9459371,54.7368334],[55.94308,54.7372526],[55.9420507,54.7374144],[55.9414096,54.7375148],[55.9410207,54.7375756],[55.9408937,54.7375955],[55.9405845,54.737647],[55.9405208,54.7376525],[55.940365,54.7376641],[55.9402598,54.7376537],[55.9401738,54.7376358],[55.9400731,54.7376015],[55.940023,54.7375787],[55.9399345,54.7375053],[55.9398961,54.7374621],[55.9398663,54.7374285],[55.9398531,54.7374111],[55.9389334,54.7353398],[55.9388906,54.7352739],[55.9379545,54.7331453],[55.937931,54.7330823],[55.9378749,54.7329844],[55.9378124,54.7328527],[55.937224,54.7315932],[55.9367724,54.7306383],[55.9367091,54.7304942],[55.9366492,54.730377],[55.9356361,54.7282572],[55.9355901,54.7281711],[55.9355535,54.7280824],[55.935507,54.7279798],[55.9347656,54.7264114],[55.9347272,54.7263606]]}},{"type":"Feature","properties":{"way_id":1183838369,"route_colors":[],"route_refs":["16","5"]},"geometry":{"type":"LineString","coordinates":[[55.9347272,54.7263606],[55.9346014,54.7263178],[55.9344713,54.7263287],[55.9344188,54.7263315],[55.9338394,54.7264216],[55.9336072,54.7264577],[55.9328376,54.7265774],[55.9319292,54.7267207],[55.931674,54.7267588],[55.9303317,54.7269674],[55.9292333,54.7271415]]}},{"type":"Feature","properties":{"way_id":1027611349,"route_colors":[],"route_refs":["16","5"]},"geometry":{"type":"LineString","coordinates":[[55.9292333,54.7271415],[55.929028,54.7271739],[55.9288456,54.7272007],[55.9285679,54.7272433],[55.9283136,54.7272832],[55.9256303,54.7277052],[55.9254809,54.727714],[55.9253467,54.7276941],[55.9251965,54.7276337],[55.9251322,54.7275609],[55.9250113,54.7273282]]}},{"type":"Feature","properties":{"way_id":1330508164,"route_colors":[],"route_refs":["16","5"]},"geometry":{"type":"LineString","coordinates":[[55.9250113,54.7273282],[55.9248804,54.7272269],[55.9248298,54.7272065],[55.9247911,54.7271909],[55.9243402,54.7270617]]}},{"type":"Feature","properties":{"way_id":1183863393,"route_colors":[],"route_refs":["16","5"]},"geometry":{"type":"LineString","coordinates":[[55.9248923,54.7270657],[55.9252104,54.7275567],[55.9252663,54.727622],[55.9253679,54.7276552],[55.9254935,54.727675],[55.925677,54.7276708],[55.9283052,54.7272649],[55.9283944,54.7272509],[55.9285577,54.7272254],[55.9288363,54.7271834],[55.9290227,54.7271567],[55.9303243,54.7269486],[55.9316701,54.7267499],[55.9319247,54.7267111],[55.9328343,54.7265701],[55.9342949,54.7263393],[55.9344122,54.7263207],[55.934466,54.7263169],[55.9345965,54.7263064],[55.9347251,54.7263408]]}},{"type":"Feature","properties":{"way_id":1183863392,"route_colors":[],"route_refs":["16","5"]},"geometry":{"type":"LineString","coordinates":[[55.9347251,54.7263408],[55.9347984,54.7264056],[55.9354836,54.7278477],[55.935548,54.7279736],[55.9355878,54.7280764],[55.9356271,54.728164],[55.9366967,54.73037],[55.9367487,54.7304876],[55.9368278,54.7306293],[55.9372706,54.7315854],[55.9378147,54.7327459],[55.9378654,54.7328432],[55.9379225,54.7329754],[55.9379788,54.7330696],[55.9389445,54.7352657],[55.9389755,54.7353332],[55.939893,54.7374058],[55.9399065,54.7374203],[55.9399437,54.7374563],[55.9399663,54.7374782],[55.9400519,54.7375631],[55.9400599,54.7375691],[55.9401943,54.7376151],[55.940395,54.7376444],[55.940585,54.7376259],[55.9408854,54.7375757],[55.9411825,54.7375297],[55.9430732,54.7372373],[55.9449082,54.7369621],[55.9459247,54.7368097],[55.9460143,54.7367897],[55.9460889,54.7367656],[55.9463229,54.7366848]]}},{"type":"Feature","properties":{"way_id":1183863389,"route_colors":[],"route_refs":["16","5"]},"geometry":{"type":"LineString","coordinates":[[55.9463229,54.7366848],[55.9488853,54.7362553],[55.9490388,54.7362294],[55.9492326,54.7361924],[55.9513662,54.7358692],[55.9518035,54.7358027],[55.9521406,54.7357494],[55.9524811,54.7356975],[55.9576602,54.7348804],[55.9579754,54.7348244],[55.9587251,54.7347088],[55.9594773,54.7345828],[55.9596643,54.7345515],[55.9599502,54.7345062],[55.9617892,54.7342144],[55.9621554,54.7341563],[55.9637948,54.7338976],[55.9640144,54.7338636],[55.9641512,54.7338391],[55.9663273,54.7334959],[55.9687201,54.7331211],[55.9696114,54.7329713]]}},{"type":"Feature","properties":{"way_id":1183863390,"route_colors":[],"route_refs":["16"]},"geometry":{"type":"LineString","coordinates":[[55.9696114,54.7329713],[55.9696786,54.7329504],[55.9697874,54.73291],[55.9698386,54.7328634],[55.9698564,54.7328261],[55.9698679,54.7328041],[55.9698756,54.7327869],[55.9698866,54.7327627],[55.9698888,54.7326718]]}},{"type":"Feature","properties":{"way_id":1183863387,"route_colors":[],"route_refs":["16","18","1"]},"geometry":{"type":"LineString","coordinates":[[55.9698888,54.7326718],[55.9690571,54.730904],[55.9689796,54.7307392],[55.9689405,54.7306563],[55.9688829,54.7305358],[55.9679814,54.7286165],[55.967848,54.7283333],[55.967775,54.7281783],[55.9667208,54.7259364],[55.9666895,54.7258697],[55.9666233,54.7257291],[55.9659092,54.7242106]]}},{"type":"Feature","properties":{"way_id":1192465242,"route_colors":[],"route_refs":["16","18","1"]},"geometry":{"type":"LineString","coordinates":[[55.9659092,54.7242106],[55.9659031,54.7241217],[55.9659315,54.7240633],[55.9660821,54.7237674],[55.9662808,54.7233735],[55.9664277,54.7230857],[55.9666597,54.7226626],[55.9668428,54.7223287],[55.9668928,54.7222376],[55.966948,54.7221326],[55.9669759,54.7220797],[55.9670662,54.721908],[55.9672361,54.7215731],[55.9674037,54.7212428],[55.967592,54.720886],[55.9677206,54.7206247],[55.9679055,54.7202626],[55.9681581,54.7197745],[55.968216,54.7196542],[55.9684029,54.719266],[55.9684681,54.7191308]]}},{"type":"Feature","properties":{"way_id":1192465243,"route_colors":[],"route_refs":["16","18","1"]},"geometry":{"type":"LineString","coordinates":[[55.9684681,54.7191308],[55.9687147,54.7186871],[55.9688057,54.7185108]]}},{"type":"Feature","properties":{"way_id":1183863391,"route_colors":[],"route_refs":["16","18","1"]},"geometry":{"type":"LineString","coordinates":[[55.9688057,54.7185108],[55.9688388,54.7184535],[55.9688741,54.7183924],[55.9689634,54.7182096],[55.9689861,54.7181776],[55.9690867,54.7180356],[55.9691595,54.7179609],[55.9692464,54.717913],[55.9693555,54.7178745],[55.9694708,54.717864],[55.9696001,54.7178733],[55.970241,54.7179504],[55.9703845,54.7179743],[55.9706883,54.7180251],[55.9708353,54.7180496],[55.9709202,54.7180473],[55.9710415,54.7180262],[55.9711102,54.7179772],[55.9711506,54.7179282],[55.9712416,54.7177063],[55.9713028,54.7175251],[55.9715185,54.7170921],[55.9718692,54.7164416],[55.9719107,54.7163997],[55.9722827,54.7160891],[55.9726566,54.7158206],[55.9727355,54.7157797],[55.9735421,54.7154726],[55.9741323,54.7152846],[55.9748156,54.7150616],[55.97523,54.7149156],[55.9761498,54.714584],[55.9769966,54.714283],[55.9770271,54.7142722],[55.9777144,54.7140281],[55.9782803,54.7138203],[55.9789718,54.7135809],[55.9800735,54.7131944],[55.981246,54.7127845],[55.9814211,54.7126968],[55.9815189,54.7126479],[55.9818767,54.7122333],[55.9823457,54.711723],[55.982473,54.7115279],[55.9826428,54.7113645],[55.9828231,54.7112615],[55.9830107,54.7111542],[55.9834373,54.7110597],[55.9835606,54.7110468],[55.9844905,54.7111075],[55.9846724,54.7111213],[55.9848181,54.7111323],[55.9854163,54.7111776],[55.9872336,54.7113002],[55.9880365,54.7113589],[55.9881615,54.711368],[55.9889734,54.7115087],[55.989656,54.7116307],[55.9924006,54.7123069],[55.9932057,54.7125075],[55.9940501,54.7127179],[55.9948345,54.7129176],[55.9967704,54.7133914],[55.9970898,54.713502],[55.9981241,54.7138602],[55.998461,54.7139768],[56.0002662,54.7146283],[56.0019764,54.7152507],[56.0022568,54.7153469],[56.0025514,54.7154571],[56.0027737,54.7155561],[56.0029287,54.7156449],[56.0030416,54.7157147],[56.0030599,54.715726],[56.0041899,54.7165072],[56.0051441,54.7171856],[56.0061144,54.7178546],[56.0070662,54.718533],[56.0071979,54.7186311],[56.0073087,54.7187248],[56.0074693,54.7188606]]}},{"type":"Feature","properties":{"way_id":1330508167,"route_colors":[],"route_refs":["16","18","1"]},"geometry":{"type":"LineString","coordinates":[[56.0074693,54.7188606],[56.0075034,54.7190013],[56.0075473,54.7191827],[56.0075609,54.7192516],[56.007519,54.7193687]]}},{"type":"Feature","properties":{"way_id":863346184,"route_colors":[],"route_refs":["18","5","10"]},"geometry":{"type":"LineString","coordinates":[[56.0175432,54.7667864],[56.0177298,54.7667029],[56.0179004,54.7666969],[56.0180159,54.7667085],[56.0181564,54.7667989],[56.0181637,54.7669113],[56.0181245,54.7669989],[56.0180312,54.7670364],[56.017803,54.7670827],[56.0176085,54.7670549],[56.0172835,54.7670095],[56.0171762,54.7670048],[56.0171079,54.7670153],[56.0170608,54.7670301],[56.0170339,54.7670416],[56.0166675,54.7672001],[56.0158383,54.7675589],[56.0156958,54.7676197],[56.0156597,54.7676354],[56.0151879,54.7678366],[56.0150315,54.7678867],[56.0148495,54.7679086],[56.0146225,54.7679019],[56.0144182,54.767856],[56.0123836,54.7673294],[56.0108126,54.7669126],[56.0097969,54.7666432],[56.0095666,54.7665829],[56.0094786,54.7665588],[56.0093391,54.7664475],[56.0092004,54.7663403],[56.0066652,54.7643699],[56.0065657,54.7643002],[56.0065332,54.7642726],[56.0055842,54.7634628],[56.0055572,54.7634415],[56.0054566,54.7633842],[56.0053504,54.7633473],[56.0052501,54.7633405],[56.0050407,54.7633767],[56.0045642,54.7635643],[56.0038602,54.7638493],[56.003475,54.7639877],[56.0031863,54.7639859],[56.0030421,54.7638943],[56.0029906,54.7638617],[56.0029813,54.7638543],[56.0029171,54.7638033],[56.0027852,54.7636989],[55.9997921,54.7613311],[55.9977295,54.7597034],[55.9972034,54.7593007],[55.9969898,54.7591326],[55.9967268,54.7589255],[55.9934048,54.7563317],[55.9916846,54.7549944],[55.9915439,54.754885],[55.9899564,54.7536017],[55.9887309,54.7526109],[55.9886224,54.752523],[55.9884874,54.752413],[55.9884073,54.7523473],[55.9874312,54.7515327],[55.9868833,54.751076],[55.98623,54.75054],[55.9861933,54.7505117],[55.9857289,54.7501527],[55.9855363,54.7500044],[55.9854377,54.7499275],[55.9853074,54.7498219],[55.9851271,54.7496742],[55.9850939,54.7496478],[55.9841185,54.748872],[55.9828108,54.747832],[55.9820246,54.747194],[55.9819434,54.7471285],[55.9818351,54.7470403],[55.9816143,54.7469681],[55.9815598,54.7469511],[55.981497,54.7469323],[55.9814483,54.7469167],[55.9775445,54.7459169],[55.977176,54.7458106],[55.9770273,54.7457248],[55.9769911,54.7456706],[55.9769672,54.745635],[55.9768136,54.7454049],[55.9767808,54.7453304],[55.9765251,54.74478],[55.9764685,54.7446587],[55.9759512,54.7436075],[55.9756469,54.742989],[55.9753119,54.7423082],[55.9751256,54.7419296],[55.9749231,54.7415181],[55.974882,54.7414557],[55.9748614,54.7414245],[55.9748387,54.74139],[55.9747514,54.7412575],[55.97423,54.7404964],[55.9736636,54.7397144],[55.9734301,54.7393759]]}},{"type":"Feature","properties":{"way_id":1056579731,"route_colors":[],"route_refs":["18","5"]},"geometry":{"type":"LineString","coordinates":[[55.9734301,54.7393759],[55.9734193,54.7393606],[55.9733513,54.7392529],[55.9732909,54.7391505],[55.9732334,54.7390551],[55.9731717,54.7389468],[55.9731137,54.7388592]]}},{"type":"Feature","properties":{"way_id":1056579733,"route_colors":[],"route_refs":["18","1","5"]},"geometry":{"type":"LineString","coordinates":[[55.9731137,54.7388592],[55.972971,54.7386607],[55.9728293,54.7384651],[55.9727493,54.7383517],[55.9725748,54.7381046],[55.9721463,54.7375228],[55.9721276,54.7374935],[55.9720305,54.7373094],[55.9718424,54.7369006]]}},{"type":"Feature","properties":{"way_id":1183863385,"route_colors":[],"route_refs":["18","1","5"]},"geometry":{"type":"LineString","coordinates":[[55.9718424,54.7369006],[55.9717637,54.7367244],[55.9710787,54.735241],[55.9709514,54.7349653],[55.9707853,54.7346056],[55.9704818,54.7339484],[55.9700871,54.7330937]]}},{"type":"Feature","properties":{"way_id":1330508162,"route_colors":[],"route_refs":["18","1"]},"geometry":{"type":"LineString","coordinates":[[55.9700871,54.7330937],[55.9700746,54.7330671],[55.9700598,54.7330356],[55.9700484,54.7330094],[55.9700181,54.7329451],[55.9700118,54.7329342],[55.9699919,54.7328888],[55.9699453,54.7327973],[55.9699111,54.7327152],[55.9698888,54.7326718]]}},{"type":"Feature","properties":{"way_id":31959923,"route_colors":[],"route_refs":["18","1"]},"geometry":{"type":"LineString","coordinates":[[55.9699196,54.7326632],[55.9699739,54.7327947],[55.9700329,54.7329154],[55.9700441,54.7329376],[55.9700577,54.7329627],[55.9701109,54.7330612],[55.9701234,54.7330844]]}},{"type":"Feature","properties":{"way_id":1056579734,"route_colors":[],"route_refs":["18","1","5"]},"geometry":{"type":"LineString","coordinates":[[55.9701234,54.7330844],[55.9705208,54.7339425],[55.9708217,54.7345924],[55.9710972,54.7351874],[55.9711193,54.7352351],[55.9718055,54.7367173],[55.9718911,54.7368935],[55.9720962,54.7373197],[55.972193,54.7375036],[55.9726218,54.7380936],[55.9728458,54.7384049],[55.9728799,54.7384523],[55.9730176,54.7386433],[55.9730723,54.7387194],[55.9731641,54.7388473],[55.9732249,54.7389357],[55.9732445,54.7389696]]}},{"type":"Feature","properties":{"way_id":1056579732,"route_colors":[],"route_refs":["18","5"]},"geometry":{"type":"LineString","coordinates":[[55.9732445,54.7389696],[55.9733634,54.7391792]]}},{"type":"Feature","properties":{"way_id":1056580512,"route_colors":[],"route_refs":["18","5","10"]},"geometry":{"type":"LineString","coordinates":[[55.9733634,54.7391792],[55.9734042,54.739251],[55.9734696,54.7393481]]}},{"type":"Feature","properties":{"way_id":26396177,"route_colors":[],"route_refs":["18","5","10"]},"geometry":{"type":"LineString","coordinates":[[55.9734696,54.7393481],[55.973714,54.7397025],[55.9737665,54.739775],[55.9742207,54.7404021],[55.9742804,54.7404846],[55.9747693,54.741198],[55.9748007,54.7412438],[55.974879,54.741363],[55.9749127,54.7414138],[55.9749749,54.7415082],[55.9751751,54.7419198],[55.9753596,54.7422993],[55.9756914,54.7429813],[55.9759922,54.7435997],[55.976443,54.7445267],[55.9765039,54.7446518],[55.9765591,54.7447671],[55.9768277,54.7453175],[55.9768653,54.745395],[55.9770177,54.7456231],[55.977074,54.7457073],[55.9772083,54.7457848],[55.9775677,54.7458885],[55.9813422,54.7468552],[55.9814571,54.7468846],[55.9815224,54.7469045],[55.9816405,54.7469405],[55.9818725,54.7470164],[55.9819909,54.7471134],[55.982855,54.7478137],[55.9841621,54.7488532],[55.9851397,54.7496307],[55.9851714,54.7496559],[55.9853551,54.7498045],[55.9855798,54.7499862],[55.986275,54.75054],[55.9868662,54.7510196],[55.9869208,54.7510639],[55.9874703,54.7515209],[55.9884519,54.7523292],[55.9885321,54.752395],[55.9886668,54.7525048],[55.988774,54.7525917],[55.9900017,54.7535845],[55.9913423,54.7546687],[55.9915873,54.7548668],[55.9934508,54.7563137],[55.9965034,54.7586864],[55.9967702,54.7589069],[55.9970353,54.759115],[55.9972479,54.7592819],[55.9998224,54.7613018],[56.0028266,54.7636783],[56.0029615,54.763785],[56.0030329,54.7638419],[56.0030862,54.7638757],[56.0032106,54.7639546],[56.00346,54.7639562],[56.0038099,54.763833],[56.0045487,54.7635354],[56.0050168,54.763348],[56.0052453,54.7633085],[56.0053684,54.7633169],[56.0054902,54.7633592],[56.0055993,54.7634213],[56.0066094,54.7642814],[56.0067081,54.7643505],[56.009248,54.7663272],[56.0094066,54.7664501],[56.009514,54.7665336],[56.009623,54.7665631],[56.0097264,54.7665899],[56.0109374,54.7669112],[56.0124061,54.7673008],[56.0144392,54.767827],[56.0146341,54.7678708],[56.0148453,54.767877],[56.0150123,54.7678569],[56.0151583,54.7678101],[56.0156608,54.7675944],[56.0158059,54.7675336],[56.0165859,54.7672006],[56.0166405,54.7671764],[56.0170004,54.7670168],[56.0175432,54.7667864]]}},{"type":"Feature","properties":{"way_id":1056579735,"route_colors":[],"route_refs":["1","10"]},"geometry":{"type":"LineString","coordinates":[[55.949393,54.7474969],[55.9496995,54.7476065],[55.9498992,54.7476859],[55.9500825,54.747744],[55.9502376,54.7477797],[55.9505234,54.7478352],[55.9507631,54.7478544],[55.9515873,54.7478602],[55.9522571,54.7478639],[55.952429,54.7478699],[55.9526752,54.7479071]]}},{"type":"Feature","properties":{"way_id":92967065,"route_colors":[],"route_refs":["1","10"]},"geometry":{"type":"LineString","coordinates":[[55.9526752,54.7479071],[55.9529537,54.7479654],[55.9532892,54.7480467],[55.9535154,54.7481186],[55.953735,54.7481991]]}},{"type":"Feature","properties":{"way_id":118673011,"route_colors":[],"route_refs":["1","10"]},"geometry":{"type":"LineString","coordinates":[[55.953735,54.7481991],[55.9540442,54.7483245],[55.9542288,54.7483972],[55.9546673,54.7485497],[55.9552923,54.7487432],[55.9559306,54.7489182],[55.9563598,54.7490002],[55.9573469,54.7491303],[55.9583152,54.7492424],[55.9584723,54.7492567],[55.9588006,54.7492649],[55.9591681,54.749234],[55.9594846,54.7491575],[55.9595684,54.7491252],[55.9600041,54.7489363],[55.9602231,54.7487994],[55.9603503,54.7486539],[55.9603807,54.7486117],[55.9604312,54.7485243],[55.9603965,54.7484197],[55.9599999,54.7477964],[55.959805,54.7474901],[55.959377,54.7468354],[55.9592419,54.7466324],[55.9585013,54.7455142],[55.9582991,54.7452089],[55.9578821,54.7445582],[55.95786,54.7445245],[55.95768,54.7442514],[55.9572734,54.7436532],[55.9570067,54.7432373],[55.9568191,54.7429447],[55.9567998,54.7429042],[55.956795,54.7428536],[55.9568057,54.7427966],[55.956815,54.7427742],[55.9568305,54.7427413],[55.956856,54.7427192],[55.9569025,54.742678],[55.9569727,54.7426403],[55.9570562,54.7426122],[55.95854,54.7422866],[55.9587327,54.7422441],[55.9607885,54.7417909],[55.9610912,54.7417285],[55.9614372,54.74165],[55.9665564,54.7404852],[55.966838,54.7404178],[55.9669844,54.7403855],[55.9670742,54.7403654],[55.9672313,54.7403309],[55.9728958,54.7390874]]}},{"type":"Feature","properties":{"way_id":861110528,"route_colors":[],"route_refs":["1"]},"geometry":{"type":"LineString","coordinates":[[55.9728958,54.7390874],[55.9729519,54.739073],[55.9729733,54.7390645],[55.9730026,54.7390529],[55.973046,54.7390278],[55.9730807,54.7389985],[55.9731042,54.7389699],[55.9731199,54.7389306],[55.9731226,54.7388947],[55.9731137,54.7388592]]}},{"type":"Feature","properties":{"way_id":861110526,"route_colors":[],"route_refs":["1"]},"geometry":{"type":"LineString","coordinates":[[55.9732445,54.7389696],[55.9732437,54.7390126],[55.9732334,54.7390551],[55.9732138,54.7390966],[55.9731962,54.7391232],[55.9731853,54.7391363],[55.9731493,54.7391727],[55.9730893,54.7392205],[55.9730554,54.7392363],[55.972999,54.7392626]]}},{"type":"Feature","properties":{"way_id":618754877,"route_colors":[],"route_refs":["1","10"]},"geometry":{"type":"LineString","coordinates":[[55.972999,54.7392626],[55.9670528,54.7405538],[55.9669326,54.7405812],[55.9666411,54.7406513],[55.966085,54.7407725],[55.961526,54.7418016],[55.9611811,54.7418776],[55.9608873,54.7419377],[55.9587248,54.7424347],[55.9569977,54.742825],[55.9569717,54.7428363],[55.9569526,54.7428485],[55.9569341,54.7428638],[55.956921,54.7428793],[55.9569133,54.7428934],[55.9569103,54.7429089],[55.9569101,54.7429264],[55.956914,54.7429416],[55.9570741,54.7432143],[55.957325,54.7436415],[55.9577206,54.7442435],[55.9579017,54.7445159],[55.9579242,54.7445497],[55.9583459,54.7452003],[55.9592845,54.7466244],[55.9594183,54.7468272],[55.9597703,54.7473652],[55.9598472,54.7474828],[55.960044,54.747788],[55.9604663,54.7484429],[55.9604864,54.7485327],[55.960474,54.7485921],[55.9604109,54.7486451],[55.9603539,54.7487397],[55.9602466,54.7488323],[55.9601046,54.7489273],[55.9599267,54.7490108],[55.959729,54.7490972],[55.9595312,54.7491754],[55.9594132,54.7492104],[55.9591838,54.7492585],[55.9588043,54.74929],[55.9584475,54.7492807],[55.9582829,54.749264],[55.956228,54.7490059],[55.9559175,54.7489416],[55.9553382,54.7487848],[55.9548259,54.7486405],[55.9543535,54.7484832],[55.9539932,54.7483375],[55.9537023,54.7482353]]}},{"type":"Feature","properties":{"way_id":618754876,"route_colors":[],"route_refs":["1","10"]},"geometry":{"type":"LineString","coordinates":[[55.9537023,54.7482353],[55.9535535,54.7481793],[55.9533378,54.7481059],[55.9531541,54.7480566],[55.9530458,54.7480287],[55.9527986,54.747975],[55.9526499,54.7479446]]}},{"type":"Feature","properties":{"way_id":1056579736,"route_colors":[],"route_refs":["1","10"]},"geometry":{"type":"LineString","coordinates":[[55.9526499,54.7479446],[55.9524763,54.7479193],[55.9521295,54.7478932],[55.9513617,54.7478917],[55.95074,54.7478871],[55.9504628,54.7478593],[55.9499688,54.7477553],[55.9497177,54.7476639],[55.9491391,54.7474426]]}},{"type":"Feature","properties":{"way_id":118612730,"route_colors":[],"route_refs":["5"]},"geometry":{"type":"LineString","coordinates":[[55.9700871,54.7330937],[55.9700629,54.7330693],[55.9700445,54.7330509],[55.9700034,54.7330253],[55.9699465,54.7330022]]}},{"type":"Feature","properties":{"way_id":1183863379,"route_colors":[],"route_refs":["5"]},"geometry":{"type":"LineString","coordinates":[[55.9699465,54.7330022],[55.9698612,54.7329871],[55.9697923,54.7329788],[55.9696958,54.7329787],[55.9696133,54.7329967]]}},{"type":"Feature","properties":{"way_id":1191779906,"route_colors":[],"route_refs":["5"]},"geometry":{"type":"LineString","coordinates":[[55.9696114,54.7329713],[55.9696704,54.7329672],[55.9696889,54.7329671],[55.9697966,54.7329678],[55.9698904,54.7329803],[55.9699579,54.7329904],[55.9700268,54.7330103],[55.9700459,54.7330217],[55.9700598,54.7330356],[55.9700964,54.7330637],[55.9701234,54.7330844]]}},{"type":"Feature","properties":{"way_id":861110525,"route_colors":[],"route_refs":["10"]},"geometry":{"type":"LineString","coordinates":[[55.9734301,54.7393759],[55.9734112,54.7393626],[55.9733878,54.7393442],[55.9733376,54.7393168],[55.9732805,54.7392943],[55.9732145,54.7392763],[55.9731659,54.739268],[55.9731223,54.7392623],[55.9730718,54.7392603],[55.972999,54.7392626]]}},{"type":"Feature","properties":{"way_id":861110527,"route_colors":[],"route_refs":["10"]},"geometry":{"type":"LineString","coordinates":[[55.9728958,54.7390874],[55.9729934,54.7390917],[55.9731102,54.7391053],[55.9731962,54.7391232],[55.9732909,54.7391505],[55.9733634,54.7391792]]}},{"type":"Feature","properties":{"way_id":371944055,"route_colors":[],"route_refs":["8"]},"geometry":{"type":"LineString","coordinates":[[56.0395763,54.7966046],[56.0395335,54.7965529],[56.0394721,54.7964566],[56.0394537,54.7964036],[56.0394597,54.7963424],[56.0394724,54.7963021],[56.0394891,54.7962716],[56.0395026,54.7962527],[56.0395393,54.7962056],[56.0396058,54.7961671],[56.0397038,54.7961277],[56.0397989,54.7961002],[56.0399274,54.7960785],[56.040058,54.7960749],[56.0413804,54.7961413],[56.043985,54.7962721],[56.0557886,54.7969459],[56.0563202,54.7969789],[56.0569516,54.7970164],[56.0580006,54.7970769],[56.0601691,54.797195],[56.0661833,54.7975382],[56.0667501,54.7975698],[56.067967,54.7976366],[56.0768511,54.7981119],[56.0770066,54.7981224],[56.077144,54.7981315],[56.0778701,54.798182],[56.0779755,54.7981877],[56.0869158,54.798681],[56.0924024,54.7989848],[56.0933028,54.7990383],[56.0958531,54.7991799],[56.1051804,54.799668],[56.1053428,54.7996799],[56.1060616,54.7996645],[56.108205,54.7994825],[56.1092157,54.7993712],[56.1106477,54.7992065],[56.1121554,54.7990434],[56.1144086,54.798811],[56.1151048,54.7987218],[56.1166849,54.7985702],[56.1210715,54.7982173],[56.1234426,54.7979884],[56.1259026,54.797794],[56.1261811,54.7977741],[56.1268865,54.7977163],[56.1298308,54.7974268],[56.1320096,54.7974026],[56.1368804,54.7974121],[56.1371375,54.797454],[56.1373209,54.7975133],[56.137915,54.7976857],[56.137943,54.7976938],[56.1381765,54.7977797],[56.1382833,54.7978191],[56.1383527,54.7978432],[56.1384748,54.7978857],[56.1386063,54.7979423],[56.1387074,54.7979874],[56.13876,54.7980245],[56.1388487,54.798115],[56.1389788,54.7984367]]}},{"type":"Feature","properties":{"way_id":1333256794,"route_colors":[],"route_refs":["8","6"]},"geometry":{"type":"LineString","coordinates":[[56.1389788,54.7984367],[56.1390405,54.7985892],[56.1391108,54.7987614],[56.1391413,54.7990891],[56.1389303,54.7996402],[56.1386602,54.8001137]]}},{"type":"Feature","properties":{"way_id":1180698370,"route_colors":[],"route_refs":["8","6"]},"geometry":{"type":"LineString","coordinates":[[56.1386602,54.8001137],[56.1378396,54.8015609]]}},{"type":"Feature","properties":{"way_id":114689176,"route_colors":[],"route_refs":["8","6"]},"geometry":{"type":"LineString","coordinates":[[56.1378396,54.8015609],[56.1371417,54.8027271],[56.137089,54.802832],[56.1369875,54.8030046],[56.1369055,54.8030815],[56.1367834,54.8031607],[56.1366725,54.8032057],[56.1350564,54.8038596],[56.1345981,54.8040579],[56.1342757,54.8042064],[56.1338791,54.8044464],[56.1334517,54.804753],[56.1332551,54.8049374],[56.1330555,54.8052553],[56.1325115,54.8060534],[56.132397,54.8062277],[56.1323286,54.8063352],[56.1322967,54.8063852],[56.1320688,54.8067127],[56.1316657,54.8073224],[56.1314149,54.8076873],[56.1310079,54.8082794],[56.1308941,54.808445],[56.1289469,54.8112753],[56.127921,54.8127701],[56.1278495,54.8128723],[56.1277095,54.8130842],[56.1276899,54.8131214],[56.1269629,54.8145025],[56.1269187,54.8145865],[56.1268329,54.8147426],[56.1267849,54.8148234],[56.1267009,54.8149648],[56.1265566,54.8152078],[56.1262938,54.815673],[56.1260524,54.8160779],[56.1259881,54.8161749],[56.1259078,54.8162312],[56.1257981,54.8162758],[56.1254661,54.8163688],[56.1252014,54.8164435],[56.1248276,54.8165392],[56.1247548,54.8165599],[56.1241999,54.8167177],[56.12402,54.8167689],[56.1235246,54.8169095],[56.1208962,54.8176553],[56.1205703,54.8177405],[56.120529,54.8177514],[56.117283,54.818709],[56.1154036,54.8192479],[56.1148784,54.8193985],[56.1112915,54.8204142],[56.1097958,54.8208571],[56.1093524,54.8209754],[56.1093209,54.8209838],[56.1088973,54.8210969],[56.1057812,54.8220077],[56.1042308,54.8224521],[56.1026533,54.8229042],[56.1005944,54.8235076],[56.0984092,54.8241312],[56.0976451,54.8243493],[56.0965845,54.8246463],[56.0938443,54.8254524],[56.0936954,54.8254835],[56.0934833,54.8254956],[56.0924673,54.8253455],[56.0921496,54.8252986],[56.0855282,54.8242892],[56.0853754,54.8242559],[56.0852358,54.8241995],[56.0851067,54.8241146],[56.084383,54.8229821],[56.0842907,54.8229015],[56.0841433,54.8228556],[56.083932,54.8228633],[56.0837496,54.8229282],[56.0836821,54.8230304],[56.083684,54.8232815],[56.083637,54.8233615],[56.0835477,54.8234293],[56.0831952,54.8235363],[56.0810378,54.824191],[56.0795154,54.8246591],[56.0771128,54.8254574],[56.076979,54.825479],[56.0760169,54.8254807],[56.0716076,54.8254395],[56.0710502,54.8254268],[56.0709207,54.8254143],[56.0708374,54.8253898],[56.0707674,54.8253607],[56.0707412,54.8253384],[56.0707278,54.8253198],[56.0707165,54.8253009],[56.070705,54.8252748],[56.0706952,54.8252326],[56.0706969,54.8250834],[56.0707222,54.8242712],[56.0707325,54.8239194],[56.0707422,54.8235883],[56.0707386,54.8230859],[56.0707385,54.8230712],[56.0706927,54.8230072],[56.0706733,54.8229945],[56.0705863,54.8229376],[56.0704631,54.8229159],[56.0702605,54.8229079],[56.0696468,54.8229031],[56.0676233,54.82288],[56.0674434,54.8228598],[56.0670468,54.8227453],[56.0669206,54.8227088],[56.0666907,54.8226361],[56.0666307,54.8226204],[56.0663706,54.8225255],[56.0661905,54.8224308],[56.0661215,54.8223727],[56.0647657,54.820756],[56.0647319,54.8207157],[56.0646727,54.8206451],[56.0646628,54.8206333],[56.0645788,54.8205332],[56.0644891,54.8204263],[56.0644782,54.8204133],[56.0644275,54.8203529],[56.0643467,54.8202566],[56.0634273,54.8192053],[56.0633657,54.8191385],[56.063357,54.8190595],[56.063394,54.8189684],[56.0635511,54.8183938],[56.0635706,54.8183198],[56.0635971,54.818246],[56.0636141,54.8181851],[56.0638281,54.8174174],[56.0638697,54.8172737],[56.0639056,54.8171844],[56.0639582,54.8171379],[56.0640289,54.8170932],[56.0644191,54.8169853],[56.064757,54.8168918],[56.0672579,54.8161394],[56.0674184,54.8160993],[56.0675202,54.8160702],[56.0716445,54.8148923],[56.0720912,54.8147647],[56.072239,54.8147207],[56.0723695,54.8146845],[56.0747521,54.8140032],[56.0767736,54.8134252],[56.0769084,54.8134057],[56.0770345,54.8134136],[56.0771472,54.8134502],[56.0772216,54.8135098],[56.0772459,54.8135385],[56.077671,54.814041],[56.0781179,54.814568],[56.0782971,54.8147795],[56.0783168,54.8147947],[56.0783354,54.8148043],[56.078357,54.8148122],[56.0783986,54.8148202],[56.0784504,54.8148202],[56.0785648,54.8148019],[56.0828037,54.8136118],[56.0828999,54.8135841],[56.0830799,54.8135322],[56.0831871,54.8135013],[56.0861835,54.812637],[56.0866347,54.8125069],[56.087632,54.8122192],[56.0879992,54.8121133],[56.0882262,54.8120478],[56.0883187,54.811998],[56.0883751,54.8119318],[56.0883886,54.8118453],[56.0883415,54.811738],[56.0875815,54.8108128],[56.0875093,54.8107359],[56.0874943,54.8106728],[56.0875004,54.8106219],[56.0875117,54.8106017],[56.0875401,54.8105509],[56.0875861,54.81049],[56.0876141,54.8104655],[56.0876407,54.8104411],[56.0876674,54.8104253],[56.0878115,54.8103664],[56.0878991,54.8103343],[56.0879805,54.8102538],[56.0880058,54.8101885],[56.0879986,54.8100732],[56.0879743,54.8100113]]}},{"type":"Feature","properties":{"way_id":1197285300,"route_colors":[],"route_refs":["8","6"]},"geometry":{"type":"LineString","coordinates":[[56.088149,54.8103009],[56.0878471,54.810387],[56.0877216,54.8104381],[56.0876607,54.8104742],[56.0876167,54.810525],[56.0875932,54.8105501],[56.0875723,54.810589],[56.0875561,54.8106766],[56.087572,54.8107254],[56.0876343,54.8107999],[56.0876963,54.8108732],[56.088072,54.8113412],[56.0883868,54.8116918],[56.0884397,54.8117498],[56.0884714,54.8118336],[56.0884661,54.8119251],[56.0884173,54.8119811],[56.0883418,54.812044],[56.088256,54.8120824],[56.0880265,54.8121479],[56.0877931,54.8122107],[56.0875456,54.8122772],[56.086665,54.8125439],[56.0862099,54.8126674],[56.0858042,54.8127726],[56.0846037,54.8131224],[56.0833355,54.8134861],[56.0832071,54.8135245],[56.0831011,54.8135562],[56.0829214,54.8136084],[56.0824209,54.8137466],[56.0820539,54.813848],[56.0808323,54.8141926],[56.0795686,54.8145485],[56.0786746,54.8147978],[56.0785619,54.8148281],[56.0784657,54.8148436],[56.0784203,54.814845],[56.0783813,54.8148419],[56.0783467,54.8148356],[56.0783229,54.8148291],[56.0783031,54.814822],[56.0782734,54.8148076],[56.0782658,54.814803],[56.0780972,54.8146009],[56.0780375,54.8145294],[56.0779313,54.814403],[56.0776919,54.8141181],[56.0776348,54.8140513],[56.0772066,54.8135497],[56.0771871,54.8135268],[56.077136,54.8134852],[56.0770714,54.8134566],[56.0769902,54.8134393],[56.0769001,54.8134376],[56.0767885,54.8134534],[56.0759216,54.8137042],[56.0740403,54.8142381],[56.0726335,54.81464],[56.0723905,54.8147094],[56.0722621,54.8147484],[56.0721144,54.8147932],[56.0713354,54.8150074],[56.0705087,54.8152495],[56.0694789,54.8155437],[56.0691652,54.8156333],[56.0682604,54.8158953],[56.0675455,54.8160995],[56.0674428,54.8161288],[56.0672802,54.8161712],[56.0668619,54.8162936],[56.0660099,54.8165595],[56.0651043,54.8168277],[56.0645409,54.8169877],[56.0641176,54.8171096],[56.064033,54.8171493],[56.0639721,54.8172011],[56.0639174,54.8173174],[56.0638679,54.817509],[56.0637204,54.8180499],[56.0636635,54.8182588],[56.0636456,54.8183278],[56.0636143,54.8184044],[56.0635621,54.8185911],[56.0634722,54.8189051],[56.0634272,54.8190438],[56.0634272,54.8190986],[56.0634563,54.8191596],[56.0635198,54.8192312],[56.063988,54.8197662],[56.0644786,54.8203377],[56.0645289,54.8203986],[56.0645419,54.8204117],[56.0646444,54.8205151],[56.0647196,54.8206138],[56.0647318,54.8206298],[56.0647828,54.8207003],[56.0648163,54.8207402],[56.0651122,54.8210921],[56.0657101,54.8217947],[56.0661624,54.8223327],[56.0662259,54.8224012],[56.0663106,54.8224424],[56.0664296,54.8225033],[56.0665165,54.8225343],[56.0666614,54.8225861],[56.0667195,54.8226054],[56.0672364,54.8227624],[56.067448,54.822828],[56.067612,54.8228447],[56.0676835,54.8228462],[56.0681067,54.8228554],[56.0693182,54.8228676],[56.0704795,54.8228843],[56.0705615,54.8228981],[56.0706224,54.8229148],[56.0707135,54.8229711],[56.0707335,54.8229834],[56.0707811,54.8230291],[56.0707996,54.8230794],[56.0707992,54.8230857],[56.0707917,54.8231922],[56.0707967,54.8235889],[56.0707851,54.8239199],[56.0707728,54.8242702],[56.0707573,54.8248426],[56.0707505,54.8250844],[56.0707467,54.8252205],[56.0707505,54.8252511],[56.0707587,54.8252738],[56.070768,54.8252908],[56.0707754,54.8253016],[56.0707907,54.8253197],[56.0708075,54.8253363],[56.0708684,54.8253668],[56.0709398,54.825382],[56.0710694,54.8253927],[56.0715852,54.8254034],[56.0727068,54.8254125],[56.0746485,54.8254308],[56.0760175,54.8254475],[56.0769525,54.825446],[56.0770478,54.8254323],[56.0771562,54.8254079],[56.0785661,54.8249325],[56.0794885,54.8246309],[56.0797697,54.8245363],[56.0810072,54.8241611],[56.0816109,54.823977],[56.0830887,54.8235296],[56.0834731,54.8234132],[56.0835525,54.823369],[56.0836133,54.8232973],[56.0836239,54.8232531],[56.083616,54.8230855],[56.0836213,54.8230124],[56.0836689,54.8229346],[56.0837218,54.8228859],[56.0838646,54.8228371],[56.0839361,54.8228264],[56.0840789,54.8228188],[56.0841874,54.8228249],[56.0843355,54.8228706],[56.0844175,54.8229331],[56.0845736,54.8231876],[56.085145,54.8240898],[56.0852375,54.8241584],[56.0853509,54.8242128],[56.0855576,54.8242574],[56.0863089,54.8243732],[56.0885521,54.8247161],[56.0905916,54.82503],[56.0918992,54.8252288],[56.0921689,54.8252698],[56.0933004,54.8254354],[56.0934988,54.8254659],[56.0936972,54.8254521],[56.0938374,54.8254186],[56.0944802,54.8252281],[56.096556,54.8246134],[56.0980989,54.8241858],[56.0999903,54.8236326],[56.1001804,54.8235791],[56.100597,54.823462],[56.102627,54.8228655],[56.1036884,54.8225643],[56.1039951,54.8224765],[56.1057179,54.8219832],[56.1088864,54.8210607],[56.1092949,54.8209535],[56.1093566,54.8209373],[56.1097862,54.8208246],[56.1104127,54.8206319],[56.111266,54.8203829],[56.1123914,54.8200619],[56.1137563,54.8196702],[56.1145604,54.8194482],[56.1148513,54.8193679],[56.1172598,54.8186763],[56.1188459,54.8182086],[56.1205035,54.8177225],[56.1205457,54.8177118],[56.1208692,54.8176289],[56.1210414,54.8175791],[56.1232934,54.8169436],[56.1238491,54.8167885],[56.1240641,54.8167271],[56.1244901,54.8166054],[56.1245887,54.8165772],[56.1246803,54.816551],[56.1251531,54.8164184],[56.1254861,54.8163343],[56.1257252,54.8162612],[56.1258331,54.8162235],[56.1259101,54.8161804],[56.1259531,54.8161282],[56.1260149,54.8160357],[56.1263365,54.8154719],[56.126459,54.8152692],[56.1266499,54.8149532],[56.1267245,54.8148116],[56.1271315,54.8140559],[56.1274146,54.8134738],[56.1276178,54.8131083],[56.1276387,54.8130707],[56.1277832,54.812859],[56.1278581,54.8127552],[56.1281348,54.8123749],[56.1285629,54.8117302],[56.1288112,54.8113717],[56.1288369,54.8113347],[56.1291925,54.8108296],[56.1294733,54.8104106],[56.1299829,54.809668],[56.1304382,54.8089971],[56.1309411,54.8082651],[56.1313094,54.8077325],[56.1317518,54.8070927],[56.1320146,54.8067004],[56.1322275,54.806372],[56.1322617,54.8063207],[56.1323344,54.8062115],[56.1323656,54.8061646],[56.1325286,54.8059309],[56.1328525,54.8054506],[56.1332171,54.8049206],[56.1333915,54.8047522],[56.1335773,54.8046138],[56.1337766,54.8044715],[56.1340619,54.8042862],[56.1342477,54.8041843],[56.1346259,54.8040081],[56.1351944,54.8037653],[56.1364174,54.8032758],[56.1366656,54.8031707],[56.1367403,54.8031326],[56.1368622,54.803046],[56.1369344,54.8029646],[56.1370059,54.8028687],[56.1370415,54.8028064],[56.137098,54.80271],[56.1372165,54.8025012],[56.1377717,54.8015479]]}},{"type":"Feature","properties":{"way_id":1197285301,"route_colors":[],"route_refs":["8","6"]},"geometry":{"type":"LineString","coordinates":[[56.1377717,54.8015479],[56.1385954,54.8001025]]}},{"type":"Feature","properties":{"way_id":1197285299,"route_colors":[],"route_refs":["8","6"]},"geometry":{"type":"LineString","coordinates":[[56.1385954,54.8001025],[56.1388533,54.799629],[56.1390601,54.7990856],[56.1390497,54.7987623],[56.1389848,54.7986019],[56.1388178,54.7982036],[56.1387693,54.7981178],[56.1386982,54.7980401],[56.1386032,54.7979841],[56.1383055,54.7978724],[56.1382174,54.7978391],[56.1380995,54.7977933]]}},{"type":"Feature","properties":{"way_id":1197285295,"route_colors":[],"route_refs":["8"]},"geometry":{"type":"LineString","coordinates":[[56.1380995,54.7977933],[56.1379898,54.7977506],[56.1379386,54.7977307],[56.1372497,54.7975391],[56.1370836,54.7974873],[56.1368863,54.7974553],[56.1366632,54.7974433],[56.1352001,54.7974433],[56.1336192,54.7974342],[56.1325457,54.7974355],[56.1320075,54.7974302],[56.1316167,54.7974411],[56.1298226,54.7974585],[56.1289542,54.7975433],[56.1267424,54.797753],[56.1261866,54.7978098],[56.125906,54.7978299],[56.1233857,54.7980388],[56.120059,54.7983316],[56.1179164,54.7984961],[56.1152568,54.7987421],[56.1149598,54.7987732],[56.1132134,54.7989638],[56.1120826,54.7990788],[56.1106574,54.7992374],[56.1091183,54.7994152],[56.1081933,54.7995193],[56.107714,54.7995649],[56.1060071,54.7996983],[56.1056344,54.7997209],[56.1053418,54.7997114],[56.1047535,54.7996888],[56.0958461,54.7992142],[56.0934009,54.7990722],[56.092476,54.7990185],[56.0872557,54.7987344],[56.0779711,54.7982182],[56.0778652,54.7982145],[56.0771639,54.7981665],[56.076853,54.7981481],[56.071878,54.7978933],[56.0692365,54.7977426],[56.0667797,54.7975998],[56.0661472,54.7975693],[56.0656427,54.7975391],[56.0641488,54.7974498],[56.0616936,54.7973095],[56.060162,54.7972234],[56.0590161,54.7971657],[56.0569561,54.7970429],[56.0559371,54.7969878],[56.0557815,54.7969794],[56.043979,54.7963081],[56.0413688,54.7961733],[56.0405217,54.7961296],[56.0401289,54.7961023],[56.0400307,54.7960997],[56.0399204,54.7961061],[56.0398401,54.7961202],[56.039766,54.7961416],[56.0396959,54.79617],[56.0396129,54.7962109],[56.0395725,54.7962451],[56.0395307,54.7963032],[56.0395101,54.7963739],[56.039531,54.7964536],[56.0395544,54.7964796]]}}]}