{"type":"FeatureCollection","metro_system":{"continent":"north-america","country":"United States","city":"St. Louis","official_website":"https://www.metrostlouis.org/metrolink/","official_map":"https://en.wikipedia.org/wiki/MetroLink_(St._Louis)","wikipedia":"en:MetroLink (St. Louis)","line_count":2,"segment_count":4,"station_count":38,"modes":["tram"],"audit":{"strategies_tried":[],"passed":true,"checks":[{"id":"has_lines","ok":true,"detail":"2 lines","level":"error"},{"id":"has_stations","ok":true,"detail":"38 stations","level":"error"},{"id":"stations_have_lines","ok":true,"detail":"38/38 站皆有所屬路線","level":"error"},{"id":"line_geometry_stations","ok":true,"detail":"41 個折點/端點皆為車站","level":"error"},{"id":"route_stations_match_geometry","ok":true,"detail":"各線車站列表與圖面一致","level":"error"},{"id":"interchange_rule","ok":true,"detail":"所有車站紅/藍點符合骨架＋路線色規則（藍＝端點、紅＝交叉）","level":"error"},{"id":"stations_named","ok":true,"detail":"38/38 站皆有名稱","level":"error"},{"id":"station_order","ok":true,"detail":"所有線路站序合理","level":"warn"},{"id":"station_span","ok":true,"detail":"各線相鄰站距與系統站群跨度正常","level":"error"},{"id":"line_wiki_stations","ok":true,"detail":"各線站數與 wiki 線路條目相符（營運中站數）","level":"error"}],"reasons":[],"warnings":[],"audited_at":"2026-07-29T15:28:26.826Z"}},"features":[{"type":"Feature","properties":{"seg_id":"st-louis-0","routes":[{"route_id":"rm11366428","route_name":"MetroLink Blue Line","route_name_local":"MetroLink Blue Line","route_name_en":null,"route_ref":"B","route_color":"#5f5fa8","wikipedia":"en:Blue Line (St. Louis MetroLink)","osm_route_ids":[1737996,11366427],"status":null,"order_suspect":0,"span_suspect":0,"stations":[{"station_id":"n8441862748","station_name":"Shrewsbury-Lansdowne I-44"},{"station_id":"n8441862746","station_name":"Sunnen"},{"station_id":"n5907409824","station_name":"Maplewood-Manchester"},{"station_id":"n8441875137","station_name":"Brentwood I-64"},{"station_id":"n8441862752","station_name":"Richmond Heights"},{"station_id":"n8441862763","station_name":"Clayton"},{"station_id":"n8441862759","station_name":"Forsyth"},{"station_id":"n6546375074","station_name":"University City-Big Bend"},{"station_id":"n6545996999","station_name":"Skinker"},{"station_id":"n5907828385","station_name":"Forest Park-DeBaliviere"},{"station_id":"n8441862767","station_name":"Central West End"},{"station_id":"n6734109515","station_name":"Cortex"},{"station_id":"n3165821459","station_name":"Grand"},{"station_id":"n8441841630","station_name":"Union Station"},{"station_id":"n8441862765","station_name":"Civic Center"},{"station_id":"n8441836589","station_name":"Stadium"},{"station_id":"n5905602291","station_name":"8th & Pine"},{"station_id":"n5905492403","station_name":"Convention Center"},{"station_id":"n8441860034","station_name":"Laclede's Landing"},{"station_id":"n8441860038","station_name":"East Riverfront"},{"station_id":"n5907409825","station_name":"5th & Missouri"},{"station_id":"n5907409826","station_name":"Emerson Park"},{"station_id":"n5907409827","station_name":"Jackie Joyner-Kersee Center"},{"station_id":"n5907409828","station_name":"Washington Park"},{"station_id":"n5328159944","station_name":"Fairview Heights"}]}],"route_count":1,"route_refs":["B"],"route_colors":["#5f5fa8"],"city":"St. Louis","country":"United States"},"geometry":{"type":"MultiLineString","coordinates":[[[-90.31944746666666,38.59338736666667],[-90.33028506666666,38.60758243333333],[-90.33142496666666,38.61413136666666],[-90.33808163333333,38.62845253333333],[-90.3420726,38.63487966666667],[-90.3399379,38.64562026666667],[-90.32814660000001,38.64892746666667],[-90.31491756666667,38.65157936666667],[-90.30021749999999,38.64928989999999],[-90.28462826666667,38.6477944]]]}},{"type":"Feature","properties":{"seg_id":"st-louis-1","routes":[{"route_id":"rm11366428","route_name":"MetroLink Blue Line","route_name_local":"MetroLink Blue Line","route_name_en":null,"route_ref":"B","route_color":"#5f5fa8","wikipedia":"en:Blue Line (St. Louis MetroLink)","osm_route_ids":[1737996,11366427],"status":null,"order_suspect":0,"span_suspect":0,"stations":[{"station_id":"n8441862748","station_name":"Shrewsbury-Lansdowne I-44"},{"station_id":"n8441862746","station_name":"Sunnen"},{"station_id":"n5907409824","station_name":"Maplewood-Manchester"},{"station_id":"n8441875137","station_name":"Brentwood I-64"},{"station_id":"n8441862752","station_name":"Richmond Heights"},{"station_id":"n8441862763","station_name":"Clayton"},{"station_id":"n8441862759","station_name":"Forsyth"},{"station_id":"n6546375074","station_name":"University City-Big Bend"},{"station_id":"n6545996999","station_name":"Skinker"},{"station_id":"n5907828385","station_name":"Forest Park-DeBaliviere"},{"station_id":"n8441862767","station_name":"Central West End"},{"station_id":"n6734109515","station_name":"Cortex"},{"station_id":"n3165821459","station_name":"Grand"},{"station_id":"n8441841630","station_name":"Union Station"},{"station_id":"n8441862765","station_name":"Civic Center"},{"station_id":"n8441836589","station_name":"Stadium"},{"station_id":"n5905602291","station_name":"8th & Pine"},{"station_id":"n5905492403","station_name":"Convention Center"},{"station_id":"n8441860034","station_name":"Laclede's Landing"},{"station_id":"n8441860038","station_name":"East Riverfront"},{"station_id":"n5907409825","station_name":"5th & Missouri"},{"station_id":"n5907409826","station_name":"Emerson Park"},{"station_id":"n5907409827","station_name":"Jackie Joyner-Kersee Center"},{"station_id":"n5907409828","station_name":"Washington Park"},{"station_id":"n5328159944","station_name":"Fairview Heights"}]},{"route_id":"r1737997","route_name":"MetroLink Red Line","route_name_local":"MetroLink Red Line","route_name_en":null,"route_ref":"Red","route_color":"#f80000","wikipedia":"en:Red Line (St. Louis MetroLink)","osm_route_ids":[1737997,11366426],"status":null,"order_suspect":0,"span_suspect":0,"stations":[{"station_id":"n8441862756","station_name":"Lambert Airport Terminal 1"},{"station_id":"n317979781","station_name":"Lambert Airport Terminal 2"},{"station_id":"n8441862754","station_name":"North Hanley"},{"station_id":"n8441862740","station_name":"UMSL North"},{"station_id":"n8441862744","station_name":"UMSL South"},{"station_id":"n8441862750","station_name":"Rock Road"},{"station_id":"n8441862742","station_name":"Wellston"},{"station_id":"n8441862761","station_name":"Delmar Loop"},{"station_id":"n5907828385","station_name":"Forest Park-DeBaliviere"},{"station_id":"n8441862767","station_name":"Central West End"},{"station_id":"n6734109515","station_name":"Cortex"},{"station_id":"n3165821459","station_name":"Grand"},{"station_id":"n8441841630","station_name":"Union Station"},{"station_id":"n8441862765","station_name":"Civic Center"},{"station_id":"n8441836589","station_name":"Stadium"},{"station_id":"n5905602291","station_name":"8th & Pine"},{"station_id":"n5905492403","station_name":"Convention Center"},{"station_id":"n8441860034","station_name":"Laclede's Landing"},{"station_id":"n8441860038","station_name":"East Riverfront"},{"station_id":"n5907409825","station_name":"5th & Missouri"},{"station_id":"n5907409826","station_name":"Emerson Park"},{"station_id":"n5907409827","station_name":"Jackie Joyner-Kersee Center"},{"station_id":"n5907409828","station_name":"Washington Park"},{"station_id":"n5328159944","station_name":"Fairview Heights"},{"station_id":"n5907409831","station_name":"Memorial Hospital"},{"station_id":"n5907409830","station_name":"Swansea"},{"station_id":"n5602595659","station_name":"Belleville"},{"station_id":"n5907409833","station_name":"College"},{"station_id":"n5907409834","station_name":"Shiloh-Scott"}]}],"route_count":2,"route_refs":["B","Red"],"route_colors":["#5f5fa8","#f80000"],"city":"St. Louis","country":"United States"},"geometry":{"type":"MultiLineString","coordinates":[[[-90.28462826666667,38.6477944],[-90.26210483333334,38.63589796666667],[-90.2512144,38.63373073333334],[-90.23533103333334,38.6294953],[-90.2068968,38.62665453333333],[-90.20309396666666,38.62479723333334],[-90.19449283333331,38.623474566666665],[-90.19279923333333,38.62762586666667],[-90.18935703333334,38.63021796666666],[-90.1840228,38.62945593333333],[-90.1749691,38.628492333333334],[-90.15953643333334,38.624946333333334],[-90.13686493333334,38.6288053],[-90.1243792,38.62323276666667],[-90.095032,38.6136706],[-90.04772766666667,38.5935054]]]}},{"type":"Feature","properties":{"seg_id":"st-louis-2","routes":[{"route_id":"r1737997","route_name":"MetroLink Red Line","route_name_local":"MetroLink Red Line","route_name_en":null,"route_ref":"Red","route_color":"#f80000","wikipedia":"en:Red Line (St. Louis MetroLink)","osm_route_ids":[1737997,11366426],"status":null,"order_suspect":0,"span_suspect":0,"stations":[{"station_id":"n8441862756","station_name":"Lambert Airport Terminal 1"},{"station_id":"n317979781","station_name":"Lambert Airport Terminal 2"},{"station_id":"n8441862754","station_name":"North Hanley"},{"station_id":"n8441862740","station_name":"UMSL North"},{"station_id":"n8441862744","station_name":"UMSL South"},{"station_id":"n8441862750","station_name":"Rock Road"},{"station_id":"n8441862742","station_name":"Wellston"},{"station_id":"n8441862761","station_name":"Delmar Loop"},{"station_id":"n5907828385","station_name":"Forest Park-DeBaliviere"},{"station_id":"n8441862767","station_name":"Central West End"},{"station_id":"n6734109515","station_name":"Cortex"},{"station_id":"n3165821459","station_name":"Grand"},{"station_id":"n8441841630","station_name":"Union Station"},{"station_id":"n8441862765","station_name":"Civic Center"},{"station_id":"n8441836589","station_name":"Stadium"},{"station_id":"n5905602291","station_name":"8th & Pine"},{"station_id":"n5905492403","station_name":"Convention Center"},{"station_id":"n8441860034","station_name":"Laclede's Landing"},{"station_id":"n8441860038","station_name":"East Riverfront"},{"station_id":"n5907409825","station_name":"5th & Missouri"},{"station_id":"n5907409826","station_name":"Emerson Park"},{"station_id":"n5907409827","station_name":"Jackie Joyner-Kersee Center"},{"station_id":"n5907409828","station_name":"Washington Park"},{"station_id":"n5328159944","station_name":"Fairview Heights"},{"station_id":"n5907409831","station_name":"Memorial Hospital"},{"station_id":"n5907409830","station_name":"Swansea"},{"station_id":"n5602595659","station_name":"Belleville"},{"station_id":"n5907409833","station_name":"College"},{"station_id":"n5907409834","station_name":"Shiloh-Scott"}]}],"route_count":1,"route_refs":["Red"],"route_colors":["#f80000"],"city":"St. Louis","country":"United States"},"geometry":{"type":"MultiLineString","coordinates":[[[-90.3646279,38.74120426666667],[-90.35650706666667,38.73643593333333],[-90.31553463333334,38.719965],[-90.30639723333333,38.713015633333335],[-90.30512633333335,38.70524326666666],[-90.30141579999999,38.68522133333334],[-90.29838339999999,38.66884083333333],[-90.29459526666666,38.6557616],[-90.28462826666667,38.6477944]]]}},{"type":"Feature","properties":{"seg_id":"st-louis-3","routes":[{"route_id":"r1737997","route_name":"MetroLink Red Line","route_name_local":"MetroLink Red Line","route_name_en":null,"route_ref":"Red","route_color":"#f80000","wikipedia":"en:Red Line (St. Louis MetroLink)","osm_route_ids":[1737997,11366426],"status":null,"order_suspect":0,"span_suspect":0,"stations":[{"station_id":"n8441862756","station_name":"Lambert Airport Terminal 1"},{"station_id":"n317979781","station_name":"Lambert Airport Terminal 2"},{"station_id":"n8441862754","station_name":"North Hanley"},{"station_id":"n8441862740","station_name":"UMSL North"},{"station_id":"n8441862744","station_name":"UMSL South"},{"station_id":"n8441862750","station_name":"Rock Road"},{"station_id":"n8441862742","station_name":"Wellston"},{"station_id":"n8441862761","station_name":"Delmar Loop"},{"station_id":"n5907828385","station_name":"Forest Park-DeBaliviere"},{"station_id":"n8441862767","station_name":"Central West End"},{"station_id":"n6734109515","station_name":"Cortex"},{"station_id":"n3165821459","station_name":"Grand"},{"station_id":"n8441841630","station_name":"Union Station"},{"station_id":"n8441862765","station_name":"Civic Center"},{"station_id":"n8441836589","station_name":"Stadium"},{"station_id":"n5905602291","station_name":"8th & Pine"},{"station_id":"n5905492403","station_name":"Convention Center"},{"station_id":"n8441860034","station_name":"Laclede's Landing"},{"station_id":"n8441860038","station_name":"East Riverfront"},{"station_id":"n5907409825","station_name":"5th & Missouri"},{"station_id":"n5907409826","station_name":"Emerson Park"},{"station_id":"n5907409827","station_name":"Jackie Joyner-Kersee Center"},{"station_id":"n5907409828","station_name":"Washington Park"},{"station_id":"n5328159944","station_name":"Fairview Heights"},{"station_id":"n5907409831","station_name":"Memorial Hospital"},{"station_id":"n5907409830","station_name":"Swansea"},{"station_id":"n5602595659","station_name":"Belleville"},{"station_id":"n5907409833","station_name":"College"},{"station_id":"n5907409834","station_name":"Shiloh-Scott"}]}],"route_count":1,"route_refs":["Red"],"route_colors":["#f80000"],"city":"St. Louis","country":"United States"},"geometry":{"type":"MultiLineString","coordinates":[[[-90.04772766666667,38.5935054],[-90.015719,38.557624966666666],[-89.98716153333334,38.53598973333333],[-89.9747202,38.5220439],[-89.91965736666667,38.516026966666665],[-89.879016,38.538819133333334]]]}},{"type":"Feature","properties":{"station_id":"n317979781","station_name":"Lambert Airport Terminal 2","station_name_local":"Lambert Airport Terminal 2","station_name_en":null,"city":"St. Louis","country":"United States","lines":["Red"],"wikipedia":null,"merged_from":3,"merged_names":null,"is_terminus":false,"routes":[{"ref":"Red","name":"MetroLink Red Line","route_color":"#f80000"}],"pass_count":1,"station_degree":2,"codes":null,"is_interchange":false,"station_role":"normal"},"geometry":{"type":"Point","coordinates":[-90.35650706666667,38.73643593333333]},"__memberLines":{}},{"type":"Feature","properties":{"station_id":"n3165821459","station_name":"Grand","station_name_local":"Grand","station_name_en":null,"city":"St. Louis","country":"United States","lines":["B","Red"],"wikipedia":null,"merged_from":3,"merged_names":null,"is_terminus":false,"routes":[{"ref":"B","name":"MetroLink Blue Line","route_color":"#5f5fa8"},{"ref":"Red","name":"MetroLink Red Line","route_color":"#f80000"}],"pass_count":2,"station_degree":2,"codes":null,"is_interchange":false,"station_role":"normal"},"geometry":{"type":"Point","coordinates":[-90.23533103333334,38.6294953]},"__memberLines":{}},{"type":"Feature","properties":{"station_id":"n5328159944","station_name":"Fairview Heights","station_name_local":"Fairview Heights","station_name_en":null,"city":"St. Louis","country":"United States","lines":["B","Red"],"wikipedia":null,"merged_from":3,"merged_names":null,"is_terminus":false,"routes":[{"ref":"B","name":"MetroLink Blue Line","route_color":"#5f5fa8"},{"ref":"Red","name":"MetroLink Red Line","route_color":"#f80000"}],"pass_count":2,"station_degree":2,"codes":null,"is_interchange":true,"station_role":"interchange"},"geometry":{"type":"Point","coordinates":[-90.04772766666667,38.5935054]},"__memberLines":{}},{"type":"Feature","properties":{"station_id":"n5602595659","station_name":"Belleville","station_name_local":"Belleville","station_name_en":null,"city":"St. Louis","country":"United States","lines":["Red"],"wikipedia":null,"merged_from":3,"merged_names":null,"is_terminus":false,"routes":[{"ref":"Red","name":"MetroLink Red Line","route_color":"#f80000"}],"pass_count":1,"station_degree":2,"codes":null,"is_interchange":false,"station_role":"normal"},"geometry":{"type":"Point","coordinates":[-89.9747202,38.5220439]},"__memberLines":{}},{"type":"Feature","properties":{"station_id":"n5905492403","station_name":"Convention Center","station_name_local":"Convention Center","station_name_en":null,"city":"St. Louis","country":"United States","lines":["B","Red"],"wikipedia":null,"merged_from":3,"merged_names":null,"is_terminus":false,"routes":[{"ref":"B","name":"MetroLink Blue Line","route_color":"#5f5fa8"},{"ref":"Red","name":"MetroLink Red Line","route_color":"#f80000"}],"pass_count":2,"station_degree":2,"codes":null,"is_interchange":false,"station_role":"normal"},"geometry":{"type":"Point","coordinates":[-90.18935703333334,38.63021796666666]},"__memberLines":{}},{"type":"Feature","properties":{"station_id":"n5905602291","station_name":"8th & Pine","station_name_local":"8th & Pine","station_name_en":null,"city":"St. Louis","country":"United States","lines":["B","Red"],"wikipedia":null,"merged_from":3,"merged_names":null,"is_terminus":false,"routes":[{"ref":"B","name":"MetroLink Blue Line","route_color":"#5f5fa8"},{"ref":"Red","name":"MetroLink Red Line","route_color":"#f80000"}],"pass_count":2,"station_degree":2,"codes":null,"is_interchange":false,"station_role":"normal"},"geometry":{"type":"Point","coordinates":[-90.19279923333333,38.62762586666667]},"__memberLines":{}},{"type":"Feature","properties":{"station_id":"n5907409824","station_name":"Maplewood-Manchester","station_name_local":"Maplewood-Manchester","station_name_en":null,"city":"St. Louis","country":"United States","lines":["B"],"wikipedia":null,"merged_from":3,"merged_names":null,"is_terminus":false,"routes":[{"ref":"B","name":"MetroLink Blue Line","route_color":"#5f5fa8"}],"pass_count":1,"station_degree":2,"codes":null,"is_interchange":false,"station_role":"normal"},"geometry":{"type":"Point","coordinates":[-90.33142496666666,38.61413136666666]},"__memberLines":{}},{"type":"Feature","properties":{"station_id":"n5907409825","station_name":"5th & Missouri","station_name_local":"5th & Missouri","station_name_en":null,"city":"St. Louis","country":"United States","lines":["B","Red"],"wikipedia":null,"merged_from":3,"merged_names":null,"is_terminus":false,"routes":[{"ref":"B","name":"MetroLink Blue Line","route_color":"#5f5fa8"},{"ref":"Red","name":"MetroLink Red Line","route_color":"#f80000"}],"pass_count":2,"station_degree":2,"codes":null,"is_interchange":false,"station_role":"normal"},"geometry":{"type":"Point","coordinates":[-90.15953643333334,38.624946333333334]},"__memberLines":{}},{"type":"Feature","properties":{"station_id":"n5907409826","station_name":"Emerson Park","station_name_local":"Emerson Park","station_name_en":null,"city":"St. Louis","country":"United States","lines":["B","Red"],"wikipedia":null,"merged_from":3,"merged_names":null,"is_terminus":false,"routes":[{"ref":"B","name":"MetroLink Blue Line","route_color":"#5f5fa8"},{"ref":"Red","name":"MetroLink Red Line","route_color":"#f80000"}],"pass_count":2,"station_degree":2,"codes":null,"is_interchange":false,"station_role":"normal"},"geometry":{"type":"Point","coordinates":[-90.13686493333334,38.6288053]},"__memberLines":{}},{"type":"Feature","properties":{"station_id":"n5907409827","station_name":"Jackie Joyner-Kersee Center","station_name_local":"Jackie Joyner-Kersee Center","station_name_en":null,"city":"St. Louis","country":"United States","lines":["B","Red"],"wikipedia":null,"merged_from":3,"merged_names":null,"is_terminus":false,"routes":[{"ref":"B","name":"MetroLink Blue Line","route_color":"#5f5fa8"},{"ref":"Red","name":"MetroLink Red Line","route_color":"#f80000"}],"pass_count":2,"station_degree":2,"codes":null,"is_interchange":false,"station_role":"normal"},"geometry":{"type":"Point","coordinates":[-90.1243792,38.62323276666667]},"__memberLines":{}},{"type":"Feature","properties":{"station_id":"n5907409828","station_name":"Washington Park","station_name_local":"Washington Park","station_name_en":null,"city":"St. Louis","country":"United States","lines":["B","Red"],"wikipedia":null,"merged_from":3,"merged_names":null,"is_terminus":false,"routes":[{"ref":"B","name":"MetroLink Blue Line","route_color":"#5f5fa8"},{"ref":"Red","name":"MetroLink Red Line","route_color":"#f80000"}],"pass_count":2,"station_degree":2,"codes":null,"is_interchange":false,"station_role":"normal"},"geometry":{"type":"Point","coordinates":[-90.095032,38.6136706]},"__memberLines":{}},{"type":"Feature","properties":{"station_id":"n5907409830","station_name":"Swansea","station_name_local":"Swansea","station_name_en":null,"city":"St. Louis","country":"United States","lines":["Red"],"wikipedia":null,"merged_from":3,"merged_names":null,"is_terminus":false,"routes":[{"ref":"Red","name":"MetroLink Red Line","route_color":"#f80000"}],"pass_count":1,"station_degree":2,"codes":null,"is_interchange":false,"station_role":"normal"},"geometry":{"type":"Point","coordinates":[-89.98716153333334,38.53598973333333]},"__memberLines":{}},{"type":"Feature","properties":{"station_id":"n5907409831","station_name":"Memorial Hospital","station_name_local":"Memorial Hospital","station_name_en":null,"city":"St. Louis","country":"United States","lines":["Red"],"wikipedia":null,"merged_from":3,"merged_names":null,"is_terminus":false,"routes":[{"ref":"Red","name":"MetroLink Red Line","route_color":"#f80000"}],"pass_count":1,"station_degree":2,"codes":null,"is_interchange":false,"station_role":"normal"},"geometry":{"type":"Point","coordinates":[-90.015719,38.557624966666666]},"__memberLines":{}},{"type":"Feature","properties":{"station_id":"n5907409833","station_name":"College","station_name_local":"College","station_name_en":null,"city":"St. Louis","country":"United States","lines":["Red"],"wikipedia":null,"merged_from":3,"merged_names":null,"is_terminus":false,"routes":[{"ref":"Red","name":"MetroLink Red Line","route_color":"#f80000"}],"pass_count":1,"station_degree":2,"codes":null,"is_interchange":false,"station_role":"normal"},"geometry":{"type":"Point","coordinates":[-89.91965736666667,38.516026966666665]},"__memberLines":{}},{"type":"Feature","properties":{"station_id":"n5907409834","station_name":"Shiloh-Scott","station_name_local":"Shiloh-Scott","station_name_en":null,"city":"St. Louis","country":"United States","lines":["Red"],"wikipedia":null,"merged_from":3,"merged_names":null,"is_terminus":true,"routes":[{"ref":"Red","name":"MetroLink Red Line","route_color":"#f80000"}],"pass_count":1,"station_degree":1,"codes":null,"is_interchange":false,"station_role":"terminus"},"geometry":{"type":"Point","coordinates":[-89.879016,38.538819133333334]},"__memberLines":{}},{"type":"Feature","properties":{"station_id":"n5907828385","station_name":"Forest Park-DeBaliviere","station_name_local":"Forest Park-DeBaliviere","station_name_en":null,"city":"St. Louis","country":"United States","lines":["B","Red"],"wikipedia":null,"merged_from":3,"merged_names":null,"is_terminus":false,"routes":[{"ref":"B","name":"MetroLink Blue Line","route_color":"#5f5fa8"},{"ref":"Red","name":"MetroLink Red Line","route_color":"#f80000"}],"pass_count":2,"station_degree":3,"codes":null,"is_interchange":true,"station_role":"interchange"},"geometry":{"type":"Point","coordinates":[-90.28462826666667,38.6477944]},"__memberLines":{}},{"type":"Feature","properties":{"station_id":"n6545996999","station_name":"Skinker","station_name_local":"Skinker","station_name_en":null,"city":"St. Louis","country":"United States","lines":["B"],"wikipedia":null,"merged_from":3,"merged_names":null,"is_terminus":false,"routes":[{"ref":"B","name":"MetroLink Blue Line","route_color":"#5f5fa8"}],"pass_count":1,"station_degree":2,"codes":null,"is_interchange":false,"station_role":"normal"},"geometry":{"type":"Point","coordinates":[-90.30021749999999,38.64928989999999]},"__memberLines":{}},{"type":"Feature","properties":{"station_id":"n6546375074","station_name":"University City-Big Bend","station_name_local":"University City-Big Bend","station_name_en":null,"city":"St. Louis","country":"United States","lines":["B"],"wikipedia":null,"merged_from":3,"merged_names":null,"is_terminus":false,"routes":[{"ref":"B","name":"MetroLink Blue Line","route_color":"#5f5fa8"}],"pass_count":1,"station_degree":2,"codes":null,"is_interchange":false,"station_role":"normal"},"geometry":{"type":"Point","coordinates":[-90.31491756666667,38.65157936666667]},"__memberLines":{}},{"type":"Feature","properties":{"station_id":"n6734109515","station_name":"Cortex","station_name_local":"Cortex","station_name_en":null,"city":"St. Louis","country":"United States","lines":["B","Red"],"wikipedia":null,"merged_from":3,"merged_names":null,"is_terminus":false,"routes":[{"ref":"B","name":"MetroLink Blue Line","route_color":"#5f5fa8"},{"ref":"Red","name":"MetroLink Red Line","route_color":"#f80000"}],"pass_count":2,"station_degree":2,"codes":null,"is_interchange":false,"station_role":"normal"},"geometry":{"type":"Point","coordinates":[-90.2512144,38.63373073333334]},"__memberLines":{}},{"type":"Feature","properties":{"station_id":"n8441836589","station_name":"Stadium","station_name_local":"Stadium","station_name_en":null,"city":"St. Louis","country":"United States","lines":["B","Red"],"wikipedia":null,"merged_from":3,"merged_names":null,"is_terminus":false,"routes":[{"ref":"B","name":"MetroLink Blue Line","route_color":"#5f5fa8"},{"ref":"Red","name":"MetroLink Red Line","route_color":"#f80000"}],"pass_count":2,"station_degree":2,"codes":null,"is_interchange":false,"station_role":"normal"},"geometry":{"type":"Point","coordinates":[-90.19449283333331,38.623474566666665]},"__memberLines":{}},{"type":"Feature","properties":{"station_id":"n8441841630","station_name":"Union Station","station_name_local":"Union Station","station_name_en":null,"city":"St. Louis","country":"United States","lines":["B","Red"],"wikipedia":null,"merged_from":3,"merged_names":null,"is_terminus":false,"routes":[{"ref":"B","name":"MetroLink Blue Line","route_color":"#5f5fa8"},{"ref":"Red","name":"MetroLink Red Line","route_color":"#f80000"}],"pass_count":2,"station_degree":2,"codes":null,"is_interchange":false,"station_role":"normal"},"geometry":{"type":"Point","coordinates":[-90.2068968,38.62665453333333]},"__memberLines":{}},{"type":"Feature","properties":{"station_id":"n8441860034","station_name":"Laclede's Landing","station_name_local":"Laclede's Landing","station_name_en":null,"city":"St. Louis","country":"United States","lines":["B","Red"],"wikipedia":null,"merged_from":3,"merged_names":null,"is_terminus":false,"routes":[{"ref":"B","name":"MetroLink Blue Line","route_color":"#5f5fa8"},{"ref":"Red","name":"MetroLink Red Line","route_color":"#f80000"}],"pass_count":2,"station_degree":2,"codes":null,"is_interchange":false,"station_role":"normal"},"geometry":{"type":"Point","coordinates":[-90.1840228,38.62945593333333]},"__memberLines":{}},{"type":"Feature","properties":{"station_id":"n8441860038","station_name":"East Riverfront","station_name_local":"East Riverfront","station_name_en":null,"city":"St. Louis","country":"United States","lines":["B","Red"],"wikipedia":null,"merged_from":3,"merged_names":null,"is_terminus":false,"routes":[{"ref":"B","name":"MetroLink Blue Line","route_color":"#5f5fa8"},{"ref":"Red","name":"MetroLink Red Line","route_color":"#f80000"}],"pass_count":2,"station_degree":2,"codes":null,"is_interchange":false,"station_role":"normal"},"geometry":{"type":"Point","coordinates":[-90.1749691,38.628492333333334]},"__memberLines":{}},{"type":"Feature","properties":{"station_id":"n8441862740","station_name":"UMSL North","station_name_local":"UMSL North","station_name_en":null,"city":"St. Louis","country":"United States","lines":["Red"],"wikipedia":null,"merged_from":3,"merged_names":null,"is_terminus":false,"routes":[{"ref":"Red","name":"MetroLink Red Line","route_color":"#f80000"}],"pass_count":1,"station_degree":2,"codes":null,"is_interchange":false,"station_role":"normal"},"geometry":{"type":"Point","coordinates":[-90.30639723333333,38.713015633333335]},"__memberLines":{}},{"type":"Feature","properties":{"station_id":"n8441862742","station_name":"Wellston","station_name_local":"Wellston","station_name_en":null,"city":"St. Louis","country":"United States","lines":["Red"],"wikipedia":null,"merged_from":3,"merged_names":null,"is_terminus":false,"routes":[{"ref":"Red","name":"MetroLink Red Line","route_color":"#f80000"}],"pass_count":1,"station_degree":2,"codes":null,"is_interchange":false,"station_role":"normal"},"geometry":{"type":"Point","coordinates":[-90.29838339999999,38.66884083333333]},"__memberLines":{}},{"type":"Feature","properties":{"station_id":"n8441862744","station_name":"UMSL South","station_name_local":"UMSL South","station_name_en":null,"city":"St. Louis","country":"United States","lines":["Red"],"wikipedia":null,"merged_from":3,"merged_names":null,"is_terminus":false,"routes":[{"ref":"Red","name":"MetroLink Red Line","route_color":"#f80000"}],"pass_count":1,"station_degree":2,"codes":null,"is_interchange":false,"station_role":"normal"},"geometry":{"type":"Point","coordinates":[-90.30512633333335,38.70524326666666]},"__memberLines":{}},{"type":"Feature","properties":{"station_id":"n8441862746","station_name":"Sunnen","station_name_local":"Sunnen","station_name_en":null,"city":"St. Louis","country":"United States","lines":["B"],"wikipedia":null,"merged_from":3,"merged_names":null,"is_terminus":false,"routes":[{"ref":"B","name":"MetroLink Blue Line","route_color":"#5f5fa8"}],"pass_count":1,"station_degree":2,"codes":null,"is_interchange":false,"station_role":"normal"},"geometry":{"type":"Point","coordinates":[-90.33028506666666,38.60758243333333]},"__memberLines":{}},{"type":"Feature","properties":{"station_id":"n8441862748","station_name":"Shrewsbury-Lansdowne I-44","station_name_local":"Shrewsbury-Lansdowne I-44","station_name_en":null,"city":"St. Louis","country":"United States","lines":["B"],"wikipedia":null,"merged_from":3,"merged_names":null,"is_terminus":true,"routes":[{"ref":"B","name":"MetroLink Blue Line","route_color":"#5f5fa8"}],"pass_count":1,"station_degree":1,"codes":null,"is_interchange":false,"station_role":"terminus"},"geometry":{"type":"Point","coordinates":[-90.31944746666666,38.59338736666667]},"__memberLines":{}},{"type":"Feature","properties":{"station_id":"n8441862750","station_name":"Rock Road","station_name_local":"Rock Road","station_name_en":null,"city":"St. Louis","country":"United States","lines":["Red"],"wikipedia":null,"merged_from":3,"merged_names":null,"is_terminus":false,"routes":[{"ref":"Red","name":"MetroLink Red Line","route_color":"#f80000"}],"pass_count":1,"station_degree":2,"codes":null,"is_interchange":false,"station_role":"normal"},"geometry":{"type":"Point","coordinates":[-90.30141579999999,38.68522133333334]},"__memberLines":{}},{"type":"Feature","properties":{"station_id":"n8441862752","station_name":"Richmond Heights","station_name_local":"Richmond Heights","station_name_en":null,"city":"St. Louis","country":"United States","lines":["B"],"wikipedia":null,"merged_from":3,"merged_names":null,"is_terminus":false,"routes":[{"ref":"B","name":"MetroLink Blue Line","route_color":"#5f5fa8"}],"pass_count":1,"station_degree":2,"codes":null,"is_interchange":false,"station_role":"normal"},"geometry":{"type":"Point","coordinates":[-90.3420726,38.63487966666667]},"__memberLines":{}},{"type":"Feature","properties":{"station_id":"n8441862754","station_name":"North Hanley","station_name_local":"North Hanley","station_name_en":null,"city":"St. Louis","country":"United States","lines":["Red"],"wikipedia":null,"merged_from":3,"merged_names":null,"is_terminus":false,"routes":[{"ref":"Red","name":"MetroLink Red Line","route_color":"#f80000"}],"pass_count":1,"station_degree":2,"codes":null,"is_interchange":false,"station_role":"normal"},"geometry":{"type":"Point","coordinates":[-90.31553463333334,38.719965]},"__memberLines":{}},{"type":"Feature","properties":{"station_id":"n8441862756","station_name":"Lambert Airport Terminal 1","station_name_local":"Lambert Airport Terminal 1","station_name_en":null,"city":"St. Louis","country":"United States","lines":["Red"],"wikipedia":null,"merged_from":3,"merged_names":null,"is_terminus":true,"routes":[{"ref":"Red","name":"MetroLink Red Line","route_color":"#f80000"}],"pass_count":1,"station_degree":1,"codes":null,"is_interchange":false,"station_role":"terminus"},"geometry":{"type":"Point","coordinates":[-90.3646279,38.74120426666667]},"__memberLines":{}},{"type":"Feature","properties":{"station_id":"n8441862759","station_name":"Forsyth","station_name_local":"Forsyth","station_name_en":null,"city":"St. Louis","country":"United States","lines":["B"],"wikipedia":null,"merged_from":3,"merged_names":null,"is_terminus":false,"routes":[{"ref":"B","name":"MetroLink Blue Line","route_color":"#5f5fa8"}],"pass_count":1,"station_degree":2,"codes":null,"is_interchange":false,"station_role":"normal"},"geometry":{"type":"Point","coordinates":[-90.32814660000001,38.64892746666667]},"__memberLines":{}},{"type":"Feature","properties":{"station_id":"n8441862761","station_name":"Delmar Loop","station_name_local":"Delmar Loop","station_name_en":null,"city":"St. Louis","country":"United States","lines":["Red"],"wikipedia":null,"merged_from":3,"merged_names":null,"is_terminus":false,"routes":[{"ref":"Red","name":"MetroLink Red Line","route_color":"#f80000"}],"pass_count":1,"station_degree":2,"codes":null,"is_interchange":false,"station_role":"normal"},"geometry":{"type":"Point","coordinates":[-90.29459526666666,38.6557616]},"__memberLines":{}},{"type":"Feature","properties":{"station_id":"n8441862763","station_name":"Clayton","station_name_local":"Clayton","station_name_en":null,"city":"St. Louis","country":"United States","lines":["B"],"wikipedia":null,"merged_from":3,"merged_names":null,"is_terminus":false,"routes":[{"ref":"B","name":"MetroLink Blue Line","route_color":"#5f5fa8"}],"pass_count":1,"station_degree":2,"codes":null,"is_interchange":false,"station_role":"normal"},"geometry":{"type":"Point","coordinates":[-90.3399379,38.64562026666667]},"__memberLines":{}},{"type":"Feature","properties":{"station_id":"n8441862765","station_name":"Civic Center","station_name_local":"Civic Center","station_name_en":null,"city":"St. Louis","country":"United States","lines":["B","Red"],"wikipedia":null,"merged_from":3,"merged_names":null,"is_terminus":false,"routes":[{"ref":"B","name":"MetroLink Blue Line","route_color":"#5f5fa8"},{"ref":"Red","name":"MetroLink Red Line","route_color":"#f80000"}],"pass_count":2,"station_degree":2,"codes":null,"is_interchange":false,"station_role":"normal"},"geometry":{"type":"Point","coordinates":[-90.20309396666666,38.62479723333334]},"__memberLines":{}},{"type":"Feature","properties":{"station_id":"n8441862767","station_name":"Central West End","station_name_local":"Central West End","station_name_en":null,"city":"St. Louis","country":"United States","lines":["B","Red"],"wikipedia":null,"merged_from":3,"merged_names":null,"is_terminus":false,"routes":[{"ref":"B","name":"MetroLink Blue Line","route_color":"#5f5fa8"},{"ref":"Red","name":"MetroLink Red Line","route_color":"#f80000"}],"pass_count":2,"station_degree":2,"codes":null,"is_interchange":false,"station_role":"normal"},"geometry":{"type":"Point","coordinates":[-90.26210483333334,38.63589796666667]},"__memberLines":{}},{"type":"Feature","properties":{"station_id":"n8441875137","station_name":"Brentwood I-64","station_name_local":"Brentwood I-64","station_name_en":null,"city":"St. Louis","country":"United States","lines":["B"],"wikipedia":null,"merged_from":3,"merged_names":null,"is_terminus":false,"routes":[{"ref":"B","name":"MetroLink Blue Line","route_color":"#5f5fa8"}],"pass_count":1,"station_degree":2,"codes":null,"is_interchange":false,"station_role":"normal"},"geometry":{"type":"Point","coordinates":[-90.33808163333333,38.62845253333333]},"__memberLines":{}}]}