{"type":"FeatureCollection","metro_system":{"continent":"europe","country":"Spain","city":"Málaga","official_website":"https://metromalaga.es/","official_map":"https://es.wikipedia.org/wiki/Línea_1_(Metro_de_Málaga)","wikipedia":"es:Línea 1 (Metro de Málaga)","line_count":2,"segment_count":4,"station_count":19,"modes":["tram"],"audit":{"strategies_tried":[],"passed":true,"checks":[{"id":"has_lines","ok":true,"detail":"2 lines","level":"error"},{"id":"has_stations","ok":true,"detail":"19 stations","level":"error"},{"id":"stations_have_lines","ok":true,"detail":"19/19 站皆有所屬路線","level":"error"},{"id":"line_geometry_stations","ok":true,"detail":"22 個折點/端點皆為車站","level":"error"},{"id":"route_stations_match_geometry","ok":true,"detail":"各線車站列表與圖面一致","level":"error"},{"id":"interchange_rule","ok":true,"detail":"所有車站紅/藍點符合骨架＋路線色規則（藍＝端點、紅＝交叉）","level":"error"},{"id":"stations_named","ok":true,"detail":"19/19 站皆有名稱","level":"error"},{"id":"station_order","ok":true,"detail":"所有線路站序合理","level":"warn"},{"id":"line_wiki_stations","ok":true,"detail":"各線站數與 wiki 線路條目相符（營運中站數）","level":"error"},{"id":"line_wiki_coverage","ok":false,"detail":"2 條線無 wiki 站數對照：Línea 1、Línea 2","level":"warn"}],"reasons":[],"warnings":["2 條線無 wiki 站數對照：Línea 1、Línea 2"],"audited_at":"2026-07-27T02:39:14.896Z"}},"features":[{"type":"Feature","properties":{"seg_id":"malaga-0","routes":[{"route_id":"rm7781445","route_name":"Línea 1","route_name_local":"Línea 1","route_name_en":null,"route_ref":"L1","route_color":"#e60000","wikipedia":"es:Línea 1 (Metro de Málaga)","osm_route_ids":[4484360,7781441],"status":null,"order_suspect":0,"span_suspect":0,"stations":[{"station_id":"n1625341623","station_name":"Andalucía Tech"},{"station_id":"n13084305618","station_name":"Paraninfo"},{"station_id":"n1625341605","station_name":"El Cónsul"},{"station_id":"n1912826078","station_name":"Clínico"},{"station_id":"n4943984613","station_name":"Universidad"},{"station_id":"n13084305617","station_name":"Ciudad de la Justicia"},{"station_id":"n13084305616","station_name":"Portada Alta"},{"station_id":"n13084305615","station_name":"Carranque"},{"station_id":"n13084305614","station_name":"Barbarela"},{"station_id":"n13084305613","station_name":"La Unión"},{"station_id":"n6018008455","station_name":"El Perchel"},{"station_id":"n6018008476","station_name":"Guadalmedina"},{"station_id":"n2609573405","station_name":"Atarazanas"}]}],"route_count":1,"route_refs":["L1"],"route_colors":["#e60000"],"city":"Málaga","country":"Spain"},"geometry":{"type":"MultiLineString","coordinates":[[[-4.494442433333333,36.7188064],[-4.488705866666667,36.7179907],[-4.4840303666666665,36.7173267],[-4.478579566666666,36.71655379999999],[-4.472207733333334,36.717037233333336],[-4.4633294,36.71803505],[-4.4530332999999995,36.719353749999996],[-4.44909505,36.7186149],[-4.4460799,36.7116373],[-4.440107299999999,36.71069455],[-4.4323598,36.71271266666667]]]}},{"type":"Feature","properties":{"seg_id":"malaga-1","routes":[{"route_id":"rm7781445","route_name":"Línea 1","route_name_local":"Línea 1","route_name_en":null,"route_ref":"L1","route_color":"#e60000","wikipedia":"es:Línea 1 (Metro de Málaga)","osm_route_ids":[4484360,7781441],"status":null,"order_suspect":0,"span_suspect":0,"stations":[{"station_id":"n1625341623","station_name":"Andalucía Tech"},{"station_id":"n13084305618","station_name":"Paraninfo"},{"station_id":"n1625341605","station_name":"El Cónsul"},{"station_id":"n1912826078","station_name":"Clínico"},{"station_id":"n4943984613","station_name":"Universidad"},{"station_id":"n13084305617","station_name":"Ciudad de la Justicia"},{"station_id":"n13084305616","station_name":"Portada Alta"},{"station_id":"n13084305615","station_name":"Carranque"},{"station_id":"n13084305614","station_name":"Barbarela"},{"station_id":"n13084305613","station_name":"La Unión"},{"station_id":"n6018008455","station_name":"El Perchel"},{"station_id":"n6018008476","station_name":"Guadalmedina"},{"station_id":"n2609573405","station_name":"Atarazanas"}]}],"route_count":1,"route_refs":["L1"],"route_colors":["#e60000"],"city":"Málaga","country":"Spain"},"geometry":{"type":"MultiLineString","coordinates":[[[-4.429697833333333,36.7159853],[-4.42349335,36.7175857]]]}},{"type":"Feature","properties":{"seg_id":"malaga-2","routes":[{"route_id":"rm7781445","route_name":"Línea 1","route_name_local":"Línea 1","route_name_en":null,"route_ref":"L1","route_color":"#e60000","wikipedia":"es:Línea 1 (Metro de Málaga)","osm_route_ids":[4484360,7781441],"status":null,"order_suspect":0,"span_suspect":0,"stations":[{"station_id":"n1625341623","station_name":"Andalucía Tech"},{"station_id":"n13084305618","station_name":"Paraninfo"},{"station_id":"n1625341605","station_name":"El Cónsul"},{"station_id":"n1912826078","station_name":"Clínico"},{"station_id":"n4943984613","station_name":"Universidad"},{"station_id":"n13084305617","station_name":"Ciudad de la Justicia"},{"station_id":"n13084305616","station_name":"Portada Alta"},{"station_id":"n13084305615","station_name":"Carranque"},{"station_id":"n13084305614","station_name":"Barbarela"},{"station_id":"n13084305613","station_name":"La Unión"},{"station_id":"n6018008455","station_name":"El Perchel"},{"station_id":"n6018008476","station_name":"Guadalmedina"},{"station_id":"n2609573405","station_name":"Atarazanas"}]},{"route_id":"rm7781442","route_name":"Línea 2","route_name_local":"Línea 2","route_name_en":null,"route_ref":"L2","route_color":"#173ba0","wikipedia":"es:Línea 2 (Metro de Málaga)","osm_route_ids":[4484361,6598364],"status":null,"order_suspect":0,"span_suspect":0,"stations":[{"station_id":"n13084305612","station_name":"Palacio de los Deportes"},{"station_id":"n13084305611","station_name":"Puerta Blanca"},{"station_id":"n13084305610","station_name":"La Luz"},{"station_id":"n13084305609","station_name":"El Torcal"},{"station_id":"n13084305608","station_name":"Princesa - Huelin"},{"station_id":"n10858781452","station_name":"La Isla"},{"station_id":"n6018008455","station_name":"El Perchel"},{"station_id":"n6018008476","station_name":"Guadalmedina"}]}],"route_count":2,"route_refs":["L1","L2"],"route_colors":["#e60000","#173ba0"],"city":"Málaga","country":"Spain"},"geometry":{"type":"MultiLineString","coordinates":[[[-4.4323598,36.71271266666667],[-4.429697833333333,36.7159853]]]}},{"type":"Feature","properties":{"seg_id":"malaga-3","routes":[{"route_id":"rm7781442","route_name":"Línea 2","route_name_local":"Línea 2","route_name_en":null,"route_ref":"L2","route_color":"#173ba0","wikipedia":"es:Línea 2 (Metro de Málaga)","osm_route_ids":[4484361,6598364],"status":null,"order_suspect":0,"span_suspect":0,"stations":[{"station_id":"n13084305612","station_name":"Palacio de los Deportes"},{"station_id":"n13084305611","station_name":"Puerta Blanca"},{"station_id":"n13084305610","station_name":"La Luz"},{"station_id":"n13084305609","station_name":"El Torcal"},{"station_id":"n13084305608","station_name":"Princesa - Huelin"},{"station_id":"n10858781452","station_name":"La Isla"},{"station_id":"n6018008455","station_name":"El Perchel"},{"station_id":"n6018008476","station_name":"Guadalmedina"}]}],"route_count":1,"route_refs":["L2"],"route_colors":["#173ba0"],"city":"Málaga","country":"Spain"},"geometry":{"type":"MultiLineString","coordinates":[[[-4.458305,36.684557999999996],[-4.455913799999999,36.691793000000004],[-4.4513129,36.6954139],[-4.446081400000001,36.69953155],[-4.44030535,36.704065299999996],[-4.435475350000001,36.707882999999995],[-4.4323598,36.71271266666667]]]}},{"type":"Feature","properties":{"station_id":"n1625341605","station_name":"El Cónsul","station_name_local":"El Cónsul","station_name_en":null,"city":"Málaga","country":"Spain","lines":["L1"],"wikipedia":null,"merged_from":3,"merged_names":null,"is_terminus":false,"routes":[{"ref":"L1","name":"Línea 1","route_color":"#e60000"}],"pass_count":1,"station_degree":2,"codes":null,"is_interchange":false,"station_role":"normal"},"geometry":{"type":"Point","coordinates":[-4.4840303666666665,36.7173267]},"__memberLines":{}},{"type":"Feature","properties":{"station_id":"n1625341623","station_name":"Andalucía Tech","station_name_local":"Andalucía Tech","station_name_en":null,"city":"Málaga","country":"Spain","lines":["L1"],"wikipedia":null,"merged_from":3,"merged_names":null,"is_terminus":true,"routes":[{"ref":"L1","name":"Línea 1","route_color":"#e60000"}],"pass_count":1,"station_degree":1,"codes":null,"is_interchange":false,"station_role":"terminus"},"geometry":{"type":"Point","coordinates":[-4.494442433333333,36.7188064]},"__memberLines":{}},{"type":"Feature","properties":{"station_id":"n1912826078","station_name":"Clínico","station_name_local":"Clínico","station_name_en":null,"city":"Málaga","country":"Spain","lines":["L1"],"wikipedia":null,"merged_from":3,"merged_names":null,"is_terminus":false,"routes":[{"ref":"L1","name":"Línea 1","route_color":"#e60000"}],"pass_count":1,"station_degree":2,"codes":null,"is_interchange":false,"station_role":"normal"},"geometry":{"type":"Point","coordinates":[-4.478579566666666,36.71655379999999]},"__memberLines":{}},{"type":"Feature","properties":{"station_id":"n2609573405","station_name":"Atarazanas","station_name_local":"Atarazanas","station_name_en":null,"city":"Málaga","country":"Spain","lines":["L1"],"wikipedia":null,"merged_from":2,"merged_names":null,"is_terminus":true,"routes":[{"ref":"L1","name":"Línea 1","route_color":"#e60000"}],"pass_count":1,"station_degree":1,"codes":null,"is_interchange":false,"station_role":"terminus"},"geometry":{"type":"Point","coordinates":[-4.42349335,36.7175857]},"__memberLines":{}},{"type":"Feature","properties":{"station_id":"n4943984613","station_name":"Universidad","station_name_local":"Universidad","station_name_en":null,"city":"Málaga","country":"Spain","lines":["L1"],"wikipedia":null,"merged_from":3,"merged_names":null,"is_terminus":false,"routes":[{"ref":"L1","name":"Línea 1","route_color":"#e60000"}],"pass_count":1,"station_degree":2,"codes":null,"is_interchange":false,"station_role":"normal"},"geometry":{"type":"Point","coordinates":[-4.472207733333334,36.717037233333336]},"__memberLines":{}},{"type":"Feature","properties":{"station_id":"n6018008455","station_name":"El Perchel","station_name_local":"El Perchel","station_name_en":null,"city":"Málaga","country":"Spain","lines":["L1","L2"],"wikipedia":null,"merged_from":3,"merged_names":null,"is_terminus":false,"routes":[{"ref":"L1","name":"Línea 1","route_color":"#e60000"},{"ref":"L2","name":"Línea 2","route_color":"#173ba0"}],"pass_count":2,"station_degree":3,"codes":null,"is_interchange":true,"station_role":"interchange"},"geometry":{"type":"Point","coordinates":[-4.4323598,36.71271266666667]},"__memberLines":{}},{"type":"Feature","properties":{"station_id":"n6018008476","station_name":"Guadalmedina","station_name_local":"Guadalmedina","station_name_en":null,"city":"Málaga","country":"Spain","lines":["L1","L2"],"wikipedia":null,"merged_from":3,"merged_names":null,"is_terminus":false,"routes":[{"ref":"L1","name":"Línea 1","route_color":"#e60000"},{"ref":"L2","name":"Línea 2","route_color":"#173ba0"}],"pass_count":2,"station_degree":2,"codes":null,"is_interchange":true,"station_role":"interchange"},"geometry":{"type":"Point","coordinates":[-4.429697833333333,36.7159853]},"__memberLines":{}},{"type":"Feature","properties":{"station_id":"n10858781452","station_name":"La Isla","station_name_local":"La Isla","station_name_en":null,"city":"Málaga","country":"Spain","lines":["L2"],"wikipedia":null,"merged_from":2,"merged_names":null,"is_terminus":false,"routes":[{"ref":"L2","name":"Línea 2","route_color":"#173ba0"}],"pass_count":1,"station_degree":2,"codes":null,"is_interchange":false,"station_role":"normal"},"geometry":{"type":"Point","coordinates":[-4.435475350000001,36.707882999999995]},"__memberLines":{}},{"type":"Feature","properties":{"station_id":"n13084305608","station_name":"Princesa - Huelin","station_name_local":"Princesa - Huelin","station_name_en":null,"city":"Málaga","country":"Spain","lines":["L2"],"wikipedia":null,"merged_from":2,"merged_names":null,"is_terminus":false,"routes":[{"ref":"L2","name":"Línea 2","route_color":"#173ba0"}],"pass_count":1,"station_degree":2,"codes":null,"is_interchange":false,"station_role":"normal"},"geometry":{"type":"Point","coordinates":[-4.44030535,36.704065299999996]},"__memberLines":{}},{"type":"Feature","properties":{"station_id":"n13084305609","station_name":"El Torcal","station_name_local":"El Torcal","station_name_en":null,"city":"Málaga","country":"Spain","lines":["L2"],"wikipedia":null,"merged_from":2,"merged_names":null,"is_terminus":false,"routes":[{"ref":"L2","name":"Línea 2","route_color":"#173ba0"}],"pass_count":1,"station_degree":2,"codes":null,"is_interchange":false,"station_role":"normal"},"geometry":{"type":"Point","coordinates":[-4.446081400000001,36.69953155]},"__memberLines":{}},{"type":"Feature","properties":{"station_id":"n13084305610","station_name":"La Luz","station_name_local":"La Luz","station_name_en":null,"city":"Málaga","country":"Spain","lines":["L2"],"wikipedia":null,"merged_from":2,"merged_names":null,"is_terminus":false,"routes":[{"ref":"L2","name":"Línea 2","route_color":"#173ba0"}],"pass_count":1,"station_degree":2,"codes":null,"is_interchange":false,"station_role":"normal"},"geometry":{"type":"Point","coordinates":[-4.4513129,36.6954139]},"__memberLines":{}},{"type":"Feature","properties":{"station_id":"n13084305611","station_name":"Puerta Blanca","station_name_local":"Puerta Blanca","station_name_en":null,"city":"Málaga","country":"Spain","lines":["L2"],"wikipedia":null,"merged_from":2,"merged_names":null,"is_terminus":false,"routes":[{"ref":"L2","name":"Línea 2","route_color":"#173ba0"}],"pass_count":1,"station_degree":2,"codes":null,"is_interchange":false,"station_role":"normal"},"geometry":{"type":"Point","coordinates":[-4.455913799999999,36.691793000000004]},"__memberLines":{}},{"type":"Feature","properties":{"station_id":"n13084305612","station_name":"Palacio de los Deportes","station_name_local":"Palacio de los Deportes","station_name_en":null,"city":"Málaga","country":"Spain","lines":["L2"],"wikipedia":null,"merged_from":2,"merged_names":null,"is_terminus":true,"routes":[{"ref":"L2","name":"Línea 2","route_color":"#173ba0"}],"pass_count":1,"station_degree":1,"codes":null,"is_interchange":false,"station_role":"terminus"},"geometry":{"type":"Point","coordinates":[-4.458305,36.684557999999996]},"__memberLines":{}},{"type":"Feature","properties":{"station_id":"n13084305613","station_name":"La Unión","station_name_local":"La Unión","station_name_en":null,"city":"Málaga","country":"Spain","lines":["L1"],"wikipedia":null,"merged_from":2,"merged_names":null,"is_terminus":false,"routes":[{"ref":"L1","name":"Línea 1","route_color":"#e60000"}],"pass_count":1,"station_degree":2,"codes":null,"is_interchange":false,"station_role":"normal"},"geometry":{"type":"Point","coordinates":[-4.440107299999999,36.71069455]},"__memberLines":{}},{"type":"Feature","properties":{"station_id":"n13084305614","station_name":"Barbarela","station_name_local":"Barbarela","station_name_en":null,"city":"Málaga","country":"Spain","lines":["L1"],"wikipedia":null,"merged_from":2,"merged_names":null,"is_terminus":false,"routes":[{"ref":"L1","name":"Línea 1","route_color":"#e60000"}],"pass_count":1,"station_degree":2,"codes":null,"is_interchange":false,"station_role":"normal"},"geometry":{"type":"Point","coordinates":[-4.4460799,36.7116373]},"__memberLines":{}},{"type":"Feature","properties":{"station_id":"n13084305615","station_name":"Carranque","station_name_local":"Carranque","station_name_en":null,"city":"Málaga","country":"Spain","lines":["L1"],"wikipedia":null,"merged_from":2,"merged_names":null,"is_terminus":false,"routes":[{"ref":"L1","name":"Línea 1","route_color":"#e60000"}],"pass_count":1,"station_degree":2,"codes":null,"is_interchange":false,"station_role":"normal"},"geometry":{"type":"Point","coordinates":[-4.44909505,36.7186149]},"__memberLines":{}},{"type":"Feature","properties":{"station_id":"n13084305616","station_name":"Portada Alta","station_name_local":"Portada Alta","station_name_en":null,"city":"Málaga","country":"Spain","lines":["L1"],"wikipedia":null,"merged_from":2,"merged_names":null,"is_terminus":false,"routes":[{"ref":"L1","name":"Línea 1","route_color":"#e60000"}],"pass_count":1,"station_degree":2,"codes":null,"is_interchange":false,"station_role":"normal"},"geometry":{"type":"Point","coordinates":[-4.4530332999999995,36.719353749999996]},"__memberLines":{}},{"type":"Feature","properties":{"station_id":"n13084305617","station_name":"Ciudad de la Justicia","station_name_local":"Ciudad de la Justicia","station_name_en":null,"city":"Málaga","country":"Spain","lines":["L1"],"wikipedia":null,"merged_from":2,"merged_names":null,"is_terminus":false,"routes":[{"ref":"L1","name":"Línea 1","route_color":"#e60000"}],"pass_count":1,"station_degree":2,"codes":null,"is_interchange":false,"station_role":"normal"},"geometry":{"type":"Point","coordinates":[-4.4633294,36.71803505]},"__memberLines":{}},{"type":"Feature","properties":{"station_id":"n13084305618","station_name":"Paraninfo","station_name_local":"Paraninfo","station_name_en":null,"city":"Málaga","country":"Spain","lines":["L1"],"wikipedia":null,"merged_from":3,"merged_names":null,"is_terminus":false,"routes":[{"ref":"L1","name":"Línea 1","route_color":"#e60000"}],"pass_count":1,"station_degree":2,"codes":null,"is_interchange":false,"station_role":"normal"},"geometry":{"type":"Point","coordinates":[-4.488705866666667,36.7179907]},"__memberLines":{}}]}