{"type":"FeatureCollection","features":[{"type":"Feature","properties":{"route_ref":"21","route_color":"#ff0010"},"geometry":{"type":"LineString","coordinates":[[5.177061567131282,52.09152412157359],[5.1781903870291135,52.09143515768181],[5.179034355958405,52.09094753816135],[5.180474943566787,52.090813928543774],[5.181824162859897,52.090799953560065],[5.182326692409556,52.09060107252277],[5.183470981900038,52.088817692938186],[5.183783181959582,52.08799418548568],[5.1836648,52.087202],[5.1830289371441856,52.08646643923272],[5.182305815483409,52.08604925070643],[5.1811537,52.0855924],[5.178399133333333,52.08501603333333],[5.178108307255329,52.084874229066536],[5.167087706303965,52.084856694693215],[5.166507118057079,52.08477693411211],[5.165697463910019,52.08440221846495],[5.164747387829682,52.084188703970014],[5.1619050943288025,52.08412106722644],[5.160015712113765,52.084326046223836],[5.159407742732987,52.08426980085286],[5.158425292543333,52.08397078054628],[5.152688433018953,52.08076577630415],[5.1503280565608485,52.079613243046],[5.149629768774689,52.07914728345605],[5.149484604077364,52.07871585341959],[5.150150652695384,52.07754084430619],[5.150090834389296,52.07703373966051],[5.147458425483562,52.071988535574384],[5.146773717837981,52.071020447326696],[5.145813834541824,52.070160309118954],[5.145133363856901,52.06979139234106],[5.144398288295787,52.06960975479207],[5.143917583370593,52.069587476446245],[5.142585798836947,52.069850571723215],[5.140912672110186,52.070548290646066],[5.139214348488421,52.071493989176744],[5.13635328384376,52.07348825934457],[5.133582678630753,52.07489984997961],[5.122118022922345,52.07896125703936],[5.120841713965699,52.0794418994763],[5.119836944771534,52.07995094571379],[5.118686825768716,52.08079524511919],[5.117592531031357,52.08190773617897],[5.112778783706421,52.087144355182154],[5.112156665222919,52.08805506653641],[5.112467495126456,52.088768584009415],[5.111110834875084,52.09033761129242],[5.110509861603853,52.09067792905657],[5.109662970287786,52.091463839269636],[5.109270515129243,52.09246434414389],[5.108884119889047,52.09260965867993],[5.108388637754751,52.09256641356158],[5.106332463963999,52.091865676148466],[5.106091632366292,52.0916289560071],[5.106037165143791,52.0913649143408],[5.106824277933684,52.090278832937564],[5.106665373694891,52.08993443388512],[5.105207088808418,52.08940178281675],[5.104088323860499,52.08933551444979],[5.103136550000005,52.089138],[5.101195341999497,52.088428065668886],[5.100637984902009,52.0878165800586],[5.099851928637262,52.08640410456118],[5.099156093668784,52.08582902312189],[5.094644573801582,52.082661568641186],[5.093505371567206,52.08203877456073],[5.09173660741499,52.0812602571565],[5.091417370866292,52.080888031413124],[5.0913552756124245,52.0805363563597],[5.091872675000004,52.079747825],[5.103069596067804,52.06773525287032],[5.10425757985706,52.066934375835665],[5.105034489255635,52.06670587789518],[5.106592489664248,52.06645503830379],[5.107183030556603,52.066136864214045],[5.107409534934862,52.06584040337115],[5.107505144744397,52.065211700471245],[5.107247875072058,52.06370990594526],[5.105661133065082,52.05867946733153],[5.105821289978333,52.057889577650165],[5.107107973084481,52.05540612280734],[5.107063138667093,52.05465705935117],[5.106833798568251,52.05422362860689],[5.106514950691729,52.05390160325846],[5.105587140128236,52.053421711807026],[5.101710480038914,52.052334348884315],[5.100903583551548,52.051986981265316],[5.100217178636637,52.05151470670573],[5.099713723601033,52.05077464350024],[5.099553867556054,52.050190124844995],[5.100007757639281,52.047842904317534],[5.0999858815813575,52.047069744144736],[5.099332312153714,52.046053746271916],[5.09875492184288,52.0456124400849],[5.0977882310806075,52.04513585296891],[5.096236428050763,52.04481178914252],[5.094811214970229,52.04483801660566],[5.088540417751017,52.04615687332643],[5.087097150180414,52.04631257216492],[5.085928549999999,52.04626035],[5.084696419583345,52.04598187204586],[5.083574319149726,52.045471381718386],[5.083007340408682,52.0449998128031],[5.0801025000000015,52.0412202],[5.079114282853142,52.0396628722153],[5.078578889473686,52.038081942105265],[5.077196996537223,52.03280429028078],[5.076123460800808,52.03035321547502],[5.076222828160536,52.03000171787803],[5.076611120866881,52.02969585045816],[5.078459675259004,52.02932644011067],[5.079070821429502,52.02901792944359],[5.080010557918478,52.027960331822875],[5.08033038793571,52.027425447008284],[5.080416646046225,52.02707818659882],[5.080263755297301,52.02659465134653],[5.07968896117914,52.02570998397508],[5.078671400107078,52.02462274204449],[5.075248120340964,52.02208739103486],[5.073115836156713,52.019433197387144],[5.072132626263067,52.01877107687039],[5.071039301261214,52.01850064960732],[5.069893876578269,52.018511289768846],[5.066500813679823,52.019181092363134],[5.064742635680437,52.01966835565254],[5.06329164573754,52.02021253490587],[5.061989479073504,52.02083687169463],[5.058735415949973,52.023004257557545],[5.05737292407384,52.02371092732077],[5.053878782366825,52.024841404315616],[5.051410598632256,52.02532662495286],[5.049382645412605,52.02588949612411],[5.045502,52.0275141],[5.044140537878459,52.027979747176],[5.042767853500582,52.0282930858086],[5.04127664517624,52.028293112317506],[5.039754634885735,52.0278469111664],[5.037341923303503,52.02621183897075],[5.033614217802492,52.02407339728987],[5.032775419519358,52.0237742066901],[5.030119200000003,52.023178975],[5.029046263743474,52.02278376501089],[5.028457666666667,52.02224176666667],[5.0281106989384226,52.02168878309578],[5.028051360361197,52.021223006875076],[5.028268353053743,52.02060589837571],[5.028946948512015,52.01987625685665],[5.030513417674336,52.01907067050281],[5.031842467514815,52.01705397138335],[5.03242230712003,52.01649993155853],[5.033371827916637,52.01610787615046],[5.034584557270845,52.01601234126859],[5.038096551615698,52.01672899567521],[5.03909972427524,52.01675502915471],[5.042697992110214,52.01618329527191],[5.0436207263105794,52.015699643797255],[5.043971474928255,52.015293992714355],[5.044131729593212,52.014811747041314],[5.044060164634867,52.01427024533404],[5.0426296437373725,52.01055630730696],[5.042224384242712,52.01025529855187],[5.041714773280183,52.010059410526274],[5.038782715459759,52.009405754343696]]}},{"type":"Feature","properties":{"route_ref":"20","route_color":"#ff0010"},"geometry":{"type":"LineString","coordinates":[[5.177061567131282,52.09152412157359],[5.1781903870291135,52.09143515768181],[5.179034355958405,52.09094753816135],[5.180474943566787,52.090813928543774],[5.181824162859897,52.090799953560065],[5.182326692409556,52.09060107252277],[5.183470981900038,52.088817692938186],[5.183783181959582,52.08799418548568],[5.1836648,52.087202],[5.1830289371441856,52.08646643923272],[5.182305815483409,52.08604925070643],[5.1811537,52.0855924],[5.178399133333333,52.08501603333333],[5.178108307255329,52.084874229066536],[5.167087706303965,52.084856694693215],[5.166507118057079,52.08477693411211],[5.165697463910019,52.08440221846495],[5.164747387829682,52.084188703970014],[5.1619050943288025,52.08412106722644],[5.160015712113765,52.084326046223836],[5.159407742732987,52.08426980085286],[5.158425292543333,52.08397078054628],[5.152688433018953,52.08076577630415],[5.1503280565608485,52.079613243046],[5.149629768774689,52.07914728345605],[5.149484604077364,52.07871585341959],[5.150150652695384,52.07754084430619],[5.150090834389296,52.07703373966051],[5.147545941606925,52.07214687443405],[5.146857285003017,52.07111687781725],[5.146220557977552,52.070487715153405],[5.145336372021436,52.06987857097022],[5.144398288295787,52.06960975479207],[5.143152080970211,52.06968783919167],[5.142190410963849,52.06999304013627],[5.140912672110186,52.070548290646066],[5.139214348488421,52.071493989176744],[5.13635328384376,52.07348825934457],[5.13328479495343,52.07502758161826],[5.1210268365653056,52.07936474008188],[5.119562175712526,52.080120296365365],[5.118686825768716,52.08079524511919],[5.117592531031357,52.08190773617897],[5.112778783706421,52.087144355182154],[5.112156665222919,52.08805506653641],[5.112467495126456,52.088768584009415],[5.111110834875084,52.09033761129242],[5.110509861603853,52.09067792905657],[5.109662970287786,52.091463839269636],[5.109418500320734,52.09187659896406],[5.109365647947703,52.09234825596413],[5.108982222684975,52.09259699140707],[5.108197110409789,52.09251191552698],[5.106566200763176,52.091959637232556],[5.1061764173082596,52.0917301422523],[5.106041760686009,52.091475420296895],[5.106140015664425,52.09109187728138],[5.106831668511712,52.09025707771882],[5.106665373694891,52.08993443388512],[5.105207088808418,52.08940178281675],[5.104088323860499,52.08933551444979],[5.103136550000005,52.089138],[5.101195341999497,52.088428065668886],[5.100637984902009,52.0878165800586],[5.099851928637262,52.08640410456118],[5.099156093668784,52.08582902312189],[5.094644573801582,52.082661568641186],[5.093505371567206,52.08203877456073],[5.09173660741499,52.0812602571565],[5.091417370866292,52.080888031413124],[5.0913552756124245,52.0805363563597],[5.091872675000004,52.079747825],[5.102974882690687,52.067826398850606],[5.103583999478376,52.06730902509745],[5.10425757985706,52.066934375835665],[5.105034489255635,52.06670587789518],[5.106592489664248,52.06645503830379],[5.107183030556603,52.066136864214045],[5.107409534934862,52.06584040337115],[5.107505144744397,52.065211700471245],[5.107247875072058,52.06370990594526],[5.105661133065082,52.05867946733153],[5.105754148233178,52.05804409536451],[5.10707305217987,52.05549644027293],[5.107144033872258,52.05508420717745],[5.106901748131092,52.05431049521426],[5.106188706632933,52.0536942734548],[5.105276065367107,52.05331678885409],[5.101710480038914,52.052334348884315],[5.100801893598015,52.05192714174009],[5.10008361868206,52.05137639343332],[5.099713723601033,52.05077464350024],[5.099553867556054,52.050190124844995],[5.100007757639281,52.047842904317534],[5.0999858815813575,52.047069744144736],[5.099332312153714,52.046053746271916],[5.098410277179223,52.04542023823618],[5.0977882310806075,52.04513585296891],[5.096925898864997,52.0449077812179],[5.095417110804243,52.04479927759999],[5.094104357444734,52.04493460230035],[5.088072642933183,52.04624003648446],[5.087097150180414,52.04631257216492],[5.085928549999999,52.04626035],[5.084696419583345,52.04598187204586],[5.083574319149726,52.045471381718386],[5.082743483159817,52.04470570434768],[5.079857608111368,52.040880263738856],[5.079114282853142,52.0396628722153],[5.078578889473686,52.038081942105265],[5.077196996537223,52.03280429028078],[5.076167396572938,52.03054481051005],[5.076222828160536,52.03000171787803],[5.0767218503116025,52.02964595408913],[5.078459675259004,52.02932644011067],[5.0789194548803085,52.02913448280221],[5.080552101443498,52.02724379961897],[5.081226152981819,52.02681235557501],[5.08229906666667,52.02651503333334],[5.087188231403234,52.02547948493857],[5.088247748429316,52.02520809746985],[5.088868550305923,52.02491597898024],[5.089924300245239,52.02410708729875],[5.090401634607151,52.0232430295546],[5.090236702953345,52.02200969612593],[5.088044552342601,52.0172202613032],[5.088066936560657,52.01602048689153],[5.088801572750515,52.013659848456],[5.088878163986646,52.0124304943805],[5.0865975768226805,52.00627199892242]]}},{"type":"Feature","properties":{"route_ref":"22","route_color":"#ff0010"},"geometry":{"type":"LineString","coordinates":[[5.177061567131282,52.09152412157359],[5.1781903870291135,52.09143515768181],[5.179034355958405,52.09094753816135],[5.180474943566787,52.090813928543774],[5.181824162859897,52.090799953560065],[5.182326692409556,52.09060107252277],[5.183470981900038,52.088817692938186],[5.183783181959582,52.08799418548568],[5.1836648,52.087202],[5.1830289371441856,52.08646643923272],[5.182305815483409,52.08604925070643],[5.1811537,52.0855924],[5.178399133333333,52.08501603333333],[5.178108307255329,52.084874229066536],[5.167087706303965,52.084856694693215],[5.166507118057079,52.08477693411211],[5.165697463910019,52.08440221846495],[5.164747387829682,52.084188703970014],[5.1619050943288025,52.08412106722644],[5.160015712113765,52.084326046223836],[5.159407742732987,52.08426980085286],[5.158425292543333,52.08397078054628],[5.149629768774689,52.07914728345605],[5.149484604077364,52.07871585341959],[5.150150652695384,52.07754084430619],[5.150090834389296,52.07703373966051],[5.147458425483562,52.071988535574384],[5.146773717837981,52.071020447326696],[5.145813834541824,52.070160309118954],[5.145133363856901,52.06979139234106],[5.144022500980974,52.06958740622089],[5.143152080970211,52.06968783919167],[5.142585798836947,52.069850571723215],[5.140912672110186,52.070548290646066],[5.139214348488421,52.071493989176744],[5.13635328384376,52.07348825934457],[5.133582678630753,52.07489984997961],[5.122118022922345,52.07896125703936],[5.120841713965699,52.0794418994763],[5.119744709498914,52.08000693822079],[5.118686825768716,52.08079524511919],[5.117592531031357,52.08190773617897],[5.112911173407867,52.08698955816622],[5.112168774174993,52.08800858721425],[5.112287483155927,52.08871685006638],[5.111687530006961,52.08943093133937],[5.112233943140012,52.08878430035312],[5.11224816709569,52.088841879596096],[5.111573053086931,52.089477892054454],[5.111700428983903,52.08953639343496],[5.11162115,52.089493299999994],[5.112285828598085,52.088717145895515],[5.112170995701169,52.08800143522677],[5.112895922583071,52.08700730733812],[5.117730371382272,52.08176013779414],[5.118683678049945,52.080797857491696],[5.119749691800813,52.08000390832678],[5.120714846776712,52.079499353588055],[5.1218538971665595,52.079054253994045],[5.1336384794463115,52.074876598896175],[5.13640272980097,52.07345799466103],[5.13893514148239,52.07167376598532],[5.140637764331016,52.07068345707631],[5.142517404268175,52.06987084470787],[5.143287473847394,52.06965729040221],[5.144036257453463,52.0695855084486],[5.14486901215592,52.06971740373566],[5.1456758180228865,52.07006308587582],[5.1468065974333985,52.07102119708489],[5.147285378792246,52.07168728545933],[5.15009037427441,52.077032660115556],[5.150154986151784,52.07751956179563],[5.149481351767221,52.07873214101455],[5.149631941756053,52.07914936415472],[5.158390549715925,52.08395537197322],[5.159097574404371,52.084198779191105],[5.1599796225513845,52.0843231450284],[5.161904840313476,52.08412131909176],[5.164741252867032,52.08418783861192],[5.165649799131861,52.084382150303696],[5.166501517154587,52.08477484771882],[5.16710925805462,52.08485700092884],[5.178367066562687,52.08486626394396],[5.180407683679128,52.0852288790355],[5.182701702927514,52.0862496049571],[5.183472569326374,52.08687491628313],[5.183824708618484,52.08759887477326],[5.183701343119022,52.08838130592211],[5.182560356886022,52.09035299819541],[5.181976564700334,52.090774462483246],[5.179027095695716,52.09094828853193],[5.17823,52.0913888]]}}]}