{"type":"FeatureCollection","features":[{"type":"Feature","properties":{"route_ref":"SIR1","route_color":"#f5a6ad"},"geometry":{"type":"LineString","coordinates":[[11.87518937971138,45.367823620637026],[11.87262114655289,45.368111770650636],[11.872209510695374,45.36821012180139],[11.87207386220225,45.36834671072531],[11.87234701777011,45.370259095575875],[11.872297054236775,45.37079405300801],[11.870601878404319,45.37400006125677],[11.870526520619261,45.37432525044467],[11.870880351061134,45.376154589157444],[11.87090409092327,45.376859253631984],[11.870638390789443,45.37855990116255],[11.869509233333332,45.380657666666664],[11.869330718603107,45.380694701035694],[11.868323462177093,45.3852332431325],[11.86814107784443,45.38537200428225],[11.866846740648029,45.38576580648138],[11.866238749512544,45.38610764501575],[11.86611235505948,45.38627874293431],[11.86852549871515,45.38763939510189],[11.86981319289657,45.389041971912626],[11.870120596559554,45.38965350253454],[11.871070288180745,45.39256120342509],[11.871483566666665,45.39307266666667],[11.875651961618617,45.399854289513364],[11.876010680233968,45.39996341165818],[11.87734213105394,45.39958484790917],[11.877972062499994,45.39989302499999],[11.878464912488468,45.40027941285226],[11.87841676056802,45.40040011819899],[11.877398589786724,45.400860232850086],[11.876539894438698,45.40156705304817],[11.8762669,45.4021739],[11.876436216818492,45.40290262833668],[11.87625868396197,45.40353317613613],[11.878418461227994,45.40729459639135],[11.87851538477387,45.4078328860006],[11.878514558463745,45.40988549606297],[11.87821239916594,45.410686410829044],[11.879468358813664,45.4166722028159],[11.879589138341695,45.41675939998854],[11.87983303734489,45.41675486641302],[11.881099483119426,45.41656505073837],[11.881300061420449,45.416710522113966],[11.88107277702888,45.416865478805875],[11.87969103404993,45.41709817425553],[11.879167062720846,45.417331337342986],[11.878266533187924,45.41745753953659],[11.877912376354677,45.41761760600281],[11.877848158356729,45.41781051034355],[11.87855103897153,45.418605323246645],[11.878938214216191,45.420034114216186],[11.880470499468093,45.4205995340571],[11.881755725020623,45.421251512906245],[11.882852304410816,45.42203017898217],[11.883593152079431,45.422795714435225],[11.88459596715862,45.424024465950566],[11.885548481600381,45.42554015012972],[11.887613125242114,45.42817632167636],[11.889282935822646,45.431110529323576],[11.891100120799933,45.435122575127764],[11.891955649932461,45.43665830239182],[11.891643750150884,45.43691261416833],[11.890835257840752,45.43723242042033],[11.889686716463375,45.438443136015344],[11.888545787236298,45.43940629815488],[11.88958892836755,45.440965934246755],[11.889744205671052,45.44186937082915],[11.889945334267004,45.44197528517205],[11.890703428864027,45.44199463342295],[11.889952766036734,45.441980174294834],[11.88976415227229,45.44189907482148],[11.889589350797976,45.44096725046564],[11.88854101949902,45.43940644638199],[11.888780709140876,45.43911728543381],[11.889692522408875,45.43843685158459],[11.890843612683854,45.43722513963004],[11.891657000802143,45.43690669639611],[11.891951414863698,45.43666039262552],[11.89088603742424,45.4346990602492],[11.890098809815148,45.43277265382706],[11.888877615244665,45.430346569091625],[11.887555031932857,45.42809920890568],[11.88567502168172,45.42570325694755],[11.884390355333398,45.42375040762677],[11.883382994857126,45.42255608176133],[11.882589250304386,45.42181794753324],[11.88184423343325,45.421301109712836],[11.880327788533286,45.42054499767719],[11.878940040785887,45.42003737960764],[11.878554411219156,45.41860977572057],[11.877852526759332,45.417824001544496],[11.877879991124336,45.41764572085039],[11.878117182539246,45.41750046433185],[11.879424767203517,45.417239362171806],[11.879508794991231,45.416881618846055],[11.878217860527148,45.41073782343305],[11.878517791312154,45.4098684973492],[11.878446143376593,45.407421941974114],[11.877698238931409,45.40592608678506],[11.876315778962104,45.40369399955692],[11.876241997749007,45.403462789280205],[11.8764312,45.4029108],[11.876268135840027,45.402178178553825],[11.876365629417752,45.40183555189199],[11.87674720885951,45.401334415234885],[11.877547274021211,45.4007634016499],[11.878416944185973,45.40039982245045],[11.87846682605015,45.40029750676674],[11.878246332470399,45.40006789639443],[11.877334770543856,45.39958463820344],[11.876027024401683,45.399962062661295],[11.875820327501268,45.399951530090846],[11.875617203788483,45.39981791683492],[11.87150360353963,45.393110582920386],[11.871062691553789,45.392546065808084],[11.870120435853215,45.38965378267993],[11.869813564611782,45.38904199383978],[11.868721972922838,45.387796357377475],[11.865881376423241,45.38616121955754],[11.865563895303806,45.38569142942619],[11.865497037940708,45.38419593120903],[11.86573769919116,45.38349680683583],[11.869142620215271,45.38093823696272],[11.869847204608586,45.38001818875702],[11.8706983806024,45.37839560393239],[11.870874162310669,45.37625170776653],[11.87052612995101,45.37430315837253],[11.872320516532074,45.370720266884476],[11.87207210901886,45.368343405234384],[11.872227585461683,45.36819940392527],[11.872623985171613,45.36811057925566],[11.875189324151592,45.36782357794337]]}}]}