{"type":"FeatureCollection","metro_system":{"continent":"asia","country":"Turkey","city":"Adana","official_website":null,"official_map":"https://en.wikipedia.org/wiki/Adana_Metro","wikipedia":"en:Adana Metro","wiki":true,"wikipedia_zh":"zh:阿達納地鐵","line_count":1,"segment_count":1,"station_count":13,"modes":["metro"],"audit":{"strategies_tried":[],"passed":true,"checks":[{"id":"system_exists","ok":true,"detail":"matched OSM system metro-maps/asia/turkey/as-tur-adana/as-tur-adana.geojson","level":"error"},{"id":"has_lines","ok":true,"detail":"1 lines","level":"error"},{"id":"has_stations","ok":true,"detail":"13 stations","level":"error"},{"id":"station_count_info","ok":true,"detail":"OSM 13 站（wiki List 記 13，計法含轉乘重複，僅參考）","level":"warn"},{"id":"stations_have_lines","ok":true,"detail":"13/13 站皆有所屬路線","level":"error"},{"id":"line_geometry_stations","ok":true,"detail":"13 個折點/端點皆為車站","level":"error"},{"id":"route_stations_match_geometry","ok":true,"detail":"各線車站列表與圖面一致","level":"error"},{"id":"interchange_rule","ok":true,"detail":"所有車站紅/藍點符合骨架＋路線色規則（藍＝端點、紅＝交叉）","level":"error"},{"id":"stations_named","ok":true,"detail":"13/13 站皆有名稱","level":"error"},{"id":"station_order","ok":true,"detail":"所有線路站序合理","level":"warn"},{"id":"line_wiki_stations","ok":true,"detail":"各線站數與 wiki 線路條目相符（營運中站數）","level":"error"}],"reasons":[],"warnings":[],"audited_at":"2026-07-27T02:39:06.416Z"}},"features":[{"type":"Feature","properties":{"seg_id":"adana-0","routes":[{"route_id":"rm7838818","route_name":"M1","route_name_local":"M1","route_name_en":null,"route_ref":"M1","route_color":"#f58231","wikipedia":"en:Adana Metro","osm_route_ids":[7838816,7838817],"status":null,"order_suspect":0,"span_suspect":0,"stations":[{"station_id":"n1297586968","station_name":"Akıncılar"},{"station_id":"n1297586983","station_name":"Cumhuriyet"},{"station_id":"n1297586973","station_name":"Hürriyet"},{"station_id":"n1297586966","station_name":"Kocavezir"},{"station_id":"n1297586977","station_name":"İstiklal"},{"station_id":"n1297586974","station_name":"Vilayet"},{"station_id":"n5303116352","station_name":"Fatih"},{"station_id":"n5303116331","station_name":"Yeşilyurt"},{"station_id":"n5303118157","station_name":"Yurt"},{"station_id":"n1297571820","station_name":"Mavi Bulvar"},{"station_id":"n5303130955","station_name":"Huzurevi"},{"station_id":"n1291984221","station_name":"Anadolu Lisesi"},{"station_id":"n1291984223","station_name":"Hastane"}]}],"route_count":1,"route_refs":["M1"],"route_colors":["#f58231"],"city":"Adana","country":"Turkey"},"geometry":{"type":"MultiLineString","coordinates":[[[35.34413216666666,36.988831133333335],[35.33755703333333,36.980988866666664],[35.3258761,36.97891823333333],[35.3194729,36.984677366666666],[35.318252666666666,36.99244516666667],[35.313393033333334,37.00204796666667],[35.304426,37.0122919],[35.3025855,37.0203342],[35.2964678,37.0270365],[35.2878723,37.0355813],[35.2846012,37.0408568],[35.28012893333334,37.04772086666667],[35.26296596666666,37.05059613333333]]]}},{"type":"Feature","properties":{"station_id":"n1291984221","station_name":"Anadolu Lisesi","station_name_local":"Anadolu Lisesi","station_name_en":"Anadolu Lisesi","city":"Adana","country":"Turkey","lines":["M1"],"wikipedia":null,"merged_from":3,"merged_names":null,"is_terminus":false,"routes":[{"ref":"M1","name":"M1","route_color":"#f58231"}],"pass_count":1,"station_degree":2,"codes":null,"is_interchange":false,"station_role":"normal"},"geometry":{"type":"Point","coordinates":[35.28012893333334,37.04772086666667]},"__memberLines":{}},{"type":"Feature","properties":{"station_id":"n1291984223","station_name":"Hastane","station_name_local":"Hastane","station_name_en":null,"city":"Adana","country":"Turkey","lines":["M1"],"wikipedia":null,"merged_from":3,"merged_names":null,"is_terminus":true,"routes":[{"ref":"M1","name":"M1","route_color":"#f58231"}],"pass_count":1,"station_degree":1,"codes":null,"is_interchange":false,"station_role":"terminus"},"geometry":{"type":"Point","coordinates":[35.26296596666666,37.05059613333333]},"__memberLines":{}},{"type":"Feature","properties":{"station_id":"n1297571820","station_name":"Mavi Bulvar","station_name_local":"Mavi Bulvar","station_name_en":null,"city":"Adana","country":"Turkey","lines":["M1"],"wikipedia":null,"merged_from":3,"merged_names":null,"is_terminus":false,"routes":[{"ref":"M1","name":"M1","route_color":"#f58231"}],"pass_count":1,"station_degree":2,"codes":null,"is_interchange":false,"station_role":"normal"},"geometry":{"type":"Point","coordinates":[35.2878723,37.0355813]},"__memberLines":{}},{"type":"Feature","properties":{"station_id":"n1297586966","station_name":"Kocavezir","station_name_local":"Kocavezir","station_name_en":null,"city":"Adana","country":"Turkey","lines":["M1"],"wikipedia":null,"merged_from":3,"merged_names":null,"is_terminus":false,"routes":[{"ref":"M1","name":"M1","route_color":"#f58231"}],"pass_count":1,"station_degree":2,"codes":null,"is_interchange":false,"station_role":"normal"},"geometry":{"type":"Point","coordinates":[35.3194729,36.984677366666666]},"__memberLines":{}},{"type":"Feature","properties":{"station_id":"n1297586968","station_name":"Akıncılar","station_name_local":"Akıncılar","station_name_en":null,"city":"Adana","country":"Turkey","lines":["M1"],"wikipedia":null,"merged_from":3,"merged_names":null,"is_terminus":true,"routes":[{"ref":"M1","name":"M1","route_color":"#f58231"}],"pass_count":1,"station_degree":1,"codes":null,"is_interchange":false,"station_role":"terminus"},"geometry":{"type":"Point","coordinates":[35.34413216666666,36.988831133333335]},"__memberLines":{}},{"type":"Feature","properties":{"station_id":"n1297586973","station_name":"Hürriyet","station_name_local":"Hürriyet","station_name_en":null,"city":"Adana","country":"Turkey","lines":["M1"],"wikipedia":null,"merged_from":3,"merged_names":null,"is_terminus":false,"routes":[{"ref":"M1","name":"M1","route_color":"#f58231"}],"pass_count":1,"station_degree":2,"codes":null,"is_interchange":false,"station_role":"normal"},"geometry":{"type":"Point","coordinates":[35.3258761,36.97891823333333]},"__memberLines":{}},{"type":"Feature","properties":{"station_id":"n1297586974","station_name":"Vilayet","station_name_local":"Vilayet","station_name_en":null,"city":"Adana","country":"Turkey","lines":["M1"],"wikipedia":null,"merged_from":3,"merged_names":null,"is_terminus":false,"routes":[{"ref":"M1","name":"M1","route_color":"#f58231"}],"pass_count":1,"station_degree":2,"codes":null,"is_interchange":false,"station_role":"normal"},"geometry":{"type":"Point","coordinates":[35.313393033333334,37.00204796666667]},"__memberLines":{}},{"type":"Feature","properties":{"station_id":"n1297586977","station_name":"İstiklal","station_name_local":"İstiklal","station_name_en":"İstiklal","city":"Adana","country":"Turkey","lines":["M1"],"wikipedia":null,"merged_from":3,"merged_names":null,"is_terminus":false,"routes":[{"ref":"M1","name":"M1","route_color":"#f58231"}],"pass_count":1,"station_degree":2,"codes":null,"is_interchange":false,"station_role":"normal"},"geometry":{"type":"Point","coordinates":[35.318252666666666,36.99244516666667]},"__memberLines":{}},{"type":"Feature","properties":{"station_id":"n1297586983","station_name":"Cumhuriyet","station_name_local":"Cumhuriyet","station_name_en":null,"city":"Adana","country":"Turkey","lines":["M1"],"wikipedia":null,"merged_from":3,"merged_names":null,"is_terminus":false,"routes":[{"ref":"M1","name":"M1","route_color":"#f58231"}],"pass_count":1,"station_degree":2,"codes":null,"is_interchange":false,"station_role":"normal"},"geometry":{"type":"Point","coordinates":[35.33755703333333,36.980988866666664]},"__memberLines":{}},{"type":"Feature","properties":{"station_id":"n5303116331","station_name":"Yeşilyurt","station_name_local":"Yeşilyurt","station_name_en":null,"city":"Adana","country":"Turkey","lines":["M1"],"wikipedia":null,"is_terminus":false,"routes":[{"ref":"M1","name":"M1","route_color":"#f58231"}],"pass_count":1,"station_degree":2,"codes":null,"merged_from":null,"merged_names":null,"is_interchange":false,"station_role":"normal"},"geometry":{"type":"Point","coordinates":[35.3025855,37.0203342]}},{"type":"Feature","properties":{"station_id":"n5303116352","station_name":"Fatih","station_name_local":"Fatih","station_name_en":null,"city":"Adana","country":"Turkey","lines":["M1"],"wikipedia":null,"is_terminus":false,"routes":[{"ref":"M1","name":"M1","route_color":"#f58231"}],"pass_count":1,"station_degree":2,"codes":null,"merged_from":null,"merged_names":null,"is_interchange":false,"station_role":"normal"},"geometry":{"type":"Point","coordinates":[35.304426,37.0122919]}},{"type":"Feature","properties":{"station_id":"n5303118157","station_name":"Yurt","station_name_local":"Yurt","station_name_en":null,"city":"Adana","country":"Turkey","lines":["M1"],"wikipedia":null,"is_terminus":false,"routes":[{"ref":"M1","name":"M1","route_color":"#f58231"}],"pass_count":1,"station_degree":2,"codes":null,"merged_from":null,"merged_names":null,"is_interchange":false,"station_role":"normal"},"geometry":{"type":"Point","coordinates":[35.2964678,37.0270365]}},{"type":"Feature","properties":{"station_id":"n5303130955","station_name":"Huzurevi","station_name_local":"Huzurevi","station_name_en":null,"city":"Adana","country":"Turkey","lines":["M1"],"wikipedia":null,"is_terminus":false,"routes":[{"ref":"M1","name":"M1","route_color":"#f58231"}],"pass_count":1,"station_degree":2,"codes":null,"merged_from":null,"merged_names":null,"is_interchange":false,"station_role":"normal"},"geometry":{"type":"Point","coordinates":[35.2846012,37.0408568]}}]}