{"type":"FeatureCollection","features":[{"type":"Feature","properties":{"route_ref":"Red","route_color":"#e6194b"},"geometry":{"type":"LineString","coordinates":[[-95.40279366069531,29.673362365391394],[-95.40278643855845,29.6732735711933],[-95.40288565710247,29.673896337222406],[-95.4027826,29.673263900000002],[-95.40289803126326,29.67418007858127],[-95.40334941585888,29.675627674305368],[-95.40328934253577,29.67734173518866],[-95.40340133953197,29.679366012340015],[-95.40328302000002,29.681123239999998],[-95.40335547692308,29.687297384615384],[-95.40348717656238,29.690281386987543],[-95.40369339751064,29.69082503263316],[-95.40454679975376,29.691906140509754],[-95.40477224539337,29.692509324979902],[-95.4047833727734,29.696248814301637],[-95.40488770606443,29.69704344532184],[-95.40542042841847,29.698126421603966],[-95.40560157900012,29.69886092372093],[-95.40551484079299,29.699269712545295],[-95.40522758834383,29.699849769737664],[-95.40485398065172,29.700276668052737],[-95.40410339071211,29.700850712088677],[-95.40283321499159,29.70139536219165],[-95.40246893834363,29.701929240741126],[-95.40241886273884,29.702212617767646],[-95.40280048040826,29.703409913557095],[-95.40300868806862,29.704825806727328],[-95.40305169001118,29.706016374658994],[-95.40291406518882,29.70711096695972],[-95.3957436750766,29.716187537020936],[-95.39516037271808,29.717175874362226],[-95.3945479569978,29.718598089727678],[-95.39387498596378,29.71970982764464],[-95.39209449288278,29.721889376145572],[-95.39147209999999,29.722405],[-95.38968713276886,29.722929056514463],[-95.3888872264885,29.723463899878453],[-95.38381008571429,29.729824642857146],[-95.3835748,29.7302149],[-95.3834941453295,29.730555719369818],[-95.3835895748755,29.732041913802245],[-95.38312264382813,29.73374066264682],[-95.38286012732634,29.73428505010749],[-95.35942823211535,29.76391423050908],[-95.35910371145752,29.764661740568048],[-95.35839520948609,29.767030353487705],[-95.35814973145538,29.768302751622233],[-95.35893599144055,29.771282267593403],[-95.35961257665024,29.77258015882971],[-95.36058639978103,29.773922129165015],[-95.36354320044111,29.780012245003682],[-95.3648944404149,29.783025513365043],[-95.36484638082625,29.78327459020885],[-95.3645944,29.783491300000005],[-95.36203033411321,29.784465771669282],[-95.36120243586616,29.784617384227477],[-95.36094061704122,29.784805903116542],[-95.36044597364119,29.78745513537143],[-95.36042109712346,29.7900410880405],[-95.3606978,29.7906527],[-95.3617952833153,29.792340995286438],[-95.36312734912944,29.793247109170274],[-95.3659143686837,29.795489430146453],[-95.36633472071472,29.795741057411714],[-95.36755752905034,29.796726986130377],[-95.36784008407984,29.797146939623516],[-95.36794994752553,29.799600268192947],[-95.36790130000003,29.801998271428577],[-95.36800244090195,29.802485328189935],[-95.36861077615131,29.803961817639678],[-95.36974595606966,29.80970266282234],[-95.36974558128678,29.813469483433156],[-95.36990463341233,29.814295561478573],[-95.37099771451,29.816996143187065],[-95.37160977291033,29.817857136085063],[-95.37248932000001,29.818406399999997],[-95.37445012385636,29.819251234022257],[-95.37501172853382,29.819757029640414],[-95.37525817900699,29.820297858684224],[-95.37540253089152,29.821578367939424],[-95.37641593702652,29.82415062168182],[-95.37648349879358,29.825020040876286],[-95.37613127625987,29.828445147650534],[-95.37615994532243,29.829884919842954],[-95.37596912913813,29.832752142114675]]}},{"type":"Feature","properties":{"route_ref":"Green","route_color":"#3cb44b"},"geometry":{"type":"LineString","coordinates":[[-95.36746084938662,29.760624261450783],[-95.35660977156137,29.754119731652],[-95.35622834999998,29.754063050000003],[-95.3557807843874,29.7541961133166],[-95.35519086833284,29.754880371124283],[-95.3548977,29.7550419],[-95.35464072447034,29.755073110947468],[-95.35388700241157,29.754711615887402],[-95.35139331833881,29.75314699377046],[-95.35065575340111,29.752815712587022],[-95.35022266912563,29.75277377522948],[-95.34829788613283,29.752949734065197],[-95.34716293176368,29.752701979065634],[-95.34603017412901,29.751986356165297],[-95.34530136636613,29.751082384220357],[-95.3437783901316,29.74980803860476],[-95.34087662175952,29.748043165864424],[-95.34083313172333,29.747935963814047],[-95.34068406778864,29.74792972409531],[-95.33857425375827,29.746590383322765],[-95.33699020863723,29.74602394593961],[-95.33480505148904,29.745047137968115],[-95.33202736037138,29.744083252135365],[-95.32847580422506,29.743417500981156],[-95.32624799151202,29.743092577377737],[-95.321253,29.741464128571433],[-95.31963491353514,29.741024286621297],[-95.31923026301259,29.74083301825807],[-95.31583000916999,29.73990909823856],[-95.31393106946197,29.739231695126463],[-95.3116126072881,29.738597886138493],[-95.30261945976879,29.735820925080105]]}},{"type":"Feature","properties":{"route_ref":"Purple","route_color":"#3cb44b"},"geometry":{"type":"LineString","coordinates":[[-95.36746084938662,29.760624261450783],[-95.35670880456344,29.754161210154187],[-95.35622834999998,29.754063050000003],[-95.35591784142007,29.754132710723287],[-95.35558965,29.75436435],[-95.35519086833284,29.754880371124283],[-95.35482965557898,29.755063388021906],[-95.35452310000001,29.7550423],[-95.34828221090333,29.751347005558177],[-95.34734384147494,29.75040464642023],[-95.34660518828389,29.748217519928087],[-95.34635409783078,29.74639694989626],[-95.34636705711162,29.745678288429897],[-95.3468315618441,29.74460307191831],[-95.34684888203755,29.74418493826117],[-95.34655744734266,29.743673050968148],[-95.34560956212061,29.743071597661004],[-95.3452180912905,29.74263492803823],[-95.34509769802197,29.742076824959636],[-95.34516226029781,29.74126456910879],[-95.34560524066463,29.739695173895278],[-95.3470975762074,29.736270241214672],[-95.34938476085586,29.730377452931688],[-95.34985522310733,29.729391347976218],[-95.34992341770175,29.72644467946693],[-95.35012222765813,29.725397641500436],[-95.3507844450858,29.72348196028395],[-95.35121793583808,29.72264725059172],[-95.35155962268401,29.721635899745007],[-95.35165945258751,29.72156122912668],[-95.35162045271476,29.72144508303308],[-95.35172471856511,29.721396528922984],[-95.35210082912668,29.7204558947161],[-95.35215303008829,29.71998457111332],[-95.3520031412853,29.7197606539106],[-95.35162911924479,29.719523659352873],[-95.34780880737961,29.718386341194623],[-95.34643720303775,29.717712859655165],[-95.3406145544518,29.715939067547218],[-95.340087809599,29.71563305328537],[-95.33941052306218,29.714548543539316],[-95.33849253033966,29.713717869753264],[-95.33798747903387,29.71303487681114],[-95.33714507266804,29.710605081156608],[-95.33426480914952,29.70492596169291],[-95.33422790632602,29.70439492684434],[-95.33431032704891,29.70406973428399],[-95.33639367589419,29.698848644819297],[-95.33637415734552,29.698181690898874],[-95.33610037342666,29.69778739945364],[-95.33569183529973,29.697532573647656],[-95.33204370079592,29.69636837248055]]}}]}