{"type":"FeatureCollection","features":[{"type":"Feature","properties":{"route_ref":"6","route_color":"#64748b"},"geometry":{"type":"LineString","coordinates":[[17.27877467472182,49.5894652163492],[17.27855100515109,49.5891989710547],[17.278382421129766,49.58917442068041],[17.278117527144655,49.58928383662145],[17.27815824268921,49.58951620209329],[17.278632069683297,49.590040681900234],[17.27749951497758,49.592586470650126],[17.277250240908348,49.59283347482996],[17.27567237868477,49.59315206462662],[17.262105789183874,49.59690401889467],[17.26119845888209,49.59696230574913],[17.260217316794044,49.59688476843374],[17.254216700506568,49.595495917343165],[17.2528581,49.59556944999999],[17.251311887099266,49.59537793717667],[17.249647519173195,49.59538745323596],[17.247543671075,49.59556209858691],[17.247280118578736,49.59541131567804],[17.24720891130728,49.595174222311556],[17.247446735869577,49.59382260967602],[17.249302767311036,49.59224803614279],[17.249457706742007,49.59190029884926],[17.24598242,49.58981616],[17.244370477560295,49.58864290856852],[17.243606381615894,49.58740041744753],[17.24271668275526,49.58632426028641],[17.242370678484235,49.58519327349462],[17.23803963210609,49.577044285229654],[17.237387345631024,49.57612568203107],[17.237063653307757,49.575967548931494],[17.236709684708256,49.57595609598356],[17.232638582885567,49.57685843555249],[17.231532769295196,49.57717429567243],[17.229682551249,49.57798812784842],[17.22933376114947,49.57789796346542],[17.229300241509748,49.57766176857432],[17.229613541397743,49.57754724948933],[17.230388328662915,49.57764259992837],[17.232104239115696,49.57699342859215],[17.23659958051025,49.57597212406475],[17.237091588275575,49.57597137368848],[17.237440407578084,49.57617693755851],[17.237985949999995,49.576942374999994],[17.242300868512526,49.58504027010115],[17.242793939944974,49.58645610104803],[17.243654607073914,49.58746342648136],[17.24429816457293,49.58854770577454],[17.244878537219446,49.58908154633702],[17.246132863410224,49.5899111425714],[17.24944175358748,49.591864163963905],[17.24947937737685,49.592031856334636],[17.249275370499767,49.59227921670323],[17.248091721790175,49.59318832475642],[17.247441518950758,49.59383059409078],[17.24720989263803,49.59516659693097],[17.247284733982212,49.59540803072349],[17.24752762634839,49.59555469831617],[17.250028635601986,49.59538364830834],[17.251403330053922,49.59538299655342],[17.25290093139065,49.59556913939506],[17.2542769745952,49.59550225828836],[17.260069293774524,49.59685935609455],[17.26119634148093,49.596962686190196],[17.262296320547577,49.59686231052642],[17.275507521814955,49.59319658326986],[17.27724151031911,49.59283527032997],[17.277500287352538,49.59258506329498],[17.278466263033135,49.59048631776247],[17.278785682563203,49.58946553222885]]}},{"type":"Feature","properties":{"route_ref":"1","route_color":"#64748b"},"geometry":{"type":"LineString","coordinates":[[17.2499234,49.5917081],[17.251873812663277,49.59024304152163],[17.253980501550288,49.589190854468285],[17.25525009897243,49.58878167386034],[17.256423166484726,49.58866744731673],[17.261628423206368,49.58953841724058],[17.26783664537175,49.590092479333556],[17.268840752989554,49.59025150553337],[17.275996984484813,49.59196260638876],[17.276402241639733,49.59216082180827],[17.276698359540628,49.592747878650336],[17.27705918772363,49.592867238851895],[17.27731851991252,49.592780920212256],[17.277543261917756,49.592489008571484],[17.278541063999704,49.59031502315972],[17.278767835335007,49.589397574588844],[17.278487967340457,49.589181603466024],[17.278117527144655,49.58928383662145],[17.27815824268921,49.58951620209329],[17.278632069683297,49.590040681900234],[17.277544417210596,49.592489054367405],[17.27731167216177,49.592791141768785],[17.277066703111817,49.59287049967776],[17.276722199263304,49.592772054410304],[17.276393254956993,49.59215503730334],[17.27598498331452,49.59196455689346],[17.268945565407066,49.59027417886853],[17.267322468603414,49.590034623753425],[17.262494000000004,49.5896499],[17.25656371091329,49.58867392992769],[17.255312890009836,49.588770106721604],[17.25406610228257,49.58915000496087],[17.251874303808037,49.59024306313691],[17.25003602980832,49.59164243527912],[17.249776106505962,49.59179115088679],[17.249516172844036,49.591806155472696],[17.24888843333333,49.59153573333333],[17.246591,49.590205],[17.24484166215649,49.58905529613562],[17.244370477560295,49.58864290856852],[17.243606381615894,49.58740041744753],[17.24271668275526,49.58632426028641],[17.242370678484235,49.58519327349462],[17.23803963210609,49.577044285229654],[17.23732527416964,49.57608037659626],[17.237063653307757,49.575967548931494],[17.236709684708256,49.57595609598356],[17.232395805544467,49.57691853172549],[17.231532769295196,49.57717429567243],[17.229682551249,49.57798812784842],[17.22928582581535,49.57784608782376],[17.229385707341518,49.57759236070105],[17.229727965963487,49.577548865717155],[17.230388328662915,49.57764259992837],[17.232104239115696,49.57699342859215],[17.23659958051025,49.57597212406475],[17.237026260530023,49.57595804458286],[17.23733264798353,49.57608504368633],[17.237985949999995,49.576942374999994],[17.242300868512526,49.58504027010115],[17.242793939944974,49.58645610104803],[17.243654607073914,49.58746342648136],[17.24434791916172,49.58861072834581],[17.244878537219446,49.58908154633702],[17.246132863410224,49.5899111425714],[17.248774462036852,49.591469566976095],[17.24952784478956,49.59180755122922],[17.2499234,49.5917081]]}},{"type":"Feature","properties":{"route_ref":"2","route_color":"#64748b"},"geometry":{"type":"MultiLineString","coordinates":[[[17.27877467472182,49.5894652163492],[17.27855100515109,49.5891989710547],[17.278382421129766,49.58917442068041],[17.278117527144655,49.58928383662145],[17.27815824268921,49.58951620209329],[17.278632069683297,49.590040681900234],[17.27749951497758,49.592586470650126],[17.277250240908348,49.59283347482996],[17.27567237868477,49.59315206462662],[17.262105789183874,49.59690401889467],[17.26119845888209,49.59696230574913],[17.260217316794044,49.59688476843374],[17.254216700506568,49.595495917343165],[17.2528581,49.59556944999999],[17.251311887099266,49.59537793717667],[17.249647519173195,49.59538745323596],[17.24780791633605,49.59558498660117],[17.249705879687493,49.595386614352044],[17.251403330053922,49.59538299655342],[17.25290093139065,49.59556913939506],[17.2542769745952,49.59550225828836],[17.260069293774524,49.59685935609455],[17.26119634148093,49.596962686190196],[17.262296320547577,49.59686231052642],[17.275507521814955,49.59319658326986],[17.27724151031911,49.59283527032997],[17.277500287352538,49.59258506329498],[17.278466263033135,49.59048631776247],[17.278785682563203,49.58946553222885]],[[17.24760075861774,49.5956198986692],[17.2456309744633,49.59590456477168],[17.24500497162545,49.59589128866228],[17.24170382423512,49.595141449340645],[17.241091527545226,49.59507165791398],[17.240329122966926,49.59530307754116],[17.237336067212237,49.596626965862406],[17.23658248026318,49.596780136356315],[17.234137211840547,49.59659540425251],[17.22794582931324,49.59648950687301],[17.226611053353444,49.59639984777922],[17.221838747802295,49.59580413966818],[17.216592194956846,49.59537103063651],[17.21621869819795,49.59517378924611],[17.21631383912072,49.59494034833372],[17.216716859649026,49.59488435036888],[17.216986665106816,49.59526962070228],[17.217303190132025,49.59541411522619],[17.22139265,49.59575185],[17.22650435677761,49.596390189545104],[17.227855526635196,49.59648656725981],[17.2341375,49.59659479999999],[17.236657098018846,49.596780131641395],[17.23741633495145,49.5965990429005],[17.239870109782277,49.595488266457316],[17.241118423889432,49.595068710700836],[17.245149899472988,49.59590697935799],[17.24782031990269,49.595612216570856],[17.247600813541794,49.595619747951005]]]}},{"type":"Feature","properties":{"route_ref":"3","route_color":"#64748b"},"geometry":{"type":"LineString","coordinates":[[17.247961499999995,49.574653],[17.2482198,49.576352],[17.248372514185835,49.57660265988884],[17.248667765517578,49.576756567434124],[17.251107928449798,49.57717309476754],[17.256934945808084,49.577591491850626],[17.257441935198422,49.57772645108153],[17.257661768966326,49.577959254492704],[17.257662697569423,49.578303395968526],[17.25690841839727,49.58023462082603],[17.25689448661041,49.58074713357692],[17.25756793874233,49.580970232571055],[17.260840921401922,49.581651178053],[17.26119554334194,49.58176169486458],[17.26130019520031,49.58191397758851],[17.260912323281143,49.58252136244457],[17.259521883591226,49.58371381724409],[17.25912771326638,49.58422885804519],[17.258997944495757,49.58491630633654],[17.25912911065717,49.58640649512084],[17.258919519676592,49.58688446169563],[17.258463115606812,49.58739928135721],[17.256841949049836,49.5886123644539],[17.255312890009836,49.588770106721604],[17.254261615125213,49.58906839791734],[17.252114681091854,49.590105441627216],[17.251141447032474,49.59073229690438],[17.247514566405236,49.59372443501077],[17.2472135881208,49.59469209121171],[17.2472152,49.5952316],[17.247381286076376,49.59549434516504],[17.24773587561563,49.59557981579458],[17.24911786087222,49.59540970870122],[17.2512537,49.5953754],[17.25290093139065,49.59556913939506],[17.2542769745952,49.59550225828836],[17.260069293774524,49.59685935609455],[17.26119634148093,49.596962686190196],[17.262296320547577,49.59686231052642],[17.275507521814955,49.59319658326986],[17.277273261717106,49.592820348054616],[17.277500287352538,49.59258506329498],[17.278574618921777,49.590228408152434],[17.27878025608896,49.589465296934996],[17.278681855019784,49.589260582113695],[17.278487967340457,49.589181603466024],[17.278182035182887,49.589223840683836],[17.278093645225013,49.5893443904249],[17.278640269972335,49.589983339733266],[17.278575556850743,49.59022859097886],[17.27734466253029,49.59278125485693],[17.276884348960472,49.592945150473085],[17.27567237868477,49.59315206462662],[17.26193645241497,49.59692510781186],[17.260984398414017,49.59695773942391],[17.260217316794044,49.59688476843374],[17.254216700506568,49.595495917343165],[17.2528581,49.59556944999999],[17.251311887099266,49.59537793717667],[17.24935169294228,49.59540101530255],[17.247740462154333,49.59558051519749],[17.247417097170175,49.59552179323114],[17.247235219519112,49.59530966031812],[17.24719408718026,49.594830773730315],[17.24749090310389,49.593750646182166],[17.251142375783356,49.590731687836815],[17.252112408616323,49.59010670008161],[17.254215635180355,49.58908594463499],[17.25530974773366,49.588770465434926],[17.256780867348986,49.58863906292986],[17.25788829156484,49.58787865886553],[17.258719105496372,49.587141457773214],[17.25911426004665,49.586473392184985],[17.258995813833145,49.584749567920475],[17.259144249383183,49.58419389169922],[17.259529047784877,49.58370451213264],[17.26100645684876,49.582402849500035],[17.261294016649657,49.58191557032262],[17.261200427134707,49.58176973693411],[17.260838787608044,49.581650880255836],[17.2574053,49.5809419],[17.256868226266413,49.58072237155578],[17.256887166666665,49.580287600000005],[17.257658761536977,49.578336689650776],[17.257634857606842,49.57790430744087],[17.257350665889536,49.57768186302812],[17.251119481268656,49.577173998158464],[17.248476761586044,49.576683236921866],[17.248252709750304,49.576435270233475],[17.248104750000003,49.575918075000004],[17.2478781,49.5739367]]}},{"type":"Feature","properties":{"route_ref":"5","route_color":"#64748b"},"geometry":{"type":"MultiLineString","coordinates":[[[17.247961499999995,49.574653],[17.2482198,49.576352],[17.248372514185835,49.57660265988884],[17.248667765517578,49.576756567434124],[17.251107928449798,49.57717309476754],[17.256934945808084,49.577591491850626],[17.257441935198422,49.57772645108153],[17.257661768966326,49.577959254492704],[17.257662697569423,49.578303395968526],[17.25690841839727,49.58023462082603],[17.25689448661041,49.58074713357692],[17.25756793874233,49.580970232571055],[17.260840921401922,49.581651178053],[17.26127895065556,49.58183678754956],[17.260912323281143,49.58252136244457],[17.259521883591226,49.58371381724409],[17.25912771326638,49.58422885804519],[17.258997944495757,49.58491630633654],[17.2591380958922,49.58632355275296],[17.258919519676592,49.58688446169563],[17.2579851,49.5878032],[17.2570578,49.588420500000005],[17.258143799098768,49.5876749330231],[17.25899013211268,49.58676450986121],[17.259130789274028,49.586285191081714],[17.258995813833145,49.584749567920475],[17.25912781858586,49.58422824319812],[17.259529047784877,49.58370451213264],[17.26100645684876,49.582402849500035],[17.26128625279884,49.58185609959775],[17.260838787608044,49.581650880255836],[17.2574053,49.5809419],[17.256868226266413,49.58072237155578],[17.256887166666665,49.580287600000005],[17.257658761536977,49.578336689650776],[17.257634857606842,49.57790430744087],[17.257350665889536,49.57768186302812],[17.251119481268656,49.577173998158464],[17.248476761586044,49.576683236921866],[17.248252709750304,49.576435270233475],[17.248104750000003,49.575918075000004],[17.2478781,49.5739367]],[[17.27710543915262,49.592864838647735],[17.27731851991252,49.592780920212256],[17.277543261917756,49.592489008571484],[17.278574618921777,49.590228408152434],[17.27878025608896,49.589465296934996],[17.278681855019784,49.589260582113695],[17.278487967340457,49.589181603466024],[17.278182035182887,49.589223840683836],[17.278093645225013,49.5893443904249],[17.278640269972335,49.589983339733266],[17.278575556850743,49.59022859097886],[17.277489564025185,49.59258445408879],[17.27731167216177,49.592791141768785],[17.277024046701733,49.59287142260517],[17.276708210332533,49.592756747322206],[17.276377025432375,49.59214055460836],[17.27598498331452,49.59196455689346],[17.268945565407066,49.59027417886853],[17.267322468603414,49.590034623753425],[17.262494000000004,49.5896499],[17.257212825674422,49.5887602394491],[17.261628423206368,49.58953841724058],[17.26783664537175,49.590092479333556],[17.269048382418404,49.59029392960156],[17.275996984484813,49.59196260638876],[17.276402241639733,49.59216082180827],[17.276749649093468,49.592790817728144],[17.277106461741877,49.59286408166334]]]}},{"type":"Feature","properties":{"route_ref":"7","route_color":"#64748b"},"geometry":{"type":"MultiLineString","coordinates":[[[17.27814980000001,49.5895202],[17.278640269972335,49.589983339733266],[17.278575556850743,49.59022859097886],[17.277489564025185,49.59258445408879],[17.27731167216177,49.592791141768785],[17.277024046701733,49.59287142260517],[17.276708210332533,49.592756747322206],[17.276377025432375,49.59214055460836],[17.27598498331452,49.59196455689346],[17.268752266374616,49.5902347215608],[17.267322468603414,49.590034623753425],[17.262494000000004,49.5896499],[17.256838752248576,49.588698029946066],[17.25618999323661,49.58866818456755],[17.255312890009836,49.588770106721604],[17.25406610228257,49.58915000496087],[17.251874303808037,49.59024306313691],[17.24825403204691,49.593053943306835],[17.24742200445326,49.593871291137766],[17.2472135881208,49.59469209121171],[17.2472180729957,49.59530740011393],[17.247202980558818,49.594748622915915],[17.247446735869577,49.59382260967602],[17.248767066666673,49.59263549999999],[17.251873812663277,49.59024304152163],[17.254215635180355,49.58908594463499],[17.25530974773366,49.588770465434926],[17.2567767681429,49.58868813959749],[17.261628423206368,49.58953841724058],[17.26783664537175,49.590092479333556],[17.268840752989554,49.59025150553337],[17.275996984484813,49.59196260638876],[17.27638192294971,49.592140245447005],[17.276698359540628,49.592747878650336],[17.276993559597237,49.59286810895742],[17.27731851991252,49.592780920212256],[17.277543261917756,49.592489008571484],[17.278541063999704,49.59031502315972],[17.27878913016824,49.58946586992339]],[[17.247224202422966,49.59534684522679],[17.247225621163896,49.59554665228523],[17.247019642497353,49.59568072573793],[17.2451975251277,49.59590436845226],[17.244506923718806,49.59581654438487],[17.24170382423512,49.595141449340645],[17.241041097712063,49.59507765253702],[17.240329122966926,49.59530307754116],[17.237336067212237,49.596626965862406],[17.23658248026318,49.596780136356315],[17.234137211840547,49.59659540425251],[17.22794582931324,49.59648950687301],[17.226611053353444,49.59639984777922],[17.221838747802295,49.59580413966818],[17.216592194956846,49.59537103063651],[17.21621869819795,49.59517378924611],[17.21631383912072,49.59494034833372],[17.216716859649026,49.59488435036888],[17.216986665106816,49.59526962070228],[17.217303190132025,49.59541411522619],[17.22139265,49.59575185],[17.22650435677761,49.596390189545104],[17.227855526635196,49.59648656725981],[17.2341375,49.59659479999999],[17.236657098018846,49.596780131641395],[17.23741633495145,49.5965990429005],[17.239870109782277,49.595488266457316],[17.241012873052178,49.59508154202106],[17.24162664209721,49.59512332273232],[17.245149899472988,49.59590697935799],[17.246756789341745,49.59574996886524],[17.247148964770833,49.5956258362026],[17.247213884752878,49.59536227449117]]]}},{"type":"Feature","properties":{"route_ref":"4","route_color":"#64748b"},"geometry":{"type":"LineString","coordinates":[[17.278602226465363,49.5900830853476],[17.27749951497758,49.592586470650126],[17.277250240908348,49.59283347482996],[17.27567237868477,49.59315206462662],[17.262105789183874,49.59690401889467],[17.26119845888209,49.59696230574913],[17.260217316794044,49.59688476843374],[17.254216700506568,49.595495917343165],[17.2528581,49.59556944999999],[17.251311887099266,49.59537793717667],[17.249647519173195,49.59538745323596],[17.247543671075,49.59556209858691],[17.247280118578736,49.59541131567804],[17.24720891130728,49.595174222311556],[17.247446735869577,49.59382260967602],[17.249302767311036,49.59224803614279],[17.249457706742007,49.59190029884926],[17.24598242,49.58981616],[17.244370477560295,49.58864290856852],[17.243606381615894,49.58740041744753],[17.24271668275526,49.58632426028641],[17.242370678484235,49.58519327349462],[17.23803963210609,49.577044285229654],[17.237387345631024,49.57612568203107],[17.237063653307757,49.575967548931494],[17.236709684708256,49.57595609598356],[17.232638582885567,49.57685843555249],[17.231532769295196,49.57717429567243],[17.229682551249,49.57798812784842],[17.22933376114947,49.57789796346542],[17.229300241509748,49.57766176857432],[17.229613541397743,49.57754724948933],[17.230388328662915,49.57764259992837],[17.232104239115696,49.57699342859215],[17.23659958051025,49.57597212406475],[17.237091588275575,49.57597137368848],[17.237440407578084,49.57617693755851],[17.237985949999995,49.576942374999994],[17.242300868512526,49.58504027010115],[17.242793939944974,49.58645610104803],[17.243654607073914,49.58746342648136],[17.24429816457293,49.58854770577454],[17.244878537219446,49.58908154633702],[17.246132863410224,49.5899111425714],[17.24944175358748,49.591864163963905],[17.24947937737685,49.592031856334636],[17.249275370499767,49.59227921670323],[17.248091721790175,49.59318832475642],[17.247441518950758,49.59383059409078],[17.247211337476664,49.59519355999746],[17.247337536230386,49.59546365277587],[17.24758076470758,49.59556709871603],[17.249705879687493,49.595386614352044],[17.251403330053922,49.59538299655342],[17.25290093139065,49.59556913939506],[17.2542769745952,49.59550225828836],[17.260069293774524,49.59685935609455],[17.26119634148093,49.596962686190196],[17.26206112571917,49.59690747133939],[17.275507521814955,49.59319658326986],[17.277273261717106,49.592820348054616],[17.277500287352538,49.59258506329498],[17.278541063999704,49.59031502315972],[17.279173063055993,49.58831132372176],[17.279528980767708,49.58797656326454],[17.280053028300834,49.58797160354959],[17.283429179180928,49.58851117410531],[17.286771773585848,49.589927986090956],[17.28705920879573,49.59013539935104],[17.287086224373347,49.590336790843985],[17.28514357590759,49.592633861937784],[17.283167201267805,49.59403322607013],[17.280519589214993,49.59532359164493],[17.277365015306568,49.59751474850518],[17.2769909,49.59786999999999],[17.276734750939603,49.59858402926168],[17.276534749564405,49.60039400983481],[17.277994620570176,49.60231567508287],[17.277931315210733,49.602521520252516],[17.27768597937404,49.60261289092575],[17.276479173549355,49.60238695792248],[17.276278249081724,49.60217179025417],[17.276729332648145,49.59857814996737],[17.27699754487709,49.59786152285313],[17.2780365,49.5970266],[17.280706001879405,49.59520683969293],[17.28322462648024,49.59399774482553],[17.284543485070806,49.59310485067314],[17.28539797888933,49.592394242642776],[17.28710354234221,49.59026063601401],[17.287018773325165,49.590086909752095],[17.286694368736,49.58988561586152],[17.283506743156497,49.58853205971285],[17.27971032666021,49.58795204337318],[17.27938118987707,49.58804119369362],[17.279170435858095,49.58831677599265],[17.27860114835687,49.59008337336271]]}}]}