{"type":"FeatureCollection","features":[{"type":"Feature","properties":{"route_ref":"1 Line","route_color":"#3dae2b"},"geometry":{"type":"LineString","coordinates":[[-122.30382004262724,47.31586362557703],[-122.30347186033505,47.316421130715014],[-122.30353224971113,47.31652840497685],[-122.303359825,47.31657057499999],[-122.303373482099,47.31666709365504],[-122.30258089950914,47.31733643162299],[-122.301225038814,47.31756678879764],[-122.29836650255503,47.31758565087385],[-122.29776307986418,47.317778400188445],[-122.29720193868569,47.31812337955264],[-122.29685678147094,47.318604729392554],[-122.29608873552532,47.320244127448284],[-122.2952235,47.32314525],[-122.29488885315244,47.325433582063546],[-122.29455652029976,47.3302985896446],[-122.29384327857146,47.33758425714286],[-122.29344038584227,47.34279357537254],[-122.29343232164368,47.34447694186824],[-122.29379670000002,47.34655995],[-122.29417313050709,47.347643510160324],[-122.2950936904762,47.34955164285714],[-122.29526495394697,47.349697458224135],[-122.29522231904762,47.34980051428571],[-122.29540039590775,47.349944728202416],[-122.29543669999998,47.350215299999995],[-122.29693768361521,47.35334346418642],[-122.29738863650114,47.355334833756665],[-122.29741721035069,47.35636566615165],[-122.29791567835497,47.35807263703688],[-122.29780230954039,47.35850145791637],[-122.29672217121666,47.36052737302319],[-122.29587557216813,47.363076034695354],[-122.29152614999998,47.379922050000005],[-122.29143905826989,47.380809250255076],[-122.2916190519405,47.382020280709746],[-122.29323974289638,47.38563004433932],[-122.29434286472693,47.38747093836717],[-122.29464437118288,47.38841814801997],[-122.29424760298049,47.38997277821753],[-122.29430612729773,47.39017542619412],[-122.2941382,47.39035224],[-122.29407897003355,47.39076081687155],[-122.29289921428574,47.392460557142854],[-122.29238041726292,47.393984311925806],[-122.2925244909091,47.39684237272728],[-122.29332103660151,47.4010036831219],[-122.29323588265446,47.40570833860094],[-122.2925122,47.40944947],[-122.29236978073494,47.41079951497331],[-122.29260957103695,47.41179269671756],[-122.29307042653429,47.41272307134414],[-122.29382527249496,47.4135694928547],[-122.29611718050546,47.415416681945054],[-122.29686529988092,47.41642135669595],[-122.2972808840072,47.41748342295998],[-122.2977485449387,47.4208578390857],[-122.29770379730635,47.4217483467336],[-122.29784922944474,47.42207583552512],[-122.29773876720276,47.42225494017021],[-122.29779391572681,47.42425889118862],[-122.29761889114673,47.42594649700202],[-122.29799021047187,47.43233232393351],[-122.29782809443935,47.43426466047352],[-122.2974912135376,47.436227385452426],[-122.29673522794582,47.438399436408126],[-122.29664980033996,47.43913386658985],[-122.29668655876237,47.44324558364628],[-122.29672742892988,47.44397244260041],[-122.2968924701517,47.44405643879767],[-122.2967402260526,47.44415121137852],[-122.29704378795755,47.44712516404758],[-122.29702469041975,47.44850580604792],[-122.29721101011037,47.44914927136052],[-122.29767420745907,47.449719671955435],[-122.29903391733379,47.45058938038893],[-122.29959516439064,47.45110030788361],[-122.30015924753452,47.45181823991452],[-122.30036428297134,47.452287882018126],[-122.30050770240025,47.453484334891165],[-122.3004835437004,47.45612147803122],[-122.30037731777225,47.456700863852426],[-122.30024018655601,47.457207657939115],[-122.29932149392462,47.458462379294346],[-122.29318187246955,47.46332975617617],[-122.2917833,47.4641379],[-122.29061970187739,47.46453331839798],[-122.28974054041527,47.464567010474106],[-122.28923166515656,47.46446531488823],[-122.28630386666667,47.46340643333333],[-122.285592792812,47.46326703885418],[-122.28476122759915,47.46326238024118],[-122.28380550175451,47.46338979964999],[-122.28274494629188,47.463691611586526],[-122.28193790469051,47.46406830394064],[-122.2808483283819,47.46479173132727],[-122.27949677927788,47.465490883471084],[-122.27886631559586,47.465713095458504],[-122.27739480896466,47.466019063744305],[-122.27556132415144,47.465981661192195],[-122.27237204493467,47.46526127479428],[-122.27153112648837,47.46521529116044],[-122.27065548462981,47.46532513525291],[-122.26979702786927,47.46567304953555],[-122.26931047572906,47.46608035838682],[-122.26908617556579,47.46646130031585],[-122.26884780769231,47.467786915384615],[-122.26891389999999,47.4696702],[-122.26961780138345,47.47281153884949],[-122.27019601280111,47.47434273698631],[-122.27294723222315,47.4792946736439],[-122.27313814274736,47.480462659018215],[-122.27291925248642,47.48213431826214],[-122.27316504600215,47.483108309224086],[-122.27407087522853,47.48418288398894],[-122.28064104904136,47.48875337714727],[-122.28154004298702,47.48967076263967],[-122.28191718924391,47.49041141289463],[-122.28211465242732,47.491121560786645],[-122.282597101072,47.49402463124108],[-122.28293577344867,47.49493550749354],[-122.28340825865921,47.49554282055669],[-122.28410118775425,47.496104992535145],[-122.28671585860694,47.49757053247382],[-122.28801372153515,47.49906477372206],[-122.28879541499188,47.501838702582205],[-122.29019434127858,47.505058474321814],[-122.29015995976263,47.505635095015606],[-122.28988726693962,47.50614015885782],[-122.28947216318453,47.50652958366654],[-122.28875221333226,47.506856627626256],[-122.28743230230857,47.5070384157576],[-122.2805962173889,47.50740138918965],[-122.27945810615597,47.507782921614194],[-122.27860895318528,47.50854696077772],[-122.27837798984172,47.50983917800792],[-122.27849666010927,47.511283173430165],[-122.27912408000003,47.5162214],[-122.27993122777843,47.5198725825377],[-122.2799121349183,47.520698284605885],[-122.27983324120135,47.52101960137563],[-122.27967562065179,47.5211615187613],[-122.27928394217936,47.523001569407505],[-122.27914777617117,47.523139021563125],[-122.27890743249083,47.524023313305875],[-122.27883892768236,47.525031712591336],[-122.27922640000001,47.5262447],[-122.28035627761376,47.52837613662019],[-122.28067677674359,47.52953052188672],[-122.28075368641737,47.53571813426884],[-122.28102317938945,47.5369547888631],[-122.28335102889595,47.541404717193736],[-122.29029707079664,47.55594898567605],[-122.29682354622085,47.566320191618],[-122.29694739630051,47.56718759921091],[-122.29681595000001,47.57441],[-122.29683012664451,47.57506363614303],[-122.2969918519683,47.575619008929614],[-122.29827695350039,47.57733674622483],[-122.29899192213077,47.57779556125931],[-122.30374732358477,47.57878919789826],[-122.30680426527931,47.57986620215091],[-122.30810123333333,47.58011913333333],[-122.30940696666667,47.5800998],[-122.31070778571429,47.57981457142857],[-122.31359922500002,47.578886275],[-122.31614085799488,47.57761141366915],[-122.3174792,47.5773524],[-122.31840690000001,47.5773218],[-122.3202723958834,47.57748636876475],[-122.32422793118494,47.577503022476556],[-122.32628318757315,47.57762938433795],[-122.32683629664065,47.577745394940216],[-122.32716164530221,47.57793166651824],[-122.32741474089688,47.57844267757521],[-122.32742791358348,47.58782890478763],[-122.32737958470226,47.588615427857526],[-122.32712493144409,47.58931938671138],[-122.32711001307099,47.592561075485506],[-122.32717673676913,47.59304915002892],[-122.32786337857144,47.594825885714286],[-122.32799408011982,47.59489286962964],[-122.32816513113583,47.59567721505648],[-122.3279546,47.5979023],[-122.32795038333336,47.598623133333334],[-122.32805493167916,47.59871077798051],[-122.32794835000003,47.598972599999996],[-122.32799920166943,47.599744926938435],[-122.32818012142532,47.60014095205201],[-122.32857003279564,47.600561803297616],[-122.33068828591763,47.60199120536941],[-122.33795113333333,47.61001153809524],[-122.33815850397279,47.610031559308105],[-122.33840386426577,47.61053669724869],[-122.33823022630477,47.610867924557766],[-122.33775316573534,47.611148703294795],[-122.33160884740228,47.61370923847132],[-122.33108596634274,47.613822564105924],[-122.3305396,47.6138035],[-122.32722138529755,47.61337032155162],[-122.32656222315133,47.613360312417456],[-122.32614565384753,47.613482228304775],[-122.32599336622845,47.61339007212786],[-122.32528556549278,47.61346919590758],[-122.3240164202051,47.61375958183335],[-122.32305971413467,47.61411744266523],[-122.32215128250452,47.61460955806194],[-122.32126422657078,47.6153252750773],[-122.32084392540456,47.615804445980494],[-122.32084522785333,47.61601509084565],[-122.32067350726658,47.6160499633424],[-122.32050079469236,47.61634226436142],[-122.32059806179683,47.6164456263309],[-122.32033742832408,47.61668602962425],[-122.32018990000002,47.6171499],[-122.32017374835884,47.6206321065651],[-122.3199718392898,47.62154683721605],[-122.31941566343983,47.6227458838492],[-122.30694088869551,47.638059593632306],[-122.30598230224521,47.639554511809884],[-122.30504002235965,47.641404657643164],[-122.30433026,47.64329268],[-122.30393297962125,47.64483039383707],[-122.3036179,47.64732195714286],[-122.30371247220853,47.6501189019727],[-122.30382151492068,47.650457798197415],[-122.303713,47.6507339],[-122.3037650077034,47.65255991481238],[-122.30392600000002,47.6535595],[-122.30438527417401,47.65446518169788],[-122.304758,47.6549415],[-122.30552670370572,47.65560953161501],[-122.30621756217099,47.65603872833009],[-122.30720365955881,47.65648078182552],[-122.30877527607662,47.65688661902808],[-122.31215411973007,47.65738434737314],[-122.312871,47.657747],[-122.31352,47.658234],[-122.31413761577514,47.65929805567257],[-122.314061622389,47.66058035668216],[-122.31417104930054,47.66066946806549],[-122.31405694587637,47.660755798218624],[-122.31400923749518,47.66231479902232],[-122.31415426989659,47.664751955067736],[-122.314483,47.66690475],[-122.31466097806062,47.66699267707123],[-122.31455045561901,47.667305734376384],[-122.31591262124414,47.6749729403626],[-122.31597050000002,47.678082999999994],[-122.3163845,47.67922549999999],[-122.31683600000002,47.679900999999994],[-122.31769534264222,47.680764814441005],[-122.32666520738442,47.688156976707205],[-122.32764571162119,47.68933682109443],[-122.32837343892675,47.690913378426565],[-122.3285527435033,47.69221065304449],[-122.32842876766043,47.69579976073194],[-122.32879512320888,47.698374041480015],[-122.32874856800237,47.69923156608011],[-122.32823180436651,47.70183241284177],[-122.32821002108533,47.702239040074744],[-122.3283560259312,47.70252704587631],[-122.32825183747707,47.70278652219633],[-122.32825629052732,47.70470621679443],[-122.32842215213552,47.70547688041611],[-122.32859525278175,47.7055869258193],[-122.32859796953204,47.705932263782735],[-122.32901056298475,47.706791248805565],[-122.32915407860165,47.70757721589723],[-122.3291197718085,47.70914020958503],[-122.32894652571022,47.71009061541881],[-122.328586366646,47.71090916559551],[-122.32718325870843,47.712653148213036],[-122.32595313799594,47.71465254482366],[-122.32478423210836,47.71615745932971],[-122.32427327182984,47.71705963983466],[-122.32399121608104,47.71783427269955],[-122.32377931329881,47.71972760890532],[-122.32389906971096,47.721420992723296],[-122.32363687227583,47.73195224661499],[-122.3237876489955,47.73353546053519],[-122.32436718039672,47.734794261590146],[-122.32867350324388,47.74139710388658],[-122.3292901723512,47.74267439781105],[-122.32943103163383,47.74416598952373],[-122.32856324549056,47.74690708623628],[-122.32839317144403,47.74800779194781],[-122.32854427667412,47.7493647166759],[-122.32932033152525,47.751247070486805],[-122.32966927831238,47.75314688521158],[-122.32935891497921,47.75466484345124],[-122.3283519770953,47.75655719449881],[-122.32411327243953,47.761340811089696],[-122.32345529051179,47.76220805408165],[-122.3230315507489,47.763394631757954],[-122.32176109210887,47.76910939693877],[-122.3210400828606,47.770399725348256],[-122.31821146073995,47.77403975178211],[-122.317678090582,47.77504165952322],[-122.31735170000002,47.77617368888888],[-122.3165932292601,47.78022162571447],[-122.31597136313106,47.7818043870973],[-122.31480588361934,47.78367198470279],[-122.3147225701212,47.7841309610009],[-122.31484527728887,47.78652792363903],[-122.31564798886511,47.78871707249989],[-122.31665247584712,47.78996194984485],[-122.31692278973475,47.79084852406229],[-122.31681627147758,47.7931855976194],[-122.31628228418447,47.79608199330316],[-122.31634602963929,47.799262559848245],[-122.31610514445534,47.80021529375724],[-122.315741642787,47.80070864911595],[-122.31480205490277,47.80153089377634],[-122.31217899410008,47.80368237092228],[-122.31130791205406,47.804271440765035],[-122.30098589277992,47.809763916067034],[-122.29990094028227,47.81042377965973],[-122.29874582336114,47.81153855902711],[-122.29766806374317,47.81348822517619],[-122.29728045016405,47.813944278272615],[-122.29650746277328,47.81463016452105],[-122.29627055000003,47.8146887],[-122.29452157003665,47.815778034422536]]}},{"type":"Feature","properties":{"route_ref":"2 Line","route_color":"#3dae2b"},"geometry":{"type":"LineString","coordinates":[[-122.29523243418016,47.815367604545656],[-122.29642617282117,47.81470846853415],[-122.29729840806763,47.813930169683786],[-122.29784779276297,47.81319497107793],[-122.29874175125572,47.811543931157686],[-122.29939530210468,47.81083238963977],[-122.3000688591007,47.81030963050386],[-122.31163683278015,47.80406291764052],[-122.31485619404289,47.80148550682226],[-122.31571237543567,47.80073642386225],[-122.3160819308996,47.8002572765994],[-122.31634157948436,47.79937490519644],[-122.31628150304499,47.79608853424048],[-122.31679964342574,47.7933310237719],[-122.3169195652802,47.7908545939512],[-122.31665697398626,47.78996947196853],[-122.31564810131668,47.7887173569045],[-122.31490938649391,47.786695092753405],[-122.31480428247463,47.78570205705233],[-122.31487169519417,47.783514576325594],[-122.31603777612428,47.781694485088046],[-122.3164173747946,47.78076793786619],[-122.31745107561579,47.775726168934966],[-122.31794569082602,47.77447468369666],[-122.32101929514752,47.77046599492716],[-122.32166137081101,47.7693517269748],[-122.32332571496997,47.762465212729715],[-122.32426166339629,47.76117463197896],[-122.3282626787551,47.75668713082495],[-122.32927437266792,47.75486310348792],[-122.32959731251637,47.7536776924981],[-122.32966949237527,47.752914054256934],[-122.32957446454597,47.752218550124056],[-122.32943192755847,47.75155658087565],[-122.3285407123701,47.74935102568465],[-122.3284005557815,47.74782983734278],[-122.3285671156138,47.74689510484516],[-122.32941751429958,47.74426623193521],[-122.32932030123327,47.74277975757567],[-122.32871800674228,47.74146915913592],[-122.32398353734169,47.734079554636914],[-122.3237425309759,47.733312595764524],[-122.32363386122812,47.73172068417617],[-122.32390576842998,47.72155754636779],[-122.32378189755482,47.719684385087156],[-122.32400779009863,47.71777957019908],[-122.32439156478407,47.71681492545292],[-122.32489025912648,47.71600611298129],[-122.3261997803271,47.714303139993255],[-122.32716140213103,47.712679435447534],[-122.32854716285425,47.710977339211894],[-122.32891968617301,47.71018083831049],[-122.32911367973188,47.70920267189985],[-122.32908095862564,47.70706178872148],[-122.3282582075082,47.7047229880028],[-122.32841030000002,47.7045435],[-122.32831442607151,47.70168061035394],[-122.32883345416795,47.69830127883156],[-122.32861162597,47.69667055553435],[-122.32863545032633,47.692278796089965],[-122.3285055,47.691109],[-122.3279015,47.6896045],[-122.32669570755554,47.68809992155032],[-122.31734743843674,47.68035661659327],[-122.31652805970981,47.6793025471005],[-122.31610339696653,47.67825821119967],[-122.31598101115767,47.67484230055293],[-122.31484750638421,47.66858516005942],[-122.31480999999998,47.66787625],[-122.31463176684284,47.667788433882116],[-122.314742,47.667475249999995],[-122.31431609646181,47.665371195143194],[-122.31418300000001,47.662526],[-122.3142399250216,47.659514202932996],[-122.3140595,47.658692],[-122.31355768707816,47.65805970231637],[-122.31270439291714,47.657519975112756],[-122.31167215749188,47.657216755242274],[-122.3085669804281,47.65679357518348],[-122.30750226612723,47.656527495777524],[-122.306054,47.655814],[-122.30501919426321,47.655106992452126],[-122.305013,47.65500325],[-122.30480576024001,47.65498873846715],[-122.30474025000001,47.654702],[-122.30431821563205,47.65422368865834],[-122.30395591121952,47.65337303634232],[-122.30373113053466,47.64843902272671],[-122.30380391428571,47.648159271428575],[-122.30371919100163,47.64806749216655],[-122.30380526705379,47.646078849564795],[-122.3039267,47.645814200000004],[-122.30377481297506,47.64570992883283],[-122.3039672,47.645534000000005],[-122.30411431119123,47.64439812128741],[-122.30475085503113,47.642323953175854],[-122.30569347156981,47.64023882717453],[-122.30693621812767,47.63819489884095],[-122.30839118226265,47.63630229827536],[-122.30852759999999,47.636247700000006],[-122.31934719999998,47.62298609999999],[-122.31997810457706,47.6217441030692],[-122.32023210294778,47.6207517290351],[-122.32026827167533,47.6171532852095],[-122.32039916830813,47.61672564367473],[-122.32119522192842,47.61548498756437],[-122.32195516534657,47.614816009400116],[-122.32264188024882,47.614388367713],[-122.32414734120977,47.61377659177054],[-122.3247966,47.6136648],[-122.32500395676331,47.61351540611225],[-122.32517084999999,47.613595124999996],[-122.32526186073397,47.61347322971042],[-122.32542165000001,47.613556124999995],[-122.3272068,47.6134755],[-122.328107,47.6135648],[-122.33007214026826,47.61393675673617],[-122.33112922842716,47.613881601926096],[-122.33777248000001,47.61118292],[-122.3382313235231,47.61092076115041],[-122.33841092000597,47.61064350216482],[-122.33840702680673,47.6104156291685],[-122.3381651181818,47.610038654545455],[-122.33674417083537,47.608596191543576],[-122.3309960857499,47.602235505891684],[-122.33030624736843,47.601652594736834],[-122.32880009549709,47.60068683202117],[-122.32827026394828,47.60020699598398],[-122.32802831829775,47.59963509494958],[-122.32806049999999,47.5979023],[-122.32796526851749,47.59779999320222],[-122.32821746389169,47.597269615294735],[-122.32832188814596,47.59555239647607],[-122.32760408325963,47.593535597125644],[-122.3272350381529,47.59296221469469],[-122.32687754927805,47.59273130281422],[-122.32641108897363,47.59259154486419],[-122.32589499058595,47.59256761318266],[-122.32528209587252,47.59265973136795],[-122.32364299211771,47.593125714827394],[-122.3210835088013,47.59406072467736],[-122.3187829151629,47.59450621013495],[-122.31705491106499,47.59514705281048],[-122.31569715984385,47.59536200234245],[-122.31438334342434,47.59506026256989],[-122.31307996098356,47.59417735846253],[-122.3124317590754,47.593491645659356],[-122.31111932460584,47.59169837735462],[-122.31021694320769,47.590926492883774],[-122.3091162244991,47.59045174264813],[-122.30754853084238,47.59023044139108],[-122.30199531196675,47.59031887114152],[-122.29820564973569,47.590274731059594],[-122.29495528430806,47.590466745118476],[-122.28796662837236,47.59040918821405],[-122.28526182773045,47.590192041981624],[-122.2541447557124,47.58948180823945],[-122.25215690592294,47.58962106867826],[-122.25117593600267,47.589851973082304],[-122.25015573209622,47.59022505820809],[-122.24805417930378,47.59134090105445],[-122.24689099241364,47.59180311743947],[-122.24510211625494,47.59212313885168],[-122.24330355775177,47.59207711663929],[-122.24196097332529,47.591840255634544],[-122.24085530477329,47.5914781153517],[-122.23691749269193,47.589476538403595],[-122.23653359679156,47.58940969443911],[-122.23571654937855,47.58900591911563],[-122.23381678323695,47.58842083480723],[-122.2307872636263,47.587261456360565],[-122.23044472744226,47.587199625753385],[-122.22564721646603,47.58489225749438],[-122.21953114020366,47.5822836597157],[-122.21851264954965,47.58169039272482],[-122.21628215849155,47.58010092519195],[-122.21512501757334,47.57951328189871],[-122.21318829886765,47.578887024830756],[-122.20708122931968,47.57798241720056],[-122.20515653291199,47.57787397930246],[-122.20383682626935,47.57798607259198],[-122.2029051819781,47.578159943333],[-122.1960180585136,47.57991565402906],[-122.19528520406607,47.579980737232326],[-122.19402192853107,47.57992883452807],[-122.19100862295393,47.57942338546115],[-122.19015849986053,47.57950984995645],[-122.18942809538305,47.57973050881138],[-122.18858716389596,47.58021775465069],[-122.18803234399017,47.58090690139042],[-122.18780819780171,47.58169675809049],[-122.18797574086854,47.58305368492839],[-122.1914459186811,47.58810422705634],[-122.1922378146549,47.58997529928528],[-122.19432827708428,47.59297191177112],[-122.19455807105076,47.59374815971753],[-122.19445980358569,47.594795181012],[-122.19380183475101,47.596327881962246],[-122.19330997497589,47.597073247553666],[-122.19194021545182,47.59827183854341],[-122.19137115131056,47.59894748289202],[-122.19105563822323,47.599726326487755],[-122.19099434971113,47.600338715005634],[-122.19094742003807,47.60397613026275],[-122.19116584438656,47.60865247354993],[-122.1912997731452,47.60914412458844],[-122.19155522214463,47.609451597133244],[-122.19316194072711,47.61011390271162],[-122.19362591010173,47.61063943258483],[-122.19354294709542,47.614982041466746],[-122.19307564240879,47.61521044240515],[-122.19112048740932,47.61520827353484],[-122.19267987857783,47.615167299200834],[-122.19268183199006,47.615223419376015],[-122.18644417325564,47.61520873950583],[-122.18549176014291,47.61541392316346],[-122.18468165388052,47.61578287179256],[-122.18418455771028,47.6162362024693],[-122.1838940051105,47.61676442200923],[-122.18371519671732,47.618234197542115],[-122.1837894875143,47.61841892280855],[-122.18368866798032,47.618505129988314],[-122.1835598763142,47.61964098616846],[-122.18246642711169,47.62249400663813],[-122.18193357028004,47.62308070449476],[-122.18132340240957,47.62338518038018],[-122.17841698869131,47.62381791327422],[-122.17406652194238,47.62428338985855],[-122.17168260329176,47.62426323712643],[-122.1679254228597,47.624488399162026],[-122.16068791128518,47.624395603915936],[-122.15943648643986,47.62462074677393],[-122.15904220380845,47.62484036405411],[-122.15866205043636,47.62521403954168],[-122.1572001129095,47.62788523811443],[-122.15678131590523,47.6284945609855],[-122.15627456572166,47.62889654748731],[-122.15547007342198,47.629154087997954],[-122.15316794188944,47.62938517764738],[-122.15148426939504,47.629735493559764],[-122.14997453655448,47.63021435821202],[-122.1484404715074,47.630894017825156],[-122.14516108032598,47.632572766993164],[-122.14267126589765,47.63419702709964],[-122.14035539507051,47.63533394473534],[-122.1368720570452,47.637718082820676],[-122.13589435571173,47.638563151027334],[-122.13468001752275,47.640121403456305],[-122.13415061814304,47.64128062285947],[-122.1333890575729,47.643648320734385],[-122.13375069355251,47.64565377266878],[-122.13561144851643,47.64879395542905],[-122.13685919557142,47.65136271662187],[-122.13696338357104,47.652427334083],[-122.1365330649014,47.65452250893707],[-122.13660975671131,47.65564839231577],[-122.13652200234546,47.657083525360285],[-122.13563760148637,47.65910723288442],[-122.13435840600856,47.66117560554186],[-122.13324535709894,47.66354354005639],[-122.13235537163774,47.66456782103789],[-122.13136399077601,47.66529527248773],[-122.13000231212963,47.66599436692391],[-122.12850160518296,47.666491038474604],[-122.12711613928306,47.66675469030897],[-122.12524988082285,47.66692281537639],[-122.12197417148987,47.66701545591872],[-122.11202022241662,47.66681323626904],[-122.10844468602703,47.66747840630257],[-122.10786532864849,47.66771349127063],[-122.10765180101087,47.66794907016396],[-122.10752848354498,47.66833315981495],[-122.10759204913678,47.6685800145084],[-122.10784098460465,47.66890687317155],[-122.1081505890026,47.66906442314684],[-122.11274117357034,47.67014493792868],[-122.119327,47.67190909999999]]}},{"type":"Feature","properties":{"route_ref":"South Lake Union Streetcar","route_color":"#64748b"},"geometry":{"type":"LineString","coordinates":[[-122.33238944629417,47.62759255283628],[-122.33220068593545,47.627697610156794],[-122.33451416509682,47.62594419492725],[-122.33519804102114,47.62587922435849],[-122.33825879382917,47.6259219502844],[-122.33858596768408,47.625727386962126],[-122.33856506022808,47.62141162047891],[-122.33854173951919,47.62096969960503],[-122.33841519851428,47.6207860330227],[-122.3385456,47.620594],[-122.33858785,47.61872064999999],[-122.33856702869316,47.61851630370628],[-122.33841437819176,47.61846036872503],[-122.33835733669376,47.61814179302079],[-122.33848993333332,47.6180499],[-122.33820357606577,47.61669980222477],[-122.33805588473625,47.616606230917164],[-122.33801782585591,47.61642085554543],[-122.3381251398378,47.616316405607925],[-122.33787441834335,47.61572602431645],[-122.3377512243584,47.61447188252814],[-122.33729704221429,47.61289260774376]]}},{"type":"Feature","properties":{"route_ref":"First Hill Streetcar","route_color":"#c4112f"},"geometry":{"type":"LineString","coordinates":[[-122.32096127531246,47.618059152147175],[-122.32094668243337,47.61815895152756],[-122.32078691256005,47.61477077233449],[-122.32086977834093,47.61374768897968],[-122.32076442409046,47.61003899871682],[-122.3208574445186,47.60956383345008],[-122.32076435255321,47.60857679950863],[-122.3208536676165,47.608492814179904],[-122.32076391705371,47.608408949886844],[-122.32073243512548,47.6066749348289],[-122.32084865102479,47.60504743155627],[-122.32074259011658,47.601925596862095],[-122.3205596341361,47.60174435226468],[-122.31994650000001,47.60166915],[-122.31767899897515,47.601715501521674],[-122.31437688949332,47.60164428790204],[-122.31419754784062,47.60153576572243],[-122.31411212746758,47.601311501316815],[-122.31423631360438,47.59938219238139],[-122.31444890366474,47.59926003603046],[-122.31509188794607,47.59920507949962],[-122.31754104677621,47.59917587316467],[-122.33359122291591,47.59920729277386]]}}]}