{"type":"FeatureCollection","features":[{"type":"Feature","properties":{"route_ref":"21","route_color":"#64748b"},"geometry":{"type":"LineString","coordinates":[[27.937055128931533,45.24034422141495],[27.947431271428567,45.252168642857136],[27.94770099409027,45.25266181420565],[27.9477886,45.2532005],[27.949118238075346,45.254570802259046],[27.95482612762399,45.255846394340104],[27.95816712648992,45.2564979780268],[27.958936290362193,45.256755209145204],[27.9633119485926,45.25962801653098],[27.968376449999997,45.26374361666667],[27.968796501172907,45.26420008426992],[27.96874874912638,45.26469381537024],[27.96744715173836,45.26613437749148],[27.966646599999997,45.267738099999995],[27.9658722,45.270125560000004],[27.9657363476121,45.27134013288116],[27.965826200000002,45.271936399999994],[27.966169114919467,45.273119792519196],[27.966677300000004,45.274192920000004],[27.967908474999998,45.2759228],[27.969037600000004,45.277067066666675],[27.969955575000004,45.27781149999999],[27.970719350000003,45.27827719999999],[27.972208980920954,45.27893685306354],[27.97241767288004,45.27927160493195],[27.971086766883747,45.285333895876306],[27.970466828268204,45.2894035996555],[27.970417183169705,45.29082542020212],[27.970598405041248,45.291013709159216],[27.971040419272846,45.29115834022381],[27.971123983832342,45.291580798308246],[27.96885673888889,45.302447461111115],[27.96865742095431,45.302678275809136],[27.9654887,45.30237761666667],[27.965114001713427,45.3022530377452],[27.96498401666667,45.30200552777778],[27.966895298367348,45.292977083522864],[27.96731872714446,45.29275122279073],[27.970582089911314,45.29307296516102],[27.970758469338477,45.29301485151376],[27.970842558047714,45.292798991104355],[27.971123776579546,45.29129139430053],[27.971042632868496,45.29115986897248],[27.970543757578376,45.2909879669341],[27.970412733324878,45.29082053044403],[27.970476146640163,45.289168040981124],[27.97112881250001,45.285109287500006],[27.972325518252685,45.27957562341367],[27.972160655854385,45.279270259644335],[27.97080783333333,45.278688333333335],[27.969600820000004,45.277957300000004],[27.968346883333336,45.276879300000004],[27.96733375,45.27579466666667],[27.96655196,45.27473593999999],[27.965854179999997,45.27342933999999],[27.96553420643005,45.272486899387964],[27.965438493037496,45.27042222629299],[27.965947179999997,45.2684581],[27.966447609126437,45.26714960251601],[27.967025099999997,45.2661256],[27.967957266666666,45.26499213333334],[27.968728246326474,45.2643074029676],[27.96871785126339,45.264083587604624],[27.963131119773053,45.25951248063244],[27.958820962583392,45.25670055284853],[27.958166126185855,45.25649905939822],[27.948632065888773,45.25451904843694],[27.94795620003497,45.25428480468392],[27.947738942231634,45.25381907626065],[27.94770385334728,45.252659379295054],[27.947358740705276,45.25208581909719],[27.93705658132894,45.24034589230351]]}},{"type":"Feature","properties":{"route_ref":"24","route_color":"#64748b"},"geometry":{"type":"MultiLineString","coordinates":[[[27.93679314763294,45.240075038848374],[27.937074768787898,45.24034336704035],[27.922111730434793,45.223290804347826],[27.919337789523258,45.220005136120136],[27.91920570291209,45.219326461744885],[27.919767019243885,45.213555353539135],[27.919649370387827,45.212916995751115],[27.91929865281555,45.212418291624154],[27.916707161310473,45.20952269570074],[27.912108015413924,45.20498534266419],[27.906379303738596,45.199793680852366],[27.905327354731824,45.19898769448075],[27.9045716397691,45.19809650962504],[27.901048438568225,45.1948689442969],[27.897211578298283,45.19160140216214],[27.896899356865827,45.19144684553271],[27.896108294003593,45.19133805778431],[27.895898808489175,45.19121772666419],[27.89585688305951,45.19103419046692],[27.89597176367086,45.19089895087328],[27.896283560676487,45.190842085510916],[27.896602825,45.191004199999995],[27.89936024159152,45.193490515233144],[27.900381310229925,45.19428066035369],[27.90452565999999,45.198019560000006],[27.905327020370304,45.19898646240954],[27.906621836363634,45.199993763636364],[27.912255392857137,45.20511937321429],[27.916703988888887,45.209519122222225],[27.919363633362288,45.21249531354585],[27.91965157870582,45.212919951355204],[27.919783749590405,45.21366983672847],[27.91920596671028,45.219323703524516],[27.919338641953946,45.22000833155185],[27.936327671794558,45.23954170800477]],[[27.948456900000004,45.2544788],[27.948040595768862,45.25434532937721],[27.94779463783012,45.25406228444157],[27.94770385334728,45.252659379295054],[27.947358740705276,45.25208581909719],[27.937041349767057,45.240342961989064],[27.947431271428567,45.252168642857136],[27.94770099409027,45.25266181420565],[27.9477886,45.2532005],[27.948688895952763,45.25407480030842],[27.94873023939059,45.25429765385743],[27.948448546908637,45.25445375485409]]]}},{"type":"Feature","properties":{"route_ref":"22","route_color":"#64748b"},"geometry":{"type":"MultiLineString","coordinates":[[[27.962191457128995,45.28162300049257],[27.956842092307696,45.275162353846156],[27.956409602839358,45.274558425343464],[27.956343767464002,45.2742746886018],[27.956618857595366,45.268450976201315],[27.959368597409295,45.26212995601618],[27.95901189490618,45.25818135737262],[27.959710609062576,45.257488384619464],[27.959739429787213,45.25728692226424],[27.959734975553157,45.257466230151536],[27.959132220007234,45.25797859569601],[27.95900975458623,45.258240081726015],[27.959377481849423,45.26167850098366],[27.959317659039627,45.26231669979745],[27.95659433226994,45.26858761231369],[27.95636985985332,45.27444358538092],[27.958598017484608,45.277289324310836],[27.96232606758356,45.281749764012424],[27.967787792520816,45.28532207084421],[27.96850871016277,45.28550515954194],[27.970614026635406,45.28571495420929],[27.97095832943132,45.2859063839852],[27.970466828268204,45.2894035996555],[27.97040005203986,45.290638897669226],[27.970496701713305,45.29094788228519],[27.97106384304891,45.29118635350492],[27.971123983832342,45.291580798308246],[27.96885673888889,45.302447461111115],[27.96860672794826,45.30268721170634],[27.9654887,45.30237761666667],[27.965114001713427,45.3022530377452],[27.96498401666667,45.30200552777778],[27.966895298367348,45.292977083522864],[27.96731872714446,45.29275122279073],[27.970582089911314,45.29307296516102],[27.970758469338477,45.29301485151376],[27.970842558047714,45.292798991104355],[27.971123776579546,45.29129139430053],[27.971042632868496,45.29115986897248],[27.970502312461203,45.29095087970788],[27.9703999626492,45.29063457787281],[27.970476146640163,45.289168040981124],[27.970956600000004,45.2860022],[27.970635083957408,45.28570741244155],[27.9685069,45.28550516666666],[27.967725770619243,45.28528711348262],[27.962191136429148,45.28162312367586]],[[27.93647921656758,45.23924601332986],[27.93684139239881,45.239157403460524],[27.937120477610836,45.239296155358254],[27.93710135084593,45.23949928878841],[27.936727700000002,45.2398455],[27.936933452649512,45.240205613459594],[27.947431271428567,45.252168642857136],[27.94770099409027,45.25266181420565],[27.9477886,45.2532005],[27.94848155,45.253823600000004],[27.949043214285712,45.25451302857144],[27.949576440737218,45.25472343929733],[27.958452604753145,45.256566412610255],[27.95974587221783,45.25725113891418],[27.958820962583392,45.25670055284853],[27.95829519639314,45.25652890421254],[27.948996775000005,45.254599193749996],[27.94795620003497,45.25428480468392],[27.947762847538787,45.25395179672744],[27.94770385334728,45.252659379295054],[27.947542269345547,45.25232470612673],[27.936396050000003,45.239622925],[27.936355394956742,45.239410682163744],[27.936489196349648,45.23924563146573]]]}},{"type":"Feature","properties":{"route_ref":"25","route_color":"#64748b"},"geometry":{"type":"MultiLineString","coordinates":[[[27.936830299999993,45.2400589],[27.937074768787898,45.24034336704035],[27.91938520727636,45.220076908281015],[27.919228052726904,45.219764487065554],[27.91920570291209,45.219326461744885],[27.919494987887244,45.21611183439225],[27.91963081,45.21475615999999],[27.91969750950769,45.21459408680802],[27.919932259280674,45.21449006782759],[27.920262298095185,45.21453660129936],[27.92037667981305,45.21474065851373],[27.920247598541337,45.21494613484802],[27.919633702003352,45.215318547585255],[27.919533972972317,45.21580220777362],[27.91920596671028,45.219323703524516],[27.919231376394844,45.21976383079898],[27.91938503278116,45.220079191501775],[27.9368303,45.2400589]],[[27.948456900000004,45.2544788],[27.948040595768862,45.25434532937721],[27.94779463783012,45.25406228444157],[27.94770385334728,45.252659379295054],[27.947358740705276,45.25208581909719],[27.937041349767057,45.240342961989064],[27.947431271428567,45.252168642857136],[27.94770099409027,45.25266181420565],[27.9477886,45.2532005],[27.948688895952763,45.25407480030842],[27.94873023939059,45.25429765385743],[27.948448546908637,45.25445375485409]]]}}]}