{"type":"FeatureCollection","metro_system":{"continent":"asia","country":"China","city":"Kunming","official_website":null,"official_map":"https://en.wikipedia.org/wiki/Kunming_Metro","wikipedia":"en:Kunming Metro","wiki":true,"wikipedia_zh":"zh:昆明地铁","line_count":7,"segment_count":8,"station_count":103,"modes":["metro"],"audit":{"strategies_tried":[],"passed":true,"checks":[{"id":"system_exists","ok":true,"detail":"matched OSM system metro-maps/asia/china/as-chn-kunming/as-chn-kunming.geojson","level":"error"},{"id":"has_lines","ok":true,"detail":"7 lines","level":"error"},{"id":"has_stations","ok":true,"detail":"103 stations","level":"error"},{"id":"station_count_info","ok":true,"detail":"OSM 103 站（wiki List 記 103，計法含轉乘重複，僅參考）","level":"warn"},{"id":"stations_have_lines","ok":true,"detail":"103/103 站皆有所屬路線","level":"error"},{"id":"line_geometry_stations","ok":true,"detail":"117 個折點/端點皆為車站","level":"error"},{"id":"route_stations_match_geometry","ok":true,"detail":"各線車站列表與圖面一致","level":"error"},{"id":"interchange_rule","ok":true,"detail":"所有車站紅/藍點符合骨架＋路線色規則（藍＝端點、紅＝交叉）","level":"error"},{"id":"stations_named","ok":true,"detail":"103/103 站皆有名稱","level":"error"},{"id":"station_order","ok":true,"detail":"所有線路站序合理","level":"warn"},{"id":"line_wiki_stations","ok":true,"detail":"各線站數與 wiki 線路條目相符（營運中站數）","level":"error"},{"id":"line_wiki_planned","ok":false,"detail":"1 條線少於 wiki 全線總數（可能含未通車段，待人工確認）：昆明地铁2号线 14/22","level":"warn"},{"id":"line_wiki_coverage","ok":false,"detail":"2 條線無 wiki 站數對照：昆明地铁1号线、昆明地铁1号线","level":"warn"}],"reasons":[],"warnings":["1 條線少於 wiki 全線總數（可能含未通車段，待人工確認）：昆明地铁2号线 14/22","2 條線無 wiki 站數對照：昆明地铁1号线、昆明地铁1号线"],"audited_at":"2026-07-27T02:38:22.461Z"}},"features":[{"type":"Feature","properties":{"seg_id":"kunming-0","routes":[{"route_id":"rm7909740","route_name":"昆明地铁2号线","route_name_local":"昆明地铁2号线","route_name_en":"Kunming Metro Line 2","route_ref":"2","route_color":"#235a99","wikipedia":"zh:昆明地铁2号线","osm_route_ids":[4508011,5456209],"status":null,"order_suspect":0,"span_suspect":0,"stations":[{"station_id":"n9006301320","station_name":"环城南路"},{"station_id":"n7931462208","station_name":"塘子巷"},{"station_id":"n5345104404","station_name":"东风广场"},{"station_id":"n13536002364","station_name":"交三桥"},{"station_id":"n13536002365","station_name":"穿心鼓楼"},{"station_id":"n2845408107","station_name":"火车北站"},{"station_id":"n13536002367","station_name":"白云路"},{"station_id":"n13536002366","station_name":"金星"},{"station_id":"n13536002368","station_name":"北辰"},{"station_id":"n13536002369","station_name":"霖雨桥"},{"station_id":"n13536002370","station_name":"羊肠村"},{"station_id":"n13536002371","station_name":"司家营"},{"station_id":"n13584361551","station_name":"龙头街"},{"station_id":"n13536003408","station_name":"北部汽车站"}]}],"route_count":1,"route_refs":["2"],"route_colors":["#235a99"],"city":"Kunming","country":"China"},"geometry":{"type":"MultiLineString","coordinates":[[[102.71944837999999,25.026956639999998],[102.71858568,25.03544048],[102.71805766,25.041185879999997],[102.71818103333334,25.045441433333334],[102.71804580000001,25.05242386666667],[102.7206666142857,25.059855300000002],[102.72232303333332,25.068773399999998],[102.72632193333334,25.078901433333332],[102.73108223333334,25.083972700000004],[102.73768663333334,25.0963325],[102.74043630000001,25.1038408],[102.74421066666666,25.112685600000002],[102.75233316666667,25.114797033333332],[102.76189926666666,25.11012913333333]]]}},{"type":"Feature","properties":{"seg_id":"kunming-1","routes":[{"route_id":"rm7909748","route_name":"昆明地铁1号线","route_name_local":"昆明地铁1号线","route_name_en":"Kunming Metro Line 1","route_ref":"1","route_color":"#bf3334","wikipedia":"zh:昆明地铁1号线","osm_route_ids":[5456208,7909741,7909745],"status":null,"order_suspect":0,"span_suspect":0,"stations":[{"station_id":"n9006301320","station_name":"环城南路"},{"station_id":"n13536002363","station_name":"昆明火车站"},{"station_id":"n13536002362","station_name":"福德"},{"station_id":"n13536002361","station_name":"日新路"},{"station_id":"n13536002360","station_name":"巫家坝"},{"station_id":"n13536002359","station_name":"昌宏西路"},{"station_id":"n13536002358","station_name":"晓东村"},{"station_id":"n13536002357","station_name":"珥季路"},{"station_id":"n13536002105","station_name":"星耀路"},{"station_id":"n13536002216","station_name":"新亚洲体育城"},{"station_id":"n13536002218","station_name":"南部汽车站"},{"station_id":"n2788302371","station_name":"斗南"},{"station_id":"n13536002354","station_name":"春融街"},{"station_id":"n2788302429","station_name":"驼峰街"},{"station_id":"n2788302419","station_name":"联大街"},{"station_id":"n2788302424","station_name":"谊康南路"},{"station_id":"n3015753488","station_name":"大学城"},{"station_id":"n2788302364","station_name":"大学城南"}]},{"route_id":"r7909742","route_name":"昆明地铁1号线","route_name_local":"昆明地铁1号线","route_name_en":"Kunming Metro Line 1","route_ref":"1","route_color":"#bf3334","wikipedia":"zh:昆明地铁1号线","osm_route_ids":[7909742],"status":null,"order_suspect":0,"span_suspect":0,"stations":[{"station_id":"n4583028884","station_name":"昆明南火车站"},{"station_id":"n13535995624","station_name":"白龙潭"},{"station_id":"n13535995620","station_name":"宜和路"},{"station_id":"n13535995619","station_name":"市级行政中心"},{"station_id":"n13536002354","station_name":"春融街"},{"station_id":"n2788302371","station_name":"斗南"},{"station_id":"n13536002218","station_name":"南部汽车站"},{"station_id":"n13536002216","station_name":"新亚洲体育城"},{"station_id":"n13536002105","station_name":"星耀路"},{"station_id":"n13536002357","station_name":"珥季路"},{"station_id":"n13536002358","station_name":"晓东村"},{"station_id":"n13536002359","station_name":"昌宏西路"},{"station_id":"n13536002360","station_name":"巫家坝"},{"station_id":"n13536002361","station_name":"日新路"},{"station_id":"n13536002362","station_name":"福德"},{"station_id":"n13536002363","station_name":"昆明火车站"},{"station_id":"n9006301320","station_name":"环城南路"}]}],"route_count":2,"route_refs":["1","1"],"route_colors":["#bf3334","#bf3334"],"city":"Kunming","country":"China"},"geometry":{"type":"MultiLineString","coordinates":[[[102.71944837999999,25.026956639999998],[102.7216936,25.016462033333337],[102.72864976666666,25.009998799999995],[102.7334772,25.004315433333332],[102.74003976666665,24.9999897],[102.74964433333334,24.989149966666663],[102.7597023,24.988254666666666],[102.76532986666666,24.975502300000002],[102.76658643333333,24.959858299999997],[102.7681172,24.949951799999997],[102.77366026666665,24.932234833333336],[102.79080382,24.91127882],[102.823955525,24.88698305]]]}},{"type":"Feature","properties":{"seg_id":"kunming-2","routes":[{"route_id":"rm7909748","route_name":"昆明地铁1号线","route_name_local":"昆明地铁1号线","route_name_en":"Kunming Metro Line 1","route_ref":"1","route_color":"#bf3334","wikipedia":"zh:昆明地铁1号线","osm_route_ids":[5456208,7909741,7909745],"status":null,"order_suspect":0,"span_suspect":0,"stations":[{"station_id":"n9006301320","station_name":"环城南路"},{"station_id":"n13536002363","station_name":"昆明火车站"},{"station_id":"n13536002362","station_name":"福德"},{"station_id":"n13536002361","station_name":"日新路"},{"station_id":"n13536002360","station_name":"巫家坝"},{"station_id":"n13536002359","station_name":"昌宏西路"},{"station_id":"n13536002358","station_name":"晓东村"},{"station_id":"n13536002357","station_name":"珥季路"},{"station_id":"n13536002105","station_name":"星耀路"},{"station_id":"n13536002216","station_name":"新亚洲体育城"},{"station_id":"n13536002218","station_name":"南部汽车站"},{"station_id":"n2788302371","station_name":"斗南"},{"station_id":"n13536002354","station_name":"春融街"},{"station_id":"n2788302429","station_name":"驼峰街"},{"station_id":"n2788302419","station_name":"联大街"},{"station_id":"n2788302424","station_name":"谊康南路"},{"station_id":"n3015753488","station_name":"大学城"},{"station_id":"n2788302364","station_name":"大学城南"}]}],"route_count":1,"route_refs":["1"],"route_colors":["#bf3334"],"city":"Kunming","country":"China"},"geometry":{"type":"MultiLineString","coordinates":[[[102.823955525,24.88698305],[102.82819073333333,24.875036166666664],[102.83251170000001,24.862611480000005],[102.83685803333334,24.850821233333335],[102.8410153,24.839141800000004],[102.82450177999999,24.82524368]]]}},{"type":"Feature","properties":{"seg_id":"kunming-3","routes":[{"route_id":"r7909742","route_name":"昆明地铁1号线","route_name_local":"昆明地铁1号线","route_name_en":"Kunming Metro Line 1","route_ref":"1","route_color":"#bf3334","wikipedia":"zh:昆明地铁1号线","osm_route_ids":[7909742],"status":null,"order_suspect":0,"span_suspect":0,"stations":[{"station_id":"n4583028884","station_name":"昆明南火车站"},{"station_id":"n13535995624","station_name":"白龙潭"},{"station_id":"n13535995620","station_name":"宜和路"},{"station_id":"n13535995619","station_name":"市级行政中心"},{"station_id":"n13536002354","station_name":"春融街"},{"station_id":"n2788302371","station_name":"斗南"},{"station_id":"n13536002218","station_name":"南部汽车站"},{"station_id":"n13536002216","station_name":"新亚洲体育城"},{"station_id":"n13536002105","station_name":"星耀路"},{"station_id":"n13536002357","station_name":"珥季路"},{"station_id":"n13536002358","station_name":"晓东村"},{"station_id":"n13536002359","station_name":"昌宏西路"},{"station_id":"n13536002360","station_name":"巫家坝"},{"station_id":"n13536002361","station_name":"日新路"},{"station_id":"n13536002362","station_name":"福德"},{"station_id":"n13536002363","station_name":"昆明火车站"},{"station_id":"n9006301320","station_name":"环城南路"}]}],"route_count":1,"route_refs":["1"],"route_colors":["#bf3334"],"city":"Kunming","country":"China"},"geometry":{"type":"MultiLineString","coordinates":[[[102.85942382,24.873077020000004],[102.85053223333334,24.877652166666667],[102.84350403333333,24.887798833333335],[102.83525876666666,24.88526143333333],[102.823955525,24.88698305]]]}},{"type":"Feature","properties":{"seg_id":"kunming-4","routes":[{"route_id":"rm8040148","route_name":"昆明地铁3号线","route_name_local":"昆明地铁3号线","route_name_en":"Kunming Metro Line 3","route_ref":"3","route_color":"#fe4998","wikipedia":"zh:昆明地铁3号线","osm_route_ids":[5456210,8040149],"status":null,"order_suspect":0,"span_suspect":0,"stations":[{"station_id":"n5258890595","station_name":"西山公园"},{"station_id":"n5067703622","station_name":"车家壁"},{"station_id":"n5067703513","station_name":"普坪村"},{"station_id":"n5067703504","station_name":"石咀"},{"station_id":"n2824224004","station_name":"大渔路"},{"station_id":"n2824223999","station_name":"西部汽车站"},{"station_id":"n5067703500","station_name":"眠山"},{"station_id":"n5067703499","station_name":"昌源中路"},{"station_id":"n5067703498","station_name":"西苑"},{"station_id":"n5067703494","station_name":"梁家河"},{"station_id":"n5067703493","station_name":"市体育馆"},{"station_id":"n2824223971","station_name":"潘家湾"},{"station_id":"n9712871011","station_name":"五一路"},{"station_id":"n5345104404","station_name":"东风广场"},{"station_id":"n2824223949","station_name":"拓东体育馆"},{"station_id":"n7921798134","station_name":"大树营"},{"station_id":"n2824223936","station_name":"金马寺"},{"station_id":"n2824223915","station_name":"太平村"},{"station_id":"n2824223905","station_name":"虹桥"},{"station_id":"n2824223595","station_name":"东部汽车站"}]}],"route_count":1,"route_refs":["3"],"route_colors":["#fe4998"],"city":"Kunming","country":"China"},"geometry":{"type":"MultiLineString","coordinates":[[[102.61684423333334,24.987314366666666],[102.61455426666667,24.997696433333335],[102.6199431,25.00820176666667],[102.62833626666666,25.02158986666667],[102.63444779999999,25.030963099999997],[102.63765943333333,25.038761966666666],[102.64825013333335,25.0502642],[102.65563873333333,25.0497254],[102.66458263333334,25.0490468],[102.67625903333334,25.0481947],[102.68713426666666,25.047402200000004],[102.69380903333332,25.046863700000003],[102.7040859,25.040367359999998],[102.71805766,25.041185879999997],[102.72845466666666,25.0412077],[102.73941212,25.040069319999997],[102.75026100000001,25.039040999999997],[102.75909566666667,25.039321633333333],[102.77168776666667,25.039067666666668],[102.7869285,25.039126599999996]]]}},{"type":"Feature","properties":{"seg_id":"kunming-5","routes":[{"route_id":"rm2653338","route_name":"昆明地铁6号线","route_name_local":"昆明地铁6号线","route_name_en":"Kunming Metro Line 6","route_ref":"6","route_color":"#0290a4","wikipedia":"zh:昆明地铁6号线","osm_route_ids":[5456211,8040142],"status":null,"order_suspect":0,"span_suspect":0,"stations":[{"station_id":"n13536630269","station_name":"机场中心"},{"station_id":"n7150791296","station_name":"机场前"},{"station_id":"n7150791297","station_name":"大板桥"},{"station_id":"n2824223595","station_name":"东部汽车站"},{"station_id":"n7921798132","station_name":"菊华"},{"station_id":"n13572581609","station_name":"东郊路"},{"station_id":"n13572581608","station_name":"岔街"},{"station_id":"n7931462208","station_name":"塘子巷"}]}],"route_count":1,"route_refs":["6"],"route_colors":["#0290a4"],"city":"Kunming","country":"China"},"geometry":{"type":"MultiLineString","coordinates":[[[102.92625646666666,25.098550499999998],[102.91131326666668,25.087929666666668],[102.8751054,25.056465166666666],[102.7869285,25.039126599999996],[102.74813504,25.02779956],[102.73961473333333,25.030542166666667],[102.73291956666667,25.033977500000002],[102.71858568,25.03544048]]]}},{"type":"Feature","properties":{"seg_id":"kunming-6","routes":[{"route_id":"rm11643429","route_name":"昆明地铁4号线","route_name_local":"昆明地铁4号线","route_name_en":"Kunming Metro Line 4","route_ref":"4","route_color":"#dd8800","wikipedia":"zh:昆明地铁4号线","osm_route_ids":[7957933,11645555],"status":null,"order_suspect":0,"span_suspect":0,"stations":[{"station_id":"n4583028884","station_name":"昆明南火车站"},{"station_id":"n7921798108","station_name":"吴家营"},{"station_id":"n2788302419","station_name":"联大街"},{"station_id":"n7921798110","station_name":"牛头山"},{"station_id":"n6245594236","station_name":"祥丰街"},{"station_id":"n7921798116","station_name":"可乐村"},{"station_id":"n7921798118","station_name":"古城"},{"station_id":"n6245594260","station_name":"梅子村"},{"station_id":"n6245594278","station_name":"金桂街"},{"station_id":"n2788302371","station_name":"斗南"},{"station_id":"n13569391596","station_name":"塔密"},{"station_id":"n6245594930","station_name":"广卫"},{"station_id":"n7921798125","station_name":"玉缘路"},{"station_id":"n13536003646","station_name":"羊甫头"},{"station_id":"n13536003636","station_name":"朱家村"},{"station_id":"n6245630854","station_name":"牛街庄"},{"station_id":"n13536003598","station_name":"和甸营"},{"station_id":"n7921798132","station_name":"菊华"},{"station_id":"n7077203939","station_name":"菊花村"},{"station_id":"n7921798134","station_name":"大树营"},{"station_id":"n13536002153","station_name":"白龙路"},{"station_id":"n2845408107","station_name":"火车北站"},{"station_id":"n6245630888","station_name":"小菜园"},{"station_id":"n7822767421","station_name":"苏家塘"},{"station_id":"n7822767422","station_name":"金鼎山北路"},{"station_id":"n7822767424","station_name":"小屯"},{"station_id":"n7921798137","station_name":"海屯路"},{"station_id":"n7921798139","station_name":"大河埂"},{"station_id":"n7921798140","station_name":"金川路"}]}],"route_count":1,"route_refs":["4"],"route_colors":["#dd8800"],"city":"Kunming","country":"China"},"geometry":{"type":"MultiLineString","coordinates":[[[102.85942382,24.873077020000004],[102.84712803333333,24.869322033333333],[102.83251170000001,24.862611480000005],[102.81272560000001,24.856710266666667],[102.80140823333333,24.860449633333335],[102.79512,24.877128066666668],[102.79094409999999,24.885234800000003],[102.7843676,24.8956817],[102.7889885,24.904409766666664],[102.79080382,24.91127882],[102.7858778,24.940234966666665],[102.78388653333333,24.952262666666666],[102.78515220000001,24.967696766666666],[102.784178,24.981196699999998],[102.78215863333332,24.996657966666664],[102.77712096666666,25.008566399999996],[102.7610898,25.01786626666667],[102.74813504,25.02779956],[102.74164990000001,25.032991633333335],[102.73941212,25.040069319999997],[102.7333799,25.052161400000003],[102.7206666142857,25.059855300000002],[102.704498,25.063321933333338],[102.69201299999999,25.066570566666666],[102.68394133333334,25.067113333333335],[102.67186063333334,25.07537603333333],[102.66188766666666,25.07969196666667],[102.65396373333334,25.093084166666667],[102.6559446,25.1021472]]]}},{"type":"Feature","properties":{"seg_id":"kunming-7","routes":[{"route_id":"rm14317129","route_name":"昆明地铁5号线","route_name_local":"昆明地铁5号线","route_name_en":"Kunming Metro Line 5","route_ref":"5","route_color":"#2aa844","wikipedia":"zh:昆明地铁5号线","osm_route_ids":[14317127,14317128],"status":null,"order_suspect":0,"span_suspect":0,"stations":[{"station_id":"n9711460811","station_name":"宝丰"},{"station_id":"n9711530918","station_name":"滇池国际会展中心"},{"station_id":"n9712890974","station_name":"福保"},{"station_id":"n9712793215","station_name":"金家河"},{"station_id":"n9712790279","station_name":"庄家塘立交桥"},{"station_id":"n9712790280","station_name":"兴体路"},{"station_id":"n9712913333","station_name":"渔户村"},{"station_id":"n9712913334","station_name":"迎海路"},{"station_id":"n9712921864","station_name":"大坝"},{"station_id":"n9712921870","station_name":"广福路西口"},{"station_id":"n9712921865","station_name":"福海"},{"station_id":"n9712871007","station_name":"金兰路"},{"station_id":"n9712871009","station_name":"严家地"},{"station_id":"n9712871010","station_name":"弥勒寺"},{"station_id":"n9712871011","station_name":"五一路"},{"station_id":"n9712871008","station_name":"华山西路"},{"station_id":"n9712871012","station_name":"圆通山"},{"station_id":"n2845408107","station_name":"火车北站"},{"station_id":"n9712871013","station_name":"穿金路"},{"station_id":"n9712871016","station_name":"石闸"},{"station_id":"n9712871015","station_name":"白龙寺"},{"station_id":"n9712871014","station_name":"世博园"}]}],"route_count":1,"route_refs":["5"],"route_colors":["#2aa844"],"city":"Kunming","country":"China"},"geometry":{"type":"MultiLineString","coordinates":[[[102.7216705,24.93350906666667],[102.706951,24.941960066666667],[102.69523703333334,24.947638766666667],[102.69180060000001,24.96465733333333],[102.69169213333333,24.976189899999998],[102.67855976666665,24.9781768],[102.66917153333334,24.979705366666664],[102.66232665,24.987408549999998],[102.66314096666667,24.997912799999998],[102.672863575,25.0073488],[102.68386679999999,25.013940966666667],[102.68898706666666,25.017001466666667],[102.69677300000001,25.0235493],[102.6985631,25.034977933333334],[102.7040859,25.040367359999998],[102.7061854,25.047845066666667],[102.71136754999999,25.057935724999997],[102.7206666142857,25.059855300000002],[102.72851913333334,25.0575941],[102.73898726666668,25.056312833333333],[102.74664566666667,25.063913633333332],[102.75289546666666,25.072059166666666]]]}},{"type":"Feature","properties":{"station_id":"n2788302364","station_name":"大学城南","station_name_local":"大学城南","station_name_en":"University Town South","city":"Kunming","country":"China","lines":["1"],"wikipedia":"zh:大学城南站 (昆明市)","merged_from":5,"merged_names":null,"is_terminus":true,"routes":[{"ref":"1","name":"昆明地铁1号线","route_color":"#bf3334"}],"pass_count":1,"station_degree":1,"codes":null,"is_interchange":false,"station_role":"terminus"},"geometry":{"type":"Point","coordinates":[102.82450177999999,24.82524368]},"__memberLines":{}},{"type":"Feature","properties":{"station_id":"n2788302371","station_name":"斗南","station_name_local":"斗南","station_name_en":"Dounan","city":"Kunming","country":"China","lines":["1","4"],"wikipedia":"zh:斗南站","merged_from":5,"merged_names":null,"is_terminus":false,"routes":[{"ref":"1","name":"昆明地铁1号线","route_color":"#bf3334"},{"ref":"4","name":"昆明地铁4号线","route_color":"#dd8800"}],"pass_count":3,"station_degree":4,"codes":null,"is_interchange":true,"station_role":"interchange"},"geometry":{"type":"Point","coordinates":[102.79080382,24.91127882]},"__memberLines":{}},{"type":"Feature","properties":{"station_id":"n2788302419","station_name":"联大街","station_name_local":"联大街","station_name_en":"Lianda Street","city":"Kunming","country":"China","lines":["1","4"],"wikipedia":"zh:联大街站","merged_from":5,"merged_names":null,"is_terminus":false,"routes":[{"ref":"1","name":"昆明地铁1号线","route_color":"#bf3334"},{"ref":"4","name":"昆明地铁4号线","route_color":"#dd8800"}],"pass_count":2,"station_degree":4,"codes":null,"is_interchange":true,"station_role":"interchange"},"geometry":{"type":"Point","coordinates":[102.83251170000001,24.862611480000005]},"__memberLines":{}},{"type":"Feature","properties":{"station_id":"n2788302424","station_name":"谊康南路","station_name_local":"谊康南路","station_name_en":"Yikang South Road","city":"Kunming","country":"China","lines":["1"],"wikipedia":null,"merged_from":3,"merged_names":null,"is_terminus":false,"routes":[{"ref":"1","name":"昆明地铁1号线","route_color":"#bf3334"}],"pass_count":1,"station_degree":2,"codes":null,"is_interchange":false,"station_role":"normal"},"geometry":{"type":"Point","coordinates":[102.83685803333334,24.850821233333335]},"__memberLines":{}},{"type":"Feature","properties":{"station_id":"n2788302429","station_name":"驼峰街","station_name_local":"驼峰街","station_name_en":"Tuofeng Street","city":"Kunming","country":"China","lines":["1"],"wikipedia":"zh:驼峰街站","merged_from":3,"merged_names":null,"is_terminus":false,"routes":[{"ref":"1","name":"昆明地铁1号线","route_color":"#bf3334"}],"pass_count":1,"station_degree":2,"codes":null,"is_interchange":false,"station_role":"normal"},"geometry":{"type":"Point","coordinates":[102.82819073333333,24.875036166666664]},"__memberLines":{}},{"type":"Feature","properties":{"station_id":"n2824223595","station_name":"东部汽车站","station_name_local":"东部汽车站","station_name_en":"East Coach Station","city":"Kunming","country":"China","lines":["3","6"],"wikipedia":null,"merged_from":5,"merged_names":null,"is_terminus":false,"routes":[{"ref":"3","name":"昆明地铁3号线","route_color":"#fe4998"},{"ref":"6","name":"昆明地铁6号线","route_color":"#0290a4"}],"pass_count":2,"station_degree":3,"codes":null,"is_interchange":true,"station_role":"interchange"},"geometry":{"type":"Point","coordinates":[102.7869285,25.039126599999996]},"__memberLines":{}},{"type":"Feature","properties":{"station_id":"n2824223905","station_name":"虹桥","station_name_local":"虹桥","station_name_en":"Hongqiao","city":"Kunming","country":"China","lines":["3"],"wikipedia":"zh:虹桥站 (昆明市)","merged_from":3,"merged_names":null,"is_terminus":false,"routes":[{"ref":"3","name":"昆明地铁3号线","route_color":"#fe4998"}],"pass_count":1,"station_degree":2,"codes":null,"is_interchange":false,"station_role":"normal"},"geometry":{"type":"Point","coordinates":[102.77168776666667,25.039067666666668]},"__memberLines":{}},{"type":"Feature","properties":{"station_id":"n2824223915","station_name":"太平村","station_name_local":"太平村","station_name_en":"Taipingcun","city":"Kunming","country":"China","lines":["3"],"wikipedia":"zh:太平村站","merged_from":3,"merged_names":null,"is_terminus":false,"routes":[{"ref":"3","name":"昆明地铁3号线","route_color":"#fe4998"}],"pass_count":1,"station_degree":2,"codes":null,"is_interchange":false,"station_role":"normal"},"geometry":{"type":"Point","coordinates":[102.75909566666667,25.039321633333333]},"__memberLines":{}},{"type":"Feature","properties":{"station_id":"n2824223936","station_name":"金马寺","station_name_local":"金马寺","station_name_en":"Jinma temple","city":"Kunming","country":"China","lines":["3"],"wikipedia":"zh:金马寺站","merged_from":3,"merged_names":null,"is_terminus":false,"routes":[{"ref":"3","name":"昆明地铁3号线","route_color":"#fe4998"}],"pass_count":1,"station_degree":2,"codes":null,"is_interchange":false,"station_role":"normal"},"geometry":{"type":"Point","coordinates":[102.75026100000001,25.039040999999997]},"__memberLines":{}},{"type":"Feature","properties":{"station_id":"n2824223949","station_name":"拓东体育馆","station_name_local":"拓东体育馆","station_name_en":"Tuodong Stadium","city":"Kunming","country":"China","lines":["3"],"wikipedia":"zh:拓东体育馆站","merged_from":3,"merged_names":null,"is_terminus":false,"routes":[{"ref":"3","name":"昆明地铁3号线","route_color":"#fe4998"}],"pass_count":1,"station_degree":2,"codes":null,"is_interchange":false,"station_role":"normal"},"geometry":{"type":"Point","coordinates":[102.72845466666666,25.0412077]},"__memberLines":{}},{"type":"Feature","properties":{"station_id":"n2824223971","station_name":"潘家湾","station_name_local":"潘家湾","station_name_en":"Panjiawan","city":"Kunming","country":"China","lines":["3"],"wikipedia":"zh:潘家湾站","merged_from":3,"merged_names":null,"is_terminus":false,"routes":[{"ref":"3","name":"昆明地铁3号线","route_color":"#fe4998"}],"pass_count":1,"station_degree":2,"codes":null,"is_interchange":false,"station_role":"normal"},"geometry":{"type":"Point","coordinates":[102.69380903333332,25.046863700000003]},"__memberLines":{}},{"type":"Feature","properties":{"station_id":"n2824223999","station_name":"西部汽车站","station_name_local":"西部汽车站","station_name_en":"West Bus Station","city":"Kunming","country":"China","lines":["3"],"wikipedia":"zh:西部汽车站 (地铁)","merged_from":3,"merged_names":null,"is_terminus":false,"routes":[{"ref":"3","name":"昆明地铁3号线","route_color":"#fe4998"}],"pass_count":1,"station_degree":2,"codes":null,"is_interchange":false,"station_role":"normal"},"geometry":{"type":"Point","coordinates":[102.63765943333333,25.038761966666666]},"__memberLines":{}},{"type":"Feature","properties":{"station_id":"n2824224004","station_name":"大渔路","station_name_local":"大渔路","station_name_en":"Dayu Road","city":"Kunming","country":"China","lines":["3"],"wikipedia":null,"merged_from":3,"merged_names":null,"is_terminus":false,"routes":[{"ref":"3","name":"昆明地铁3号线","route_color":"#fe4998"}],"pass_count":1,"station_degree":2,"codes":null,"is_interchange":false,"station_role":"normal"},"geometry":{"type":"Point","coordinates":[102.63444779999999,25.030963099999997]},"__memberLines":{}},{"type":"Feature","properties":{"station_id":"n2845408107","station_name":"火车北站","station_name_local":"火车北站","station_name_en":"North Railway Station","city":"Kunming","country":"China","lines":["2","4","5"],"wikipedia":"zh:火车北站站 (昆明市)","merged_from":7,"merged_names":null,"is_terminus":false,"routes":[{"ref":"2","name":"昆明地铁2号线","route_color":"#235a99"},{"ref":"4","name":"昆明地铁4号线","route_color":"#dd8800"},{"ref":"5","name":"昆明地铁5号线","route_color":"#2aa844"}],"pass_count":3,"station_degree":6,"codes":null,"is_interchange":true,"station_role":"interchange"},"geometry":{"type":"Point","coordinates":[102.7206666142857,25.059855300000002]},"__memberLines":{}},{"type":"Feature","properties":{"station_id":"n3015753488","station_name":"大学城","station_name_local":"大学城","station_name_en":"University Town","city":"Kunming","country":"China","lines":["1"],"wikipedia":"zh:大学城站 (昆明市)","merged_from":3,"merged_names":null,"is_terminus":false,"routes":[{"ref":"1","name":"昆明地铁1号线","route_color":"#bf3334"}],"pass_count":1,"station_degree":2,"codes":null,"is_interchange":false,"station_role":"normal"},"geometry":{"type":"Point","coordinates":[102.8410153,24.839141800000004]},"__memberLines":{}},{"type":"Feature","properties":{"station_id":"n4583028884","station_name":"昆明南火车站","station_name_local":"昆明南火车站","station_name_en":"Kunming South Railway Station","city":"Kunming","country":"China","lines":["1","4"],"wikipedia":"zh:昆明南火车站站","merged_from":5,"merged_names":null,"is_terminus":false,"routes":[{"ref":"1","name":"昆明地铁1号线","route_color":"#bf3334"},{"ref":"4","name":"昆明地铁4号线","route_color":"#dd8800"}],"pass_count":3,"station_degree":2,"codes":null,"is_interchange":true,"station_role":"interchange"},"geometry":{"type":"Point","coordinates":[102.85942382,24.873077020000004]},"__memberLines":{}},{"type":"Feature","properties":{"station_id":"n5067703493","station_name":"市体育馆","station_name_local":"市体育馆","station_name_en":"Municipal Gymnasium Station","city":"Kunming","country":"China","lines":["3"],"wikipedia":"zh:市体育馆站","merged_from":3,"merged_names":null,"is_terminus":false,"routes":[{"ref":"3","name":"昆明地铁3号线","route_color":"#fe4998"}],"pass_count":1,"station_degree":2,"codes":null,"is_interchange":false,"station_role":"normal"},"geometry":{"type":"Point","coordinates":[102.68713426666666,25.047402200000004]},"__memberLines":{}},{"type":"Feature","properties":{"station_id":"n5067703494","station_name":"梁家河","station_name_local":"梁家河","station_name_en":"Liangjiahe","city":"Kunming","country":"China","lines":["3"],"wikipedia":"zh:梁家河站","merged_from":3,"merged_names":null,"is_terminus":false,"routes":[{"ref":"3","name":"昆明地铁3号线","route_color":"#fe4998"}],"pass_count":1,"station_degree":2,"codes":null,"is_interchange":false,"station_role":"normal"},"geometry":{"type":"Point","coordinates":[102.67625903333334,25.0481947]},"__memberLines":{}},{"type":"Feature","properties":{"station_id":"n5067703498","station_name":"西苑","station_name_local":"西苑","station_name_en":"Xiyuan","city":"Kunming","country":"China","lines":["3"],"wikipedia":null,"merged_from":3,"merged_names":null,"is_terminus":false,"routes":[{"ref":"3","name":"昆明地铁3号线","route_color":"#fe4998"}],"pass_count":1,"station_degree":2,"codes":null,"is_interchange":false,"station_role":"normal"},"geometry":{"type":"Point","coordinates":[102.66458263333334,25.0490468]},"__memberLines":{}},{"type":"Feature","properties":{"station_id":"n5067703499","station_name":"昌源中路","station_name_local":"昌源中路","station_name_en":"Changyuan Middle Road","city":"Kunming","country":"China","lines":["3"],"wikipedia":"zh:昌源中路站","merged_from":3,"merged_names":null,"is_terminus":false,"routes":[{"ref":"3","name":"昆明地铁3号线","route_color":"#fe4998"}],"pass_count":1,"station_degree":2,"codes":null,"is_interchange":false,"station_role":"normal"},"geometry":{"type":"Point","coordinates":[102.65563873333333,25.0497254]},"__memberLines":{}},{"type":"Feature","properties":{"station_id":"n5067703500","station_name":"眠山","station_name_local":"眠山","station_name_en":"Mianshan","city":"Kunming","country":"China","lines":["3"],"wikipedia":"zh:眠山站","merged_from":3,"merged_names":null,"is_terminus":false,"routes":[{"ref":"3","name":"昆明地铁3号线","route_color":"#fe4998"}],"pass_count":1,"station_degree":2,"codes":null,"is_interchange":false,"station_role":"normal"},"geometry":{"type":"Point","coordinates":[102.64825013333335,25.0502642]},"__memberLines":{}},{"type":"Feature","properties":{"station_id":"n5067703504","station_name":"石咀","station_name_local":"石咀","station_name_en":"Shizui","city":"Kunming","country":"China","lines":["3"],"wikipedia":null,"merged_from":3,"merged_names":null,"is_terminus":false,"routes":[{"ref":"3","name":"昆明地铁3号线","route_color":"#fe4998"}],"pass_count":1,"station_degree":2,"codes":null,"is_interchange":false,"station_role":"normal"},"geometry":{"type":"Point","coordinates":[102.62833626666666,25.02158986666667]},"__memberLines":{}},{"type":"Feature","properties":{"station_id":"n5067703513","station_name":"普坪村","station_name_local":"普坪村","station_name_en":"Pupingcun","city":"Kunming","country":"China","lines":["3"],"wikipedia":"zh:普坪村站","merged_from":3,"merged_names":null,"is_terminus":false,"routes":[{"ref":"3","name":"昆明地铁3号线","route_color":"#fe4998"}],"pass_count":1,"station_degree":2,"codes":null,"is_interchange":false,"station_role":"normal"},"geometry":{"type":"Point","coordinates":[102.6199431,25.00820176666667]},"__memberLines":{}},{"type":"Feature","properties":{"station_id":"n5067703622","station_name":"车家壁","station_name_local":"车家壁","station_name_en":"Chejiabi","city":"Kunming","country":"China","lines":["3"],"wikipedia":"zh:车家壁站","merged_from":3,"merged_names":null,"is_terminus":false,"routes":[{"ref":"3","name":"昆明地铁3号线","route_color":"#fe4998"}],"pass_count":1,"station_degree":2,"codes":null,"is_interchange":false,"station_role":"normal"},"geometry":{"type":"Point","coordinates":[102.61455426666667,24.997696433333335]},"__memberLines":{}},{"type":"Feature","properties":{"station_id":"n5258890595","station_name":"西山公园","station_name_local":"西山公园","station_name_en":"Western Hills Park","city":"Kunming","country":"China","lines":["3"],"wikipedia":"zh:西山公園站 (昆明市)","merged_from":3,"merged_names":null,"is_terminus":true,"routes":[{"ref":"3","name":"昆明地铁3号线","route_color":"#fe4998"}],"pass_count":1,"station_degree":1,"codes":null,"is_interchange":false,"station_role":"terminus"},"geometry":{"type":"Point","coordinates":[102.61684423333334,24.987314366666666]},"__memberLines":{}},{"type":"Feature","properties":{"station_id":"n5345104404","station_name":"东风广场","station_name_local":"东风广场","station_name_en":"Dongfeng Square","city":"Kunming","country":"China","lines":["2","3"],"wikipedia":"zh:东风广场站","merged_from":5,"merged_names":null,"is_terminus":false,"routes":[{"ref":"2","name":"昆明地铁2号线","route_color":"#235a99"},{"ref":"3","name":"昆明地铁3号线","route_color":"#fe4998"}],"pass_count":2,"station_degree":4,"codes":null,"is_interchange":true,"station_role":"interchange"},"geometry":{"type":"Point","coordinates":[102.71805766,25.041185879999997]},"__memberLines":{}},{"type":"Feature","properties":{"station_id":"n6245594236","station_name":"祥丰街","station_name_local":"祥丰街","station_name_en":"Xiangfeng Street","city":"Kunming","country":"China","lines":["4"],"wikipedia":"zh:祥丰街站","merged_from":3,"merged_names":null,"is_terminus":false,"routes":[{"ref":"4","name":"昆明地铁4号线","route_color":"#dd8800"}],"pass_count":1,"station_degree":2,"codes":null,"is_interchange":false,"station_role":"normal"},"geometry":{"type":"Point","coordinates":[102.80140823333333,24.860449633333335]},"__memberLines":{}},{"type":"Feature","properties":{"station_id":"n6245594260","station_name":"梅子村","station_name_local":"梅子村","station_name_en":"Meizicun","city":"Kunming","country":"China","lines":["4"],"wikipedia":"zh:梅子村站","merged_from":3,"merged_names":null,"is_terminus":false,"routes":[{"ref":"4","name":"昆明地铁4号线","route_color":"#dd8800"}],"pass_count":1,"station_degree":2,"codes":null,"is_interchange":false,"station_role":"normal"},"geometry":{"type":"Point","coordinates":[102.7843676,24.8956817]},"__memberLines":{}},{"type":"Feature","properties":{"station_id":"n6245594278","station_name":"金桂街","station_name_local":"金桂街","station_name_en":"Jingui Street","city":"Kunming","country":"China","lines":["4"],"wikipedia":"zh:金桂街站","merged_from":3,"merged_names":null,"is_terminus":false,"routes":[{"ref":"4","name":"昆明地铁4号线","route_color":"#dd8800"}],"pass_count":1,"station_degree":2,"codes":null,"is_interchange":false,"station_role":"normal"},"geometry":{"type":"Point","coordinates":[102.7889885,24.904409766666664]},"__memberLines":{}},{"type":"Feature","properties":{"station_id":"n6245594930","station_name":"广卫","station_name_local":"广卫","station_name_en":"Guangwei","city":"Kunming","country":"China","lines":["4"],"wikipedia":"zh:广卫站","merged_from":3,"merged_names":null,"is_terminus":false,"routes":[{"ref":"4","name":"昆明地铁4号线","route_color":"#dd8800"}],"pass_count":1,"station_degree":2,"codes":null,"is_interchange":false,"station_role":"normal"},"geometry":{"type":"Point","coordinates":[102.78388653333333,24.952262666666666]},"__memberLines":{}},{"type":"Feature","properties":{"station_id":"n6245630854","station_name":"牛街庄","station_name_local":"牛街庄","station_name_en":"Niujiezhuang","city":"Kunming","country":"China","lines":["4"],"wikipedia":null,"merged_from":3,"merged_names":null,"is_terminus":false,"routes":[{"ref":"4","name":"昆明地铁4号线","route_color":"#dd8800"}],"pass_count":1,"station_degree":2,"codes":null,"is_interchange":false,"station_role":"normal"},"geometry":{"type":"Point","coordinates":[102.77712096666666,25.008566399999996]},"__memberLines":{}},{"type":"Feature","properties":{"station_id":"n6245630888","station_name":"小菜园","station_name_local":"小菜园","station_name_en":"Xiaocaiyuan","city":"Kunming","country":"China","lines":["4"],"wikipedia":"zh:小菜园站","merged_from":3,"merged_names":null,"is_terminus":false,"routes":[{"ref":"4","name":"昆明地铁4号线","route_color":"#dd8800"}],"pass_count":1,"station_degree":2,"codes":null,"is_interchange":false,"station_role":"normal"},"geometry":{"type":"Point","coordinates":[102.704498,25.063321933333338]},"__memberLines":{}},{"type":"Feature","properties":{"station_id":"n7077203939","station_name":"菊花村","station_name_local":"菊花村","station_name_en":"Juhuacun","city":"Kunming","country":"China","lines":["4"],"wikipedia":"zh:菊花村站","merged_from":3,"merged_names":null,"is_terminus":false,"routes":[{"ref":"4","name":"昆明地铁4号线","route_color":"#dd8800"}],"pass_count":1,"station_degree":2,"codes":null,"is_interchange":false,"station_role":"normal"},"geometry":{"type":"Point","coordinates":[102.74164990000001,25.032991633333335]},"__memberLines":{}},{"type":"Feature","properties":{"station_id":"n7150791296","station_name":"机场前","station_name_local":"机场前","station_name_en":"Airport Front","city":"Kunming","country":"China","lines":["6"],"wikipedia":"zh:机场前站","merged_from":3,"merged_names":null,"is_terminus":false,"routes":[{"ref":"6","name":"昆明地铁6号线","route_color":"#0290a4"}],"pass_count":1,"station_degree":2,"codes":null,"is_interchange":false,"station_role":"normal"},"geometry":{"type":"Point","coordinates":[102.91131326666668,25.087929666666668]},"__memberLines":{}},{"type":"Feature","properties":{"station_id":"n7150791297","station_name":"大板桥","station_name_local":"大板桥","station_name_en":"Dabanqiao","city":"Kunming","country":"China","lines":["6"],"wikipedia":"zh:大板桥站","merged_from":3,"merged_names":null,"is_terminus":false,"routes":[{"ref":"6","name":"昆明地铁6号线","route_color":"#0290a4"}],"pass_count":1,"station_degree":2,"codes":null,"is_interchange":false,"station_role":"normal"},"geometry":{"type":"Point","coordinates":[102.8751054,25.056465166666666]},"__memberLines":{}},{"type":"Feature","properties":{"station_id":"n7822767421","station_name":"苏家塘","station_name_local":"苏家塘","station_name_en":"Sujiatang","city":"Kunming","country":"China","lines":["4"],"wikipedia":"zh:苏家塘站","merged_from":3,"merged_names":null,"is_terminus":false,"routes":[{"ref":"4","name":"昆明地铁4号线","route_color":"#dd8800"}],"pass_count":1,"station_degree":2,"codes":null,"is_interchange":false,"station_role":"normal"},"geometry":{"type":"Point","coordinates":[102.69201299999999,25.066570566666666]},"__memberLines":{}},{"type":"Feature","properties":{"station_id":"n7822767422","station_name":"金鼎山北路","station_name_local":"金鼎山北路","station_name_en":"Jindingshan North Road","city":"Kunming","country":"China","lines":["4"],"wikipedia":"zh:金鼎山北路站","merged_from":3,"merged_names":null,"is_terminus":false,"routes":[{"ref":"4","name":"昆明地铁4号线","route_color":"#dd8800"}],"pass_count":1,"station_degree":2,"codes":null,"is_interchange":false,"station_role":"normal"},"geometry":{"type":"Point","coordinates":[102.68394133333334,25.067113333333335]},"__memberLines":{}},{"type":"Feature","properties":{"station_id":"n7822767424","station_name":"小屯","station_name_local":"小屯","station_name_en":"Xiaotun","city":"Kunming","country":"China","lines":["4"],"wikipedia":"zh:小屯站 (昆明市)","merged_from":3,"merged_names":null,"is_terminus":false,"routes":[{"ref":"4","name":"昆明地铁4号线","route_color":"#dd8800"}],"pass_count":1,"station_degree":2,"codes":null,"is_interchange":false,"station_role":"normal"},"geometry":{"type":"Point","coordinates":[102.67186063333334,25.07537603333333]},"__memberLines":{}},{"type":"Feature","properties":{"station_id":"n7921798108","station_name":"吴家营","station_name_local":"吴家营","station_name_en":"Wujiaying","city":"Kunming","country":"China","lines":["4"],"wikipedia":"zh:吴家营站","merged_from":3,"merged_names":null,"is_terminus":false,"routes":[{"ref":"4","name":"昆明地铁4号线","route_color":"#dd8800"}],"pass_count":1,"station_degree":2,"codes":null,"is_interchange":false,"station_role":"normal"},"geometry":{"type":"Point","coordinates":[102.84712803333333,24.869322033333333]},"__memberLines":{}},{"type":"Feature","properties":{"station_id":"n7921798110","station_name":"牛头山","station_name_local":"牛头山","station_name_en":"Niutoushan","city":"Kunming","country":"China","lines":["4"],"wikipedia":"zh:牛头山站 (昆明市)","merged_from":3,"merged_names":null,"is_terminus":false,"routes":[{"ref":"4","name":"昆明地铁4号线","route_color":"#dd8800"}],"pass_count":1,"station_degree":2,"codes":null,"is_interchange":false,"station_role":"normal"},"geometry":{"type":"Point","coordinates":[102.81272560000001,24.856710266666667]},"__memberLines":{}},{"type":"Feature","properties":{"station_id":"n7921798116","station_name":"可乐村","station_name_local":"可乐村","station_name_en":"Kelecun","city":"Kunming","country":"China","lines":["4"],"wikipedia":"zh:可乐村站","merged_from":3,"merged_names":null,"is_terminus":false,"routes":[{"ref":"4","name":"昆明地铁4号线","route_color":"#dd8800"}],"pass_count":1,"station_degree":2,"codes":null,"is_interchange":false,"station_role":"normal"},"geometry":{"type":"Point","coordinates":[102.79512,24.877128066666668]},"__memberLines":{}},{"type":"Feature","properties":{"station_id":"n7921798118","station_name":"古城","station_name_local":"古城","station_name_en":"Gucheng","city":"Kunming","country":"China","lines":["4"],"wikipedia":"zh:古城站 (昆明市)","merged_from":3,"merged_names":null,"is_terminus":false,"routes":[{"ref":"4","name":"昆明地铁4号线","route_color":"#dd8800"}],"pass_count":1,"station_degree":2,"codes":null,"is_interchange":false,"station_role":"normal"},"geometry":{"type":"Point","coordinates":[102.79094409999999,24.885234800000003]},"__memberLines":{}},{"type":"Feature","properties":{"station_id":"n7921798125","station_name":"玉缘路","station_name_local":"玉缘路","station_name_en":"Yuyuan Road","city":"Kunming","country":"China","lines":["4"],"wikipedia":"zh:玉缘路站","merged_from":3,"merged_names":null,"is_terminus":false,"routes":[{"ref":"4","name":"昆明地铁4号线","route_color":"#dd8800"}],"pass_count":1,"station_degree":2,"codes":null,"is_interchange":false,"station_role":"normal"},"geometry":{"type":"Point","coordinates":[102.78515220000001,24.967696766666666]},"__memberLines":{}},{"type":"Feature","properties":{"station_id":"n7921798132","station_name":"菊华","station_name_local":"菊华","station_name_en":"Juhua","city":"Kunming","country":"China","lines":["4","6"],"wikipedia":"zh:菊华站","merged_from":5,"merged_names":null,"is_terminus":false,"routes":[{"ref":"4","name":"昆明地铁4号线","route_color":"#dd8800"},{"ref":"6","name":"昆明地铁6号线","route_color":"#0290a4"}],"pass_count":2,"station_degree":4,"codes":null,"is_interchange":true,"station_role":"interchange"},"geometry":{"type":"Point","coordinates":[102.74813504,25.02779956]},"__memberLines":{}},{"type":"Feature","properties":{"station_id":"n7921798134","station_name":"大树营","station_name_local":"大树营","station_name_en":"Dashuying","city":"Kunming","country":"China","lines":["3","4"],"wikipedia":"zh:大树营站","merged_from":5,"merged_names":null,"is_terminus":false,"routes":[{"ref":"3","name":"昆明地铁3号线","route_color":"#fe4998"},{"ref":"4","name":"昆明地铁4号线","route_color":"#dd8800"}],"pass_count":2,"station_degree":4,"codes":null,"is_interchange":true,"station_role":"interchange"},"geometry":{"type":"Point","coordinates":[102.73941212,25.040069319999997]},"__memberLines":{}},{"type":"Feature","properties":{"station_id":"n7921798137","station_name":"海屯路","station_name_local":"海屯路","station_name_en":"Haitun Road","city":"Kunming","country":"China","lines":["4"],"wikipedia":"zh:海屯路站","merged_from":3,"merged_names":null,"is_terminus":false,"routes":[{"ref":"4","name":"昆明地铁4号线","route_color":"#dd8800"}],"pass_count":1,"station_degree":2,"codes":null,"is_interchange":false,"station_role":"normal"},"geometry":{"type":"Point","coordinates":[102.66188766666666,25.07969196666667]},"__memberLines":{}},{"type":"Feature","properties":{"station_id":"n7921798139","station_name":"大河埂","station_name_local":"大河埂","station_name_en":"Dahegeng","city":"Kunming","country":"China","lines":["4"],"wikipedia":"zh:大河埂站","merged_from":3,"merged_names":null,"is_terminus":false,"routes":[{"ref":"4","name":"昆明地铁4号线","route_color":"#dd8800"}],"pass_count":1,"station_degree":2,"codes":null,"is_interchange":false,"station_role":"normal"},"geometry":{"type":"Point","coordinates":[102.65396373333334,25.093084166666667]},"__memberLines":{}},{"type":"Feature","properties":{"station_id":"n7921798140","station_name":"金川路","station_name_local":"金川路","station_name_en":"Jinchuan Road","city":"Kunming","country":"China","lines":["4"],"wikipedia":"zh:金川路站","merged_from":3,"merged_names":null,"is_terminus":true,"routes":[{"ref":"4","name":"昆明地铁4号线","route_color":"#dd8800"}],"pass_count":1,"station_degree":1,"codes":null,"is_interchange":false,"station_role":"terminus"},"geometry":{"type":"Point","coordinates":[102.6559446,25.1021472]},"__memberLines":{}},{"type":"Feature","properties":{"station_id":"n7931462208","station_name":"塘子巷","station_name_local":"塘子巷","station_name_en":"Tangzixiang","city":"Kunming","country":"China","lines":["2","6"],"wikipedia":"zh:塘子巷站","merged_from":5,"merged_names":null,"is_terminus":false,"routes":[{"ref":"2","name":"昆明地铁2号线","route_color":"#235a99"},{"ref":"6","name":"昆明地铁6号线","route_color":"#0290a4"}],"pass_count":2,"station_degree":3,"codes":null,"is_interchange":true,"station_role":"interchange"},"geometry":{"type":"Point","coordinates":[102.71858568,25.03544048]},"__memberLines":{}},{"type":"Feature","properties":{"station_id":"n9006301320","station_name":"环城南路","station_name_local":"环城南路","station_name_en":"South Ring Road","city":"Kunming","country":"China","lines":["1","2"],"wikipedia":"zh:环城南路站","merged_from":5,"merged_names":null,"is_terminus":false,"routes":[{"ref":"1","name":"昆明地铁1号线","route_color":"#bf3334"},{"ref":"2","name":"昆明地铁2号线","route_color":"#235a99"}],"pass_count":3,"station_degree":2,"codes":null,"is_interchange":true,"station_role":"interchange"},"geometry":{"type":"Point","coordinates":[102.71944837999999,25.026956639999998]},"__memberLines":{}},{"type":"Feature","properties":{"station_id":"n9711460811","station_name":"宝丰","station_name_local":"宝丰","station_name_en":"Baofeng","city":"Kunming","country":"China","lines":["5"],"wikipedia":"zh:宝丰站 (昆明市)","merged_from":3,"merged_names":null,"is_terminus":true,"routes":[{"ref":"5","name":"昆明地铁5号线","route_color":"#2aa844"}],"pass_count":1,"station_degree":1,"codes":null,"is_interchange":false,"station_role":"terminus"},"geometry":{"type":"Point","coordinates":[102.7216705,24.93350906666667]},"__memberLines":{}},{"type":"Feature","properties":{"station_id":"n9711530918","station_name":"滇池国际会展中心","station_name_local":"滇池国际会展中心","station_name_en":"Dianchi International Convention and Exhibition Center","city":"Kunming","country":"China","lines":["5"],"wikipedia":"zh:滇池国际会展中心站","merged_from":3,"merged_names":null,"is_terminus":false,"routes":[{"ref":"5","name":"昆明地铁5号线","route_color":"#2aa844"}],"pass_count":1,"station_degree":2,"codes":null,"is_interchange":false,"station_role":"normal"},"geometry":{"type":"Point","coordinates":[102.706951,24.941960066666667]},"__memberLines":{}},{"type":"Feature","properties":{"station_id":"n9712790279","station_name":"庄家塘立交桥","station_name_local":"庄家塘立交桥","station_name_en":"Zhuangjiatang Overpass","city":"Kunming","country":"China","lines":["5"],"wikipedia":"zh:庄家塘立交桥站","merged_from":3,"merged_names":null,"is_terminus":false,"routes":[{"ref":"5","name":"昆明地铁5号线","route_color":"#2aa844"}],"pass_count":1,"station_degree":2,"codes":null,"is_interchange":false,"station_role":"normal"},"geometry":{"type":"Point","coordinates":[102.69169213333333,24.976189899999998]},"__memberLines":{}},{"type":"Feature","properties":{"station_id":"n9712790280","station_name":"兴体路","station_name_local":"兴体路","station_name_en":"Xingti Road","city":"Kunming","country":"China","lines":["5"],"wikipedia":null,"merged_from":3,"merged_names":null,"is_terminus":false,"routes":[{"ref":"5","name":"昆明地铁5号线","route_color":"#2aa844"}],"pass_count":1,"station_degree":2,"codes":null,"is_interchange":false,"station_role":"normal"},"geometry":{"type":"Point","coordinates":[102.67855976666665,24.9781768]},"__memberLines":{}},{"type":"Feature","properties":{"station_id":"n9712793215","station_name":"金家河","station_name_local":"金家河","station_name_en":"Jinjia River","city":"Kunming","country":"China","lines":["5"],"wikipedia":"zh:金家河站","merged_from":3,"merged_names":null,"is_terminus":false,"routes":[{"ref":"5","name":"昆明地铁5号线","route_color":"#2aa844"}],"pass_count":1,"station_degree":2,"codes":null,"is_interchange":false,"station_role":"normal"},"geometry":{"type":"Point","coordinates":[102.69180060000001,24.96465733333333]},"__memberLines":{}},{"type":"Feature","properties":{"station_id":"n9712871007","station_name":"金兰路","station_name_local":"金兰路","station_name_en":"Jinlan Road","city":"Kunming","country":"China","lines":["5"],"wikipedia":"zh:金兰路站","merged_from":3,"merged_names":null,"is_terminus":false,"routes":[{"ref":"5","name":"昆明地铁5号线","route_color":"#2aa844"}],"pass_count":1,"station_degree":2,"codes":null,"is_interchange":false,"station_role":"normal"},"geometry":{"type":"Point","coordinates":[102.68898706666666,25.017001466666667]},"__memberLines":{}},{"type":"Feature","properties":{"station_id":"n9712871008","station_name":"华山西路","station_name_local":"华山西路","station_name_en":"Huashan West Road","city":"Kunming","country":"China","lines":["5"],"wikipedia":null,"merged_from":3,"merged_names":null,"is_terminus":false,"routes":[{"ref":"5","name":"昆明地铁5号线","route_color":"#2aa844"}],"pass_count":1,"station_degree":2,"codes":null,"is_interchange":false,"station_role":"normal"},"geometry":{"type":"Point","coordinates":[102.7061854,25.047845066666667]},"__memberLines":{}},{"type":"Feature","properties":{"station_id":"n9712871009","station_name":"严家地","station_name_local":"严家地","station_name_en":"Yanjiadi","city":"Kunming","country":"China","lines":["5"],"wikipedia":"zh:严家地站","merged_from":3,"merged_names":null,"is_terminus":false,"routes":[{"ref":"5","name":"昆明地铁5号线","route_color":"#2aa844"}],"pass_count":1,"station_degree":2,"codes":null,"is_interchange":false,"station_role":"normal"},"geometry":{"type":"Point","coordinates":[102.69677300000001,25.0235493]},"__memberLines":{}},{"type":"Feature","properties":{"station_id":"n9712871010","station_name":"弥勒寺","station_name_local":"弥勒寺","station_name_en":"Milesi","city":"Kunming","country":"China","lines":["5"],"wikipedia":"zh:弥勒寺站","merged_from":3,"merged_names":null,"is_terminus":false,"routes":[{"ref":"5","name":"昆明地铁5号线","route_color":"#2aa844"}],"pass_count":1,"station_degree":2,"codes":null,"is_interchange":false,"station_role":"normal"},"geometry":{"type":"Point","coordinates":[102.6985631,25.034977933333334]},"__memberLines":{}},{"type":"Feature","properties":{"station_id":"n9712871011","station_name":"五一路","station_name_local":"五一路","station_name_en":"Wuyi Road","city":"Kunming","country":"China","lines":["3","5"],"wikipedia":"zh:五一路站 (昆明市)","merged_from":5,"merged_names":null,"is_terminus":false,"routes":[{"ref":"3","name":"昆明地铁3号线","route_color":"#fe4998"},{"ref":"5","name":"昆明地铁5号线","route_color":"#2aa844"}],"pass_count":2,"station_degree":4,"codes":null,"is_interchange":true,"station_role":"interchange"},"geometry":{"type":"Point","coordinates":[102.7040859,25.040367359999998]},"__memberLines":{}},{"type":"Feature","properties":{"station_id":"n9712871012","station_name":"圆通山","station_name_local":"圆通山","station_name_en":"Yuantong Hill","city":"Kunming","country":"China","lines":["5"],"wikipedia":"zh:圆通山站","merged_from":4,"merged_names":null,"is_terminus":false,"routes":[{"ref":"5","name":"昆明地铁5号线","route_color":"#2aa844"}],"pass_count":1,"station_degree":2,"codes":null,"is_interchange":false,"station_role":"normal"},"geometry":{"type":"Point","coordinates":[102.71136754999999,25.057935724999997]},"__memberLines":{}},{"type":"Feature","properties":{"station_id":"n9712871013","station_name":"穿金路","station_name_local":"穿金路","station_name_en":"Chuanjin Road","city":"Kunming","country":"China","lines":["5"],"wikipedia":"zh:穿金路站","merged_from":3,"merged_names":null,"is_terminus":false,"routes":[{"ref":"5","name":"昆明地铁5号线","route_color":"#2aa844"}],"pass_count":1,"station_degree":2,"codes":null,"is_interchange":false,"station_role":"normal"},"geometry":{"type":"Point","coordinates":[102.72851913333334,25.0575941]},"__memberLines":{}},{"type":"Feature","properties":{"station_id":"n9712871014","station_name":"世博园","station_name_local":"世博园","station_name_en":"World Horti-Expo Garden","city":"Kunming","country":"China","lines":["5"],"wikipedia":"zh:世博园站 (昆明市)","merged_from":3,"merged_names":null,"is_terminus":true,"routes":[{"ref":"5","name":"昆明地铁5号线","route_color":"#2aa844"}],"pass_count":1,"station_degree":1,"codes":null,"is_interchange":false,"station_role":"terminus"},"geometry":{"type":"Point","coordinates":[102.75289546666666,25.072059166666666]},"__memberLines":{}},{"type":"Feature","properties":{"station_id":"n9712871015","station_name":"白龙寺","station_name_local":"白龙寺","station_name_en":"Bailongsi","city":"Kunming","country":"China","lines":["5"],"wikipedia":null,"merged_from":3,"merged_names":null,"is_terminus":false,"routes":[{"ref":"5","name":"昆明地铁5号线","route_color":"#2aa844"}],"pass_count":1,"station_degree":2,"codes":null,"is_interchange":false,"station_role":"normal"},"geometry":{"type":"Point","coordinates":[102.74664566666667,25.063913633333332]},"__memberLines":{}},{"type":"Feature","properties":{"station_id":"n9712871016","station_name":"石闸","station_name_local":"石闸","station_name_en":"Shizha","city":"Kunming","country":"China","lines":["5"],"wikipedia":"zh:石闸站","merged_from":3,"merged_names":null,"is_terminus":false,"routes":[{"ref":"5","name":"昆明地铁5号线","route_color":"#2aa844"}],"pass_count":1,"station_degree":2,"codes":null,"is_interchange":false,"station_role":"normal"},"geometry":{"type":"Point","coordinates":[102.73898726666668,25.056312833333333]},"__memberLines":{}},{"type":"Feature","properties":{"station_id":"n9712890974","station_name":"福保","station_name_local":"福保","station_name_en":"Fubao","city":"Kunming","country":"China","lines":["5"],"wikipedia":"zh:福保站 (昆明市)","merged_from":3,"merged_names":null,"is_terminus":false,"routes":[{"ref":"5","name":"昆明地铁5号线","route_color":"#2aa844"}],"pass_count":1,"station_degree":2,"codes":null,"is_interchange":false,"station_role":"normal"},"geometry":{"type":"Point","coordinates":[102.69523703333334,24.947638766666667]},"__memberLines":{}},{"type":"Feature","properties":{"station_id":"n9712913333","station_name":"渔户村","station_name_local":"渔户村","station_name_en":"Yuhucun","city":"Kunming","country":"China","lines":["5"],"wikipedia":"zh:渔户村站","merged_from":3,"merged_names":null,"is_terminus":false,"routes":[{"ref":"5","name":"昆明地铁5号线","route_color":"#2aa844"}],"pass_count":1,"station_degree":2,"codes":null,"is_interchange":false,"station_role":"normal"},"geometry":{"type":"Point","coordinates":[102.66917153333334,24.979705366666664]},"__memberLines":{}},{"type":"Feature","properties":{"station_id":"n9712913334","station_name":"迎海路","station_name_local":"迎海路","station_name_en":"Yinghai Road","city":"Kunming","country":"China","lines":["5"],"wikipedia":null,"merged_from":4,"merged_names":null,"is_terminus":false,"routes":[{"ref":"5","name":"昆明地铁5号线","route_color":"#2aa844"}],"pass_count":1,"station_degree":2,"codes":null,"is_interchange":false,"station_role":"normal"},"geometry":{"type":"Point","coordinates":[102.66232665,24.987408549999998]},"__memberLines":{}},{"type":"Feature","properties":{"station_id":"n9712921864","station_name":"大坝","station_name_local":"大坝","station_name_en":"Daba","city":"Kunming","country":"China","lines":["5"],"wikipedia":"zh:大坝站 (昆明市)","merged_from":3,"merged_names":null,"is_terminus":false,"routes":[{"ref":"5","name":"昆明地铁5号线","route_color":"#2aa844"}],"pass_count":1,"station_degree":2,"codes":null,"is_interchange":false,"station_role":"normal"},"geometry":{"type":"Point","coordinates":[102.66314096666667,24.997912799999998]},"__memberLines":{}},{"type":"Feature","properties":{"station_id":"n9712921865","station_name":"福海","station_name_local":"福海","station_name_en":"Fuhai","city":"Kunming","country":"China","lines":["5"],"wikipedia":"zh:福海站 (昆明市)","merged_from":3,"merged_names":null,"is_terminus":false,"routes":[{"ref":"5","name":"昆明地铁5号线","route_color":"#2aa844"}],"pass_count":1,"station_degree":2,"codes":null,"is_interchange":false,"station_role":"normal"},"geometry":{"type":"Point","coordinates":[102.68386679999999,25.013940966666667]},"__memberLines":{}},{"type":"Feature","properties":{"station_id":"n9712921870","station_name":"广福路西口","station_name_local":"广福路西口","station_name_en":"Guangfuluxikou","city":"Kunming","country":"China","lines":["5"],"wikipedia":"zh:广福路西口站","merged_from":4,"merged_names":null,"is_terminus":false,"routes":[{"ref":"5","name":"昆明地铁5号线","route_color":"#2aa844"}],"pass_count":1,"station_degree":2,"codes":null,"is_interchange":false,"station_role":"normal"},"geometry":{"type":"Point","coordinates":[102.672863575,25.0073488]},"__memberLines":{}},{"type":"Feature","properties":{"station_id":"n13535995619","station_name":"市级行政中心","station_name_local":"市级行政中心","station_name_en":"Municipal Administration Center","city":"Kunming","country":"China","lines":["1"],"wikipedia":"zh:市级行政中心·清风站","merged_from":3,"merged_names":null,"is_terminus":false,"routes":[{"ref":"1","name":"昆明地铁1号线","route_color":"#bf3334"}],"pass_count":2,"station_degree":2,"codes":null,"is_interchange":false,"station_role":"normal"},"geometry":{"type":"Point","coordinates":[102.83525876666666,24.88526143333333]},"__memberLines":{}},{"type":"Feature","properties":{"station_id":"n13535995620","station_name":"宜和路","station_name_local":"宜和路","station_name_en":"Yihe Road","city":"Kunming","country":"China","lines":["1"],"wikipedia":null,"merged_from":3,"merged_names":null,"is_terminus":false,"routes":[{"ref":"1","name":"昆明地铁1号线","route_color":"#bf3334"}],"pass_count":2,"station_degree":2,"codes":null,"is_interchange":false,"station_role":"normal"},"geometry":{"type":"Point","coordinates":[102.84350403333333,24.887798833333335]},"__memberLines":{}},{"type":"Feature","properties":{"station_id":"n13535995624","station_name":"白龙潭","station_name_local":"白龙潭","station_name_en":"Bailong Lake","city":"Kunming","country":"China","lines":["1"],"wikipedia":null,"merged_from":3,"merged_names":null,"is_terminus":false,"routes":[{"ref":"1","name":"昆明地铁1号线","route_color":"#bf3334"}],"pass_count":2,"station_degree":2,"codes":null,"is_interchange":false,"station_role":"normal"},"geometry":{"type":"Point","coordinates":[102.85053223333334,24.877652166666667]},"__memberLines":{}},{"type":"Feature","properties":{"station_id":"n13536002105","station_name":"星耀路","station_name_local":"星耀路","station_name_en":"Xingyao Road","city":"Kunming","country":"China","lines":["1"],"wikipedia":null,"merged_from":3,"merged_names":null,"is_terminus":false,"routes":[{"ref":"1","name":"昆明地铁1号线","route_color":"#bf3334"}],"pass_count":2,"station_degree":2,"codes":null,"is_interchange":false,"station_role":"normal"},"geometry":{"type":"Point","coordinates":[102.76658643333333,24.959858299999997]},"__memberLines":{}},{"type":"Feature","properties":{"station_id":"n13536002153","station_name":"白龙路","station_name_local":"白龙路","station_name_en":"Bailong Street","city":"Kunming","country":"China","lines":["4"],"wikipedia":"zh:白龙路站","merged_from":3,"merged_names":null,"is_terminus":false,"routes":[{"ref":"4","name":"昆明地铁4号线","route_color":"#dd8800"}],"pass_count":1,"station_degree":2,"codes":null,"is_interchange":false,"station_role":"normal"},"geometry":{"type":"Point","coordinates":[102.7333799,25.052161400000003]},"__memberLines":{}},{"type":"Feature","properties":{"station_id":"n13536002216","station_name":"新亚洲体育城","station_name_local":"新亚洲体育城","station_name_en":"New Asia Athletics Park","city":"Kunming","country":"China","lines":["1"],"wikipedia":"zh:新亚洲体育城站","merged_from":3,"merged_names":null,"is_terminus":false,"routes":[{"ref":"1","name":"昆明地铁1号线","route_color":"#bf3334"}],"pass_count":2,"station_degree":2,"codes":null,"is_interchange":false,"station_role":"normal"},"geometry":{"type":"Point","coordinates":[102.7681172,24.949951799999997]},"__memberLines":{}},{"type":"Feature","properties":{"station_id":"n13536002218","station_name":"南部汽车站","station_name_local":"南部汽车站","station_name_en":"South Coach Station","city":"Kunming","country":"China","lines":["1"],"wikipedia":null,"merged_from":3,"merged_names":null,"is_terminus":false,"routes":[{"ref":"1","name":"昆明地铁1号线","route_color":"#bf3334"}],"pass_count":2,"station_degree":2,"codes":null,"is_interchange":false,"station_role":"normal"},"geometry":{"type":"Point","coordinates":[102.77366026666665,24.932234833333336]},"__memberLines":{}},{"type":"Feature","properties":{"station_id":"n13536002354","station_name":"春融街","station_name_local":"春融街","station_name_en":"Chunrong Street","city":"Kunming","country":"China","lines":["1"],"wikipedia":"zh:春融街站","merged_from":4,"merged_names":null,"is_terminus":false,"routes":[{"ref":"1","name":"昆明地铁1号线","route_color":"#bf3334"}],"pass_count":2,"station_degree":3,"codes":null,"is_interchange":true,"station_role":"interchange"},"geometry":{"type":"Point","coordinates":[102.823955525,24.88698305]},"__memberLines":{}},{"type":"Feature","properties":{"station_id":"n13536002357","station_name":"珥季路","station_name_local":"珥季路","station_name_en":"Erji Road","city":"Kunming","country":"China","lines":["1"],"wikipedia":null,"merged_from":3,"merged_names":null,"is_terminus":false,"routes":[{"ref":"1","name":"昆明地铁1号线","route_color":"#bf3334"}],"pass_count":2,"station_degree":2,"codes":null,"is_interchange":false,"station_role":"normal"},"geometry":{"type":"Point","coordinates":[102.76532986666666,24.975502300000002]},"__memberLines":{}},{"type":"Feature","properties":{"station_id":"n13536002358","station_name":"晓东村","station_name_local":"晓东村","station_name_en":"Xiaodongcun","city":"Kunming","country":"China","lines":["1"],"wikipedia":"zh:晓东村站","merged_from":3,"merged_names":null,"is_terminus":false,"routes":[{"ref":"1","name":"昆明地铁1号线","route_color":"#bf3334"}],"pass_count":2,"station_degree":2,"codes":null,"is_interchange":false,"station_role":"normal"},"geometry":{"type":"Point","coordinates":[102.7597023,24.988254666666666]},"__memberLines":{}},{"type":"Feature","properties":{"station_id":"n13536002359","station_name":"昌宏西路","station_name_local":"昌宏西路","station_name_en":"Changhong West Road","city":"Kunming","country":"China","lines":["1"],"wikipedia":"zh:昌宏西路站","merged_from":3,"merged_names":null,"is_terminus":false,"routes":[{"ref":"1","name":"昆明地铁1号线","route_color":"#bf3334"}],"pass_count":2,"station_degree":2,"codes":null,"is_interchange":false,"station_role":"normal"},"geometry":{"type":"Point","coordinates":[102.74964433333334,24.989149966666663]},"__memberLines":{}},{"type":"Feature","properties":{"station_id":"n13536002360","station_name":"巫家坝","station_name_local":"巫家坝","station_name_en":"Wujiaba","city":"Kunming","country":"China","lines":["1"],"wikipedia":"zh:巫家坝站","merged_from":3,"merged_names":null,"is_terminus":false,"routes":[{"ref":"1","name":"昆明地铁1号线","route_color":"#bf3334"}],"pass_count":2,"station_degree":2,"codes":null,"is_interchange":false,"station_role":"normal"},"geometry":{"type":"Point","coordinates":[102.74003976666665,24.9999897]},"__memberLines":{}},{"type":"Feature","properties":{"station_id":"n13536002361","station_name":"日新路","station_name_local":"日新路","station_name_en":"Rixin Road","city":"Kunming","country":"China","lines":["1"],"wikipedia":"zh:日新路站","merged_from":3,"merged_names":null,"is_terminus":false,"routes":[{"ref":"1","name":"昆明地铁1号线","route_color":"#bf3334"}],"pass_count":2,"station_degree":2,"codes":null,"is_interchange":false,"station_role":"normal"},"geometry":{"type":"Point","coordinates":[102.7334772,25.004315433333332]},"__memberLines":{}},{"type":"Feature","properties":{"station_id":"n13536002362","station_name":"福德","station_name_local":"福德","station_name_en":"Fude","city":"Kunming","country":"China","lines":["1"],"wikipedia":"zh:福德站 (昆明市)","merged_from":3,"merged_names":null,"is_terminus":false,"routes":[{"ref":"1","name":"昆明地铁1号线","route_color":"#bf3334"}],"pass_count":2,"station_degree":2,"codes":null,"is_interchange":false,"station_role":"normal"},"geometry":{"type":"Point","coordinates":[102.72864976666666,25.009998799999995]},"__memberLines":{}},{"type":"Feature","properties":{"station_id":"n13536002363","station_name":"昆明火车站","station_name_local":"昆明火车站","station_name_en":"Kunming Railway Station","city":"Kunming","country":"China","lines":["1"],"wikipedia":"zh:昆明火车站 (地铁)","merged_from":3,"merged_names":null,"is_terminus":false,"routes":[{"ref":"1","name":"昆明地铁1号线","route_color":"#bf3334"}],"pass_count":2,"station_degree":2,"codes":null,"is_interchange":false,"station_role":"normal"},"geometry":{"type":"Point","coordinates":[102.7216936,25.016462033333337]},"__memberLines":{}},{"type":"Feature","properties":{"station_id":"n13536002364","station_name":"交三桥","station_name_local":"交三桥","station_name_en":"Jiaosanqiao","city":"Kunming","country":"China","lines":["2"],"wikipedia":"zh:交三桥站","merged_from":3,"merged_names":null,"is_terminus":false,"routes":[{"ref":"2","name":"昆明地铁2号线","route_color":"#235a99"}],"pass_count":1,"station_degree":2,"codes":null,"is_interchange":false,"station_role":"normal"},"geometry":{"type":"Point","coordinates":[102.71818103333334,25.045441433333334]},"__memberLines":{}},{"type":"Feature","properties":{"station_id":"n13536002365","station_name":"穿心鼓楼","station_name_local":"穿心鼓楼","station_name_en":"Chuanxin Gulou","city":"Kunming","country":"China","lines":["2"],"wikipedia":null,"merged_from":3,"merged_names":null,"is_terminus":false,"routes":[{"ref":"2","name":"昆明地铁2号线","route_color":"#235a99"}],"pass_count":1,"station_degree":2,"codes":null,"is_interchange":false,"station_role":"normal"},"geometry":{"type":"Point","coordinates":[102.71804580000001,25.05242386666667]},"__memberLines":{}},{"type":"Feature","properties":{"station_id":"n13536002366","station_name":"金星","station_name_local":"金星","station_name_en":"Jinxing","city":"Kunming","country":"China","lines":["2"],"wikipedia":"zh:金星站 (昆明市)","merged_from":3,"merged_names":null,"is_terminus":false,"routes":[{"ref":"2","name":"昆明地铁2号线","route_color":"#235a99"}],"pass_count":1,"station_degree":2,"codes":null,"is_interchange":false,"station_role":"normal"},"geometry":{"type":"Point","coordinates":[102.72632193333334,25.078901433333332]},"__memberLines":{}},{"type":"Feature","properties":{"station_id":"n13536002367","station_name":"白云路","station_name_local":"白云路","station_name_en":"Baiyun Road","city":"Kunming","country":"China","lines":["2"],"wikipedia":"zh:白云路站","merged_from":3,"merged_names":null,"is_terminus":false,"routes":[{"ref":"2","name":"昆明地铁2号线","route_color":"#235a99"}],"pass_count":1,"station_degree":2,"codes":null,"is_interchange":false,"station_role":"normal"},"geometry":{"type":"Point","coordinates":[102.72232303333332,25.068773399999998]},"__memberLines":{}},{"type":"Feature","properties":{"station_id":"n13536002368","station_name":"北辰","station_name_local":"北辰","station_name_en":"Beichen","city":"Kunming","country":"China","lines":["2"],"wikipedia":"zh:北辰站 (昆明市)","merged_from":3,"merged_names":null,"is_terminus":false,"routes":[{"ref":"2","name":"昆明地铁2号线","route_color":"#235a99"}],"pass_count":1,"station_degree":2,"codes":null,"is_interchange":false,"station_role":"normal"},"geometry":{"type":"Point","coordinates":[102.73108223333334,25.083972700000004]},"__memberLines":{}},{"type":"Feature","properties":{"station_id":"n13536002369","station_name":"霖雨桥","station_name_local":"霖雨桥","station_name_en":"Linyu bridge","city":"Kunming","country":"China","lines":["2"],"wikipedia":"zh:霖雨桥站","merged_from":3,"merged_names":null,"is_terminus":false,"routes":[{"ref":"2","name":"昆明地铁2号线","route_color":"#235a99"}],"pass_count":1,"station_degree":2,"codes":null,"is_interchange":false,"station_role":"normal"},"geometry":{"type":"Point","coordinates":[102.73768663333334,25.0963325]},"__memberLines":{}},{"type":"Feature","properties":{"station_id":"n13536002370","station_name":"羊肠村","station_name_local":"羊肠村","station_name_en":"Yangchangcun","city":"Kunming","country":"China","lines":["2"],"wikipedia":"zh:羊肠村站","merged_from":3,"merged_names":null,"is_terminus":false,"routes":[{"ref":"2","name":"昆明地铁2号线","route_color":"#235a99"}],"pass_count":1,"station_degree":2,"codes":null,"is_interchange":false,"station_role":"normal"},"geometry":{"type":"Point","coordinates":[102.74043630000001,25.1038408]},"__memberLines":{}},{"type":"Feature","properties":{"station_id":"n13536002371","station_name":"司家营","station_name_local":"司家营","station_name_en":"Si jia ying","city":"Kunming","country":"China","lines":["2"],"wikipedia":"zh:司家营站","merged_from":3,"merged_names":null,"is_terminus":false,"routes":[{"ref":"2","name":"昆明地铁2号线","route_color":"#235a99"}],"pass_count":1,"station_degree":2,"codes":null,"is_interchange":false,"station_role":"normal"},"geometry":{"type":"Point","coordinates":[102.74421066666666,25.112685600000002]},"__memberLines":{}},{"type":"Feature","properties":{"station_id":"n13536003408","station_name":"北部汽车站","station_name_local":"北部汽车站","station_name_en":"North Coach Station","city":"Kunming","country":"China","lines":["2"],"wikipedia":"zh:北部汽车站 (地铁)","merged_from":3,"merged_names":null,"is_terminus":true,"routes":[{"ref":"2","name":"昆明地铁2号线","route_color":"#235a99"}],"pass_count":1,"station_degree":1,"codes":null,"is_interchange":false,"station_role":"terminus"},"geometry":{"type":"Point","coordinates":[102.76189926666666,25.11012913333333]},"__memberLines":{}},{"type":"Feature","properties":{"station_id":"n13536003598","station_name":"和甸营","station_name_local":"和甸营","station_name_en":"Hedianying","city":"Kunming","country":"China","lines":["4"],"wikipedia":null,"merged_from":3,"merged_names":null,"is_terminus":false,"routes":[{"ref":"4","name":"昆明地铁4号线","route_color":"#dd8800"}],"pass_count":1,"station_degree":2,"codes":null,"is_interchange":false,"station_role":"normal"},"geometry":{"type":"Point","coordinates":[102.7610898,25.01786626666667]},"__memberLines":{}},{"type":"Feature","properties":{"station_id":"n13536003636","station_name":"朱家村","station_name_local":"朱家村","station_name_en":"Zhujiacun","city":"Kunming","country":"China","lines":["4"],"wikipedia":"zh:朱家村站","merged_from":3,"merged_names":null,"is_terminus":false,"routes":[{"ref":"4","name":"昆明地铁4号线","route_color":"#dd8800"}],"pass_count":1,"station_degree":2,"codes":null,"is_interchange":false,"station_role":"normal"},"geometry":{"type":"Point","coordinates":[102.78215863333332,24.996657966666664]},"__memberLines":{}},{"type":"Feature","properties":{"station_id":"n13536003646","station_name":"羊甫头","station_name_local":"羊甫头","station_name_en":"Yangfutou","city":"Kunming","country":"China","lines":["4"],"wikipedia":null,"merged_from":3,"merged_names":null,"is_terminus":false,"routes":[{"ref":"4","name":"昆明地铁4号线","route_color":"#dd8800"}],"pass_count":1,"station_degree":2,"codes":null,"is_interchange":false,"station_role":"normal"},"geometry":{"type":"Point","coordinates":[102.784178,24.981196699999998]},"__memberLines":{}},{"type":"Feature","properties":{"station_id":"n13536630269","station_name":"机场中心","station_name_local":"机场中心","station_name_en":"Kunming Airport","city":"Kunming","country":"China","lines":["6"],"wikipedia":"zh:机场中心站","merged_from":3,"merged_names":null,"is_terminus":true,"routes":[{"ref":"6","name":"昆明地铁6号线","route_color":"#0290a4"}],"pass_count":1,"station_degree":1,"codes":null,"is_interchange":false,"station_role":"terminus"},"geometry":{"type":"Point","coordinates":[102.92625646666666,25.098550499999998]},"__memberLines":{}},{"type":"Feature","properties":{"station_id":"n13569391596","station_name":"塔密","station_name_local":"塔密","station_name_en":"Tami","city":"Kunming","country":"China","lines":["4"],"wikipedia":"zh:塔密站","merged_from":3,"merged_names":null,"is_terminus":false,"routes":[{"ref":"4","name":"昆明地铁4号线","route_color":"#dd8800"}],"pass_count":1,"station_degree":2,"codes":null,"is_interchange":false,"station_role":"normal"},"geometry":{"type":"Point","coordinates":[102.7858778,24.940234966666665]},"__memberLines":{}},{"type":"Feature","properties":{"station_id":"n13572581608","station_name":"岔街","station_name_local":"岔街","station_name_en":"Cha jie","city":"Kunming","country":"China","lines":["6"],"wikipedia":"zh:岔街站","merged_from":3,"merged_names":null,"is_terminus":false,"routes":[{"ref":"6","name":"昆明地铁6号线","route_color":"#0290a4"}],"pass_count":1,"station_degree":2,"codes":null,"is_interchange":false,"station_role":"normal"},"geometry":{"type":"Point","coordinates":[102.73291956666667,25.033977500000002]},"__memberLines":{}},{"type":"Feature","properties":{"station_id":"n13572581609","station_name":"东郊路","station_name_local":"东郊路","station_name_en":"Dongjiao Road","city":"Kunming","country":"China","lines":["6"],"wikipedia":"zh:东郊路站","merged_from":3,"merged_names":null,"is_terminus":false,"routes":[{"ref":"6","name":"昆明地铁6号线","route_color":"#0290a4"}],"pass_count":1,"station_degree":2,"codes":null,"is_interchange":false,"station_role":"normal"},"geometry":{"type":"Point","coordinates":[102.73961473333333,25.030542166666667]},"__memberLines":{}},{"type":"Feature","properties":{"station_id":"n13584361551","station_name":"龙头街","station_name_local":"龙头街","station_name_en":"Longtou Street","city":"Kunming","country":"China","lines":["2"],"wikipedia":"zh:龙头街站","merged_from":3,"merged_names":null,"is_terminus":false,"routes":[{"ref":"2","name":"昆明地铁2号线","route_color":"#235a99"}],"pass_count":1,"station_degree":2,"codes":null,"is_interchange":false,"station_role":"normal"},"geometry":{"type":"Point","coordinates":[102.75233316666667,25.114797033333332]},"__memberLines":{}}]}