{"type":"FeatureCollection","metro_system":{"continent":"europe","country":"Norway","city":"Trondheim","official_website":null,"official_map":"https://no.wikipedia.org/wiki/Gråkallbanen","wikipedia":"no:Gråkallbanen","line_count":1,"segment_count":1,"station_count":19,"modes":["tram"],"audit":{"strategies_tried":[],"passed":true,"checks":[{"id":"has_lines","ok":true,"detail":"1 lines","level":"error"},{"id":"has_stations","ok":true,"detail":"19 stations","level":"error"},{"id":"stations_have_lines","ok":true,"detail":"19/19 站皆有所屬路線","level":"error"},{"id":"line_geometry_stations","ok":true,"detail":"19 個折點/端點皆為車站","level":"error"},{"id":"route_stations_match_geometry","ok":true,"detail":"各線車站列表與圖面一致","level":"error"},{"id":"interchange_rule","ok":true,"detail":"所有車站紅/藍點符合骨架＋路線色規則（藍＝端點、紅＝交叉）","level":"error"},{"id":"stations_named","ok":true,"detail":"19/19 站皆有名稱","level":"error"},{"id":"station_order","ok":true,"detail":"所有線路站序合理","level":"warn"},{"id":"line_wiki_stations","ok":true,"detail":"各線站數與 wiki 線路條目相符（營運中站數）","level":"error"},{"id":"line_wiki_coverage","ok":false,"detail":"1 條線無 wiki 站數對照：9 Gråkallbanen","level":"warn"}],"reasons":[],"warnings":["1 條線無 wiki 站數對照：9 Gråkallbanen"],"audited_at":"2026-07-27T02:39:34.987Z"}},"features":[{"type":"Feature","properties":{"seg_id":"trondheim-0","routes":[{"route_id":"rm10092776","route_name":"9 Gråkallbanen","route_name_local":"9 Gråkallbanen","route_name_en":null,"route_ref":"9","route_color":"#231f20","wikipedia":"no:Gråkallbanen","osm_route_ids":[105884,10068521],"status":null,"order_suspect":0,"span_suspect":0,"stations":[{"station_id":"n1513368677","station_name":"St. Olavs gate"},{"station_id":"n1075452730","station_name":"Hospitalskirka"},{"station_id":"n1075452814","station_name":"Skansen"},{"station_id":"n2184608632","station_name":"Ila"},{"station_id":"n1804039337","station_name":"Bergsli gate"},{"station_id":"n132921042","station_name":"Nyveibakken"},{"station_id":"n132921075","station_name":"Bygrensen"},{"station_id":"n132921089","station_name":"Belvedere"},{"station_id":"n132921112","station_name":"Breidablikk"},{"station_id":"n6743657331","station_name":"Nordre Hoem"},{"station_id":"n132921130","station_name":"Søndre Hoem"},{"station_id":"n132921138","station_name":"Rognheim"},{"station_id":"n132921144","station_name":"Munkvoll"},{"station_id":"n132921153","station_name":"Ferstad"},{"station_id":"n1074211952","station_name":"Ugla"},{"station_id":"n132921176","station_name":"Kyvannet"},{"station_id":"n132921183","station_name":"Vestmarka"},{"station_id":"n132921191","station_name":"Herlofsonløypa"},{"station_id":"n132921200","station_name":"Lian"}]}],"route_count":1,"route_refs":["9"],"route_colors":["#231f20"],"city":"Trondheim","country":"Norway"},"geometry":{"type":"MultiLineString","coordinates":[[[10.390315,63.4310784],[10.3848016,63.430309449999996],[10.3726211,63.429880600000004],[10.3678006,63.42894045],[10.367642799999999,63.42745635],[10.3725212,63.4243149],[10.375619,63.4187579],[10.37636555,63.4161694],[10.3768916,63.412251999999995],[10.38099875,63.405501150000006],[10.3816648,63.4032703],[10.3731671,63.3994045],[10.3600487,63.397799649999996],[10.3489978,63.3995505],[10.34388215,63.4005868],[10.3375282,63.4041771],[10.3251046,63.4065002],[10.3199487,63.4051886],[10.3143919,63.4029643]]]}},{"type":"Feature","properties":{"station_id":"n132921042","station_name":"Nyveibakken","station_name_local":"Nyveibakken","station_name_en":null,"city":"Trondheim","country":"Norway","lines":["9"],"wikipedia":null,"is_terminus":false,"routes":[{"ref":"9","name":"9 Gråkallbanen","route_color":"#231f20"}],"pass_count":1,"station_degree":2,"codes":null,"merged_from":null,"merged_names":null,"is_interchange":false,"station_role":"normal"},"geometry":{"type":"Point","coordinates":[10.3725212,63.4243149]},"__memberLines":{}},{"type":"Feature","properties":{"station_id":"n132921075","station_name":"Bygrensen","station_name_local":"Bygrensen","station_name_en":null,"city":"Trondheim","country":"Norway","lines":["9"],"wikipedia":null,"merged_from":2,"merged_names":null,"is_terminus":false,"routes":[{"ref":"9","name":"9 Gråkallbanen","route_color":"#231f20"}],"pass_count":1,"station_degree":2,"codes":null,"is_interchange":false,"station_role":"normal"},"geometry":{"type":"Point","coordinates":[10.375619,63.4187579]},"__memberLines":{}},{"type":"Feature","properties":{"station_id":"n132921089","station_name":"Belvedere","station_name_local":"Belvedere","station_name_en":null,"city":"Trondheim","country":"Norway","lines":["9"],"wikipedia":null,"merged_from":2,"merged_names":null,"is_terminus":false,"routes":[{"ref":"9","name":"9 Gråkallbanen","route_color":"#231f20"}],"pass_count":1,"station_degree":2,"codes":null,"is_interchange":false,"station_role":"normal"},"geometry":{"type":"Point","coordinates":[10.37636555,63.4161694]},"__memberLines":{}},{"type":"Feature","properties":{"station_id":"n132921112","station_name":"Breidablikk","station_name_local":"Breidablikk","station_name_en":null,"city":"Trondheim","country":"Norway","lines":["9"],"wikipedia":null,"merged_from":2,"merged_names":null,"is_terminus":false,"routes":[{"ref":"9","name":"9 Gråkallbanen","route_color":"#231f20"}],"pass_count":1,"station_degree":2,"codes":null,"is_interchange":false,"station_role":"normal"},"geometry":{"type":"Point","coordinates":[10.3768916,63.412251999999995]},"__memberLines":{}},{"type":"Feature","properties":{"station_id":"n132921130","station_name":"Søndre Hoem","station_name_local":"Søndre Hoem","station_name_en":null,"city":"Trondheim","country":"Norway","lines":["9"],"wikipedia":null,"is_terminus":false,"routes":[{"ref":"9","name":"9 Gråkallbanen","route_color":"#231f20"}],"pass_count":1,"station_degree":2,"codes":null,"merged_from":null,"merged_names":null,"is_interchange":false,"station_role":"normal"},"geometry":{"type":"Point","coordinates":[10.3816648,63.4032703]},"__memberLines":{}},{"type":"Feature","properties":{"station_id":"n132921138","station_name":"Rognheim","station_name_local":"Rognheim","station_name_en":null,"city":"Trondheim","country":"Norway","lines":["9"],"wikipedia":null,"is_terminus":false,"routes":[{"ref":"9","name":"9 Gråkallbanen","route_color":"#231f20"}],"pass_count":1,"station_degree":2,"codes":null,"merged_from":null,"merged_names":null,"is_interchange":false,"station_role":"normal"},"geometry":{"type":"Point","coordinates":[10.3731671,63.3994045]},"__memberLines":{}},{"type":"Feature","properties":{"station_id":"n132921144","station_name":"Munkvoll","station_name_local":"Munkvoll","station_name_en":null,"city":"Trondheim","country":"Norway","lines":["9"],"wikipedia":null,"merged_from":2,"merged_names":null,"is_terminus":false,"routes":[{"ref":"9","name":"9 Gråkallbanen","route_color":"#231f20"}],"pass_count":1,"station_degree":2,"codes":null,"is_interchange":false,"station_role":"normal"},"geometry":{"type":"Point","coordinates":[10.3600487,63.397799649999996]},"__memberLines":{}},{"type":"Feature","properties":{"station_id":"n132921153","station_name":"Ferstad","station_name_local":"Ferstad","station_name_en":null,"city":"Trondheim","country":"Norway","lines":["9"],"wikipedia":null,"is_terminus":false,"routes":[{"ref":"9","name":"9 Gråkallbanen","route_color":"#231f20"}],"pass_count":1,"station_degree":2,"codes":null,"merged_from":null,"merged_names":null,"is_interchange":false,"station_role":"normal"},"geometry":{"type":"Point","coordinates":[10.3489978,63.3995505]},"__memberLines":{}},{"type":"Feature","properties":{"station_id":"n132921176","station_name":"Kyvannet","station_name_local":"Kyvannet","station_name_en":null,"city":"Trondheim","country":"Norway","lines":["9"],"wikipedia":null,"is_terminus":false,"routes":[{"ref":"9","name":"9 Gråkallbanen","route_color":"#231f20"}],"pass_count":1,"station_degree":2,"codes":null,"merged_from":null,"merged_names":null,"is_interchange":false,"station_role":"normal"},"geometry":{"type":"Point","coordinates":[10.3375282,63.4041771]},"__memberLines":{}},{"type":"Feature","properties":{"station_id":"n132921183","station_name":"Vestmarka","station_name_local":"Vestmarka","station_name_en":null,"city":"Trondheim","country":"Norway","lines":["9"],"wikipedia":null,"is_terminus":false,"routes":[{"ref":"9","name":"9 Gråkallbanen","route_color":"#231f20"}],"pass_count":1,"station_degree":2,"codes":null,"merged_from":null,"merged_names":null,"is_interchange":false,"station_role":"normal"},"geometry":{"type":"Point","coordinates":[10.3251046,63.4065002]},"__memberLines":{}},{"type":"Feature","properties":{"station_id":"n132921191","station_name":"Herlofsonløypa","station_name_local":"Herlofsonløypa","station_name_en":null,"city":"Trondheim","country":"Norway","lines":["9"],"wikipedia":null,"is_terminus":false,"routes":[{"ref":"9","name":"9 Gråkallbanen","route_color":"#231f20"}],"pass_count":1,"station_degree":2,"codes":null,"merged_from":null,"merged_names":null,"is_interchange":false,"station_role":"normal"},"geometry":{"type":"Point","coordinates":[10.3199487,63.4051886]},"__memberLines":{}},{"type":"Feature","properties":{"station_id":"n132921200","station_name":"Lian","station_name_local":"Lian","station_name_en":null,"city":"Trondheim","country":"Norway","lines":["9"],"wikipedia":null,"is_terminus":true,"routes":[{"ref":"9","name":"9 Gråkallbanen","route_color":"#231f20"}],"pass_count":1,"station_degree":1,"codes":null,"merged_from":null,"merged_names":null,"is_interchange":false,"station_role":"terminus"},"geometry":{"type":"Point","coordinates":[10.3143919,63.4029643]},"__memberLines":{}},{"type":"Feature","properties":{"station_id":"n1074211952","station_name":"Ugla","station_name_local":"Ugla","station_name_en":null,"city":"Trondheim","country":"Norway","lines":["9"],"wikipedia":null,"merged_from":2,"merged_names":null,"is_terminus":false,"routes":[{"ref":"9","name":"9 Gråkallbanen","route_color":"#231f20"}],"pass_count":1,"station_degree":2,"codes":null,"is_interchange":false,"station_role":"normal"},"geometry":{"type":"Point","coordinates":[10.34388215,63.4005868]},"__memberLines":{}},{"type":"Feature","properties":{"station_id":"n1075452730","station_name":"Hospitalskirka","station_name_local":"Hospitalskirka","station_name_en":null,"city":"Trondheim","country":"Norway","lines":["9"],"wikipedia":null,"merged_from":2,"merged_names":null,"is_terminus":false,"routes":[{"ref":"9","name":"9 Gråkallbanen","route_color":"#231f20"}],"pass_count":1,"station_degree":2,"codes":null,"is_interchange":false,"station_role":"normal"},"geometry":{"type":"Point","coordinates":[10.3848016,63.430309449999996]},"__memberLines":{}},{"type":"Feature","properties":{"station_id":"n1075452814","station_name":"Skansen","station_name_local":"Skansen","station_name_en":null,"city":"Trondheim","country":"Norway","lines":["9"],"wikipedia":null,"merged_from":2,"merged_names":null,"is_terminus":false,"routes":[{"ref":"9","name":"9 Gråkallbanen","route_color":"#231f20"}],"pass_count":1,"station_degree":2,"codes":null,"is_interchange":false,"station_role":"normal"},"geometry":{"type":"Point","coordinates":[10.3726211,63.429880600000004]},"__memberLines":{}},{"type":"Feature","properties":{"station_id":"n1513368677","station_name":"St. Olavs gate","station_name_local":"St. Olavs gate","station_name_en":null,"city":"Trondheim","country":"Norway","lines":["9"],"wikipedia":"en:St. Olavs Gate (station)","is_terminus":true,"routes":[{"ref":"9","name":"9 Gråkallbanen","route_color":"#231f20"}],"pass_count":1,"station_degree":1,"codes":null,"merged_from":null,"merged_names":null,"is_interchange":false,"station_role":"terminus"},"geometry":{"type":"Point","coordinates":[10.390315,63.4310784]},"__memberLines":{}},{"type":"Feature","properties":{"station_id":"n1804039337","station_name":"Bergsli gate","station_name_local":"Bergsli gate","station_name_en":null,"city":"Trondheim","country":"Norway","lines":["9"],"wikipedia":null,"merged_from":2,"merged_names":null,"is_terminus":false,"routes":[{"ref":"9","name":"9 Gråkallbanen","route_color":"#231f20"}],"pass_count":1,"station_degree":2,"codes":null,"is_interchange":false,"station_role":"normal"},"geometry":{"type":"Point","coordinates":[10.367642799999999,63.42745635]},"__memberLines":{}},{"type":"Feature","properties":{"station_id":"n2184608632","station_name":"Ila","station_name_local":"Ila","station_name_en":null,"city":"Trondheim","country":"Norway","lines":["9"],"wikipedia":null,"merged_from":2,"merged_names":null,"is_terminus":false,"routes":[{"ref":"9","name":"9 Gråkallbanen","route_color":"#231f20"}],"pass_count":1,"station_degree":2,"codes":null,"is_interchange":false,"station_role":"normal"},"geometry":{"type":"Point","coordinates":[10.3678006,63.42894045]},"__memberLines":{}},{"type":"Feature","properties":{"station_id":"n6743657331","station_name":"Nordre Hoem","station_name_local":"Nordre Hoem","station_name_en":null,"city":"Trondheim","country":"Norway","lines":["9"],"wikipedia":null,"merged_from":2,"merged_names":null,"is_terminus":false,"routes":[{"ref":"9","name":"9 Gråkallbanen","route_color":"#231f20"}],"pass_count":1,"station_degree":2,"codes":null,"is_interchange":false,"station_role":"normal"},"geometry":{"type":"Point","coordinates":[10.38099875,63.405501150000006]},"__memberLines":{}}]}