{"type":"FeatureCollection","features":[{"type":"Feature","properties":{"route_ref":"Tramway de Sidi Bel Abbès","route_color":"#64748b"},"geometry":{"type":"MultiLineString","coordinates":[[[-0.6235374943382367,35.21644789062537],[-0.6237336422459678,35.216168986224204],[-0.6239768162467922,35.21609216368663],[-0.6250613885608033,35.21611551232897],[-0.62652560136683,35.21587343306209],[-0.6295947026986165,35.215665652844535],[-0.6314694790641273,35.21534241233672],[-0.637962501239528,35.21579286496821],[-0.6384359278060996,35.2159293113418],[-0.638553252952161,35.216392648714255],[-0.6384662311762718,35.218794208628246],[-0.6376087372667557,35.22126993727325],[-0.6370504241781988,35.22328358667613],[-0.6365732750792774,35.22553397841171],[-0.6363809482420423,35.2259261574728],[-0.6360490581700491,35.226120041300035],[-0.6331516445610169,35.22714407181404],[-0.6309299787799011,35.2278300444113],[-0.6261834270920855,35.22750303182684],[-0.6257976670572116,35.22741131493176],[-0.6255671175449704,35.227203160904],[-0.6255248607668925,35.226848690378205],[-0.6258339985901821,35.22525043113314],[-0.6260956273516894,35.22473499228328],[-0.6266321941060601,35.22456728064402],[-0.628821459529671,35.2243825393955],[-0.6292319206048014,35.22415227091142],[-0.6295099138779201,35.223622974198676],[-0.6294356089781625,35.22147665022534],[-0.6286137065886891,35.21874480056988],[-0.6281886734200762,35.21853732452226],[-0.6264957999999993,35.218074746153846],[-0.6247476223969678,35.21763760467681],[-0.6237217800417322,35.21756294468662],[-0.6234143864663846,35.21738251783528],[-0.6235843432422918,35.215467188559174],[-0.6244161035110279,35.21289891790418],[-0.6246312392588547,35.21276125837874],[-0.6256110824396949,35.21278504686848],[-0.6262514224512504,35.21261467707025],[-0.6276684680457969,35.211876135099885],[-0.6279797073359045,35.21124434655795],[-0.6278948598963524,35.21070896716059],[-0.6268697019101968,35.20931869661042],[-0.6267046841702845,35.208950559161025],[-0.6266122025458427,35.20829928145757],[-0.6267328677876547,35.20650460488279],[-0.6257163059218908,35.20480314142143],[-0.6257545615497898,35.20453817298864],[-0.6261151727353013,35.20402825141437],[-0.626249350496014,35.20364822439761],[-0.6260997330976296,35.200993103456724],[-0.6258379041967695,35.20058677298551],[-0.623029731581001,35.198245263443766],[-0.6189112954561491,35.19458448914251],[-0.6184426726332095,35.1931985420523],[-0.6184024068464681,35.19285077365534],[-0.6184866210424166,35.19266206655975],[-0.618896797954171,35.192519400955575],[-0.6206411219673896,35.19230141727481],[-0.6277317461538459,35.19151452307692],[-0.6396244874474978,35.19004739056105],[-0.6404413487738834,35.18978608250185],[-0.6436922,35.1883861],[-0.6505061632208061,35.185316650792814],[-0.6436918536460218,35.18838624968885],[-0.6396262282659466,35.19004732287291],[-0.6200948000000006,35.1923612],[-0.6186502780769462,35.19256218792805],[-0.6184697040837984,35.192677706955],[-0.6183979426734741,35.19295243713392],[-0.6186299750000013,35.19397845],[-0.6188057866933784,35.19443616407194],[-0.619091664980895,35.19478370362123],[-0.6237679739130473,35.19889123913043],[-0.6258378743255125,35.20058677062289],[-0.6261254993282589,35.20112188250359],[-0.6262494767534675,35.203648051798424],[-0.6261128845406978,35.20403134842856],[-0.6257514447255198,35.204539244650206],[-0.6257150965128645,35.20480305594277],[-0.626731099733629,35.20650572459009],[-0.6266114630006767,35.20830378827558],[-0.6267044844626735,35.208950040671176],[-0.6268687332351112,35.20931820181923],[-0.6279375000000005,35.21078946666667],[-0.6279939418775641,35.211206128892194],[-0.6278836607890663,35.21158765741994],[-0.6276542502101179,35.21188446219788],[-0.6262531103227121,35.212613856537914],[-0.6256110880775958,35.212785032479324],[-0.624631616509444,35.21276131284639],[-0.6244162895750743,35.21289852460368],[-0.6235876199491972,35.215468390295236],[-0.623405804890442,35.2173975211139],[-0.6237764817734377,35.217577939493836],[-0.6249717714016574,35.21768580374396],[-0.6281886182533772,35.21853730499667],[-0.6285816321977252,35.218712619498916],[-0.6294356377172221,35.22147674820516],[-0.6295099022036007,35.223615811381656],[-0.62923178799762,35.224152748848205],[-0.6288201,35.2243789],[-0.626497668660649,35.22459012063664],[-0.6260885901328319,35.22474118226532],[-0.6258195999999999,35.22530943333334],[-0.6255291258293189,35.22682729203356],[-0.6255661775315841,35.227206957372246],[-0.6257192268001999,35.227384801445304],[-0.6262923000000005,35.22753205],[-0.630930644079885,35.22783389539479],[-0.6324933599999991,35.22737643333333],[-0.636049095680056,35.2261199798261],[-0.6363825776384286,35.225925951120615],[-0.6366005683736992,35.225426484954625],[-0.6374879590595073,35.221711614131785],[-0.6384662627318288,35.21879408240602],[-0.6385675117249778,35.21656348566008],[-0.638459980319039,35.21592774041909],[-0.6377462599999996,35.215766620000004],[-0.6313803563515636,35.215344439286184],[-0.6295949229721156,35.21566558456924],[-0.6265252131047548,35.215873483796756],[-0.6250613,35.2161146],[-0.6239714467306876,35.21608746061976],[-0.6237392580797229,35.21613580764835],[-0.6235412630126309,35.216455658199685]],[[-0.6234038990834656,35.21732960332185],[-0.6233268784308338,35.21744931029725],[-0.6229129,35.2175314],[-0.6188957767102506,35.21725882067364],[-0.6163109468954474,35.216931714372286],[-0.6141934491901271,35.21677155727574],[-0.6138977515234008,35.216724557082344],[-0.6136890196437458,35.21658629427184],[-0.6137239167994603,35.21613368167001],[-0.6141804293271401,35.215191563059754],[-0.6161259746693022,35.21277990915621],[-0.6164643206546255,35.21223616455968],[-0.6165683087690007,35.211765430620005],[-0.616601618918649,35.21039607929246],[-0.6163179612585501,35.20910718815023],[-0.6166017400783794,35.210393477256474],[-0.6164643196622179,35.21223616052511],[-0.6161256651133089,35.21278028410092],[-0.6140870068746186,35.21533540635548],[-0.613723583911151,35.21613443689754],[-0.6136889672864206,35.21658629340923],[-0.6138978015746088,35.21672445548549],[-0.6142941369838012,35.21678293550316],[-0.621321028131433,35.21744416448758],[-0.6230255784483676,35.21753604255649],[-0.6233308781858652,35.217458554813305],[-0.6234155242829056,35.2173160181099]]]}}]}