{"type":"FeatureCollection","features":[{"type":"Feature","properties":{"route_ref":"2","route_color":"#64748b"},"geometry":{"type":"LineString","coordinates":[[13.6506826,50.4870722],[13.650148871767414,50.48710850939261],[13.64961730984569,50.48667948957129],[13.6493241450675,50.4866224291252],[13.645768379427773,50.48769032268629],[13.644986548232817,50.48786149214196],[13.64323395883373,50.48802595446535],[13.64198643432015,50.48798060671189],[13.637044140171081,50.48747573305182],[13.636234390106099,50.48761126408329],[13.6359574,50.4878977],[13.635847521382674,50.488252101425836],[13.635530440176735,50.491189589537946],[13.635353586323571,50.49398690739242],[13.635617544271524,50.495563727402654],[13.636192163180208,50.496714998256],[13.638060014042615,50.49923419892317],[13.638809261835478,50.500481982815565],[13.639907381716407,50.50485283827464],[13.640108606443611,50.5052402005588],[13.641022624640538,50.50630460076322],[13.641918338177637,50.50903625904259],[13.642533080852532,50.50989067216072],[13.6458502,50.5137213],[13.64617397301708,50.514196695987295],[13.646300714476094,50.51469599801409],[13.646693988227629,50.5147740093646],[13.648717764584495,50.51397674760236],[13.658652099999998,50.5087808]]}},{"type":"Feature","properties":{"route_ref":"1","route_color":"#64748b"},"geometry":{"type":"MultiLineString","coordinates":[[[13.626779002530482,50.60797644954361],[13.626556381008468,50.60779707368238],[13.626576693841104,50.60767054777204],[13.627866391321755,50.6065064503234],[13.628235262055902,50.60603548391785],[13.628107229754434,50.60558372319442],[13.627754691132209,50.60533564768317],[13.625628547613431,50.60460787652239],[13.623472473052713,50.60405630834104],[13.622076735496833,50.604011666720886],[13.616651332611003,50.60289874246255],[13.615672432094955,50.60254748626656],[13.614734818196517,50.60161541209162],[13.613783892835205,50.60129594630314],[13.613762469848893,50.601004038983355],[13.614397536677473,50.6001216671415],[13.61460322239005,50.598786151074904],[13.614485562980818,50.598561117436155],[13.613108685739597,50.597808071478674],[13.61242200240879,50.59728320778016],[13.612347978211869,50.59691813731895],[13.612549333464266,50.59502453398661],[13.6123844,50.594444],[13.61167192753707,50.5940922176513],[13.608013157154035,50.59310530746426],[13.607073729285544,50.59270468895017],[13.606598136164598,50.592229059729775],[13.605966155718614,50.590555808512484],[13.605341749678498,50.5896611233368],[13.604237253530414,50.588756644554365],[13.601918663479228,50.58733965628376],[13.601198164152734,50.58659495842304],[13.60072003435625,50.585865547063065],[13.600467823621134,50.58505891384734],[13.60046763958768,50.584294456993945],[13.601449695422673,50.578593501472966],[13.603267114285716,50.57271755714286],[13.604148991155423,50.570998260878405],[13.604522254353286,50.56983769014635],[13.604629094194495,50.56670303066365],[13.604503023011434,50.56587910204698],[13.603904842699766,50.56497680836804],[13.603373507271877,50.56456312152888],[13.601949292134437,50.56375349749439],[13.601338833373799,50.563193246039674],[13.600976745614185,50.56245728612669],[13.60089562134277,50.561621929086805],[13.601083026059223,50.561168204278005],[13.602325212754996,50.55985068416769],[13.602202045947138,50.55653641618402],[13.602273494532124,50.556042759852424],[13.602770329230719,50.5552220999338],[13.608334650483247,50.5508308679808],[13.612501533135937,50.546914014677334],[13.617425630524156,50.5431593503693],[13.621183428571435,50.54004602857143],[13.626417308522752,50.53616813489321],[13.627743425797796,50.53491970201787],[13.628260937729273,50.534052430823884],[13.628431897991423,50.533256024944734],[13.62804314511741,50.5278112063514],[13.628113976611298,50.526823993948646],[13.628495282970427,50.52624381859093],[13.629405065051083,50.52568124897624],[13.635509810480823,50.523684989130516],[13.637255215283881,50.52286363668689],[13.638076848185593,50.52225491305631],[13.638611723800999,50.52169823337316],[13.640926195093845,50.51853478608826],[13.64209214277574,50.51755345278319],[13.64370556625271,50.51663765859001],[13.644007725365341,50.516303206599666],[13.644545692290778,50.515295420957585],[13.644941108018799,50.515106972327],[13.645917274032715,50.51495192714974],[13.646115501026538,50.51480126855119],[13.646170227506325,50.514581518535735],[13.64618784200517,50.51470475734097],[13.645928725071961,50.51494805322801],[13.645022003617674,50.5150866481614],[13.644606388893857,50.51526567487852],[13.643696257482466,50.516644084065696],[13.641549664263296,50.517953289183154],[13.640698448581452,50.51883358752635],[13.63861525470094,50.521696578180645],[13.638239618937407,50.522130511589204],[13.637376823116306,50.522785673287736],[13.636854185088135,50.52312062134091],[13.635012798927095,50.523870324029545],[13.632509426811524,50.5246190488884],[13.629397687093341,50.525686231558325],[13.62843916938143,50.52630145014841],[13.62808389684983,50.52691835390184],[13.62805044575344,50.52749099709108],[13.62843326634035,50.53325494990727],[13.628294152521455,50.53396918465921],[13.62780150442886,50.5348722857784],[13.62695214369038,50.535756530434384],[13.621277336152,50.539973935807886],[13.616830301727285,50.54363642916462],[13.61299817635623,50.54648947718012],[13.608334385700294,50.55083155491698],[13.602770884895701,50.55522386070651],[13.60238044767317,50.555813062983624],[13.602202007645035,50.55653776310169],[13.602326712028189,50.55985377878702],[13.602057562944632,50.56023990513163],[13.601133170837464,50.56110093818706],[13.600930542572572,50.56149571047644],[13.600957776513539,50.56238472604641],[13.601348380365831,50.56319913307028],[13.601976068741545,50.563751966032385],[13.603371023732135,50.56456094594451],[13.604059252567092,50.565139995912766],[13.604490460162864,50.56580257786791],[13.604653835714284,50.566872657142866],[13.604550415148122,50.56963482048122],[13.604415815173843,50.570308195987536],[13.6033826068907,50.572456136725776],[13.601442601377357,50.57877360344367],[13.600466295694828,50.58429731902151],[13.600538749781437,50.58530115481805],[13.600778430912928,50.58593777492197],[13.601196334671867,50.586592639386524],[13.601919040837538,50.58733937865141],[13.604268359990273,50.588756988704795],[13.605208331086466,50.589520803304495],[13.605887413106398,50.59040643374191],[13.606602794555611,50.592233829727505],[13.60709084382505,50.59270045648554],[13.608015111981238,50.5931052202172],[13.611692833893008,50.59409310816458],[13.612384955448961,50.594444605578424],[13.612549352890582,50.595023626694214],[13.61234802440002,50.59691835123542],[13.6124232,50.5972851],[13.612944676454182,50.597690418506765],[13.614420429853345,50.59851223921791],[13.614604150945032,50.59878697023036],[13.614397231188772,50.600122525788315],[13.613764116180558,50.60100031273943],[13.61378064897745,50.601287760331786],[13.614713338145656,50.60159995525205],[13.6157344,50.6025825],[13.616525014637798,50.60286278893546],[13.6220948,50.6040168],[13.623472516530773,50.604055063043226],[13.62588687142857,50.60469117142857],[13.627925596438844,50.605421678844564],[13.62816833055955,50.60566290418366],[13.628216869311016,50.606087828333656],[13.627211449511313,50.60708209348598],[13.627106045281307,50.60733729955295],[13.627252648019883,50.60746591630038],[13.628101918218986,50.6077159682978],[13.62821651630629,50.60791742793713],[13.6279681,50.60811833333333],[13.627606254538257,50.60822850402148],[13.626777051157745,50.60797809670065]],[[13.6506826,50.4870722],[13.650148871767414,50.48710850939261],[13.64961730984569,50.48667948957129],[13.6493241450675,50.4866224291252],[13.645768379427773,50.48769032268629],[13.644986548232817,50.48786149214196],[13.64323395883373,50.48802595446535],[13.64198643432015,50.48798060671189],[13.636713718201285,50.48748732565165],[13.6361482,50.4876682],[13.635847521382674,50.488252101425836],[13.635353586323571,50.49398690739242],[13.635669672806545,50.49570490023254],[13.636192163180208,50.496714998256],[13.638060014042615,50.49923419892317],[13.638809261835478,50.500481982815565],[13.639907381716407,50.50485283827464],[13.640108606443611,50.5052402005588],[13.641022624640538,50.50630460076322],[13.641918338177637,50.50903625904259],[13.642533080852532,50.50989067216072],[13.6458502,50.5137213],[13.64617397301708,50.514196695987295],[13.646218978689074,50.51458179269064],[13.646167865640754,50.51419877315765],[13.645957010146068,50.513882580154124],[13.642577962500006,50.509972525],[13.64190067091196,50.50903708478232],[13.641021834551397,50.50630869237588],[13.63993348255207,50.504921324923956],[13.638770968369414,50.500422023701844],[13.638061962232637,50.49923837013664],[13.636192131525274,50.49671579048873],[13.635699927051917,50.49578602888241],[13.63535293743921,50.49398476555691],[13.635800575,50.488430325],[13.636053346604958,50.48774637927473],[13.636346262256582,50.48755956732076],[13.636828004238875,50.487485497138174],[13.642309762480888,50.48799901455748],[13.643653838889668,50.48800592925765],[13.644978487110171,50.48784683942712],[13.64790421169053,50.487072805715854],[13.6506484,50.4861109]]]}},{"type":"Feature","properties":{"route_ref":"4","route_color":"#64748b"},"geometry":{"type":"MultiLineString","coordinates":[[[13.626779002530482,50.60797644954361],[13.626556381008468,50.60779707368238],[13.626576693841104,50.60767054777204],[13.627866391321755,50.6065064503234],[13.628235262055902,50.60603548391785],[13.628107229754434,50.60558372319442],[13.627754691132209,50.60533564768317],[13.625628547613431,50.60460787652239],[13.623472473052713,50.60405630834104],[13.622076735496833,50.604011666720886],[13.616651332611003,50.60289874246255],[13.615672432094955,50.60254748626656],[13.614734818196517,50.60161541209162],[13.613783892835205,50.60129594630314],[13.613762469848893,50.601004038983355],[13.614397536677473,50.6001216671415],[13.61460322239005,50.598786151074904],[13.614485562980818,50.598561117436155],[13.613108685739597,50.597808071478674],[13.61242200240879,50.59728320778016],[13.612347978211869,50.59691813731895],[13.612549333464266,50.59502453398661],[13.6123844,50.594444],[13.61167192753707,50.5940922176513],[13.608013157154035,50.59310530746426],[13.607073729285544,50.59270468895017],[13.606598136164598,50.592229059729775],[13.605966155718614,50.590555808512484],[13.605341749678498,50.5896611233368],[13.604237253530414,50.588756644554365],[13.601918663479228,50.58733965628376],[13.601198164152734,50.58659495842304],[13.60072003435625,50.585865547063065],[13.600467823621134,50.58505891384734],[13.60046763958768,50.584294456993945],[13.601449695422673,50.578593501472966],[13.603267114285716,50.57271755714286],[13.604148991155423,50.570998260878405],[13.604522254353286,50.56983769014635],[13.604629094194495,50.56670303066365],[13.604503023011434,50.56587910204698],[13.603904842699766,50.56497680836804],[13.603373507271877,50.56456312152888],[13.601949292134437,50.56375349749439],[13.601338833373799,50.563193246039674],[13.600976745614185,50.56245728612669],[13.60089562134277,50.561621929086805],[13.601083026059223,50.561168204278005],[13.602325212754996,50.55985068416769],[13.602202045947138,50.55653641618402],[13.602273494532124,50.556042759852424],[13.602770329230719,50.5552220999338],[13.608334650483247,50.5508308679808],[13.612501533135937,50.546914014677334],[13.617425630524156,50.5431593503693],[13.621183428571435,50.54004602857143],[13.626417308522752,50.53616813489321],[13.627743425797796,50.53491970201787],[13.628260937729273,50.534052430823884],[13.628431897991423,50.533256024944734],[13.62804314511741,50.5278112063514],[13.628113976611298,50.526823993948646],[13.628495282970427,50.52624381859093],[13.629405065051083,50.52568124897624],[13.635509810480823,50.523684989130516],[13.637255215283881,50.52286363668689],[13.638076848185593,50.52225491305631],[13.638611723800999,50.52169823337316],[13.640926195093845,50.51853478608826],[13.64209214277574,50.51755345278319],[13.64370556625271,50.51663765859001],[13.644007725365341,50.516303206599666],[13.644545692290778,50.515295420957585],[13.644941108018799,50.515106972327],[13.645917274032715,50.51495192714974],[13.646115501026538,50.51480126855119],[13.646170227506325,50.514581518535735],[13.64618784200517,50.51470475734097],[13.645928725071961,50.51494805322801],[13.645022003617674,50.5150866481614],[13.644606388893857,50.51526567487852],[13.643696257482466,50.516644084065696],[13.641549664263296,50.517953289183154],[13.640698448581452,50.51883358752635],[13.63861525470094,50.521696578180645],[13.638239618937407,50.522130511589204],[13.637376823116306,50.522785673287736],[13.636854185088135,50.52312062134091],[13.635012798927095,50.523870324029545],[13.632509426811524,50.5246190488884],[13.629397687093341,50.525686231558325],[13.62843916938143,50.52630145014841],[13.62808389684983,50.52691835390184],[13.62805044575344,50.52749099709108],[13.62843326634035,50.53325494990727],[13.628294152521455,50.53396918465921],[13.62780150442886,50.5348722857784],[13.62695214369038,50.535756530434384],[13.621277336152,50.539973935807886],[13.616830301727285,50.54363642916462],[13.61299817635623,50.54648947718012],[13.608334385700294,50.55083155491698],[13.602770884895701,50.55522386070651],[13.60238044767317,50.555813062983624],[13.602202007645035,50.55653776310169],[13.602326712028189,50.55985377878702],[13.602057562944632,50.56023990513163],[13.601133170837464,50.56110093818706],[13.600930542572572,50.56149571047644],[13.600957776513539,50.56238472604641],[13.601348380365831,50.56319913307028],[13.601976068741545,50.563751966032385],[13.603371023732135,50.56456094594451],[13.604059252567092,50.565139995912766],[13.604490460162864,50.56580257786791],[13.604653835714284,50.566872657142866],[13.604550415148122,50.56963482048122],[13.604415815173843,50.570308195987536],[13.6033826068907,50.572456136725776],[13.601442601377357,50.57877360344367],[13.600466295694828,50.58429731902151],[13.600538749781437,50.58530115481805],[13.600778430912928,50.58593777492197],[13.601196334671867,50.586592639386524],[13.601919040837538,50.58733937865141],[13.604268359990273,50.588756988704795],[13.605208331086466,50.589520803304495],[13.605887413106398,50.59040643374191],[13.606602794555611,50.592233829727505],[13.60709084382505,50.59270045648554],[13.608015111981238,50.5931052202172],[13.611692833893008,50.59409310816458],[13.612384955448961,50.594444605578424],[13.612549352890582,50.595023626694214],[13.61234802440002,50.59691835123542],[13.6124232,50.5972851],[13.612944676454182,50.597690418506765],[13.614420429853345,50.59851223921791],[13.614604150945032,50.59878697023036],[13.614397231188772,50.600122525788315],[13.613764116180558,50.60100031273943],[13.61378064897745,50.601287760331786],[13.614713338145656,50.60159995525205],[13.6157344,50.6025825],[13.616525014637798,50.60286278893546],[13.6220948,50.6040168],[13.623472516530773,50.604055063043226],[13.62588687142857,50.60469117142857],[13.627925596438844,50.605421678844564],[13.62816833055955,50.60566290418366],[13.628216869311016,50.606087828333656],[13.627211449511313,50.60708209348598],[13.627106045281307,50.60733729955295],[13.627252648019883,50.60746591630038],[13.628101918218986,50.6077159682978],[13.62821651630629,50.60791742793713],[13.6279681,50.60811833333333],[13.627606254538257,50.60822850402148],[13.626777051157745,50.60797809670065]],[[13.635448935874559,50.49224340161374],[13.63536383731072,50.494294191721735],[13.635617544271524,50.495563727402654],[13.636192163180208,50.496714998256],[13.638060014042615,50.49923419892317],[13.638809261835478,50.500481982815565],[13.639963382380808,50.504996575430546],[13.641022624640538,50.50630460076322],[13.641635018100864,50.50839928700654],[13.64202528321739,50.50921615646098],[13.6458502,50.5137213],[13.64617397301708,50.514196695987295],[13.646218978689074,50.51458179269064],[13.646167865640754,50.51419877315765],[13.645957010146068,50.513882580154124],[13.642577962500006,50.509972525],[13.641816749319974,50.5088756549236],[13.641021834551397,50.50630869237588],[13.63993348255207,50.504921324923956],[13.638770968369414,50.500422023701844],[13.638061962232637,50.49923837013664],[13.636192131525274,50.49671579048873],[13.635616315963809,50.49556533238437],[13.635362833884072,50.49428891441523],[13.6354665,50.49203]]]}},{"type":"Feature","properties":{"route_ref":"3","route_color":"#64748b"},"geometry":{"type":"MultiLineString","coordinates":[[[13.626779002530482,50.60797644954361],[13.626556381008468,50.60779707368238],[13.626576693841104,50.60767054777204],[13.627866391321755,50.6065064503234],[13.628235262055902,50.60603548391785],[13.628107229754434,50.60558372319442],[13.627754691132209,50.60533564768317],[13.625628547613431,50.60460787652239],[13.623472473052713,50.60405630834104],[13.622076735496833,50.604011666720886],[13.616651332611003,50.60289874246255],[13.615672432094955,50.60254748626656],[13.614734818196517,50.60161541209162],[13.613783892835205,50.60129594630314],[13.613762469848893,50.601004038983355],[13.614397536677473,50.6001216671415],[13.61460322239005,50.598786151074904],[13.614485562980818,50.598561117436155],[13.613108685739597,50.597808071478674],[13.61242200240879,50.59728320778016],[13.612347978211869,50.59691813731895],[13.612549333464266,50.59502453398661],[13.6123844,50.594444],[13.61167192753707,50.5940922176513],[13.608013157154035,50.59310530746426],[13.607073729285544,50.59270468895017],[13.606598136164598,50.592229059729775],[13.605966155718614,50.590555808512484],[13.605341749678498,50.5896611233368],[13.604237253530414,50.588756644554365],[13.601918663479228,50.58733965628376],[13.601198164152734,50.58659495842304],[13.60072003435625,50.585865547063065],[13.600467823621134,50.58505891384734],[13.60046763958768,50.584294456993945],[13.601449695422673,50.578593501472966],[13.603267114285716,50.57271755714286],[13.604148991155423,50.570998260878405],[13.604522254353286,50.56983769014635],[13.604629094194495,50.56670303066365],[13.604503023011434,50.56587910204698],[13.603904842699766,50.56497680836804],[13.603373507271877,50.56456312152888],[13.601949292134437,50.56375349749439],[13.601338833373799,50.563193246039674],[13.600976745614185,50.56245728612669],[13.60089562134277,50.561621929086805],[13.601083026059223,50.561168204278005],[13.602325212754996,50.55985068416769],[13.602202045947138,50.55653641618402],[13.602273494532124,50.556042759852424],[13.602770329230719,50.5552220999338],[13.608334650483247,50.5508308679808],[13.612501533135937,50.546914014677334],[13.617425630524156,50.5431593503693],[13.621183428571435,50.54004602857143],[13.626417308522752,50.53616813489321],[13.627743425797796,50.53491970201787],[13.628260937729273,50.534052430823884],[13.628431897991423,50.533256024944734],[13.62804314511741,50.5278112063514],[13.628113976611298,50.526823993948646],[13.628495282970427,50.52624381859093],[13.629405065051083,50.52568124897624],[13.635509810480823,50.523684989130516],[13.637255215283881,50.52286363668689],[13.638076848185593,50.52225491305631],[13.638611723800999,50.52169823337316],[13.640926195093845,50.51853478608826],[13.64209214277574,50.51755345278319],[13.64370556625271,50.51663765859001],[13.644007725365341,50.516303206599666],[13.644545692290778,50.515295420957585],[13.644941108018799,50.515106972327],[13.645769099819129,50.51499648089804],[13.645022003617674,50.5150866481614],[13.644606388893857,50.51526567487852],[13.643696257482466,50.516644084065696],[13.641549664263296,50.517953289183154],[13.640698448581452,50.51883358752635],[13.63861525470094,50.521696578180645],[13.638239618937407,50.522130511589204],[13.637376823116306,50.522785673287736],[13.636854185088135,50.52312062134091],[13.635012798927095,50.523870324029545],[13.632509426811524,50.5246190488884],[13.629397687093341,50.525686231558325],[13.62843916938143,50.52630145014841],[13.62808389684983,50.52691835390184],[13.62805044575344,50.52749099709108],[13.62843326634035,50.53325494990727],[13.628294152521455,50.53396918465921],[13.62780150442886,50.5348722857784],[13.62695214369038,50.535756530434384],[13.621277336152,50.539973935807886],[13.616830301727285,50.54363642916462],[13.61299817635623,50.54648947718012],[13.608334385700294,50.55083155491698],[13.602770884895701,50.55522386070651],[13.60238044767317,50.555813062983624],[13.602202007645035,50.55653776310169],[13.602326712028189,50.55985377878702],[13.602057562944632,50.56023990513163],[13.601133170837464,50.56110093818706],[13.600930542572572,50.56149571047644],[13.600957776513539,50.56238472604641],[13.601348380365831,50.56319913307028],[13.601976068741545,50.563751966032385],[13.603371023732135,50.56456094594451],[13.604059252567092,50.565139995912766],[13.604490460162864,50.56580257786791],[13.604653835714284,50.566872657142866],[13.604550415148122,50.56963482048122],[13.604415815173843,50.570308195987536],[13.6033826068907,50.572456136725776],[13.601442601377357,50.57877360344367],[13.600466295694828,50.58429731902151],[13.600538749781437,50.58530115481805],[13.600778430912928,50.58593777492197],[13.601196334671867,50.586592639386524],[13.601919040837538,50.58733937865141],[13.604268359990273,50.588756988704795],[13.605208331086466,50.589520803304495],[13.605887413106398,50.59040643374191],[13.606602794555611,50.592233829727505],[13.60709084382505,50.59270045648554],[13.608015111981238,50.5931052202172],[13.611692833893008,50.59409310816458],[13.612384955448961,50.594444605578424],[13.612549352890582,50.595023626694214],[13.61234802440002,50.59691835123542],[13.6124232,50.5972851],[13.612944676454182,50.597690418506765],[13.614420429853345,50.59851223921791],[13.614604150945032,50.59878697023036],[13.614397231188772,50.600122525788315],[13.613764116180558,50.60100031273943],[13.61378064897745,50.601287760331786],[13.614713338145656,50.60159995525205],[13.6157344,50.6025825],[13.616525014637798,50.60286278893546],[13.6220948,50.6040168],[13.623472516530773,50.604055063043226],[13.62588687142857,50.60469117142857],[13.627925596438844,50.605421678844564],[13.62816833055955,50.60566290418366],[13.628216869311016,50.606087828333656],[13.627211449511313,50.60708209348598],[13.627106045281307,50.60733729955295],[13.627252648019883,50.60746591630038],[13.628101918218986,50.6077159682978],[13.62821651630629,50.60791742793713],[13.6279681,50.60811833333333],[13.627606254538257,50.60822850402148],[13.626777051157745,50.60797809670065]],[[13.658272313244892,50.50905593996231],[13.65655525800034,50.50987349588281],[13.64916659558111,50.513778797472696],[13.6467315,50.514801],[13.64915640931735,50.51376048484229],[13.658652099999998,50.5087808]]]}}]}