{"type":"FeatureCollection","metro_system":{"continent":"europe","country":"Latvia","city":"Liepaja","official_website":null,"official_map":"https://en.wikipedia.org/wiki/Trams_in_Liepāja","wikipedia":"en:Trams in Liepāja","line_count":1,"segment_count":1,"station_count":18,"modes":["tram"],"audit":{"strategies_tried":[],"passed":true,"checks":[{"id":"has_lines","ok":true,"detail":"1 lines","level":"error"},{"id":"has_stations","ok":true,"detail":"18 stations","level":"error"},{"id":"stations_have_lines","ok":true,"detail":"18/18 站皆有所屬路線","level":"error"},{"id":"line_geometry_stations","ok":true,"detail":"18 個折點/端點皆為車站","level":"error"},{"id":"route_stations_match_geometry","ok":true,"detail":"各線車站列表與圖面一致","level":"error"},{"id":"interchange_rule","ok":true,"detail":"所有車站紅/藍點符合骨架＋路線色規則（藍＝端點、紅＝交叉）","level":"error"},{"id":"stations_named","ok":true,"detail":"18/18 站皆有名稱","level":"error"},{"id":"station_order","ok":true,"detail":"所有線路站序合理","level":"warn"},{"id":"station_span","ok":true,"detail":"各線相鄰站距與系統站群跨度正常","level":"error"},{"id":"line_wiki_stations","ok":true,"detail":"各線站數與 wiki 線路條目相符（營運中站數）","level":"error"},{"id":"line_wiki_coverage","ok":false,"detail":"1 條線無 wiki 站數對照：1. tramvaju maršruts","level":"warn"}],"reasons":[],"warnings":["1 條線無 wiki 站數對照：1. tramvaju maršruts"],"audited_at":"2026-07-27T10:14:31.442Z"}},"features":[{"type":"Feature","properties":{"seg_id":"liepaja-0","routes":[{"route_id":"r15698531","route_name":"1. tramvaju maršruts","route_name_local":"1. tramvaju maršruts","route_name_en":null,"route_ref":"1. tramvaju maršruts","route_color":null,"wikipedia":"lv:1. tramvaju maršruts (Liepāja)","osm_route_ids":[15698531],"status":null,"order_suspect":0,"span_suspect":0,"stations":[{"station_id":"n897590757","station_name":"Brīvības iela"},{"station_id":"n4592664077","station_name":"Metalurgs"},{"station_id":"n11061083024","station_name":"Dzelzceļnieku iela"},{"station_id":"n4435017962","station_name":"Stacija"},{"station_id":"n3647433080","station_name":"Olimpiskais centrs"},{"station_id":"n11012838430","station_name":"Esperanto iela"},{"station_id":"n11012919822","station_name":"Koncertzāle"},{"station_id":"n11676327136","station_name":"Rožu laukums"},{"station_id":"n904214120","station_name":"Pētertirgus"},{"station_id":"n4448132471","station_name":"Jūrmalas iela"},{"station_id":"n4435035971","station_name":"Līvas laukums"},{"station_id":"n1457719509","station_name":"Ventas iela"},{"station_id":"n4435084037","station_name":"Klaipēdas iela"},{"station_id":"n4347409456","station_name":"Tukuma iela"},{"station_id":"n4444529467","station_name":"Vaiņodes iela"},{"station_id":"n4435105197","station_name":"Ganību iela"},{"station_id":"n4435104046","station_name":"Cieceres iela"},{"station_id":"n2633774441","station_name":"Mirdzas Ķempes iela"}]}],"route_count":1,"route_refs":["1. tramvaju maršruts"],"route_colors":["#e11d48"],"city":"Liepaja","country":"Latvia"},"geometry":{"type":"MultiLineString","coordinates":[[[21.0302334,56.5255611],[21.0271023,56.5241739],[21.0216723,56.5218697],[21.017496350000002,56.5234273],[21.0162222,56.5204365],[21.0150743,56.5160534],[21.013785900000002,56.51092935],[21.0110296,56.50834765],[21.006739500000002,56.50517105],[21.00620885,56.50076325],[21.00659165,56.497714099999996],[21.00543675,56.4912934],[21.005647,56.48714175],[21.009692450000003,56.48719005],[21.0128891,56.4852746],[21.01613585,56.48369995],[21.02160495,56.4827006],[21.0263694,56.48181625]]]}},{"type":"Feature","properties":{"station_id":"n897590757","station_name":"Brīvības iela","station_name_local":"Brīvības iela","station_name_en":null,"city":"Liepaja","country":"Latvia","lines":["1. tramvaju maršruts"],"wikipedia":null,"is_terminus":true,"routes":[{"ref":"1. tramvaju maršruts","name":"1. tramvaju maršruts","route_color":null}],"pass_count":1,"station_degree":1,"codes":null,"merged_from":null,"merged_names":null,"is_interchange":false,"station_role":"terminus"},"geometry":{"type":"Point","coordinates":[21.0302334,56.5255611]},"__memberLines":{}},{"type":"Feature","properties":{"station_id":"n904214120","station_name":"Pētertirgus","station_name_local":"Pētertirgus","station_name_en":null,"city":"Liepaja","country":"Latvia","lines":["1. tramvaju maršruts"],"wikipedia":null,"merged_from":2,"merged_names":null,"is_terminus":false,"routes":[{"ref":"1. tramvaju maršruts","name":"1. tramvaju maršruts","route_color":null}],"pass_count":1,"station_degree":2,"codes":null,"is_interchange":false,"station_role":"normal"},"geometry":{"type":"Point","coordinates":[21.006739500000002,56.50517105]},"__memberLines":{}},{"type":"Feature","properties":{"station_id":"n1457719509","station_name":"Ventas iela","station_name_local":"Ventas iela","station_name_en":null,"city":"Liepaja","country":"Latvia","lines":["1. tramvaju maršruts"],"wikipedia":null,"merged_from":2,"merged_names":null,"is_terminus":false,"routes":[{"ref":"1. tramvaju maršruts","name":"1. tramvaju maršruts","route_color":null}],"pass_count":1,"station_degree":2,"codes":null,"is_interchange":false,"station_role":"normal"},"geometry":{"type":"Point","coordinates":[21.00543675,56.4912934]},"__memberLines":{}},{"type":"Feature","properties":{"station_id":"n2633774441","station_name":"Mirdzas Ķempes iela","station_name_local":"Mirdzas Ķempes iela","station_name_en":null,"city":"Liepaja","country":"Latvia","lines":["1. tramvaju maršruts"],"wikipedia":null,"merged_from":2,"merged_names":null,"is_terminus":true,"routes":[{"ref":"1. tramvaju maršruts","name":"1. tramvaju maršruts","route_color":null}],"pass_count":1,"station_degree":1,"codes":null,"is_interchange":false,"station_role":"terminus"},"geometry":{"type":"Point","coordinates":[21.0263694,56.48181625]},"__memberLines":{}},{"type":"Feature","properties":{"station_id":"n3647433080","station_name":"Olimpiskais centrs","station_name_local":"Olimpiskais centrs","station_name_en":null,"city":"Liepaja","country":"Latvia","lines":["1. tramvaju maršruts"],"wikipedia":null,"merged_from":2,"merged_names":null,"is_terminus":false,"routes":[{"ref":"1. tramvaju maršruts","name":"1. tramvaju maršruts","route_color":null}],"pass_count":1,"station_degree":2,"codes":null,"is_interchange":false,"station_role":"normal"},"geometry":{"type":"Point","coordinates":[21.0162222,56.5204365]},"__memberLines":{}},{"type":"Feature","properties":{"station_id":"n4347409456","station_name":"Tukuma iela","station_name_local":"Tukuma iela","station_name_en":null,"city":"Liepaja","country":"Latvia","lines":["1. tramvaju maršruts"],"wikipedia":null,"merged_from":2,"merged_names":null,"is_terminus":false,"routes":[{"ref":"1. tramvaju maršruts","name":"1. tramvaju maršruts","route_color":null}],"pass_count":1,"station_degree":2,"codes":null,"is_interchange":false,"station_role":"normal"},"geometry":{"type":"Point","coordinates":[21.009692450000003,56.48719005]},"__memberLines":{}},{"type":"Feature","properties":{"station_id":"n4435017962","station_name":"Stacija","station_name_local":"Stacija","station_name_en":null,"city":"Liepaja","country":"Latvia","lines":["1. tramvaju maršruts"],"wikipedia":null,"merged_from":2,"merged_names":null,"is_terminus":false,"routes":[{"ref":"1. tramvaju maršruts","name":"1. tramvaju maršruts","route_color":null}],"pass_count":1,"station_degree":2,"codes":null,"is_interchange":false,"station_role":"normal"},"geometry":{"type":"Point","coordinates":[21.017496350000002,56.5234273]},"__memberLines":{}},{"type":"Feature","properties":{"station_id":"n4435035971","station_name":"Līvas laukums","station_name_local":"Līvas laukums","station_name_en":null,"city":"Liepaja","country":"Latvia","lines":["1. tramvaju maršruts"],"wikipedia":null,"merged_from":2,"merged_names":null,"is_terminus":false,"routes":[{"ref":"1. tramvaju maršruts","name":"1. tramvaju maršruts","route_color":null}],"pass_count":1,"station_degree":2,"codes":null,"is_interchange":false,"station_role":"normal"},"geometry":{"type":"Point","coordinates":[21.00659165,56.497714099999996]},"__memberLines":{}},{"type":"Feature","properties":{"station_id":"n4435084037","station_name":"Klaipēdas iela","station_name_local":"Klaipēdas iela","station_name_en":null,"city":"Liepaja","country":"Latvia","lines":["1. tramvaju maršruts"],"wikipedia":null,"merged_from":2,"merged_names":null,"is_terminus":false,"routes":[{"ref":"1. tramvaju maršruts","name":"1. tramvaju maršruts","route_color":null}],"pass_count":1,"station_degree":2,"codes":null,"is_interchange":false,"station_role":"normal"},"geometry":{"type":"Point","coordinates":[21.005647,56.48714175]},"__memberLines":{}},{"type":"Feature","properties":{"station_id":"n4435104046","station_name":"Cieceres iela","station_name_local":"Cieceres iela","station_name_en":null,"city":"Liepaja","country":"Latvia","lines":["1. tramvaju maršruts"],"wikipedia":null,"merged_from":2,"merged_names":null,"is_terminus":false,"routes":[{"ref":"1. tramvaju maršruts","name":"1. tramvaju maršruts","route_color":null}],"pass_count":1,"station_degree":2,"codes":null,"is_interchange":false,"station_role":"normal"},"geometry":{"type":"Point","coordinates":[21.02160495,56.4827006]},"__memberLines":{}},{"type":"Feature","properties":{"station_id":"n4435105197","station_name":"Ganību iela","station_name_local":"Ganību iela","station_name_en":null,"city":"Liepaja","country":"Latvia","lines":["1. tramvaju maršruts"],"wikipedia":null,"merged_from":2,"merged_names":null,"is_terminus":false,"routes":[{"ref":"1. tramvaju maršruts","name":"1. tramvaju maršruts","route_color":null}],"pass_count":1,"station_degree":2,"codes":null,"is_interchange":false,"station_role":"normal"},"geometry":{"type":"Point","coordinates":[21.01613585,56.48369995]},"__memberLines":{}},{"type":"Feature","properties":{"station_id":"n4444529467","station_name":"Vaiņodes iela","station_name_local":"Vaiņodes iela","station_name_en":null,"city":"Liepaja","country":"Latvia","lines":["1. tramvaju maršruts"],"wikipedia":null,"merged_from":2,"merged_names":null,"is_terminus":false,"routes":[{"ref":"1. tramvaju maršruts","name":"1. tramvaju maršruts","route_color":null}],"pass_count":1,"station_degree":2,"codes":null,"is_interchange":false,"station_role":"normal"},"geometry":{"type":"Point","coordinates":[21.0128891,56.4852746]},"__memberLines":{}},{"type":"Feature","properties":{"station_id":"n4448132471","station_name":"Jūrmalas iela","station_name_local":"Jūrmalas iela","station_name_en":null,"city":"Liepaja","country":"Latvia","lines":["1. tramvaju maršruts"],"wikipedia":null,"merged_from":2,"merged_names":null,"is_terminus":false,"routes":[{"ref":"1. tramvaju maršruts","name":"1. tramvaju maršruts","route_color":null}],"pass_count":1,"station_degree":2,"codes":null,"is_interchange":false,"station_role":"normal"},"geometry":{"type":"Point","coordinates":[21.00620885,56.50076325]},"__memberLines":{}},{"type":"Feature","properties":{"station_id":"n4592664077","station_name":"Metalurgs","station_name_local":"Metalurgs","station_name_en":null,"city":"Liepaja","country":"Latvia","lines":["1. tramvaju maršruts"],"wikipedia":null,"is_terminus":false,"routes":[{"ref":"1. tramvaju maršruts","name":"1. tramvaju maršruts","route_color":null}],"pass_count":1,"station_degree":2,"codes":null,"merged_from":null,"merged_names":null,"is_interchange":false,"station_role":"normal"},"geometry":{"type":"Point","coordinates":[21.0271023,56.5241739]},"__memberLines":{}},{"type":"Feature","properties":{"station_id":"n11012838430","station_name":"Esperanto iela","station_name_local":"Esperanto iela","station_name_en":null,"city":"Liepaja","country":"Latvia","lines":["1. tramvaju maršruts"],"wikipedia":null,"is_terminus":false,"routes":[{"ref":"1. tramvaju maršruts","name":"1. tramvaju maršruts","route_color":null}],"pass_count":1,"station_degree":2,"codes":null,"merged_from":null,"merged_names":null,"is_interchange":false,"station_role":"normal"},"geometry":{"type":"Point","coordinates":[21.0150743,56.5160534]},"__memberLines":{}},{"type":"Feature","properties":{"station_id":"n11012919822","station_name":"Koncertzāle","station_name_local":"Koncertzāle","station_name_en":null,"city":"Liepaja","country":"Latvia","lines":["1. tramvaju maršruts"],"wikipedia":null,"merged_from":2,"merged_names":null,"is_terminus":false,"routes":[{"ref":"1. tramvaju maršruts","name":"1. tramvaju maršruts","route_color":null}],"pass_count":1,"station_degree":2,"codes":null,"is_interchange":false,"station_role":"normal"},"geometry":{"type":"Point","coordinates":[21.013785900000002,56.51092935]},"__memberLines":{}},{"type":"Feature","properties":{"station_id":"n11061083024","station_name":"Dzelzceļnieku iela","station_name_local":"Dzelzceļnieku iela","station_name_en":null,"city":"Liepaja","country":"Latvia","lines":["1. tramvaju maršruts"],"wikipedia":null,"is_terminus":false,"routes":[{"ref":"1. tramvaju maršruts","name":"1. tramvaju maršruts","route_color":null}],"pass_count":1,"station_degree":2,"codes":null,"merged_from":null,"merged_names":null,"is_interchange":false,"station_role":"normal"},"geometry":{"type":"Point","coordinates":[21.0216723,56.5218697]},"__memberLines":{}},{"type":"Feature","properties":{"station_id":"n11676327136","station_name":"Rožu laukums","station_name_local":"Rožu laukums","station_name_en":null,"city":"Liepaja","country":"Latvia","lines":["1. tramvaju maršruts"],"wikipedia":null,"merged_from":2,"merged_names":null,"is_terminus":false,"routes":[{"ref":"1. tramvaju maršruts","name":"1. tramvaju maršruts","route_color":null}],"pass_count":1,"station_degree":2,"codes":null,"is_interchange":false,"station_role":"normal"},"geometry":{"type":"Point","coordinates":[21.0110296,56.50834765]},"__memberLines":{}}]}