{"type":"FeatureCollection","features":[{"type":"Feature","properties":{"route_ref":"4","route_color":"#0e4094"},"geometry":{"type":"LineString","coordinates":[[12.4072389,51.3182339],[12.407237115254926,51.31791104916523],[12.40716548833713,51.31860792643065],[12.404884664539757,51.320511297575024],[12.4040359,51.3214648],[12.40484634913034,51.32064217919243],[12.404666050925476,51.320735275361685],[12.403307342857138,51.32241187857143],[12.401927698639097,51.323854574084706],[12.40176855140868,51.324237607924964],[12.403334690749718,51.32738119300545],[12.408211406025554,51.336074575984796],[12.408442647354825,51.33702195116024],[12.408197252372815,51.337567961065346],[12.407402830450923,51.33802393525936],[12.404749970062502,51.3381919197248],[12.401254679427941,51.33929332753141],[12.39333651010586,51.33903262422727],[12.387610390916622,51.33814313114856],[12.384334470749819,51.33829073790512],[12.382534741843815,51.338579081367115],[12.38041872881992,51.33918415204147],[12.380126952922112,51.33939184992682],[12.380273100000004,51.340154600000005],[12.381457576545944,51.34343221986131],[12.38134282329827,51.34358387411593],[12.380416901572655,51.3439800279423],[12.381663126640799,51.343454732156566],[12.38267785,51.343257875],[12.383007281816358,51.343070421297476],[12.382743817875628,51.34226888473223],[12.382492366666666,51.34017426666666],[12.382042152384109,51.33896464602702],[12.38216130298748,51.33869924486242],[12.382570070379996,51.33857119523867],[12.384601061531566,51.33826921173708],[12.387719655984341,51.33814756600196],[12.39321616531033,51.33901922605081],[12.4012527,51.3392934],[12.404745632270112,51.338190865356374],[12.405417131554527,51.33809316093236],[12.406710987532936,51.33811290536148],[12.407354738929923,51.33803543157109],[12.407795165558412,51.337864556196806],[12.4081985,51.3375667],[12.408442425880633,51.33702123633799],[12.40821225658734,51.33607427553921],[12.403346428466731,51.32740300448346],[12.401762417334162,51.324187650141724],[12.401878296852976,51.32391791703819],[12.40310237032914,51.32264227820618],[12.40480694253556,51.32058666897942],[12.406951998054046,51.31879999414966],[12.407421306824661,51.31824784712096],[12.407556123859942,51.31823940863785],[12.408114868864656,51.31776950192479]]}},{"type":"Feature","properties":{"route_ref":"2","route_color":"#0e4094"},"geometry":{"type":"LineString","coordinates":[[12.4072389,51.3182339],[12.407237115254926,51.31791104916523],[12.40716548833713,51.31860792643065],[12.404884664539757,51.320511297575024],[12.404036011277498,51.32146482495774],[12.40484634913034,51.32064217919243],[12.40380119384949,51.32154254187719],[12.402542306983475,51.32158721329257],[12.400914339503972,51.321835830672086],[12.399049900229466,51.322261907031795],[12.39769482256128,51.322728590168495],[12.39103605980642,51.32588786416413],[12.388582082386048,51.327531736760896],[12.38664734264843,51.328500813640964],[12.3839269,51.3296353],[12.381965355960919,51.33017244159143],[12.380692406668674,51.33088555619788],[12.377334091888185,51.33301772854643],[12.37738649898512,51.33335087070768],[12.378411423993763,51.335013176220734],[12.378529168521611,51.335698891603954],[12.378356779856365,51.33592594713031],[12.377937234733848,51.3360178563702],[12.37623008037382,51.335927859690145],[12.373557407089875,51.335612388255065],[12.3694248048146,51.33494075845914],[12.368415841524325,51.334888621676946],[12.368047132365204,51.33501298999263],[12.36604456317217,51.33635991293815],[12.362897171533787,51.338739381157424],[12.362608779194064,51.33887935941233],[12.362240171214369,51.33890575644486],[12.350886155807096,51.332827827951775],[12.35068927087737,51.33260875202499],[12.350676038313152,51.331804510154775],[12.35045053472579,51.331360687685056],[12.348626512615946,51.32907625680404],[12.347957158799952,51.32879277109169],[12.346819355824273,51.328914598566],[12.34643226858091,51.32881513556852],[12.34598794,51.32817334],[12.341301702894715,51.31925408160226],[12.340600840979661,51.31842410422257],[12.34017790421943,51.31835829351783],[12.339415340955071,51.31839534079881],[12.337176087153335,51.31898121203359],[12.334007917172034,51.31942091530698],[12.329928651131231,51.320296462923146],[12.318605745454546,51.320472145454545],[12.31798373042985,51.32040977826043],[12.317667844494595,51.32017494343043],[12.316839419803072,51.31488121092436],[12.31664861573079,51.314564163981466],[12.316202734939019,51.31439474851246],[12.31452209592741,51.314083045527376],[12.313602946553804,51.31399859376909],[12.312320962193214,51.31439264019902],[12.310652310825876,51.315248927812114],[12.309788675947086,51.315317438221655],[12.30379068443685,51.314502552997276],[12.301026891168654,51.31396160937414],[12.298992678753814,51.31367924220225],[12.296241415407126,51.31342648857344],[12.291302604569244,51.313194392796944],[12.28942614462416,51.31300095952603],[12.2812115,51.3114084],[12.280668658627944,51.31149317690528],[12.280109999999997,51.3119391]]}},{"type":"Feature","properties":{"route_ref":"15","route_color":"#0e4094"},"geometry":{"type":"MultiLineString","coordinates":[[[12.262418791131772,51.324438579302246],[12.262778703110065,51.324225942584334],[12.262807297729102,51.32367642677766],[12.26302717609711,51.3234898646343],[12.26617083998175,51.32308828230514],[12.266667379475773,51.32292728011911],[12.267040586017988,51.32264281880651],[12.267703831666678,51.32103249070546],[12.267328661269628,51.31978583553094],[12.267285700841212,51.31908918086607],[12.267712310032241,51.318057437541825],[12.268068129302772,51.31747420318193],[12.268273601938963,51.31736789301383],[12.268920721833462,51.31739191975715],[12.270399447698585,51.31763270208938],[12.276397008561238,51.318882668999265],[12.2772934,51.3190091],[12.277990945490728,51.31894053619471],[12.27848659284201,51.3189944309481],[12.279624766357365,51.31929826158867],[12.2827838484253,51.32047106802864],[12.290023438974526,51.3236795235953],[12.291801887509163,51.32418668006922],[12.293507198965925,51.324549840724025],[12.298888593280628,51.32502209495212],[12.301516261818383,51.32562154994586],[12.304383167969245,51.32653538209537],[12.30621587081024,51.326991231601895],[12.313700062995233,51.32994981561123],[12.321574009376826,51.33250592290628],[12.3241013983893,51.33348874173514],[12.326088255245404,51.33448170314589],[12.327970407207175,51.33522216179122],[12.328953727035653,51.33550705367677],[12.332684589283335,51.33604517398045],[12.332847582942197,51.33616500480706],[12.332870714105571,51.3364167888524],[12.332543266124274,51.33768741135913],[12.332844,51.33793070000001],[12.333315945249355,51.337911031425016],[12.334694481006547,51.33706970615292],[12.335521,51.336727],[12.335907523028125,51.336655721558245],[12.336369568591872,51.336696628462185],[12.340016613255791,51.337418105677926],[12.342040481268667,51.33841078500345],[12.342873143904386,51.33869921071338],[12.348407191814482,51.33984908296444],[12.357016736705525,51.34186405265644],[12.361072388967127,51.34231499139959],[12.367655708806131,51.34377866129392],[12.369790474163905,51.34418480073375],[12.370903827242195,51.34430297890072],[12.371266394515684,51.34449486639325],[12.371564260414614,51.34493940407105],[12.371150203698308,51.347245307266796],[12.371183922951229,51.34778481412442],[12.373305588619571,51.3513637441999],[12.37358731040843,51.35164157404429],[12.374229653534426,51.351708043576416],[12.374932107791357,51.35162481965311],[12.377181403001966,51.34961817811064],[12.377494604264607,51.34916970257788],[12.378792133102523,51.34597960605885],[12.37895376786581,51.34465702537347],[12.380272556372173,51.344014557373455],[12.378959653735295,51.34464893443497],[12.378739089559518,51.346119618538154],[12.377525449999998,51.34910614999999],[12.377091428624889,51.34973117011903],[12.374891105227785,51.351639310227036],[12.374109752441948,51.3516920965913],[12.37347334695084,51.35158956911095],[12.371186766036978,51.347783962397145],[12.371150354271704,51.34724467651494],[12.371565031860849,51.344959371198996],[12.3712802,51.344508],[12.370879021628703,51.344290949192214],[12.36964070969151,51.34415726180497],[12.367081929166668,51.343665425],[12.361069395061625,51.34231525276573],[12.357264336119371,51.34191627293535],[12.348767600000002,51.339962]],[[12.400888131199872,51.32537165062848],[12.401721782137221,51.3240554835865],[12.40484634913034,51.32064217919243],[12.404028699491425,51.321463512414375],[12.404204157294526,51.321223777627836],[12.405492463885432,51.31997117194195],[12.411789623082287,51.31464523940825],[12.42171231572879,51.308210654409315],[12.422957148299817,51.305795745948735],[12.42476101425465,51.304625949541105],[12.423402729554706,51.3054235937364],[12.422957370663108,51.30579562473535],[12.421712250306483,51.3082102683143],[12.411770652655239,51.31466182460745],[12.404964714772026,51.32042964033071],[12.401502521019326,51.3243458084516],[12.40032796894894,51.32624149669442],[12.399600685019907,51.32812154457122],[12.39911465707975,51.328964262097514],[12.398559591760703,51.3296007306884],[12.397364802486464,51.33064034088219],[12.391719592102634,51.334568998305144],[12.388464008670098,51.336432838010964],[12.38627435453588,51.33738955579062],[12.384783319276588,51.33818690531127],[12.382534741843815,51.338579081367115],[12.38041872881992,51.33918415204147],[12.380161030791555,51.339334927888935],[12.380273100000004,51.340154600000005],[12.381457576545944,51.34343221986131],[12.38134282329827,51.34358387411593],[12.3803031,51.3440444],[12.381663126640799,51.343454732156566],[12.382811503801387,51.343216588999226],[12.383019982939553,51.34303753358886],[12.382743817875628,51.34226888473223],[12.382492366666666,51.34017426666666],[12.382042152384109,51.33896464602702],[12.38216130298748,51.33869924486242],[12.384888613791215,51.3381490016948],[12.386067877140402,51.33749421134208],[12.38890716032699,51.3362047478106],[12.39222416,51.3342425],[12.394926908080055,51.33226846442856],[12.397160936765951,51.330791333302734],[12.39856099608802,51.32960252150717],[12.39918144925249,51.32887834368523],[12.399603533333332,51.328120600000005],[12.400148284691303,51.32660157954397],[12.400888419969334,51.32537170470702]],[[12.4400904,51.2944397],[12.439695966863566,51.294555730744726],[12.427454407876986,51.30307270164259],[12.424805883229345,51.30463404682568],[12.427456913751895,51.303071050341366],[12.44028288560076,51.2941286158923]]]}},{"type":"Feature","properties":{"route_ref":"7","route_color":"#0e4094"},"geometry":{"type":"MultiLineString","coordinates":[[[12.4790375,51.3466789],[12.479281149761578,51.354118617012695],[12.479097480448791,51.354765701656184],[12.47833798136248,51.35554736094739],[12.474150614306453,51.358477907915876],[12.471622808816415,51.36018491215445],[12.471334246408423,51.36032331271606],[12.470942243663243,51.360347498597626],[12.468475887101011,51.35992837663395],[12.466588107827668,51.35892474875429],[12.465303626011961,51.35852331449467],[12.462047484478642,51.35787086457624],[12.46130481115411,51.35753091641403],[12.460932760599936,51.35719267708156],[12.459729942901722,51.35535412774695],[12.459457444661455,51.353440784151125],[12.457942793392393,51.35046803367452],[12.457701243478262,51.348001499999995],[12.457947921556086,51.345916117878424],[12.457836016346572,51.34571988585736],[12.45758283284275,51.34561681136336],[12.455001282123376,51.345479710425685],[12.44980673071742,51.3455399905899],[12.448085362508403,51.34572024582228],[12.446066961660687,51.34618870499993],[12.4427623,51.3462294],[12.438061078444433,51.34575821886222],[12.435051084882927,51.34525775892204],[12.43424199308294,51.34502202286342],[12.433583730042766,51.34418309660645],[12.433095846048325,51.34400648230241],[12.428971241450954,51.3440399629415],[12.426588427828904,51.34348035395449],[12.42379120576395,51.343780845013576],[12.421144375696981,51.34367675347332],[12.418543836537355,51.34393979570943],[12.417969184428955,51.34390081031848],[12.415377891031742,51.34297531259361],[12.41265504183859,51.34247016950196],[12.411055669616871,51.34200005601073],[12.408389141561766,51.340205226098924],[12.408370638720823,51.34006251580555],[12.406843970479278,51.338292062164996],[12.4062999,51.3381066],[12.405213558898414,51.33810913334206],[12.404561177158325,51.33823183464159],[12.401800949957202,51.33917923430562],[12.401254679427941,51.33929332753141],[12.39333651010586,51.33903262422727],[12.389136662141075,51.33832936251949],[12.387425597349774,51.33814065781032],[12.38478131177674,51.33825624442149],[12.383021935186452,51.33847687110055],[12.38041872881992,51.33918415204147],[12.380126952922112,51.33939184992682],[12.380273100000004,51.340154600000005],[12.381457576545944,51.34343221986131],[12.38134282329827,51.34358387411593],[12.3803031,51.3440444],[12.381663126640799,51.343454732156566],[12.38267785,51.343257875],[12.383007281816358,51.343070421297476],[12.382743817875628,51.34226888473223],[12.382492366666666,51.34017426666666],[12.382042152384109,51.33896464602702],[12.38216130298748,51.33869924486242],[12.382570070379996,51.33857119523867],[12.384601061531566,51.33826921173708],[12.387719655984341,51.33814756600196],[12.39321616531033,51.33901922605081],[12.401052620516396,51.33930097262352],[12.401654771279519,51.339220787483775],[12.40456644515034,51.33823301062535],[12.405222247273308,51.33810812545753],[12.406016777427622,51.33808652346672],[12.406558977690239,51.33814400787563],[12.406826657104201,51.338275898105856],[12.408387264770168,51.340197678857805],[12.411129179825272,51.34203843088896],[12.412844756295108,51.342510312551866],[12.41551745951285,51.34301561651097],[12.418058969080853,51.343911482703724],[12.419196055219203,51.343890776110776],[12.421250150080654,51.34367308537887],[12.4237889,51.3437809],[12.426574779392146,51.34348043453684],[12.427226327902748,51.343571082447184],[12.4289549,51.3440392],[12.433094868637053,51.34400637223648],[12.433581353967964,51.344180648285196],[12.434192743105978,51.344983037480795],[12.434672457990004,51.34516983676752],[12.438188818850158,51.3457665616884],[12.442324531516556,51.34620872577193],[12.445897444586345,51.346205996950246],[12.44794137803968,51.34574581394426],[12.449730481249407,51.34554404950012],[12.455218760930308,51.34548240967385],[12.45763943315292,51.34562928091503],[12.457946832039722,51.34589323221888],[12.457712592840483,51.34740886749083],[12.457765518723336,51.34934377752123],[12.457945254208509,51.35047488501319],[12.459481149885372,51.353453601746956],[12.45973040448091,51.35535213268524],[12.4607603,51.35699590000001],[12.461353583453278,51.35756169967997],[12.462176322158834,51.35790675086041],[12.465390179326086,51.35854139420426],[12.466504339121204,51.35887491824868],[12.467490808207945,51.359335167013406],[12.469870590256058,51.360909999065974],[12.470194216858784,51.36098934448053],[12.470545770065181,51.36088989885294],[12.471827062175496,51.36006383042487],[12.477494023653868,51.35615838428092],[12.47850255012197,51.35543157282939],[12.479022885239747,51.35488029677472],[12.479253012889744,51.354002951116826],[12.479051178560125,51.34737514843895],[12.478955554142901,51.34692051320087],[12.478178633029737,51.346398388684]],[[12.306215395782862,51.35148419839546],[12.31011833238791,51.34939879112724],[12.312375311002,51.34852881380758],[12.313338243970007,51.34789558209952],[12.317910719809236,51.34587235973957],[12.318945740783311,51.3452753114297],[12.3209397,51.34368729999999],[12.323894783515644,51.34161007618952],[12.325867921501798,51.34007983523922],[12.327181309333316,51.338741916413724],[12.327385127997976,51.33748774757351],[12.328188410649998,51.33692691432799],[12.328629286152557,51.33679902320825],[12.331329159083454,51.33757850281192],[12.33303664385332,51.337956320771134],[12.333604817726965,51.33776480712786],[12.334594820265528,51.3371243350911],[12.335264890837676,51.33681983286071],[12.33575315404234,51.33666422418927],[12.336369568591872,51.336696628462185],[12.340016613255791,51.337418105677926],[12.342040481268667,51.33841078500345],[12.342873143904386,51.33869921071338],[12.348407191814482,51.33984908296444],[12.357016736705525,51.34186405265644],[12.361072388967127,51.34231499139959],[12.367655708806131,51.34377866129392],[12.369790474163905,51.34418480073375],[12.370903827242195,51.34430297890072],[12.371266394515684,51.34449486639325],[12.371564260414614,51.34493940407105],[12.371150203698308,51.347245307266796],[12.371183922951229,51.34778481412442],[12.373305588619571,51.3513637441999],[12.373670543629556,51.35165415570206],[12.374229653534426,51.351708043576416],[12.374932107791357,51.35162481965311],[12.377181403001966,51.34961817811064],[12.377494604264607,51.34916970257788],[12.378792133102523,51.34597960605885],[12.37895376786581,51.34465702537347],[12.380272556372173,51.344014557373455],[12.378959653735295,51.34464893443497],[12.378739089559518,51.346119618538154],[12.377525449999998,51.34910614999999],[12.377091428624889,51.34973117011903],[12.374891105227785,51.351639310227036],[12.374109752441948,51.3516920965913],[12.37347334695084,51.35158956911095],[12.371186766036978,51.347783962397145],[12.371150354271704,51.34724467651494],[12.371565031860849,51.344959371198996],[12.3712802,51.344508],[12.370879021628703,51.344290949192214],[12.36964070969151,51.34415726180497],[12.367081929166668,51.343665425],[12.361069395061625,51.34231525276573],[12.357264336119371,51.34191627293535],[12.348767600000002,51.339962]]]}},{"type":"Feature","properties":{"route_ref":"N17","route_color":"#0e4094"},"geometry":{"type":"MultiLineString","coordinates":[[[12.26009858414686,51.306391655440635],[12.262602590471175,51.306605250202686],[12.267119724048207,51.30742147635082],[12.274127758029909,51.309814219910166],[12.279547404092169,51.31107770644107],[12.289331,51.3129566],[12.291312333391392,51.313193445492914],[12.29842780348166,51.31360517935889],[12.300921337767322,51.313943187601],[12.303369208711816,51.31444224912754],[12.309991341462993,51.31532428266395],[12.310666217567167,51.31524341769749],[12.312093503409324,51.31447544489219],[12.313611465979287,51.313997559804776],[12.316202564662333,51.31439483278087],[12.316625571518287,51.314545180023906],[12.316837112110726,51.31487127481761],[12.31763776447253,51.3200448083308],[12.31775344406884,51.32030649467377],[12.317990999463426,51.32040956576239],[12.318593014523813,51.320470790828224],[12.329917460951695,51.3202938540665],[12.333855678661298,51.31943802716356],[12.337173948647692,51.31898044887149],[12.339401931610428,51.31839753452185],[12.34018010299997,51.31835779330014],[12.340622671438506,51.31843079542739],[12.341284372878693,51.31922038538164],[12.345899720864777,51.328036339348586],[12.346437370448383,51.32881158299146],[12.34682670467959,51.32891159351298],[12.347933414703537,51.328786779684165],[12.348530977217898,51.32899090812967],[12.34952214972424,51.330087320961624],[12.350424012362067,51.33131846698214],[12.350676620308581,51.33180314738359],[12.350692579348571,51.33261353084467],[12.3509059,51.332834033333334],[12.3621715,51.338883],[12.362436377823453,51.33890906552564],[12.362900123481463,51.338736073112464],[12.366047714285717,51.336356585714285],[12.367862845687998,51.335118527418494],[12.368499398910547,51.33487267468959],[12.369348879999997,51.334928700000006],[12.372652723482823,51.33547902958581],[12.376490699127675,51.33595605174781],[12.379351979361594,51.336071178149034],[12.379979338829292,51.33627705113435],[12.380576861924952,51.33669311754285],[12.381953771906247,51.33875456512322],[12.382506726820523,51.3400761199805],[12.382767015738288,51.34213247116155],[12.383302893859566,51.343212219851644],[12.383540384525457,51.34332031229762],[12.384755811366253,51.343487211607886],[12.386228641132845,51.34347033468595],[12.38672933273742,51.34355229531737],[12.392433363549003,51.34535887315601],[12.393280012742283,51.344977596526775],[12.394253899668394,51.34399885271192],[12.395107549518746,51.34351367735273],[12.397201766509665,51.342840773096995],[12.399350183176319,51.34229133387562],[12.400108,51.3418927],[12.401001322858693,51.34118703939435],[12.402800676535914,51.338838614443425],[12.401256461899361,51.340904974353826],[12.400231831542376,51.34181450293548],[12.399353969428663,51.34228868135414],[12.3960408,51.3431826],[12.394849399272815,51.34363454282666],[12.3943099861303,51.34394999482243],[12.393247455175937,51.34499606688843],[12.39245213069814,51.345358118173856],[12.386857411152182,51.34358344318483],[12.386231340513628,51.34347006622067],[12.3850726,51.3435124],[12.383670415451805,51.343357507821146],[12.383320466539551,51.34324195735728],[12.38279732146249,51.34226531267753],[12.382508912619489,51.340085799776716],[12.381956622794833,51.338756520964154],[12.380573703849121,51.336701326373],[12.379975945070761,51.336275853868784],[12.3794256,51.33609189999999],[12.37623008037382,51.335927859690145],[12.373557407089875,51.335612388255065],[12.3694248048146,51.33494075845914],[12.368415841524325,51.334888621676946],[12.368047132365204,51.33501298999263],[12.36604456317217,51.33635991293815],[12.362897171533787,51.338739381157424],[12.362608779194064,51.33887935941233],[12.362240171214369,51.33890575644486],[12.350886155807096,51.332827827951775],[12.35068927087737,51.33260875202499],[12.350676038313152,51.331804510154775],[12.35045053472579,51.331360687685056],[12.348626512615946,51.32907625680404],[12.347957158799952,51.32879277109169],[12.346819355824273,51.328914598566],[12.34643226858091,51.32881513556852],[12.34598794,51.32817334],[12.341301702894715,51.31925408160226],[12.340600840979661,51.31842410422257],[12.34017790421943,51.31835829351783],[12.339415340955071,51.31839534079881],[12.337176087153335,51.31898121203359],[12.334007917172034,51.31942091530698],[12.329928651131231,51.320296462923146],[12.318605745454546,51.320472145454545],[12.31798373042985,51.32040977826043],[12.317667844494595,51.32017494343043],[12.316839419803072,51.31488121092436],[12.31664861573079,51.314564163981466],[12.316202734939019,51.31439474851246],[12.31452209592741,51.314083045527376],[12.313602946553804,51.31399859376909],[12.312320962193214,51.31439264019902],[12.310652310825876,51.315248927812114],[12.309788675947086,51.315317438221655],[12.30379068443685,51.314502552997276],[12.301026891168654,51.31396160937414],[12.298992678753814,51.31367924220225],[12.296241415407126,51.31342648857344],[12.291302604569244,51.313194392796944],[12.28942614462416,51.31300095952603],[12.279536109041192,51.311075224842185],[12.274674761965171,51.30995952201974],[12.267293398562273,51.30746797299535],[12.262514947881185,51.30659471145486],[12.2599642,51.30645079999999]],[[12.469028025999341,51.3600994909546],[12.468416952756028,51.3599428573284],[12.467329911007619,51.35926168129515],[12.4660146,51.3587371],[12.465156111421878,51.358491393219914],[12.46252661758303,51.35800339832145],[12.461733907284621,51.357766031847305],[12.46114776422024,51.357408391385086],[12.460747978323337,51.356978456459565],[12.459729942901722,51.35535412774695],[12.459457444661455,51.353440784151125],[12.458163031244263,51.35106508786676],[12.457912214416545,51.350355516008456],[12.457701243478262,51.348001499999995],[12.457947921556086,51.345916117878424],[12.457756381924806,51.3456677964542],[12.455001282123376,51.345479710425685],[12.44980673071742,51.3455399905899],[12.448085362508403,51.34572024582228],[12.446570387541035,51.34609069397179],[12.44549185,51.346239600000004],[12.44180951677214,51.346169448955436],[12.438061078444433,51.34575821886222],[12.435051084882927,51.34525775892204],[12.43424199308294,51.34502202286342],[12.4334366809992,51.34408697367624],[12.433095846048325,51.34400648230241],[12.4324651,51.3440313],[12.433094868637053,51.34400637223648],[12.433436098108237,51.344086071483545],[12.434241290046378,51.345018442359475],[12.435048568513896,51.34525698536895],[12.438188818850158,51.3457665616884],[12.442324531516556,51.34620872577193],[12.445897444586345,51.346205996950246],[12.44794137803968,51.34574581394426],[12.449730481249407,51.34554404950012],[12.455218760930308,51.34548240967385],[12.457775638639815,51.3456762512918],[12.457946832039722,51.34589323221888],[12.457712592840483,51.34740886749083],[12.457914607967133,51.35036255012145],[12.458213476896214,51.35115665718885],[12.459481149885372,51.353453601746956],[12.45973040448091,51.35535213268524],[12.4607603,51.35699590000001],[12.461353583453278,51.35756169967997],[12.462176322158834,51.35790675086041],[12.465390179326086,51.35854139420426],[12.466504339121204,51.35887491824868],[12.467490808207945,51.359335167013406],[12.469133612369719,51.3603959960146]],[[12.42190493076042,51.34372407659486],[12.4237889,51.3437809],[12.426574779392146,51.34348043453684],[12.427226327902748,51.343571082447184],[12.4289549,51.3440392],[12.432455031389575,51.344001094168725],[12.428921236958132,51.34403587441724],[12.427076615401342,51.34353837401302],[12.426588427828904,51.34348035395449],[12.42379120576395,51.343780845013576],[12.421920142000937,51.34373059210471],[12.421594630035141,51.34390692884091],[12.42157611779926,51.34458754058093],[12.421326094764852,51.34474873582345],[12.414485935076295,51.34505254970177],[12.414054245909634,51.344888746211005],[12.413253426813277,51.344342915151444],[12.410888134935144,51.3419065031867],[12.408389141561766,51.340205226098924],[12.40728882842674,51.338786142842885],[12.406675319202517,51.33818916377368],[12.406020141708918,51.338086844463994],[12.405213558898414,51.33810913334206],[12.404287786136111,51.33831359250883],[12.402808418849965,51.33883881173545],[12.404290391076838,51.33831087438557],[12.405103752818453,51.33812564843455],[12.406016777427622,51.33808652346672],[12.40667213003585,51.33818299329918],[12.407147128571422,51.338604142857136],[12.408387264770168,51.340197678857805],[12.411130595653256,51.342097275867445],[12.41324814697238,51.3443435691322],[12.414405661709052,51.34503685918795],[12.415025036068297,51.34506967794701],[12.421334701122234,51.34474563253474],[12.421571623948253,51.34457824114108],[12.42159877781372,51.34388441076966],[12.42190610378334,51.34372611863943]]]}},{"type":"Feature","properties":{"route_ref":"11","route_color":"#0e4094"},"geometry":{"type":"MultiLineString","coordinates":[[[12.39536385864218,51.282553793790754],[12.394478760304134,51.284901920850004],[12.392540866653132,51.287381208681126],[12.392052905977074,51.288958405345944],[12.390845005173423,51.29007297409537],[12.39026163452195,51.29094462516884],[12.389663009438209,51.2913765624232],[12.388694999999993,51.29259125],[12.386465474459891,51.29480617930383],[12.385557512812696,51.29692872796519],[12.383567513880653,51.30280653568651],[12.382110904295649,51.30420700521297],[12.38079047070203,51.30638873586196],[12.380232258573415,51.30695803300639],[12.379656358598918,51.30733637382527],[12.376692332762687,51.3084273508817],[12.373832621628504,51.30974637678597],[12.373373221787409,51.31002071695204],[12.373233649541882,51.310231311616505],[12.373479290837986,51.321218484203435],[12.37373867142857,51.3263018],[12.373400071692716,51.32877568459814],[12.373742787790254,51.331376429962404],[12.373693458030647,51.33351326649104],[12.374277841000458,51.33543123540839],[12.374474928482277,51.33564296820191],[12.376490699127675,51.33595605174781],[12.37886100252133,51.33602601645346],[12.379736885729121,51.33617577778817],[12.380576861924952,51.33669311754285],[12.38154039056523,51.33806088233576],[12.382445133781932,51.339855789563146],[12.382774358821807,51.342253524216034],[12.383050899999999,51.343018],[12.3828561853177,51.34320911099622],[12.381473432520782,51.343542178841574],[12.3803031,51.3440444],[12.38142636476843,51.343553845633906],[12.382687392402513,51.34327248109635],[12.383050557107103,51.3429961133127],[12.382785948425767,51.34226607197446],[12.382451655058768,51.33987300802492],[12.381641801228499,51.33822433554726],[12.380657505504665,51.33679002276975],[12.37974594996552,51.33617746226854],[12.379064608055174,51.336041317203325],[12.37623008037382,51.335927859690145],[12.374449000352785,51.33562867073244],[12.374276021436177,51.335426792883965],[12.373668967177137,51.333438958517874],[12.373750770854441,51.331568032286484],[12.373381673892002,51.32869484895074],[12.373737518418173,51.32670717684965],[12.373478977181776,51.32122952382655],[12.373239351323324,51.3102011452542],[12.373435216842038,51.30997023190019],[12.37388127768435,51.309723393547834],[12.376327829656411,51.308584513415006],[12.379155630782686,51.30755313611711],[12.380145329372164,51.30702783690004],[12.380868989295038,51.30627385332257],[12.382134827408189,51.304163906128636],[12.383540814961014,51.30283575589281],[12.385592313147912,51.29682592530058],[12.386416026881212,51.2948828378099],[12.388771195616954,51.29250168149525],[12.389663201843133,51.291377942739814],[12.390348231056398,51.2908519997187],[12.390840854312343,51.290074769372765],[12.391994575214932,51.289035804989645],[12.392582510243502,51.287309955942014],[12.394473938545273,51.28490483014591],[12.394999855121027,51.283746545132274],[12.395318630136789,51.282619073300864],[12.395850566666667,51.281737699999994],[12.3962292,51.280659166666666],[12.39632989343248,51.279737305985925],[12.39596065,51.278746649999995],[12.3959248,51.27822675],[12.396525654122517,51.27615419685639],[12.397352460865957,51.27546514582185],[12.397717765749336,51.27542691343121],[12.39787771802389,51.27569229497369]],[[12.378574971344452,51.37555217813502],[12.378356817962649,51.3755033393746],[12.378116566666668,51.37527163333333],[12.3764550997319,51.368934888783265],[12.375054984469235,51.364188187828276],[12.373781896224044,51.36324739873498],[12.37408037757111,51.36348753126447],[12.370648939187861,51.36133432568921],[12.36836426061199,51.35891899347841],[12.367765006471682,51.35841928272026],[12.3684752860976,51.35773367098968],[12.368915986354741,51.35693003510801],[12.369711830512783,51.35607668952911],[12.373103034405736,51.3533386141449],[12.373370354277707,51.35290883039791],[12.373509119775512,51.35183973647927],[12.373803208591575,51.351700082472284],[12.374932107791357,51.35162481965311],[12.377181403001966,51.34961817811064],[12.377494604264607,51.34916970257788],[12.378792133102523,51.34597960605885],[12.37895376786581,51.34465702537347],[12.380272556372173,51.344014557373455],[12.378959653735295,51.34464893443497],[12.378739089559518,51.346119618538154],[12.377525449999998,51.34910614999999],[12.377091428624889,51.34973117011903],[12.37498383403246,51.35158658592755],[12.374728892691286,51.35168479536076],[12.3738755,51.3516952],[12.37353402895625,51.35185907832111],[12.3733185,51.35306],[12.37315730140793,51.353280744685954],[12.369893720271161,51.35591418899463],[12.368946900000001,51.356891866666665],[12.368497571832341,51.357706167707384],[12.367758523178685,51.35839487339466],[12.36784006352796,51.3585558134543],[12.368434455741703,51.35897113413464],[12.370641147923093,51.36132900611147],[12.375043152516293,51.36417169159809],[12.376483929718917,51.36903153762571],[12.377872921155403,51.37444317516099],[12.377987435873681,51.37471621202254],[12.3784417,51.3748803]]]}},{"type":"Feature","properties":{"route_ref":"11E","route_color":"#0e4094"},"geometry":{"type":"MultiLineString","coordinates":[[[12.3941382,51.285374000000004],[12.393129121080136,51.28651889771743],[12.392540866653132,51.287381208681126],[12.391995598320898,51.28903491637968],[12.390845005173423,51.29007297409537],[12.39026163452195,51.29094462516884],[12.389663009438209,51.2913765624232],[12.388694999999993,51.29259125],[12.386465474459891,51.29480617930383],[12.385557512812696,51.29692872796519],[12.383567513880653,51.30280653568651],[12.382110904295649,51.30420700521297],[12.380594757390787,51.30662586952247],[12.379656358598918,51.30733637382527],[12.376692332762687,51.3084273508817],[12.373832621628504,51.30974637678597],[12.373373221787409,51.31002071695204],[12.373233649541882,51.310231311616505],[12.373479290837986,51.321218484203435],[12.37373867142857,51.3263018],[12.373400071692716,51.32877568459814],[12.373742787790254,51.331376429962404],[12.373693458030647,51.33351326649104],[12.374277841000458,51.33543123540839],[12.374474928482277,51.33564296820191],[12.376490699127675,51.33595605174781],[12.37886100252133,51.33602601645346],[12.379736885729121,51.33617577778817],[12.380576861924952,51.33669311754285],[12.38154039056523,51.33806088233576],[12.382445133781932,51.339855789563146],[12.382774358821807,51.342253524216034],[12.383050899999999,51.343018],[12.3828561853177,51.34320911099622],[12.381473432520782,51.343542178841574],[12.3803031,51.3440444],[12.38142636476843,51.343553845633906],[12.382687392402513,51.34327248109635],[12.383050557107103,51.3429961133127],[12.382785948425767,51.34226607197446],[12.382451655058768,51.33987300802492],[12.381641801228499,51.33822433554726],[12.380657505504665,51.33679002276975],[12.37974594996552,51.33617746226854],[12.379064608055174,51.336041317203325],[12.37623008037382,51.335927859690145],[12.374449000352785,51.33562867073244],[12.374276021436177,51.335426792883965],[12.373668967177137,51.333438958517874],[12.373750770854441,51.331568032286484],[12.373381673892002,51.32869484895074],[12.373737518418173,51.32670717684965],[12.373478977181776,51.32122952382655],[12.373239351323324,51.3102011452542],[12.373435216842038,51.30997023190019],[12.37388127768435,51.309723393547834],[12.376327829656411,51.308584513415006],[12.37965372228045,51.307335149953275],[12.380620571796223,51.3065971760894],[12.38195601608526,51.30439579986109],[12.383623014769164,51.30268594207736],[12.385592313147912,51.29682592530058],[12.386416026881212,51.2948828378099],[12.388771195616954,51.29250168149525],[12.389663201843133,51.291377942739814],[12.390348231056398,51.2908519997187],[12.390840854312343,51.290074769372765],[12.391994575214932,51.289035804989645],[12.392582510243502,51.287309955942014],[12.39319327244122,51.28643407018191],[12.394403024391119,51.285077607399984],[12.3948541,51.2840243]],[[12.378574971344452,51.37555217813502],[12.378356817962649,51.3755033393746],[12.378116566666668,51.37527163333333],[12.3764550997319,51.368934888783265],[12.375054984469235,51.364188187828276],[12.373781896224044,51.36324739873498],[12.37408037757111,51.36348753126447],[12.370648939187861,51.36133432568921],[12.36836426061199,51.35891899347841],[12.367765006471682,51.35841928272026],[12.3684752860976,51.35773367098968],[12.368915986354741,51.35693003510801],[12.369711830512783,51.35607668952911],[12.373103034405736,51.3533386141449],[12.373370354277707,51.35290883039791],[12.373509119775512,51.35183973647927],[12.373803208591575,51.351700082472284],[12.374932107791357,51.35162481965311],[12.377181403001966,51.34961817811064],[12.377494604264607,51.34916970257788],[12.378792133102523,51.34597960605885],[12.37895376786581,51.34465702537347],[12.380272556372173,51.344014557373455],[12.378959653735295,51.34464893443497],[12.378739089559518,51.346119618538154],[12.377525449999998,51.34910614999999],[12.377091428624889,51.34973117011903],[12.37498383403246,51.35158658592755],[12.374728892691286,51.35168479536076],[12.3738755,51.3516952],[12.37353402895625,51.35185907832111],[12.3733185,51.35306],[12.37315730140793,51.353280744685954],[12.369893720271161,51.35591418899463],[12.368946900000001,51.356891866666665],[12.368497571832341,51.357706167707384],[12.367758523178685,51.35839487339466],[12.36784006352796,51.3585558134543],[12.368434455741703,51.35897113413464],[12.370641147923093,51.36132900611147],[12.375043152516293,51.36417169159809],[12.376483929718917,51.36903153762571],[12.377872921155403,51.37444317516099],[12.377987435873681,51.37471621202254],[12.3784417,51.3748803]]]}},{"type":"Feature","properties":{"route_ref":"16","route_color":"#0e4094"},"geometry":{"type":"MultiLineString","coordinates":[[[12.39515583188803,51.39695256704224],[12.39406714788225,51.397051279758806],[12.39350926234117,51.396997087763296],[12.37791338662534,51.39384164861906],[12.3756003,51.3932124],[12.375328981030549,51.393042414629655],[12.375215878096434,51.392818055992315],[12.375360718157781,51.392514121363796],[12.376570859822458,51.39128255347588],[12.377403584109786,51.389808925135796],[12.380806818934087,51.38461858259384],[12.383949155268411,51.38067820851966],[12.385007199999997,51.37833085],[12.38532315,51.377018650000004],[12.386080588888888,51.3689852888889],[12.3860459,51.36811380000001],[12.385591344728484,51.36610112341224],[12.381849445289523,51.362435828656245],[12.379522079999997,51.35965052],[12.377127261604906,51.357198019164905],[12.376797702280694,51.35661277349026],[12.37648800796317,51.35041183842679],[12.377494604264607,51.34916970257788],[12.378792133102523,51.34597960605885],[12.37895376786581,51.34465702537347],[12.380272556372173,51.344014557373455],[12.378959653735295,51.34464893443497],[12.378821561279336,51.34586582614882],[12.377525449999998,51.34910614999999],[12.376498018807949,51.35034490674907],[12.376808729844527,51.35670218119207],[12.377125478775739,51.35719618978154],[12.380064001279713,51.36026920435335],[12.381847636510788,51.362435164844705],[12.384087322259195,51.36453034519499],[12.385620877435482,51.36616502864553],[12.3860754,51.3685893],[12.385374618743766,51.37655439684906],[12.385075447940496,51.3781656196302],[12.383942591924386,51.380690638016276],[12.380805374103772,51.38462119583832],[12.37735396,51.38988574],[12.3766341823557,51.39119372876161],[12.375324815963756,51.39256183265971],[12.3752424801957,51.39292196615557],[12.37540349862304,51.39310769797832],[12.37579130316453,51.3932852220158],[12.37729162053668,51.39370703037529],[12.393798222707364,51.397060930969104],[12.394091059399189,51.39719636234594],[12.39440115921452,51.39762852262274],[12.394801754363103,51.39774578501986],[12.395367367380961,51.39769895876162]],[[12.396529835160479,51.2957165634784],[12.396205196794376,51.29604709863851],[12.396138262599457,51.296482132417395],[12.39632378952566,51.30086314148769],[12.3963818,51.3090976],[12.396036396250468,51.31083893204488],[12.394399620541828,51.31434547920563],[12.394301190063102,51.31483360459679],[12.394935423530109,51.319507057769485],[12.394609522349372,51.320142067130824],[12.393044890307067,51.32161080565702],[12.392510055883285,51.322272426383],[12.392742296978865,51.32257412757968],[12.395203314064345,51.32353302416122],[12.395291940134094,51.32369186205855],[12.3951932,51.32392],[12.395290878086533,51.32369797374951],[12.395111616880008,51.32348077151535],[12.392938503826494,51.32268724586653],[12.392506969657248,51.32234124551385],[12.392917687783187,51.32174773895188],[12.394608566515688,51.320143808931896],[12.394935571765016,51.319507398633206],[12.394323215688182,51.31460563247721],[12.396018595017093,51.31088663410365],[12.396405798610537,51.308705395804346],[12.396326719503246,51.30083557866403],[12.396140050036939,51.29650502992093]],[[12.379069892260047,51.33602573403217],[12.378765612279171,51.33592693243888],[12.378533045994352,51.3356096972569],[12.378561528054533,51.33526992013091],[12.378311800424187,51.33477839893141],[12.377331293304408,51.33324619039483],[12.37733030514367,51.33302305510946],[12.377576697139911,51.33280000072443],[12.381579571428574,51.330357328571424],[12.382329761005552,51.33004006235397],[12.383559215328926,51.32976840883825],[12.386619548427598,51.32851318768587],[12.388700239901178,51.32745779555903],[12.391037036766498,51.32588864666917],[12.395161744602111,51.32389682086631],[12.39103605980642,51.32588786416413],[12.388582082386048,51.327531736760896],[12.38664734264843,51.328500813640964],[12.3839269,51.3296353],[12.383009286338735,51.32993259656182],[12.382340875921916,51.33003904990414],[12.38153570386519,51.33038092359743],[12.377598025796624,51.332781303096056],[12.377334091888185,51.33301772854643],[12.377329087171614,51.333237822781285],[12.378444621945512,51.33497572471214],[12.378714860785477,51.3358751653306],[12.3790913,51.336027599999994]],[[12.381250077167234,51.34363932217397],[12.3803031,51.3440444],[12.38142636476843,51.343553845633906],[12.382687392402513,51.34327248109635],[12.383044119738937,51.3430218843141],[12.382785948425767,51.34226607197446],[12.382451655058768,51.33987300802492],[12.381956622794833,51.338756520964154],[12.380657505504665,51.33679002276975],[12.379975945070761,51.336275853868784],[12.37934841355701,51.336074083484],[12.37902474018066,51.33607159350395],[12.379128676659734,51.33601977541624],[12.38012244887576,51.33635640939794],[12.380889872824474,51.33705721431092],[12.382002621652788,51.3388433916195],[12.38246999101784,51.33994289681141],[12.382774358821807,51.342253524216034],[12.383046651893777,51.34303123850207],[12.382914965650913,51.3431816072062],[12.382546780263205,51.34332119755428],[12.381250901061701,51.34363944508217]]]}},{"type":"Feature","properties":{"route_ref":"N10","route_color":"#0e4094"},"geometry":{"type":"LineString","coordinates":[[12.396604471049297,51.29575495501364],[12.396214599999997,51.2961029],[12.396138262599457,51.296482132417395],[12.39632378952566,51.30086314148769],[12.396407989999998,51.30849448],[12.396329305206281,51.30953598614482],[12.396090880396514,51.30993373979638],[12.39549047842826,51.30997103694065],[12.393988756727115,51.30957575118451],[12.392926597221651,51.30942869093516],[12.388664787308743,51.30919373681065],[12.387734449722725,51.30921063264673],[12.383033560056576,51.30982249412577],[12.37937774374649,51.31009382379955],[12.378470588987378,51.30970255345813],[12.375704080958998,51.309023173459586],[12.375049598422518,51.30918743403828],[12.373832621628504,51.30974637678597],[12.37324637356312,51.31018534123741],[12.373479290837986,51.321218484203435],[12.37373867142857,51.3263018],[12.373400071692716,51.32877568459814],[12.373742787790254,51.331376429962404],[12.373693458030647,51.33351326649104],[12.374277841000458,51.33543123540839],[12.374474928482277,51.33564296820191],[12.376490699127675,51.33595605174781],[12.37886100252133,51.33602601645346],[12.379638251570299,51.3361434365872],[12.380576861924952,51.33669311754285],[12.381175659788804,51.337483690413656],[12.38238914879286,51.33968233522374],[12.382700995287452,51.34111827995281],[12.382774358821807,51.342253524216034],[12.383050899999999,51.343018],[12.38268287379791,51.34327247123493],[12.381473432520782,51.343542178841574],[12.380416901572655,51.3439800279423],[12.38142636476843,51.343553845633906],[12.382687392402513,51.34327248109635],[12.383050557107103,51.3429961133127],[12.382785948425767,51.34226607197446],[12.382389406968969,51.33968309791423],[12.381175022982758,51.33748366381245],[12.380470019396087,51.336606277020515],[12.379582329280508,51.33612622555201],[12.378809279161874,51.336023928748105],[12.37623008037382,51.335927859690145],[12.374449000352785,51.33562867073244],[12.374276021436177,51.335426792883965],[12.373668967177137,51.333438958517874],[12.373750770854441,51.331568032286484],[12.373381673892002,51.32869484895074],[12.373737518418173,51.32670717684965],[12.373478977181776,51.32122952382655],[12.373239351323324,51.3102011452542],[12.373435216842038,51.30997023190019],[12.374091896872162,51.30962379429346],[12.375194221125183,51.30913632662457],[12.37574529029085,51.309018574162934],[12.378453388889865,51.30968091635007],[12.3792229763586,51.310052967375164],[12.379515203337156,51.31009661544772],[12.383510784240448,51.309770689171714],[12.387817135382452,51.30920678029411],[12.392938772316418,51.30942992021058],[12.394423534473129,51.30965987562027],[12.3956526,51.3099932],[12.396112942353206,51.309921908227935],[12.3962818058676,51.30962127189945],[12.396405798610537,51.308705395804346],[12.396326719503246,51.30083557866403],[12.396140050036939,51.29650502992093]]}},{"type":"Feature","properties":{"route_ref":"14","route_color":"#0e4094"},"geometry":{"type":"MultiLineString","coordinates":[[[12.3810848,51.384315199999996],[12.383949155268411,51.38067820851966],[12.385182411528254,51.377803956868206],[12.386080588888888,51.3689852888889],[12.3860459,51.36811380000001],[12.385673404812117,51.3663231642835],[12.385310083233259,51.36563296302539],[12.385881896563252,51.364690980588286],[12.38624097045438,51.36087027250089],[12.386942204717062,51.35853346080227],[12.387552520681144,51.35702573267272],[12.390713413943354,51.3555176226355],[12.391107873629727,51.35518762582171],[12.39085423076923,51.3548846923077],[12.389707546953217,51.35409389284194],[12.388767666666663,51.35360693333333],[12.383949529120134,51.352073070502264],[12.381790667527948,51.35097326084428],[12.379102702467238,51.35066736443247],[12.377448259206604,51.349690180501945],[12.377441828460464,51.34926991503316],[12.378819572768899,51.34589462836654],[12.37893908375454,51.34468386478715],[12.380272556372173,51.344014557373455],[12.378946494168616,51.344673226774965],[12.378821561279336,51.34586582614882],[12.377422451417656,51.34926869971006],[12.377455707347835,51.3496936437036],[12.379101509406098,51.35067018460833],[12.381797563360651,51.3509758990114],[12.3838333449118,51.3520253442226],[12.388744605458106,51.353599737820566],[12.38983309906209,51.3541794447574],[12.39085643169141,51.354886446976415],[12.391106012568981,51.3552221141969],[12.390753768010683,51.35549831831801],[12.388005754545457,51.35674637272727],[12.387537244516178,51.3570417760302],[12.38645256666667,51.36000206666666],[12.3862337,51.3609263],[12.3858788,51.3647124],[12.385311527297747,51.36563633658585],[12.385673301551908,51.36632276748957],[12.3860754,51.3685893],[12.385232515222981,51.377569619117295],[12.385075447940496,51.3781656196302],[12.383942591924386,51.380690638016276],[12.380311993882026,51.38536456679535],[12.380464823871282,51.38565729814378],[12.381100246472087,51.38587195201297]],[[12.376626711348472,51.335971509237005],[12.379306082559395,51.33606529003982],[12.38012244887576,51.33635640939794],[12.380889872824474,51.33705721431092],[12.382294979913244,51.339435331647245],[12.383027263254853,51.34308274852218],[12.382546780263205,51.34332119755428],[12.381473432520782,51.343542178841574],[12.3803031,51.3440444],[12.38142636476843,51.343553845633906],[12.382687392402513,51.34327248109635],[12.383044119738937,51.3430218843141],[12.382785948425767,51.34226607197446],[12.382508912619489,51.340085799776716],[12.381956622794833,51.338756520964154],[12.380895691875384,51.337066416055876],[12.380470019396087,51.336606277020515],[12.379975945070761,51.336275853868784],[12.379064608055174,51.336041317203325],[12.377097340802651,51.33600568488662],[12.375592799999998,51.335856]]]}},{"type":"Feature","properties":{"route_ref":"1","route_color":"#0e4094"},"geometry":{"type":"MultiLineString","coordinates":[[[12.26009858414686,51.306391655440635],[12.262602590471175,51.306605250202686],[12.267119724048207,51.30742147635082],[12.274127758029909,51.309814219910166],[12.279547404092169,51.31107770644107],[12.289331,51.3129566],[12.291312333391392,51.313193445492914],[12.29842780348166,51.31360517935889],[12.300921337767322,51.313943187601],[12.303369208711816,51.31444224912754],[12.309991341462993,51.31532428266395],[12.310666217567167,51.31524341769749],[12.312093503409324,51.31447544489219],[12.313611465979287,51.313997559804776],[12.316202564662333,51.31439483278087],[12.316625571518287,51.314545180023906],[12.316837112110726,51.31487127481761],[12.31763776447253,51.3200448083308],[12.31775344406884,51.32030649467377],[12.317990999463426,51.32040956576239],[12.318593014523813,51.320470790828224],[12.329917460951695,51.3202938540665],[12.333855678661298,51.31943802716356],[12.337173948647692,51.31898044887149],[12.339401931610428,51.31839753452185],[12.34018010299997,51.31835779330014],[12.340622671438506,51.31843079542739],[12.341284372878693,51.31922038538164],[12.345899720864777,51.328036339348586],[12.346437370448383,51.32881158299146],[12.34682670467959,51.32891159351298],[12.347933414703537,51.328786779684165],[12.348530977217898,51.32899090812967],[12.34952214972424,51.330087320961624],[12.350424012362067,51.33131846698214],[12.350676620308581,51.33180314738359],[12.350692579348571,51.33261353084467],[12.3509059,51.332834033333334],[12.361621340964371,51.33861985529977],[12.36281765645108,51.339095299058656],[12.361737950000006,51.33869995],[12.350886155807096,51.332827827951775],[12.35068927087737,51.33260875202499],[12.350676038313152,51.331804510154775],[12.35045053472579,51.331360687685056],[12.348626512615946,51.32907625680404],[12.347957158799952,51.32879277109169],[12.346819355824273,51.328914598566],[12.34643226858091,51.32881513556852],[12.34598794,51.32817334],[12.341301702894715,51.31925408160226],[12.340600840979661,51.31842410422257],[12.34017790421943,51.31835829351783],[12.339415340955071,51.31839534079881],[12.337176087153335,51.31898121203359],[12.334007917172034,51.31942091530698],[12.329928651131231,51.320296462923146],[12.318605745454546,51.320472145454545],[12.31798373042985,51.32040977826043],[12.317667844494595,51.32017494343043],[12.316839419803072,51.31488121092436],[12.31664861573079,51.314564163981466],[12.316202734939019,51.31439474851246],[12.31452209592741,51.314083045527376],[12.313602946553804,51.31399859376909],[12.312320962193214,51.31439264019902],[12.310652310825876,51.315248927812114],[12.309788675947086,51.315317438221655],[12.30379068443685,51.314502552997276],[12.301026891168654,51.31396160937414],[12.298992678753814,51.31367924220225],[12.296241415407126,51.31342648857344],[12.291302604569244,51.313194392796944],[12.28942614462416,51.31300095952603],[12.279536109041192,51.311075224842185],[12.274674761965171,51.30995952201974],[12.267293398562273,51.30746797299535],[12.262514947881185,51.30659471145486],[12.2599642,51.30645079999999]],[[12.412745526980222,51.37488720480545],[12.412357794272337,51.374713103620145],[12.411002850000003,51.373402575],[12.402485475000004,51.364815099999994],[12.402028785302782,51.36430851709422],[12.402020882354744,51.36410773064989],[12.402190231858976,51.36400486315609],[12.403146390643267,51.36393183345711],[12.403954096116408,51.36373221853792],[12.406002898321285,51.36286269016791],[12.406471259823002,51.36243148322083],[12.407627004851078,51.36081506326336],[12.408245159281929,51.360259690031874],[12.40868896933874,51.36001046216149],[12.410371869040688,51.359722714040494],[12.41514452963719,51.359350311303636],[12.417279500914812,51.35927787161533],[12.417562907516828,51.35910836445133],[12.41756229731789,51.3586953211252],[12.417252999227271,51.358147478575845],[12.415840798453011,51.356423808849584],[12.414288467806573,51.355533684576976],[12.407949444136879,51.35146788359489],[12.40741747701627,51.35120912852442],[12.406355041373027,51.35091069845822],[12.405911186405454,51.35066814466039],[12.405856215384617,51.350048438461535],[12.40619394437927,51.347617960936056],[12.405857991154704,51.34562319554649],[12.405194911944838,51.345541722748635],[12.394469467291474,51.34610867738893],[12.39345354164675,51.34585282137758],[12.39078255932275,51.344826123961525],[12.386515879298978,51.34350925268006],[12.385162545714435,51.343534300628065],[12.383512932249952,51.34333408452427],[12.382064856426705,51.343415536128056],[12.381473432520782,51.343542178841574],[12.3803031,51.3440444],[12.381319586845887,51.34359175461698],[12.382018738111361,51.34341556579133],[12.383362730979195,51.343320441447496],[12.385155566539783,51.343529093272345],[12.38654650562726,51.34351397195064],[12.391603653301841,51.34509498507844],[12.393446189362992,51.34585019407067],[12.394484835846253,51.34610898236101],[12.405199505548794,51.34554146645689],[12.405866973315627,51.34563059830601],[12.406196172166704,51.347704337582385],[12.405872383963947,51.349941685208805],[12.405891805890807,51.35064349781483],[12.406284416229648,51.3508858221212],[12.407471824199847,51.351228208655186],[12.408105647054647,51.351546988191245],[12.41428555495124,51.355530309456725],[12.415600516666663,51.35625463333333],[12.41625069994808,51.356829392508885],[12.41753954146088,51.35862349604303],[12.417568600530291,51.359108437604796],[12.417271539478596,51.35928023403475],[12.415198118231906,51.359348166713],[12.41038148699394,51.35972189391865],[12.408684409150764,51.36001342733373],[12.408157984404754,51.36032527839905],[12.407574803738985,51.360876041351524],[12.406468895266395,51.362435498653966],[12.40606513165487,51.36282131220901],[12.40409560937106,51.36368559053806],[12.40327782260952,51.36391135096015],[12.402209343174524,51.36400262098569],[12.401999623862077,51.36419826584729],[12.402488777533248,51.36481757138576],[12.411056876019337,51.37345663972584],[12.413259299207937,51.375509262041426],[12.412932578634646,51.37527730271467]],[[12.369990009881139,51.34295709678279],[12.371253616256901,51.34441881520146],[12.371564260414614,51.34493940407105],[12.371150203698308,51.347245307266796],[12.371183922951229,51.34778481412442],[12.373305588619571,51.3513637441999],[12.37349930242116,51.35160250623365],[12.373940332252221,51.35168381684679],[12.374932107791357,51.35162481965311],[12.377181403001966,51.34961817811064],[12.377494604264607,51.34916970257788],[12.378792133102523,51.34597960605885],[12.37895376786581,51.34465702537347],[12.380272556372173,51.344014557373455],[12.378946494168616,51.344673226774965],[12.378739089559518,51.346119618538154],[12.377393721894853,51.349352576423236],[12.375685825887254,51.35100522607841],[12.374798860158368,51.351677500874246],[12.373993484773887,51.351686123900514],[12.373442526307612,51.35156302020326],[12.371259559605958,51.34795908980778],[12.371150354271704,51.34724467651494],[12.371548546600744,51.34488003837707],[12.369425000683158,51.3422404602235],[12.370000190874892,51.34295407664245]]]}},{"type":"Feature","properties":{"route_ref":"3","route_color":"#0e4094"},"geometry":{"type":"MultiLineString","coordinates":[[[12.4908715,51.379514699999994],[12.49097912054437,51.37895708407209],[12.490857835701272,51.37881332549501],[12.488501239999998,51.377442],[12.45918089410473,51.36690387284957],[12.452646724827996,51.36447439157967],[12.424855963910503,51.35122421706873],[12.41442628211456,51.345131414684595],[12.40912894026638,51.34533115471755],[12.394996857899399,51.34612087833126],[12.39435811357082,51.34608992812877],[12.393446189362992,51.34585019407067],[12.391603653301841,51.34509498507844],[12.386857411152182,51.34358344318483],[12.386231340513628,51.34347006622067],[12.3850726,51.3435124],[12.383670415451805,51.343357507821146],[12.383320466539551,51.34324195735728],[12.38279732146249,51.34226531267753],[12.382612235253127,51.34065016178375],[12.382299511324797,51.339447661519166],[12.380895691875384,51.337066416055876],[12.380470019396087,51.336606277020515],[12.379975945070761,51.336275853868784],[12.379064608055174,51.336041317203325],[12.37702368679408,51.33600123863376],[12.373943306983408,51.33566462461097],[12.3687878,51.3348772],[12.368415841524325,51.334888621676946],[12.368047132365204,51.33501298999263],[12.36604456317217,51.33635991293815],[12.362902161002188,51.338742028424626],[12.360695516245734,51.34020042533099],[12.358859372903444,51.341737384377765],[12.3584129,51.3419756],[12.357867827821469,51.34199667620541],[12.348274010526314,51.33981933684212],[12.343424282347987,51.33883611822555],[12.342040481268667,51.33841078500345],[12.3403204,51.3375198],[12.342431910322007,51.33856565620247],[12.3454189,51.3392415]],[[12.325981523323925,51.31147232076218],[12.325676247271371,51.312015664745125],[12.325627737125304,51.31246491219283],[12.325984554556221,51.315291074532816],[12.326223279213682,51.31586923306329],[12.328279299031776,51.31878283437243],[12.330178182255958,51.32022997838773],[12.334305080393749,51.32527172353178],[12.338963554220646,51.33267657270303],[12.3343523,51.325341],[12.330442041419763,51.320517486422986],[12.329500151641897,51.319683867855545],[12.3283852201595,51.318892442312894],[12.327200486605745,51.31732848435678],[12.326076553361059,51.315578984647466],[12.32574526704456,51.313304871216104]]]}},{"type":"Feature","properties":{"route_ref":"8","route_color":"#0e4094"},"geometry":{"type":"MultiLineString","coordinates":[[[12.348767600000002,51.339962],[12.355804548768523,51.34158587547654],[12.355955204771066,51.34155739029941],[12.356036768915226,51.34164065168323],[12.357120400000003,51.34188747142857],[12.358309898847777,51.34200516741512],[12.358897283333333,51.34170841666667],[12.36104746990081,51.3399491248048],[12.362905119405802,51.33873870311714],[12.366047714285717,51.336356585714285],[12.367862845687998,51.335118527418494],[12.36816765745257,51.33495355024232],[12.36864106602586,51.33486657132818],[12.374374867106976,51.33571405065921],[12.377047977789799,51.336003122821886],[12.379170864728195,51.3360513982766],[12.379979338829292,51.33627705113435],[12.380576861924952,51.33669311754285],[12.380889872824474,51.33705721431092],[12.382294979913244,51.339435331647245],[12.382700995287452,51.34111827995281],[12.382767015738288,51.34213247116155],[12.383302893859566,51.343212219851644],[12.383540384525457,51.34332031229762],[12.384755811366253,51.343487211607886],[12.386228641132845,51.34347033468595],[12.38672933273742,51.34355229531737],[12.391263846037962,51.344983673930976],[12.39345354164675,51.34585282137758],[12.394408150355993,51.34610112297077],[12.421350611127327,51.3447619223552],[12.421579288698956,51.34455316611577],[12.42159877781372,51.34388441076966],[12.421905274944667,51.34372378559746],[12.4237889,51.3437809],[12.426574779392146,51.34348043453684],[12.427226327902748,51.343571082447184],[12.4289549,51.3440392],[12.432455031389575,51.344001094168725],[12.428921236958132,51.34403587441724],[12.427076615401342,51.34353837401302],[12.426588427828904,51.34348035395449],[12.42379120576395,51.343780845013576],[12.421920142000937,51.34373059210471],[12.421594630035141,51.34390692884091],[12.42157611779926,51.34458754058093],[12.421283253058752,51.34475351877631],[12.394420862184877,51.34610280435949],[12.393446189362992,51.34585019407067],[12.391603653301841,51.34509498507844],[12.386857411152182,51.34358344318483],[12.386231340513628,51.34347006622067],[12.3850726,51.3435124],[12.383670415451805,51.343357507821146],[12.383320466539551,51.34324195735728],[12.38279732146249,51.34226531267753],[12.382612235253127,51.34065016178375],[12.382299511324797,51.339447661519166],[12.380895691875384,51.337066416055876],[12.380470019396087,51.336606277020515],[12.379975945070761,51.336275853868784],[12.379064608055174,51.336041317203325],[12.37702368679408,51.33600123863376],[12.373943306983408,51.33566462461097],[12.368647238618147,51.33487063251269],[12.368047132365204,51.33501298999263],[12.36604456317217,51.33635991293815],[12.362902161002188,51.338742028424626],[12.360695516245734,51.34020042533099],[12.358859372903444,51.341737384377765],[12.3584129,51.3419756],[12.357867827821469,51.34199667620541],[12.348274010526314,51.33981933684212],[12.343424282347987,51.33883611822555],[12.342040481268667,51.33841078500345],[12.340016613255791,51.337418105677926],[12.336369568591872,51.336696628462185],[12.335669952656941,51.336705966977696],[12.334728165305865,51.33709964151626],[12.333315945249355,51.337911031425016],[12.332844,51.33793070000001],[12.332543266124274,51.33768741135913],[12.332870714105571,51.3364167888524],[12.332847582942197,51.33616500480706],[12.332684589283335,51.33604517398045],[12.328953727035653,51.33550705367677],[12.327970407207175,51.33522216179122],[12.326088255245404,51.33448170314589],[12.3241013983893,51.33348874173514],[12.321574009376826,51.33250592290628],[12.313700062995233,51.32994981561123],[12.30621587081024,51.326991231601895],[12.299738240900696,51.32517446631899],[12.298013837495107,51.324908534193],[12.295476859768126,51.32477626056558],[12.293189739615487,51.32449456415764],[12.290023438974526,51.3236795235953],[12.288023449999997,51.322789875],[12.287184249743031,51.32252568916919],[12.286579330867598,51.32267469375434],[12.285016146376046,51.32393504294855],[12.283518169168415,51.32489617083875],[12.283036369968142,51.3250127396977]],[[12.469028025999341,51.3600994909546],[12.468416952756028,51.3599428573284],[12.467329911007619,51.35926168129515],[12.4660146,51.3587371],[12.465156111421878,51.358491393219914],[12.46252661758303,51.35800339832145],[12.461733907284621,51.357766031847305],[12.46114776422024,51.357408391385086],[12.460747978323337,51.356978456459565],[12.459729942901722,51.35535412774695],[12.459457444661455,51.353440784151125],[12.458163031244263,51.35106508786676],[12.457912214416545,51.350355516008456],[12.457701243478262,51.348001499999995],[12.457947921556086,51.345916117878424],[12.457756381924806,51.3456677964542],[12.455001282123376,51.345479710425685],[12.44980673071742,51.3455399905899],[12.448085362508403,51.34572024582228],[12.446570387541035,51.34609069397179],[12.44549185,51.346239600000004],[12.44180951677214,51.346169448955436],[12.438061078444433,51.34575821886222],[12.435051084882927,51.34525775892204],[12.43424199308294,51.34502202286342],[12.4334366809992,51.34408697367624],[12.433095846048325,51.34400648230241],[12.4324651,51.3440313],[12.433094868637053,51.34400637223648],[12.433436098108237,51.344086071483545],[12.434241290046378,51.345018442359475],[12.435048568513896,51.34525698536895],[12.438188818850158,51.3457665616884],[12.442324531516556,51.34620872577193],[12.445897444586345,51.346205996950246],[12.44794137803968,51.34574581394426],[12.449730481249407,51.34554404950012],[12.455218760930308,51.34548240967385],[12.457775638639815,51.3456762512918],[12.457946832039722,51.34589323221888],[12.457712592840483,51.34740886749083],[12.457914607967133,51.35036255012145],[12.458213476896214,51.35115665718885],[12.459481149885372,51.353453601746956],[12.45973040448091,51.35535213268524],[12.4607603,51.35699590000001],[12.461353583453278,51.35756169967997],[12.462176322158834,51.35790675086041],[12.465390179326086,51.35854139420426],[12.466504339121204,51.35887491824868],[12.467490808207945,51.359335167013406],[12.469133612369719,51.3603959960146]]]}},{"type":"Feature","properties":{"route_ref":"10","route_color":"#0e4094"},"geometry":{"type":"MultiLineString","coordinates":[[[12.396604471049297,51.29575495501364],[12.396214599999997,51.2961029],[12.396138262599457,51.296482132417395],[12.39632378952566,51.30086314148769],[12.396407989999998,51.30849448],[12.396329305206281,51.30953598614482],[12.396090880396514,51.30993373979638],[12.39549047842826,51.30997103694065],[12.393988756727115,51.30957575118451],[12.392926597221651,51.30942869093516],[12.388664787308743,51.30919373681065],[12.387734449722725,51.30921063264673],[12.383033560056576,51.30982249412577],[12.37937774374649,51.31009382379955],[12.378470588987378,51.30970255345813],[12.375704080958998,51.309023173459586],[12.375049598422518,51.30918743403828],[12.373832621628504,51.30974637678597],[12.3732548,51.310165],[12.373181381097199,51.31067122290735],[12.373415796191697,51.314710365481055],[12.373741174532011,51.31481830266967],[12.376178313956245,51.31482041559457],[12.376320143082912,51.31488299368852],[12.376846229653475,51.314823049981214],[12.376992362664794,51.31488531485693],[12.377433987500002,51.31482545000001],[12.377580118254249,51.31488788746167],[12.377727810984311,51.31483088912455],[12.37810422650904,51.31491117944761],[12.378279206278766,51.31506158191935],[12.3786107,51.324226100000004],[12.379209479156158,51.32591096520063],[12.380224277578565,51.33001794478513],[12.380610295815778,51.3306448070172],[12.380471595661305,51.33099826231532],[12.380610671336285,51.33064764506046],[12.380207915733283,51.329977198489644],[12.37923144718447,51.32598514644235],[12.378568234258204,51.324019341999154],[12.378280391259809,51.315094922031086],[12.378054447004985,51.31495889256707],[12.376464901195195,51.31494587934044],[12.376319204031459,51.31488322432184],[12.376172174999999,51.314944774999994],[12.374415825,51.314937425],[12.374123815477514,51.31481455002493],[12.374002633333333,51.3149299],[12.373541119694105,51.31483788316657],[12.373419351858951,51.314731769181236],[12.373267396774194,51.313226099999994],[12.37324851633989,51.31017939471116],[12.373435216842038,51.30997023190019],[12.374091896872162,51.30962379429346],[12.375194221125183,51.30913632662457],[12.37574529029085,51.309018574162934],[12.378453388889865,51.30968091635007],[12.3792229763586,51.310052967375164],[12.379515203337156,51.31009661544772],[12.383510784240448,51.309770689171714],[12.387817135382452,51.30920678029411],[12.392938772316418,51.30942992021058],[12.394423534473129,51.30965987562027],[12.3956526,51.3099932],[12.396112942353206,51.309921908227935],[12.3962818058676,51.30962127189945],[12.396405798610537,51.308705395804346],[12.396326719503246,51.30083557866403],[12.396140050036939,51.29650502992093]],[[12.339898905254215,51.33691702712999],[12.339771435265787,51.336575443631446],[12.339820622279259,51.335819830264484],[12.339372493923088,51.33483068472952],[12.339402135907804,51.33384745355853],[12.338944628632833,51.33260744859701],[12.33912730978156,51.33242051818942],[12.339695119194005,51.332350201490314],[12.347340778317829,51.33219107132883],[12.347965829256767,51.33211483876521],[12.34958807213771,51.33220740676178],[12.350413172612976,51.33256612921253],[12.361621340964371,51.33861985529977],[12.36211861884927,51.338864769269634],[12.362436377823453,51.33890906552564],[12.362900123481463,51.338736073112464],[12.366047714285717,51.336356585714285],[12.367862845687998,51.335118527418494],[12.368420633851883,51.33488689833554],[12.369348879999997,51.334928700000006],[12.372652723482823,51.33547902958581],[12.376490699127675,51.33595605174781],[12.378336135828878,51.33593357303902],[12.3785249983363,51.33573486269423],[12.378459189545907,51.33515378470949],[12.377515925,51.333615581249994],[12.377312121029767,51.333062636910704],[12.377576697139911,51.33280000072443],[12.380505030926066,51.330979963802626],[12.377334091888185,51.33301772854643],[12.37738649898512,51.33335087070768],[12.378411423993763,51.335013176220734],[12.378529168521611,51.335698891603954],[12.378356779856365,51.33592594713031],[12.377937234733848,51.3360178563702],[12.37623008037382,51.335927859690145],[12.373557407089875,51.335612388255065],[12.3694248048146,51.33494075845914],[12.368415841524325,51.334888621676946],[12.368047132365204,51.33501298999263],[12.36604456317217,51.33635991293815],[12.362897171533787,51.338739381157424],[12.362403082826786,51.33891072504174],[12.361737950000006,51.33869995],[12.34969599802745,51.33223359159123],[12.347964945944808,51.33211462879397],[12.3472629427868,51.33219991290196],[12.339261271744766,51.33239059190061],[12.339000414620001,51.33249309643446],[12.338948922084306,51.33263359824672],[12.33940533025832,51.333847654511246],[12.339371957639678,51.33483313618002],[12.339820879230118,51.33582413480313],[12.339760468951702,51.336349495309335],[12.339983582676183,51.33719911745787],[12.3404389,51.337579033333334],[12.341805414400701,51.338197676738545]]]}},{"type":"Feature","properties":{"route_ref":"3E","route_color":"#0e4094"},"geometry":{"type":"LineString","coordinates":[[12.325981523323925,51.31147232076218],[12.325676247271371,51.312015664745125],[12.325627737125304,51.31246491219283],[12.325990113873338,51.31515578106472],[12.32617850221879,51.31569055206764],[12.328229932559125,51.31871731971323],[12.330488043015706,51.32051811009814],[12.3344493,51.325432],[12.338893510427571,51.33254329826465],[12.339418186123233,51.33384661392867],[12.339406587791888,51.334946744501394],[12.339858157511026,51.33581956611016],[12.339766375806805,51.33634918123735],[12.339999347264111,51.337233865827166],[12.3404389,51.337579033333334],[12.342371766587211,51.3385297651448],[12.35521464042537,51.34139925197524],[12.358199787538796,51.341975356689964],[12.358734013356264,51.341796940001935],[12.361583100000002,51.339546899999995],[12.36275155991773,51.33880647860238],[12.366262650451471,51.33619959797576],[12.368286654102224,51.3348888023333],[12.36892702504384,51.33486616711735],[12.37357485,51.33558955],[12.37681810124538,51.33596063512796],[12.379498947244077,51.33608575976706],[12.380138650094937,51.33634573438105],[12.38067479109417,51.336775522583366],[12.381941915831916,51.33872669650489],[12.382533233333332,51.34016136666666],[12.382819993589122,51.34225722660078],[12.383270079391773,51.34313392475812],[12.383552784485422,51.34329817200785],[12.385158048547726,51.3435107512313],[12.386561377234777,51.34349151709202],[12.391856071265975,51.345178034850186],[12.3940884,51.3460147],[12.394568185049936,51.34610613603757],[12.409252949999999,51.345322350000004],[12.4140774,51.345095199999996],[12.414505783386941,51.34513588450734],[12.4242164125,51.350874925],[12.453154548980972,51.364675314088366],[12.460486870600638,51.36730369519422],[12.460884677268556,51.36727148031554],[12.461044959210874,51.36715895634306],[12.462080833333335,51.366129566666665],[12.462843450000003,51.36559952500001],[12.466266133333333,51.3638462],[12.467367866666667,51.36318443333334],[12.469432260801467,51.3616422585465],[12.478216099999996,51.35560648],[12.47887923333333,51.355042100000006],[12.479226822222222,51.35418764444444],[12.479039049999999,51.3474747],[12.478821404839316,51.34680700308442],[12.478192099999996,51.3463897]]}},{"type":"Feature","properties":{"route_ref":"12","route_color":"#0e4094"},"geometry":{"type":"MultiLineString","coordinates":[[[12.378574971344452,51.37555217813502],[12.378356817962649,51.3755033393746],[12.378116566666668,51.37527163333333],[12.3764550997319,51.368934888783265],[12.375054984469235,51.364188187828276],[12.373781896224044,51.36324739873498],[12.37408037757111,51.36348753126447],[12.370648939187861,51.36133432568921],[12.36836426061199,51.35891899347841],[12.3677662791938,51.358461202505104],[12.367794764122154,51.358307027409886],[12.368522879282787,51.35767621280761],[12.368915986354741,51.35693003510801],[12.369711830512783,51.35607668952911],[12.373262310025204,51.35314698975912],[12.37347873871823,51.352080099857154],[12.37343448704286,51.351571015933324],[12.373360205553787,51.35288363400111],[12.37315730140793,51.353280744685954],[12.369893720271161,51.35591418899463],[12.368946900000001,51.356891866666665],[12.368497571832341,51.357706167707384],[12.367799916106682,51.358295290047394],[12.367756786044811,51.358455394485844],[12.368434455741703,51.35897113413464],[12.370641147923093,51.36132900611147],[12.375043152516293,51.36417169159809],[12.376483929718917,51.36903153762571],[12.377946359540736,51.37469102555282],[12.378126030934773,51.37486834231696],[12.378427480623555,51.37492729848416]],[[12.376625854847916,51.33597190057118],[12.371442019190114,51.33528399173052],[12.371034591415551,51.33538177926095],[12.37096840548072,51.338209900921136],[12.371230028058825,51.34027344886228],[12.370961300022675,51.340666545076765],[12.369526546285739,51.341588970104056],[12.3693448795786,51.34187970000317],[12.36959366666667,51.34248196666667],[12.37153719817178,51.34484601401399],[12.371150203698308,51.347245307266796],[12.371183922951229,51.34778481412442],[12.373440183742588,51.351564042213255],[12.371186766036978,51.347783962397145],[12.371150354271704,51.34724467651494],[12.371544096463431,51.345335718140696],[12.371521521544327,51.34481481240147],[12.369827901148678,51.34276206642351],[12.369331018960608,51.34196273329598],[12.36952004016992,51.34159404917038],[12.370777267365801,51.34079841504602],[12.37124064724936,51.340272745276906],[12.370964563594349,51.33809346896348],[12.370947707071702,51.335748548368905],[12.371081919766553,51.335349565445995],[12.371628847224565,51.33530484392615],[12.376926903873393,51.336003297201145],[12.378156509799602,51.33602898768956],[12.378501472826185,51.335891752037945],[12.378571889690956,51.33570576295664],[12.378394488106796,51.334923347406345],[12.37738113418317,51.33336794025721],[12.377221666476311,51.33324859474242],[12.376958654681609,51.33322777409787],[12.37636661439501,51.33359887048867]]]}},{"type":"Feature","properties":{"route_ref":"9","route_color":"#0e4094"},"geometry":{"type":"LineString","coordinates":[[12.39130894335999,51.355200353094425],[12.393876428639688,51.35714751747041],[12.39907057453807,51.36160853690227],[12.400522239822692,51.362259768801735],[12.401995601037806,51.36431864178487],[12.41237246292104,51.374747882863375],[12.412902895269285,51.374907075325716],[12.418669915952837,51.37574167272306],[12.419805841953096,51.37597579592996],[12.420377495968303,51.376438715243886],[12.4214135,51.3779685],[12.420314188693842,51.37636026094878],[12.419807799103552,51.375976385043145],[12.416559432437253,51.37541604930259],[12.413061532117522,51.37493704932321],[12.4123002,51.3746437],[12.401847231173074,51.364145348341786],[12.400518783120482,51.36225672923796],[12.399155198370423,51.36167221118325],[12.392901430615169,51.35634940168257],[12.389482442015447,51.35394523913001],[12.388767666666663,51.35360693333333],[12.383949529120134,51.352073070502264],[12.381790667527948,51.35097326084428],[12.379102702467238,51.35066736443247],[12.377448259206604,51.349690180501945],[12.377441828460464,51.34926991503316],[12.378819572768899,51.34589462836654],[12.37893908375454,51.34468386478715],[12.380219646006946,51.34403268464363],[12.378946494168616,51.344673226774965],[12.378821561279336,51.34586582614882],[12.377422451417656,51.34926869971006],[12.377455707347835,51.3496936437036],[12.379101509406098,51.35067018460833],[12.381797563360651,51.3509758990114],[12.3838333449118,51.3520253442226],[12.388744605458106,51.353599737820566],[12.389551812676185,51.35399007373451],[12.391312276109396,51.355198085267745]]}}]}