{"type":"FeatureCollection","features":[{"type":"Feature","properties":{"way_id":259528259,"route_colors":[],"route_refs":["1","3","7","9"]},"geometry":{"type":"LineString","coordinates":[[38.7492736,55.102639],[38.7494553,55.1025392]]}},{"type":"Feature","properties":{"way_id":259528255,"route_colors":[],"route_refs":["1","3","7","9"]},"geometry":{"type":"LineString","coordinates":[[38.7534583,55.1004537],[38.7536369,55.1003625]]}},{"type":"Feature","properties":{"way_id":259528260,"route_colors":[],"route_refs":["1","3","7","9"]},"geometry":{"type":"LineString","coordinates":[[38.7581183,55.0979603],[38.7583212,55.0978509]]}},{"type":"Feature","properties":{"way_id":259528249,"route_colors":[],"route_refs":["1","3","7","9"]},"geometry":{"type":"LineString","coordinates":[[38.7620835,55.0958095],[38.7622642,55.095716]]}},{"type":"Feature","properties":{"way_id":259528258,"route_colors":[],"route_refs":["1","9","6","2","5","10"]},"geometry":{"type":"LineString","coordinates":[[38.7685264,55.0932856],[38.7684249,55.0930583]]}},{"type":"Feature","properties":{"way_id":262197154,"route_colors":[],"route_refs":["1","6","2"]},"geometry":{"type":"LineString","coordinates":[[38.7747358,55.0921094],[38.7751887,55.091976]]}},{"type":"Feature","properties":{"way_id":262197163,"route_colors":[],"route_refs":["1","6","2"]},"geometry":{"type":"LineString","coordinates":[[38.7842819,55.0893493],[38.7846805,55.0892341]]}},{"type":"Feature","properties":{"way_id":262197151,"route_colors":[],"route_refs":["1","6","2"]},"geometry":{"type":"LineString","coordinates":[[38.7903203,55.0876222],[38.7905538,55.0875558]]}},{"type":"Feature","properties":{"way_id":262197157,"route_colors":[],"route_refs":["1","6","2"]},"geometry":{"type":"LineString","coordinates":[[38.7946248,55.0863804],[38.7949616,55.0862866]]}},{"type":"Feature","properties":{"way_id":262098586,"route_colors":[],"route_refs":["1","6","2"]},"geometry":{"type":"LineString","coordinates":[[38.8023153,55.0841991],[38.8025963,55.0841191]]}},{"type":"Feature","properties":{"way_id":262098583,"route_colors":[],"route_refs":["1","6","2"]},"geometry":{"type":"LineString","coordinates":[[38.8106671,55.0817789],[38.8110366,55.0816746]]}},{"type":"Feature","properties":{"way_id":262067453,"route_colors":[],"route_refs":["1","6","2"]},"geometry":{"type":"LineString","coordinates":[[38.8156411,55.0803394],[38.8160022,55.0802385]]}},{"type":"Feature","properties":{"way_id":262067448,"route_colors":[],"route_refs":["1","6","2"]},"geometry":{"type":"LineString","coordinates":[[38.8162118,55.0777374],[38.8159826,55.0774507]]}},{"type":"Feature","properties":{"way_id":262067447,"route_colors":[],"route_refs":["1","6","2"]},"geometry":{"type":"LineString","coordinates":[[38.8095117,55.0748449],[38.8100007,55.074828]]}},{"type":"Feature","properties":{"way_id":262067456,"route_colors":[],"route_refs":["1","6","2"]},"geometry":{"type":"LineString","coordinates":[[38.8018372,55.075056],[38.8021496,55.0750868]]}},{"type":"Feature","properties":{"way_id":262019207,"route_colors":[],"route_refs":["1","6","2"]},"geometry":{"type":"LineString","coordinates":[[38.7923656,55.0736728],[38.7924983,55.0736726],[38.7927935,55.0736722]]}},{"type":"Feature","properties":{"way_id":262019210,"route_colors":[],"route_refs":["1","6","2","5"]},"geometry":{"type":"LineString","coordinates":[[38.7840933,55.0745778],[38.784393,55.0744911]]}},{"type":"Feature","properties":{"way_id":262531405,"route_colors":[],"route_refs":["1","6","2","5"]},"geometry":{"type":"LineString","coordinates":[[38.7788197,55.0760809],[38.7791417,55.0759888]]}},{"type":"Feature","properties":{"way_id":262019209,"route_colors":[],"route_refs":["1","6","2","5"]},"geometry":{"type":"LineString","coordinates":[[38.7752458,55.0771353],[38.7757188,55.0769978]]}},{"type":"Feature","properties":{"way_id":262004097,"route_colors":[],"route_refs":["1","6","2","5"]},"geometry":{"type":"LineString","coordinates":[[38.7696151,55.0787613],[38.7700786,55.07863]]}},{"type":"Feature","properties":{"way_id":259566655,"route_colors":[],"route_refs":["1","6","5"]},"geometry":{"type":"LineString","coordinates":[[38.7631797,55.0806185],[38.7636584,55.0804849]]}},{"type":"Feature","properties":{"way_id":259017670,"route_colors":[],"route_refs":["1","7","6","2","5","10"]},"geometry":{"type":"LineString","coordinates":[[38.7637597,55.0837109],[38.7636516,55.0834754]]}},{"type":"Feature","properties":{"way_id":259566653,"route_colors":[],"route_refs":["1","7","6","2","5","10"]},"geometry":{"type":"LineString","coordinates":[[38.765572,55.0873966],[38.7654962,55.0872358]]}},{"type":"Feature","properties":{"way_id":259566647,"route_colors":[],"route_refs":["1","7","6","2","5","10"]},"geometry":{"type":"LineString","coordinates":[[38.7669087,55.0901471],[38.7668229,55.0899688]]}},{"type":"Feature","properties":{"way_id":259528254,"route_colors":[],"route_refs":["1","3","7","9"]},"geometry":{"type":"LineString","coordinates":[[38.7627431,55.0955779],[38.7629248,55.0954818]]}},{"type":"Feature","properties":{"way_id":259528253,"route_colors":[],"route_refs":["1","3","7","9"]},"geometry":{"type":"LineString","coordinates":[[38.7586803,55.0977457],[38.7588978,55.0976262]]}},{"type":"Feature","properties":{"way_id":259528262,"route_colors":[],"route_refs":["1","3","7","9"]},"geometry":{"type":"LineString","coordinates":[[38.7537939,55.1003634],[38.7539724,55.1002721]]}},{"type":"Feature","properties":{"way_id":259528252,"route_colors":[],"route_refs":["1","3","7","9"]},"geometry":{"type":"LineString","coordinates":[[38.7498242,55.1024354],[38.7500058,55.1023357]]}},{"type":"Feature","properties":{"way_id":168239309,"route_colors":[],"route_refs":["1","3","7","9"]},"geometry":{"type":"LineString","coordinates":[[38.7494156,55.1026041],[38.7496091,55.1025031],[38.7496535,55.1024799],[38.7497096,55.1024506],[38.751959,55.1012764],[38.752011,55.1012493],[38.752067,55.1012201],[38.7527442,55.1008587],[38.7535551,55.1004261],[38.7536892,55.1003598],[38.7544519,55.0999824],[38.7557502,55.0993069],[38.7582625,55.0979233],[38.7584412,55.0978282],[38.7584744,55.0978102],[38.7606969,55.0966084],[38.7622187,55.0957855],[38.7624755,55.095645],[38.7625202,55.0956205],[38.7626562,55.095547],[38.7630324,55.0953437],[38.7655739,55.0939797],[38.7664814,55.0934926],[38.7676578,55.0928506],[38.7677192,55.0928164]]}},{"type":"Feature","properties":{"way_id":168239328,"route_colors":[],"route_refs":["1","9"]},"geometry":{"type":"LineString","coordinates":[[38.7677192,55.0928164],[38.7678224,55.0927976],[38.7678691,55.0927909],[38.7679605,55.0927909],[38.7679856,55.0927909],[38.7680852,55.0928071],[38.7681724,55.0928382],[38.7682338,55.0928724],[38.7683354,55.0929496]]}},{"type":"Feature","properties":{"way_id":1215951219,"route_colors":[],"route_refs":["1","9","6","2","5","10"]},"geometry":{"type":"LineString","coordinates":[[38.7683354,55.0929496],[38.7683673,55.0930124],[38.768448,55.0931892]]}},{"type":"Feature","properties":{"way_id":168239316,"route_colors":[],"route_refs":["1","9","6","2","5","10"]},"geometry":{"type":"LineString","coordinates":[[38.768448,55.0931892],[38.7685522,55.0934185],[38.7686351,55.0934933],[38.7687331,55.0935531],[38.7688498,55.0936041],[38.7689803,55.0936365],[38.7691554,55.0936577],[38.7692811,55.0936565],[38.7694408,55.0936335],[38.770486,55.0933396],[38.7709892,55.0931958]]}},{"type":"Feature","properties":{"way_id":168239313,"route_colors":[],"route_refs":["1","6","2"]},"geometry":{"type":"LineString","coordinates":[[38.7709892,55.0931958],[38.7737126,55.0924145],[38.7749327,55.0920708],[38.7753672,55.0919484],[38.7755457,55.0918981],[38.7811157,55.0903096],[38.7819895,55.0900585],[38.7833713,55.0896471],[38.7838167,55.0895144],[38.7846619,55.0892658],[38.7849314,55.0891904],[38.7850693,55.0891517],[38.7852651,55.0890968],[38.786349,55.088791],[38.790365,55.0876245],[38.7910236,55.0874343],[38.794809,55.0863441],[38.7952001,55.0862274],[38.7954175,55.0861686],[38.8025948,55.0841367],[38.8027054,55.0841048],[38.8030358,55.0840111],[38.8033895,55.0839128],[38.8040107,55.0837401],[38.8063494,55.0830579],[38.8091238,55.0822487],[38.8110214,55.0816976],[38.8114633,55.0815636],[38.8126719,55.0812139],[38.8136794,55.0809247],[38.8142255,55.080768],[38.8154198,55.0804253],[38.8159622,55.0802693],[38.8163372,55.0801604],[38.8164677,55.0801225],[38.8165461,55.0800889],[38.8166218,55.0800566],[38.816731,55.079962],[38.8168221,55.0798566],[38.8168447,55.0797399],[38.8167526,55.0784814],[38.8167442,55.078366],[38.8166958,55.0782602],[38.8162581,55.0777239],[38.8161477,55.0775864],[38.8160291,55.0774386],[38.8157715,55.0771177],[38.8155776,55.0768752],[38.8153235,55.0765975],[38.815027,55.0763687],[38.8146654,55.0761589],[38.8142574,55.0760057],[38.8137943,55.0758383],[38.8126873,55.0754725],[38.8108677,55.0749044],[38.8105299,55.0748341],[38.8102124,55.074803],[38.8100414,55.0748091],[38.8097427,55.0748198],[38.8094663,55.0748296],[38.8090747,55.0748436],[38.8082618,55.0748837],[38.8074889,55.0749018],[38.8067268,55.0749305],[38.805838,55.0749697],[38.8049417,55.0750013],[38.8048151,55.0750058],[38.8041833,55.0750283],[38.8032306,55.0750709],[38.8024857,55.0750781],[38.8022159,55.075069],[38.8018699,55.0750333],[38.8017893,55.0750246],[38.8016113,55.0750061],[38.8013377,55.0749753],[38.8011694,55.0749602],[38.8010314,55.0749478],[38.8007208,55.0749151],[38.8004132,55.0748706],[38.7981341,55.0744116],[38.7979441,55.074376],[38.7955339,55.0739244],[38.7942234,55.0736788],[38.7939589,55.0736464],[38.7925995,55.0736546],[38.7923081,55.0736556],[38.7874295,55.0736705],[38.7872726,55.0736834],[38.7871359,55.0737034],[38.7870248,55.073733],[38.7860853,55.0739966]]}},{"type":"Feature","properties":{"way_id":172065664,"route_colors":[],"route_refs":["1","6","2"]},"geometry":{"type":"LineString","coordinates":[[38.7860853,55.0739966],[38.7856149,55.074135],[38.7850594,55.0742912],[38.7845435,55.0744363],[38.7844079,55.0744744],[38.7843172,55.0744999],[38.7841142,55.0745568]]}},{"type":"Feature","properties":{"way_id":262531404,"route_colors":[],"route_refs":["1","6","2","5"]},"geometry":{"type":"LineString","coordinates":[[38.7841142,55.0745568],[38.7824652,55.0750188],[38.77892,55.0760363],[38.7788082,55.0760682],[38.7786812,55.0761066],[38.7785363,55.0761504],[38.7764063,55.0767751],[38.7757087,55.0769749],[38.7753615,55.0770752],[38.7751895,55.0771238],[38.7696449,55.0787219],[38.7695837,55.0787402],[38.7684585,55.0790645],[38.767195,55.0794287],[38.7656673,55.0798698],[38.764974,55.08007],[38.7636608,55.0804491],[38.7633813,55.0805298],[38.7631061,55.0806064],[38.7630546,55.0806203]]}},{"type":"Feature","properties":{"way_id":168095560,"route_colors":[],"route_refs":["1","6","5"]},"geometry":{"type":"LineString","coordinates":[[38.7630546,55.0806203],[38.7628357,55.0806894],[38.7627638,55.0807286],[38.7627,55.0807795],[38.7626667,55.0808188],[38.7626583,55.0808901]]}},{"type":"Feature","properties":{"way_id":168095555,"route_colors":[],"route_refs":["1","7","6","2","5","10"]},"geometry":{"type":"LineString","coordinates":[[38.7626583,55.0808901],[38.7626962,55.0809999],[38.7632138,55.0824975],[38.7635074,55.0832377],[38.7636988,55.0836373],[38.7637524,55.0837421],[38.7646594,55.0856312],[38.7650108,55.0863339],[38.7655201,55.0873887],[38.7655611,55.0874747],[38.765647,55.0876544],[38.7657102,55.0877867],[38.7657408,55.0878507],[38.7659658,55.0883146],[38.7660682,55.0885257],[38.7662828,55.0889552],[38.7666643,55.0897037],[38.7668641,55.090119],[38.7670827,55.0905216],[38.7671011,55.0905596],[38.7672052,55.0907647],[38.7676548,55.0916508],[38.7677421,55.091844],[38.7678225,55.0919973],[38.7680666,55.0924563]]}},{"type":"Feature","properties":{"way_id":168239326,"route_colors":[],"route_refs":["1","7"]},"geometry":{"type":"LineString","coordinates":[[38.7680666,55.0924563],[38.7680527,55.0925357],[38.768029,55.0926074],[38.7680007,55.0926663],[38.7679499,55.0927158],[38.7679306,55.0927282],[38.7678224,55.0927976],[38.7678075,55.0928072],[38.7677147,55.092852]]}},{"type":"Feature","properties":{"way_id":62273949,"route_colors":[],"route_refs":["1","3","7","9"]},"geometry":{"type":"LineString","coordinates":[[38.7677147,55.092852],[38.7676841,55.0928685],[38.7665046,55.093506],[38.7655926,55.0939989],[38.7630624,55.0953662],[38.7627582,55.0955308],[38.7626895,55.0955672],[38.7625529,55.0956397],[38.762509,55.0956633],[38.7607223,55.0966239],[38.7589319,55.0975865],[38.758739,55.0976888],[38.7584907,55.0978202],[38.7584569,55.0978381],[38.755785,55.099328],[38.7544738,55.0999972],[38.7538468,55.1003151],[38.7537205,55.1003809],[38.7527728,55.100875],[38.7520872,55.1012324],[38.7520317,55.1012613],[38.7519794,55.1012886],[38.7498917,55.1023775]]}},{"type":"Feature","properties":{"way_id":259566648,"route_colors":[],"route_refs":["3","7","8","4","5","10"]},"geometry":{"type":"LineString","coordinates":[[38.7668951,55.0903399],[38.7668216,55.0901967]]}},{"type":"Feature","properties":{"way_id":259566649,"route_colors":[],"route_refs":["3","7","8","4","5","10"]},"geometry":{"type":"LineString","coordinates":[[38.7657533,55.0880598],[38.7657441,55.0880398],[38.7656505,55.0878365]]}},{"type":"Feature","properties":{"way_id":259017669,"route_colors":[],"route_refs":["3","7","8","4","5","10"]},"geometry":{"type":"LineString","coordinates":[[38.7638115,55.0841386],[38.763772,55.0840483],[38.7636726,55.0838208]]}},{"type":"Feature","properties":{"way_id":259566656,"route_colors":[],"route_refs":["3","8","5"]},"geometry":{"type":"LineString","coordinates":[[38.7631223,55.0805524],[38.763601,55.0804188]]}},{"type":"Feature","properties":{"way_id":262004096,"route_colors":[],"route_refs":["3","8","4","5"]},"geometry":{"type":"LineString","coordinates":[[38.7692038,55.0788072],[38.7695451,55.0787116]]}},{"type":"Feature","properties":{"way_id":262019208,"route_colors":[],"route_refs":["3","8","4","5"]},"geometry":{"type":"LineString","coordinates":[[38.7746396,55.0772292],[38.775102,55.0770931]]}},{"type":"Feature","properties":{"way_id":262531406,"route_colors":[],"route_refs":["3","8","4","5"]},"geometry":{"type":"LineString","coordinates":[[38.7781568,55.076203],[38.7784951,55.0761027]]}},{"type":"Feature","properties":{"way_id":262019211,"route_colors":[],"route_refs":["3","8","4","5"]},"geometry":{"type":"LineString","coordinates":[[38.7839262,55.0745628],[38.7842259,55.0744761]]}},{"type":"Feature","properties":{"way_id":262019206,"route_colors":[],"route_refs":["3","8","4"]},"geometry":{"type":"LineString","coordinates":[[38.7918208,55.0735999],[38.7922487,55.0735993]]}},{"type":"Feature","properties":{"way_id":262067455,"route_colors":[],"route_refs":["3","8","4"]},"geometry":{"type":"LineString","coordinates":[[38.800673,55.0748539],[38.8009421,55.0748892]]}},{"type":"Feature","properties":{"way_id":262067445,"route_colors":[],"route_refs":["3","8","4"]},"geometry":{"type":"LineString","coordinates":[[38.8089979,55.0747808],[38.8094318,55.0747678]]}},{"type":"Feature","properties":{"way_id":262067446,"route_colors":[],"route_refs":["3","8","4"]},"geometry":{"type":"LineString","coordinates":[[38.8163492,55.0776941],[38.8161287,55.0774178]]}},{"type":"Feature","properties":{"way_id":262067454,"route_colors":[],"route_refs":["3","8","4"]},"geometry":{"type":"LineString","coordinates":[[38.815699,55.0804005],[38.816047,55.0803016]]}},{"type":"Feature","properties":{"way_id":262098587,"route_colors":[],"route_refs":["3","8","4"]},"geometry":{"type":"LineString","coordinates":[[38.81071,55.0818353],[38.8110795,55.0817309]]}},{"type":"Feature","properties":{"way_id":262098585,"route_colors":[],"route_refs":["3","8","4"]},"geometry":{"type":"LineString","coordinates":[[38.8036258,55.083888],[38.8041746,55.0837332]]}},{"type":"Feature","properties":{"way_id":262197161,"route_colors":[],"route_refs":["3","8","4"]},"geometry":{"type":"LineString","coordinates":[[38.7955176,55.0861993],[38.7958544,55.0861055]]}},{"type":"Feature","properties":{"way_id":262197152,"route_colors":[],"route_refs":["3","8","4"]},"geometry":{"type":"LineString","coordinates":[[38.7911502,55.0874498],[38.7915913,55.0873247]]}},{"type":"Feature","properties":{"way_id":262197156,"route_colors":[],"route_refs":["3","8","4"]},"geometry":{"type":"LineString","coordinates":[[38.7851739,55.0891912],[38.7854057,55.0891223],[38.7856439,55.0890518]]}},{"type":"Feature","properties":{"way_id":262197155,"route_colors":[],"route_refs":["3","8","4"]},"geometry":{"type":"LineString","coordinates":[[38.7755223,55.0919602],[38.7758791,55.0918577]]}},{"type":"Feature","properties":{"way_id":259528251,"route_colors":[],"route_refs":["3","9","8","4","5","10"]},"geometry":{"type":"LineString","coordinates":[[38.7683979,55.0932986],[38.7682963,55.0930827]]}},{"type":"Feature","properties":{"way_id":168239327,"route_colors":[],"route_refs":["3","7"]},"geometry":{"type":"LineString","coordinates":[[38.7677192,55.0928164],[38.7678505,55.0927396],[38.7679142,55.0926945],[38.7679555,55.0926434],[38.7679957,55.0925548],[38.768009,55.0924471]]}},{"type":"Feature","properties":{"way_id":168095556,"route_colors":[],"route_refs":["3","7","8","4","5","10"]},"geometry":{"type":"LineString","coordinates":[[38.768009,55.0924471],[38.7677748,55.0920072],[38.767696,55.0918593],[38.7676053,55.0916611],[38.7670591,55.0905678],[38.7670362,55.0905204],[38.7668839,55.0902327],[38.7665589,55.0895947],[38.7662373,55.0889633],[38.7659775,55.0884535],[38.7656916,55.0878424],[38.7656688,55.087793],[38.7656082,55.0876615],[38.7655202,55.0874816],[38.7649445,55.0863479],[38.7645922,55.0856461],[38.7641758,55.0847407],[38.7637425,55.0838503],[38.7636965,55.0837508],[38.7634429,55.0832497],[38.7631591,55.0825143],[38.7626543,55.0810051],[38.7626124,55.0808799]]}},{"type":"Feature","properties":{"way_id":168095562,"route_colors":[],"route_refs":["3","8","5"]},"geometry":{"type":"LineString","coordinates":[[38.7626124,55.0808799],[38.7626175,55.0808238],[38.7626343,55.0807982],[38.7626532,55.0807693],[38.7627053,55.0807232],[38.7627861,55.0806738],[38.7629624,55.0806202],[38.7630485,55.0805962]]}},{"type":"Feature","properties":{"way_id":172065663,"route_colors":[],"route_refs":["3","8","4","5"]},"geometry":{"type":"LineString","coordinates":[[38.7630485,55.0805962],[38.7630724,55.0805892],[38.7633521,55.0805071],[38.7636383,55.0804248],[38.7649542,55.0800463],[38.7656477,55.0798469],[38.7671749,55.0794076],[38.7684398,55.0790429],[38.7694521,55.0787511],[38.7695659,55.0787179],[38.7750536,55.0771346],[38.7751699,55.0771014],[38.7763864,55.076752],[38.7784161,55.0761537],[38.7785144,55.0761248],[38.7786567,55.0760816],[38.7787852,55.0760427],[38.7824905,55.0749727],[38.7840834,55.0745306]]}},{"type":"Feature","properties":{"way_id":1215951222,"route_colors":[],"route_refs":["3","8","4"]},"geometry":{"type":"LineString","coordinates":[[38.7840834,55.0745306],[38.78427,55.0744797]]}},{"type":"Feature","properties":{"way_id":167236464,"route_colors":[],"route_refs":["3","8","4"]},"geometry":{"type":"LineString","coordinates":[[38.78427,55.0744797],[38.7843836,55.0744477],[38.78452,55.0744105],[38.7848818,55.0743088],[38.7855448,55.0741166],[38.7861963,55.0739343],[38.7868903,55.0737362]]}},{"type":"Feature","properties":{"way_id":168239312,"route_colors":[],"route_refs":["3","8","4"]},"geometry":{"type":"LineString","coordinates":[[38.7868903,55.0737362],[38.7871191,55.0736732],[38.7872597,55.0736515],[38.7874263,55.073639],[38.7920721,55.0736163],[38.7923192,55.0736162],[38.7939605,55.073608],[38.7942462,55.0736481],[38.7955596,55.0738965],[38.7979557,55.0743496],[38.7981638,55.074389],[38.8004321,55.0748401],[38.8009075,55.0749048],[38.8010391,55.0749195],[38.8011727,55.0749317],[38.8013366,55.0749465],[38.801618,55.0749774],[38.8017702,55.0749935],[38.8022213,55.0750414],[38.8024996,55.0750534],[38.8032277,55.0750472],[38.8041822,55.0750065],[38.8048044,55.0749797],[38.8049331,55.0749742],[38.8058239,55.0749353],[38.8067013,55.0748942],[38.8082576,55.0748474],[38.8090741,55.0748099],[38.8092376,55.0748041],[38.809465,55.0747961],[38.8100386,55.0747758],[38.8102254,55.0747692],[38.8105785,55.0747987],[38.8109273,55.0748874],[38.8127137,55.0754337],[38.8138119,55.0758163],[38.8142764,55.0759834],[38.8146791,55.0761381],[38.8150579,55.0763507],[38.8153654,55.0765913],[38.8156181,55.0768644],[38.8158127,55.0770988],[38.8160775,55.0774263],[38.8161958,55.0775727],[38.8163042,55.0777068],[38.8167447,55.0782579],[38.8167896,55.0783669],[38.8167939,55.0784773],[38.8168995,55.0797385],[38.8168774,55.0798602],[38.8167813,55.0799755],[38.8166631,55.0800773],[38.8166374,55.0800887],[38.8165607,55.0801218],[38.8164962,55.0801496],[38.8161893,55.0802388],[38.8157313,55.0803682],[38.8154405,55.0804534],[38.8142531,55.0807946],[38.8137022,55.0809529],[38.8126961,55.0812421],[38.8114877,55.0815917],[38.8107281,55.0818135],[38.8091408,55.0822747],[38.8063667,55.0830777],[38.8036384,55.0838686],[38.8034092,55.0839321],[38.8030586,55.0840323],[38.8027243,55.0841272],[38.7956378,55.0861388],[38.795439,55.0861934],[38.7952213,55.0862507],[38.7913428,55.0873738],[38.7910451,55.0874583],[38.786375,55.0888198],[38.7852896,55.089131],[38.7851019,55.0891848],[38.7849592,55.0892257],[38.7838497,55.089552],[38.7834032,55.0896834],[38.7820177,55.0900914],[38.7811436,55.0903415],[38.7755992,55.0919101],[38.7753854,55.0919706],[38.7747689,55.092145],[38.7737357,55.0924435],[38.7712353,55.0931694],[38.771014,55.0932325]]}},{"type":"Feature","properties":{"way_id":167236466,"route_colors":[],"route_refs":["3","9","8","4","5","10"]},"geometry":{"type":"LineString","coordinates":[[38.771014,55.0932325],[38.7705077,55.0933709],[38.7694552,55.0936667],[38.7692924,55.0936905],[38.7691504,55.0936919],[38.7689658,55.0936698],[38.7688264,55.0936357],[38.7686951,55.0935801],[38.7685888,55.0935139],[38.768501,55.0934347],[38.768392,55.0931928]]}},{"type":"Feature","properties":{"way_id":1215951220,"route_colors":[],"route_refs":["3","9","8","4","5","10"]},"geometry":{"type":"LineString","coordinates":[[38.768392,55.0931928],[38.7683104,55.0930222],[38.7682879,55.0929727]]}},{"type":"Feature","properties":{"way_id":168239329,"route_colors":[],"route_refs":["3","9"]},"geometry":{"type":"LineString","coordinates":[[38.7682879,55.0929727],[38.768179,55.0928925],[38.7680781,55.0928482],[38.7679775,55.0928275],[38.76786,55.0928291],[38.7677147,55.092852]]}},{"type":"Feature","properties":{"way_id":259566654,"route_colors":[],"route_refs":["7","2","4","10"]},"geometry":{"type":"LineString","coordinates":[[38.7623773,55.0802263],[38.7623165,55.0799792]]}},{"type":"Feature","properties":{"way_id":259566657,"route_colors":[],"route_refs":["7","2","4","10"]},"geometry":{"type":"LineString","coordinates":[[38.7616947,55.0772899],[38.7616647,55.0772206],[38.7616098,55.0770936]]}},{"type":"Feature","properties":{"way_id":259566658,"route_colors":[],"route_refs":["7","2","4","10"]},"geometry":{"type":"LineString","coordinates":[[38.7606734,55.0748915],[38.7605777,55.0746663]]}},{"type":"Feature","properties":{"way_id":260061815,"route_colors":[],"route_refs":["7","2","4","10"]},"geometry":{"type":"LineString","coordinates":[[38.7586901,55.0694088],[38.7585848,55.0693481],[38.7584081,55.0692754]]}},{"type":"Feature","properties":{"way_id":260236884,"route_colors":[],"route_refs":["7","2","10"]},"geometry":{"type":"LineString","coordinates":[[38.7505899,55.0660971],[38.7507263,55.0661613],[38.7508353,55.0662125]]}},{"type":"Feature","properties":{"way_id":260236895,"route_colors":[],"route_refs":["7","2","10"]},"geometry":{"type":"LineString","coordinates":[[38.7456534,55.0637113],[38.7459547,55.0638564]]}},{"type":"Feature","properties":{"way_id":260061802,"route_colors":[],"route_refs":["7","2","10"]},"geometry":{"type":"LineString","coordinates":[[38.7415363,55.0616647],[38.7412317,55.061519]]}},{"type":"Feature","properties":{"way_id":262349774,"route_colors":[],"route_refs":["7"]},"geometry":{"type":"LineString","coordinates":[[38.7321109,55.0600527],[38.7324147,55.0600972]]}},{"type":"Feature","properties":{"way_id":262349773,"route_colors":[],"route_refs":["7"]},"geometry":{"type":"LineString","coordinates":[[38.725662,55.0630489],[38.725672,55.0630272],[38.7257451,55.0628691]]}},{"type":"Feature","properties":{"way_id":168095559,"route_colors":[],"route_refs":["7","4","10"]},"geometry":{"type":"LineString","coordinates":[[38.7626124,55.0808799],[38.7625649,55.0807245],[38.7624577,55.0803851]]}},{"type":"Feature","properties":{"way_id":242508164,"route_colors":[],"route_refs":["7","2","4","10"]},"geometry":{"type":"LineString","coordinates":[[38.7624577,55.0803851],[38.7624264,55.0802563],[38.7623658,55.0800007],[38.7618108,55.07746],[38.7618012,55.0774164],[38.7617841,55.0773696],[38.7617151,55.0771811],[38.76166,55.0770569],[38.7607213,55.074942],[38.7606406,55.0747246],[38.7606053,55.0746305],[38.7604197,55.0741362],[38.7602323,55.0736018],[38.7602149,55.0733536],[38.7602065,55.0727497],[38.7602597,55.0724225]]}},{"type":"Feature","properties":{"way_id":62273960,"route_colors":[],"route_refs":["7","2","4","10"]},"geometry":{"type":"LineString","coordinates":[[38.7602597,55.0724225],[38.7603061,55.0721464],[38.7603423,55.071865],[38.76036,55.0715828],[38.7603517,55.0712623]]}},{"type":"Feature","properties":{"way_id":155190095,"route_colors":[],"route_refs":["7","2","4","10"]},"geometry":{"type":"LineString","coordinates":[[38.7603517,55.0712623],[38.7602826,55.070973],[38.7601024,55.070604],[38.7599036,55.070329],[38.7595629,55.0699837],[38.7594088,55.0698436],[38.7590103,55.0695716],[38.7586022,55.0693397],[38.7584382,55.0692735],[38.7583385,55.0692323],[38.7581743,55.0691647],[38.757742,55.0690037],[38.7564676,55.0685784],[38.7551822,55.0681702],[38.7541625,55.0677963],[38.7536787,55.0675471]]}},{"type":"Feature","properties":{"way_id":164029934,"route_colors":[],"route_refs":["7","2","10"]},"geometry":{"type":"LineString","coordinates":[[38.7536787,55.0675471],[38.7533115,55.067366],[38.7512365,55.0663795],[38.7506519,55.0660978],[38.7506088,55.0660755],[38.7474336,55.0645411],[38.7463212,55.0640035],[38.7459815,55.0638378],[38.7457064,55.0637021],[38.744607,55.0631598],[38.7438792,55.062801],[38.7414419,55.0615989],[38.7410397,55.0614005]]}},{"type":"Feature","properties":{"way_id":319603134,"route_colors":[],"route_refs":["7"]},"geometry":{"type":"LineString","coordinates":[[38.7410397,55.0614005],[38.7408826,55.0613292],[38.7407589,55.0612822],[38.7406772,55.0612553],[38.7405939,55.0612397],[38.7404589,55.061218],[38.7399972,55.06116],[38.7360846,55.0605978],[38.7359279,55.0605558],[38.7357514,55.0604984],[38.7352131,55.0602928],[38.7350839,55.0602526],[38.7349216,55.0602239],[38.7338289,55.0600808],[38.7336067,55.0600706],[38.7332716,55.0600687],[38.7327447,55.0600817],[38.7325349,55.0600815],[38.7323282,55.0600608],[38.7277225,55.0593903],[38.7275947,55.0593935],[38.7274739,55.0594174],[38.72737,55.05946],[38.7272915,55.0595178],[38.7272674,55.0595734],[38.7259327,55.0626482],[38.725939,55.0627145],[38.725978,55.0627771],[38.7265038,55.0631179],[38.7265452,55.0632023],[38.7265364,55.0632899],[38.7264784,55.0633711],[38.7263775,55.063437],[38.7262446,55.0634806],[38.7260942,55.0634971],[38.7259426,55.0634847],[38.7258062,55.0634448],[38.7256999,55.0633817],[38.7256353,55.0633022],[38.7256206,55.0632001],[38.7257222,55.0629841]]}},{"type":"Feature","properties":{"way_id":262349772,"route_colors":[],"route_refs":["7"]},"geometry":{"type":"LineString","coordinates":[[38.7316149,55.0598879],[38.7320261,55.0599441]]}},{"type":"Feature","properties":{"way_id":260061814,"route_colors":[],"route_refs":["7","4"]},"geometry":{"type":"LineString","coordinates":[[38.7416116,55.0616209],[38.7413364,55.0614873]]}},{"type":"Feature","properties":{"way_id":260236892,"route_colors":[],"route_refs":["7","4"]},"geometry":{"type":"LineString","coordinates":[[38.7457626,55.0636458],[38.746027,55.0637744]]}},{"type":"Feature","properties":{"way_id":260236890,"route_colors":[],"route_refs":["7","4"]},"geometry":{"type":"LineString","coordinates":[[38.7504064,55.0659088],[38.7506277,55.0660111]]}},{"type":"Feature","properties":{"way_id":260061804,"route_colors":[],"route_refs":["7","2","4","10"]},"geometry":{"type":"LineString","coordinates":[[38.7579735,55.0690431],[38.7583245,55.0691756]]}},{"type":"Feature","properties":{"way_id":259566652,"route_colors":[],"route_refs":["7","2","4","10"]},"geometry":{"type":"LineString","coordinates":[[38.7606709,55.0746166],[38.7605994,55.0744426]]}},{"type":"Feature","properties":{"way_id":259566650,"route_colors":[],"route_refs":["7","2","4","10"]},"geometry":{"type":"LineString","coordinates":[[38.7617015,55.0768875],[38.7616421,55.0767505]]}},{"type":"Feature","properties":{"way_id":259566646,"route_colors":[],"route_refs":["7","2","4","10"]},"geometry":{"type":"LineString","coordinates":[[38.7625126,55.0801912],[38.7624827,55.0800861]]}},{"type":"Feature","properties":{"way_id":319603135,"route_colors":[],"route_refs":["7"]},"geometry":{"type":"LineString","coordinates":[[38.7257222,55.0629841],[38.7258686,55.0626728],[38.7272172,55.0595659],[38.7272438,55.0595045],[38.7273343,55.0594379],[38.7274512,55.05939],[38.7275872,55.0593631],[38.7277307,55.0593594],[38.7317615,55.0599473],[38.7323423,55.0600308],[38.7325425,55.0600509],[38.7327478,55.0600511],[38.733283,55.0600381],[38.733613,55.0600401],[38.7338392,55.0600504],[38.7349379,55.0601941],[38.7351081,55.0602243],[38.7352441,55.0602666],[38.7357829,55.0604723],[38.7359559,55.0605287],[38.7361059,55.0605688],[38.7400136,55.0611303],[38.7404946,55.0611894],[38.7406318,55.0612174],[38.7406476,55.0612206],[38.7407853,55.0612585],[38.7409208,55.0613052],[38.7409402,55.0613141],[38.7410784,55.0613774]]}},{"type":"Feature","properties":{"way_id":168095118,"route_colors":[],"route_refs":["7","4"]},"geometry":{"type":"LineString","coordinates":[[38.7410784,55.0613774],[38.7414816,55.0615742],[38.7439294,55.0627692],[38.7446572,55.0631242],[38.7459891,55.0637786],[38.7460338,55.0638014],[38.7463373,55.0639587],[38.7474772,55.0645116],[38.7505388,55.0659965],[38.7506578,55.0660542],[38.751271,55.0663402],[38.7532729,55.0672952],[38.7533557,55.0673364],[38.7536342,55.0674752],[38.7537398,55.0675278]]}},{"type":"Feature","properties":{"way_id":168095122,"route_colors":[],"route_refs":["7","2","4","10"]},"geometry":{"type":"LineString","coordinates":[[38.7537398,55.0675278],[38.7542063,55.0677773],[38.7552156,55.0681596],[38.7564967,55.0685586],[38.7577674,55.0689855],[38.7582019,55.0691466],[38.758277,55.0691757],[38.7583672,55.0692121],[38.7586381,55.0693212],[38.7590608,55.0695557],[38.7594419,55.0698309],[38.7596101,55.0699653],[38.75993,55.0703117],[38.760143,55.0706089],[38.7603159,55.0709686],[38.7603887,55.071259]]}},{"type":"Feature","properties":{"way_id":168095110,"route_colors":[],"route_refs":["7","2","4","10"]},"geometry":{"type":"LineString","coordinates":[[38.7603887,55.071259],[38.7603925,55.0715775],[38.7603769,55.0718652],[38.7603462,55.0721482],[38.760296,55.0724229]]}},{"type":"Feature","properties":{"way_id":242508165,"route_colors":[],"route_refs":["7","2","4","10"]},"geometry":{"type":"LineString","coordinates":[[38.760296,55.0724229],[38.760256,55.072756],[38.7602628,55.0733676],[38.7602799,55.0736006],[38.7604615,55.074149],[38.7605426,55.0743575],[38.7606215,55.0745574],[38.7606489,55.0746243],[38.7607773,55.0749373],[38.7616404,55.076854],[38.7617199,55.077044],[38.7618545,55.0773659],[38.7618674,55.0773966],[38.7618799,55.0774553],[38.7624512,55.0801414],[38.7624799,55.0802533],[38.7625088,55.0803702]]}},{"type":"Feature","properties":{"way_id":168095558,"route_colors":[],"route_refs":["7","2","10"]},"geometry":{"type":"LineString","coordinates":[[38.7625088,55.0803702],[38.7625368,55.0804696],[38.7626007,55.0807017],[38.7626343,55.0807982],[38.7626583,55.0808901]]}},{"type":"Feature","properties":{"way_id":259025149,"route_colors":[],"route_refs":["9","5","10"]},"geometry":{"type":"LineString","coordinates":[[38.7720791,55.0937078],[38.7718812,55.0934754]]}},{"type":"Feature","properties":{"way_id":169591148,"route_colors":[],"route_refs":["9","5","10"]},"geometry":{"type":"LineString","coordinates":[[38.7712349,55.0956216],[38.7715137,55.0954786]]}},{"type":"Feature","properties":{"way_id":259025167,"route_colors":[],"route_refs":["9","5","10"]},"geometry":{"type":"LineString","coordinates":[[38.7752541,55.098486],[38.7749904,55.0983238]]}},{"type":"Feature","properties":{"way_id":259025153,"route_colors":[],"route_refs":["9","5","10"]},"geometry":{"type":"LineString","coordinates":[[38.7792823,55.0995279],[38.7798353,55.0995907],[38.7800059,55.0996184]]}},{"type":"Feature","properties":{"way_id":62273937,"route_colors":[],"route_refs":["9","5","10"]},"geometry":{"type":"LineString","coordinates":[[38.7709892,55.0931958],[38.7711242,55.0931782],[38.7712353,55.0931694],[38.7713204,55.0931761],[38.7714809,55.0932112],[38.7715314,55.0932282],[38.7716065,55.0932595],[38.7717075,55.0933205],[38.7717821,55.0933993],[38.7719554,55.0935981],[38.7723261,55.0940241],[38.7723417,55.0940428],[38.7723597,55.094064],[38.7727908,55.0945975],[38.7728146,55.0946517],[38.7728094,55.0947127],[38.7727729,55.0947864],[38.7727309,55.0948191],[38.772641,55.0948766],[38.7724647,55.0949734],[38.771612,55.0954133],[38.7715604,55.0954374],[38.7713669,55.0955368],[38.7712206,55.095612],[38.7711303,55.0956754],[38.7710786,55.0957542],[38.7710693,55.0958128],[38.7710894,55.0958925],[38.7711952,55.0959795],[38.7751274,55.0984282],[38.7753047,55.0985393],[38.7753398,55.0985612],[38.7761444,55.0990721],[38.7762436,55.0991245],[38.776268,55.0991374],[38.776295,55.0991517],[38.7764268,55.0992],[38.7766394,55.0992432],[38.7770756,55.099287],[38.7777987,55.0993701],[38.7778962,55.0993825]]}},{"type":"Feature","properties":{"way_id":1533249377,"route_colors":[],"route_refs":["9","5","10"]},"geometry":{"type":"LineString","coordinates":[[38.7778962,55.0993825],[38.7782406,55.0994271]]}},{"type":"Feature","properties":{"way_id":172065661,"route_colors":[],"route_refs":["9","5","10"]},"geometry":{"type":"LineString","coordinates":[[38.7782406,55.0994271],[38.7790229,55.0995185],[38.7798377,55.0996081]]}},{"type":"Feature","properties":{"way_id":259025166,"route_colors":[],"route_refs":["9","5","10"]},"geometry":{"type":"LineString","coordinates":[[38.7756106,55.0988181],[38.7754272,55.0987006]]}},{"type":"Feature","properties":{"way_id":259025148,"route_colors":[],"route_refs":["9","5","10"]},"geometry":{"type":"LineString","coordinates":[[38.771177,55.0955889],[38.7714709,55.0954392]]}},{"type":"Feature","properties":{"way_id":259025150,"route_colors":[],"route_refs":["9","5","10"]},"geometry":{"type":"LineString","coordinates":[[38.771983,55.0937336],[38.7717805,55.0934999]]}},{"type":"Feature","properties":{"way_id":168239317,"route_colors":[],"route_refs":["9","5","10"]},"geometry":{"type":"LineString","coordinates":[[38.7798377,55.0996081],[38.7800028,55.0996442],[38.7801569,55.099701],[38.7802157,55.0997646],[38.7802569,55.0998464],[38.7802596,55.0999067],[38.7802271,55.0999702],[38.7801605,55.1000225],[38.7800812,55.1000506],[38.7800055,55.100066],[38.7799055,55.1000691],[38.779822,55.1000556],[38.7796081,55.1000073],[38.7791068,55.099888],[38.7789107,55.0998433],[38.778789,55.0998016],[38.7786674,55.0997505],[38.7785025,55.0996748],[38.7783268,55.0995912],[38.7781113,55.0995124],[38.7778768,55.0994266]]}},{"type":"Feature","properties":{"way_id":168239318,"route_colors":[],"route_refs":["9","5","10"]},"geometry":{"type":"LineString","coordinates":[[38.7778768,55.0994266],[38.7777798,55.0994143],[38.7770579,55.0993313],[38.7766178,55.0992871],[38.776395,55.0992418],[38.7762538,55.0991901],[38.7762083,55.099166],[38.7761812,55.0991517],[38.7760978,55.0991076],[38.7755255,55.0987445],[38.7752819,55.0985898],[38.7752469,55.0985678],[38.7711736,55.0960094],[38.7710461,55.0959108],[38.7710129,55.0958411],[38.7710089,55.0958327],[38.7710118,55.0957901],[38.7710175,55.0957649],[38.7710745,55.0956738],[38.7711672,55.0956071],[38.771339,55.0955186],[38.771516,55.0954275],[38.771584,55.0953949],[38.7724256,55.0949661],[38.7726014,55.0948742],[38.7726862,55.0948165],[38.7727255,55.0947727],[38.7727572,55.0947221],[38.7727615,55.0946712],[38.7727366,55.0946247],[38.7723091,55.09409],[38.7722918,55.0940694],[38.7722767,55.0940509],[38.7718987,55.0936091],[38.7717305,55.0934124],[38.7716679,55.0933512],[38.771565,55.0932906],[38.7714578,55.0932493],[38.7714424,55.0932443],[38.771301,55.0932129],[38.7711721,55.093212],[38.771014,55.0932325]]}},{"type":"Feature","properties":{"way_id":168239324,"route_colors":[],"route_refs":["6","2","5","10"]},"geometry":{"type":"LineString","coordinates":[[38.7680666,55.0924563],[38.7682227,55.0927431],[38.7683354,55.0929496]]}},{"type":"Feature","properties":{"way_id":168239322,"route_colors":[],"route_refs":["8","4","5","10"]},"geometry":{"type":"LineString","coordinates":[[38.7682879,55.0929727],[38.7682338,55.0928724],[38.7681689,55.0927537],[38.7680527,55.0925357],[38.768009,55.0924471]]}},{"type":"Feature","properties":{"way_id":260061811,"route_colors":[],"route_refs":["2","10"]},"geometry":{"type":"LineString","coordinates":[[38.7479625,55.0563544],[38.7480462,55.0561705]]}},{"type":"Feature","properties":{"way_id":260061798,"route_colors":[],"route_refs":["2","10"]},"geometry":{"type":"LineString","coordinates":[[38.7535697,55.0583468],[38.7532076,55.0581667]]}},{"type":"Feature","properties":{"way_id":260061805,"route_colors":[],"route_refs":["2","10"]},"geometry":{"type":"LineString","coordinates":[[38.7578677,55.0610826],[38.7579389,55.0608546]]}},{"type":"Feature","properties":{"way_id":260061808,"route_colors":[],"route_refs":["2","10"]},"geometry":{"type":"LineString","coordinates":[[38.7569884,55.0637523],[38.7570851,55.0634982]]}},{"type":"Feature","properties":{"way_id":260061801,"route_colors":[],"route_refs":["2","10"]},"geometry":{"type":"LineString","coordinates":[[38.754414,55.0668499],[38.7546884,55.0666634]]}},{"type":"Feature","properties":{"way_id":260061812,"route_colors":[],"route_refs":["2","10"]},"geometry":{"type":"LineString","coordinates":[[38.7433928,55.0594356],[38.7436121,55.0592882]]}},{"type":"Feature","properties":{"way_id":172065381,"route_colors":[],"route_refs":["2","10"]},"geometry":{"type":"LineString","coordinates":[[38.7480665,55.0561805],[38.7480979,55.0560129],[38.7481171,55.0559359],[38.7481356,55.0558928],[38.7482026,55.0558264],[38.7482741,55.0557722],[38.7483857,55.0557343],[38.7485157,55.0557228],[38.7486629,55.0557269],[38.7487937,55.055757],[38.7489016,55.0558017],[38.7489927,55.0558734],[38.749034,55.0559527],[38.749046,55.0560024],[38.749052,55.0560626]]}},{"type":"Feature","properties":{"way_id":242508166,"route_colors":[],"route_refs":["2","10"]},"geometry":{"type":"LineString","coordinates":[[38.749052,55.0560626],[38.7491255,55.0561802],[38.7491401,55.0561973],[38.7491758,55.0562367],[38.7495498,55.0564101],[38.7496224,55.0564452],[38.750179,55.0567146],[38.7514428,55.0573263],[38.752511,55.0578432],[38.7529611,55.058071],[38.7534383,55.0583125],[38.7535409,55.0583621],[38.7536033,55.0583936],[38.7575372,55.0602865],[38.7577321,55.0603825],[38.7578784,55.0605075]]}},{"type":"Feature","properties":{"way_id":259096644,"route_colors":[],"route_refs":["2","10"]},"geometry":{"type":"LineString","coordinates":[[38.7578784,55.0605075],[38.757936,55.0606439],[38.7579362,55.0607145],[38.7579247,55.060784],[38.7578785,55.0609148],[38.7578214,55.0610949],[38.7573496,55.0625567],[38.7569971,55.0636484],[38.7569578,55.0637634],[38.7565489,55.0650193],[38.7564499,55.0652774],[38.756412,55.065356],[38.7563269,55.0654899],[38.7562197,55.0655665],[38.7559579,55.0657612],[38.7549299,55.0664575],[38.7543943,55.0668232]]}},{"type":"Feature","properties":{"way_id":168095109,"route_colors":[],"route_refs":["2","10"]},"geometry":{"type":"LineString","coordinates":[[38.7543943,55.0668232],[38.7542866,55.0668971],[38.754199,55.0669556],[38.7537177,55.0672773],[38.7536889,55.0673468],[38.7536923,55.0674445],[38.7537398,55.0675278]]}},{"type":"Feature","properties":{"way_id":168095561,"route_colors":[],"route_refs":["2"]},"geometry":{"type":"LineString","coordinates":[[38.7630546,55.0806203],[38.7629624,55.0806202],[38.7628974,55.0806202],[38.7628057,55.080612],[38.7627112,55.0805894],[38.7626463,55.0805508],[38.7625645,55.080501],[38.7625368,55.0804696],[38.7624577,55.0803851]]}},{"type":"Feature","properties":{"way_id":168095114,"route_colors":[],"route_refs":["2","10"]},"geometry":{"type":"LineString","coordinates":[[38.7410397,55.0614005],[38.7409709,55.0613445],[38.7409402,55.0613141],[38.7409341,55.061308],[38.7409298,55.0612996],[38.7409177,55.0612763],[38.7408978,55.0612376],[38.7409064,55.0611848],[38.7409182,55.0611397],[38.7409569,55.0610974],[38.7415221,55.0607086],[38.7435266,55.0593714],[38.7436575,55.0592868],[38.7475956,55.0566056],[38.7477216,55.0565245]]}},{"type":"Feature","properties":{"way_id":229498485,"route_colors":[],"route_refs":["2","10"]},"geometry":{"type":"LineString","coordinates":[[38.7477216,55.0565245],[38.7478712,55.0564246],[38.7479722,55.0563572],[38.7480162,55.0563029],[38.7480665,55.0561805]]}},{"type":"Feature","properties":{"way_id":260061816,"route_colors":[],"route_refs":["4"]},"geometry":{"type":"LineString","coordinates":[[38.7480641,55.0564213],[38.748146,55.0563886],[38.7482794,55.0563518]]}},{"type":"Feature","properties":{"way_id":260061803,"route_colors":[],"route_refs":["4"]},"geometry":{"type":"LineString","coordinates":[[38.7437845,55.0592829],[38.7440041,55.0591376]]}},{"type":"Feature","properties":{"way_id":260061809,"route_colors":[],"route_refs":["4"]},"geometry":{"type":"LineString","coordinates":[[38.7542921,55.0668165],[38.7545209,55.0666553]]}},{"type":"Feature","properties":{"way_id":260061799,"route_colors":[],"route_refs":["4"]},"geometry":{"type":"LineString","coordinates":[[38.7567871,55.0640363],[38.7568705,55.0637765]]}},{"type":"Feature","properties":{"way_id":260061800,"route_colors":[],"route_refs":["4"]},"geometry":{"type":"LineString","coordinates":[[38.757652,55.061366],[38.7577365,55.06111]]}},{"type":"Feature","properties":{"way_id":260061806,"route_colors":[],"route_refs":["4"]},"geometry":{"type":"LineString","coordinates":[[38.7539769,55.0586443],[38.7535961,55.0584641]]}},{"type":"Feature","properties":{"way_id":229498487,"route_colors":[],"route_refs":["4"]},"geometry":{"type":"LineString","coordinates":[[38.7480594,55.0563885],[38.747935,55.0564566],[38.7477793,55.0565419],[38.7438425,55.0592017],[38.7436924,55.0593019],[38.7415644,55.0607293],[38.7410074,55.0611069],[38.7409655,55.0611631],[38.740952,55.0612242],[38.7409759,55.061269],[38.7409829,55.0612822],[38.7410084,55.0613076],[38.7410784,55.0613774]]}},{"type":"Feature","properties":{"way_id":168095563,"route_colors":[],"route_refs":["4"]},"geometry":{"type":"LineString","coordinates":[[38.7625088,55.0803702],[38.7625606,55.0804354],[38.762676,55.0805217],[38.7627434,55.0805597],[38.7628213,55.080586],[38.7628775,55.0805918],[38.7629365,55.0805968],[38.7630485,55.0805962]]}},{"type":"Feature","properties":{"way_id":168095116,"route_colors":[],"route_refs":["4"]},"geometry":{"type":"LineString","coordinates":[[38.7536787,55.0675471],[38.7536342,55.0674752],[38.7536229,55.0674569],[38.7536203,55.067375],[38.7536463,55.0673062],[38.753684,55.0672525],[38.7541538,55.0669331],[38.7542391,55.0668751],[38.754523,55.0666848]]}},{"type":"Feature","properties":{"way_id":242508167,"route_colors":[],"route_refs":["4"]},"geometry":{"type":"LineString","coordinates":[[38.754523,55.0666848],[38.7548842,55.0664355],[38.7559093,55.0657442],[38.7561538,55.0655646],[38.7562834,55.0654671],[38.7563555,55.0653588],[38.7563977,55.0652703],[38.7564872,55.065014],[38.7568633,55.0638875],[38.756906,55.0637556],[38.7572908,55.0625659],[38.7577363,55.0611886],[38.7577694,55.0610898],[38.7578256,55.0609052],[38.7578682,55.0607762],[38.7578812,55.0607136],[38.757877,55.0606468],[38.7578194,55.0605173]]}},{"type":"Feature","properties":{"way_id":259096643,"route_colors":[],"route_refs":["4"]},"geometry":{"type":"LineString","coordinates":[[38.7578194,55.0605173],[38.7576967,55.0604051],[38.7575004,55.0603123],[38.7537976,55.058522],[38.7535766,55.058414],[38.7535089,55.0583809],[38.7529261,55.0580946],[38.7524774,55.0578741],[38.751403,55.057354],[38.750137,55.0567412],[38.749582,55.0564725],[38.7495003,55.056433],[38.7492979,55.0563363],[38.7492009,55.056297],[38.749109,55.056279],[38.7490619,55.0562728],[38.7489841,55.0562684],[38.7488714,55.056262],[38.7486072,55.0562775]]}},{"type":"Feature","properties":{"way_id":168095117,"route_colors":[],"route_refs":["4"]},"geometry":{"type":"LineString","coordinates":[[38.7486072,55.0562775],[38.7483593,55.0563163],[38.7482066,55.056346],[38.7480594,55.0563885]]}}]}