{"type":"FeatureCollection","features":[{"type":"Feature","properties":{"route_ref":"U46","route_color":"#8874c7"},"geometry":{"type":"LineString","coordinates":[[7.4599191951494035,51.49694179686355],[7.459735241882007,51.497692406701994],[7.459945016433182,51.496864830873186],[7.458906582382149,51.50086572259324],[7.45869549006938,51.50309006299326],[7.458911768046353,51.50413677233943],[7.459697933565996,51.50538720579428],[7.460910646122537,51.508234738773204],[7.461485986408249,51.50913680070625],[7.462052651659103,51.509581828081345],[7.462857936684581,51.51001107259832],[7.4666416,51.5115764],[7.467341928917649,51.512028551882636],[7.4679257913689945,51.51273867086104],[7.468237696130669,51.513612340346974],[7.468681018857828,51.51648315864719],[7.4693983459118956,51.51848160359231],[7.46952545986842,51.51856377642699],[7.470169597584774,51.52219279282763],[7.470290837625307,51.52227574600888],[7.4702039,51.522374],[7.470360594234467,51.522840992364245],[7.4703446916750025,51.52354386620595],[7.470597291247813,51.52459661264055]]}},{"type":"Feature","properties":{"route_ref":"U42","route_color":"#8874c7"},"geometry":{"type":"LineString","coordinates":[[7.4354037,51.4699532],[7.4354580574126645,51.47127708988136],[7.435723827606233,51.47283134505474],[7.4354164282785415,51.47559446071484],[7.435458464293939,51.476609364785205],[7.435872900498116,51.47789406938379],[7.436052771806257,51.4798727034013],[7.43588291593347,51.48026588290558],[7.43525337490776,51.48079488535725],[7.433732105552651,51.48127028748128],[7.433129096767933,51.48165683064582],[7.433069691094902,51.48288104859039],[7.433564931697529,51.4845413929219],[7.434708057896824,51.48577258299157],[7.4358533416513435,51.48668219852182],[7.4398154104988325,51.49200155246444],[7.445421188091194,51.49636892121126],[7.446268804308995,51.49691789802955],[7.4462719322446365,51.497013829692754],[7.448219388636597,51.49829192567202],[7.449158349999994,51.49916345],[7.449711087939441,51.5000478989089],[7.450015467972008,51.50122241298228],[7.449938719667513,51.50267965828769],[7.44980986,51.50324674],[7.449625207212383,51.50341430012892],[7.4496470374899175,51.50458226057964],[7.449999166666665,51.5053726],[7.449930734195474,51.50546714299633],[7.450090799999999,51.5055368],[7.4508935023003415,51.50660392713898],[7.451461967374153,51.50704205810909],[7.4514568039220235,51.507168502980534],[7.452872906842257,51.50804027090211],[7.45431522497581,51.50864049394763],[7.456074816253177,51.5090007761926],[7.4562157173036585,51.508918306057865],[7.459875621000518,51.509062345982315],[7.46093907337671,51.50919009771514],[7.461627161931104,51.509377810243876],[7.46249744066524,51.50972040697442],[7.462525518730337,51.5098620620376],[7.466193094457895,51.511317412714824],[7.467166302721089,51.511878966021335],[7.4676929771217,51.51240670023007],[7.468126316237637,51.513147868992576],[7.468686022742888,51.515749843608276],[7.469582665329509,51.51843418402715],[7.470385666666667,51.52218796666667],[7.470470593822947,51.523771059887515],[7.470792802500075,51.525135438841474],[7.4710417,51.5256034],[7.470983427301029,51.52583269025915],[7.471546057652777,51.5268123966064],[7.472199217586541,51.52909541776004],[7.474536691887612,51.534853098406984],[7.476455215603139,51.54110871096734],[7.4768772963651395,51.54173812614087],[7.477730003038585,51.542577573750336],[7.4785628002481035,51.543156895046],[7.479447417613845,51.54358540066504],[7.483119392363068,51.544716552776414],[7.485212379426138,51.54550642219899],[7.4864643879666035,51.54610574175563],[7.487850102894013,51.54696251098585],[7.4901715087591105,51.54869950096489],[7.493115667417335,51.55068249344978],[7.493300349999992,51.55069470000001],[7.4952466180745985,51.551801195355374],[7.49689472401139,51.552905448891785],[7.49783570275282,51.55341176490383],[7.499601331669969,51.55390035028022],[7.502236337215944,51.55437020472457],[7.504151729422779,51.55481186615084],[7.506805152042052,51.55488261709072],[7.511027268528303,51.554846137876396],[7.514184526600631,51.55464482194561],[7.5160711073153745,51.554348872307976],[7.518081626771589,51.55369190281219],[7.524887346880746,51.55057952553974],[7.525640014932814,51.55033769385438],[7.526765488921979,51.550129006768614],[7.529679772682344,51.549917284385934],[7.532812078677073,51.54954258153746],[7.534096379442925,51.54948868777067],[7.538571672672737,51.549625676699684],[7.540282439700953,51.54978034748412],[7.541508701329297,51.55022517125225],[7.54220219670673,51.55071424569648],[7.542582078611042,51.55125597315757],[7.542789264095014,51.552277825893235],[7.542888837023478,51.55616386874907],[7.543279752011817,51.558046801341746],[7.543089821319201,51.55729121785145]]}},{"type":"Feature","properties":{"route_ref":"U45","route_color":"#8874c7"},"geometry":{"type":"LineString","coordinates":[[7.456262160063775,51.53532598336544],[7.455938853399204,51.533695928592245],[7.456081499714058,51.53293078783646],[7.45657488497702,51.53163390596213],[7.4573765397837795,51.53093655576117],[7.460628572167813,51.52895683697856],[7.460995051598906,51.52853201130789],[7.460950358630122,51.528237796602156],[7.460263637005054,51.52732835765746],[7.460183020764071,51.52698002524873],[7.460318075466358,51.52555779724522],[7.460255584805638,51.52605658404169],[7.4603901076319055,51.52612851321052],[7.460237200008108,51.52611185917983],[7.460188462276588,51.52658296472362],[7.460253421651132,51.52499356349444],[7.459904440649552,51.5234813219967],[7.460069462982372,51.52221473723994],[7.459936952317903,51.52138434834495],[7.4600959666666675,51.52068126666667],[7.460145469045739,51.51882600533442],[7.460537865476569,51.51730461118545],[7.460884471385755,51.51681044545825],[7.461749302907258,51.51608471985626],[7.4621621313456465,51.515244027621655],[7.462315913230736,51.51439669429024],[7.462130428664794,51.51319979265786],[7.462377778880984,51.512180120045116],[7.46285091564442,51.51163916957455],[7.46360730431969,51.51113877478385],[7.466802326763703,51.50996749396294],[7.4680365796996435,51.509235969184175],[7.470423971885041,51.506568666362014],[7.470361164589565,51.50646181289549],[7.4707149353055105,51.5061895871887],[7.470759476228685,51.505878951654964],[7.4710286389277005,51.50565188134056],[7.471285262986594,51.50482763586084],[7.47156955,51.5043809],[7.47154221800966,51.50416884945841],[7.4717224,51.5041273],[7.472025498236422,51.50357953205173],[7.474197716666667,51.50140569166666],[7.474504953823593,51.50090532757184],[7.474443305985683,51.500032932128605],[7.474197089452401,51.49965476191497],[7.4736224307390025,51.499170719810756],[7.472239879605753,51.49866747072452],[7.470545701714534,51.49833690103096],[7.469440539294613,51.49770609950986],[7.4687543996266035,51.496713227161486],[7.468528016172396,51.495801174978865],[7.4688616994874595,51.49694449446669],[7.469493539408859,51.497777127425664],[7.470540216087,51.498359573745574],[7.472147832447809,51.49865117331397],[7.473334332807858,51.49900787868365],[7.473640640412527,51.49917895515634],[7.474421621668579,51.49998693080064],[7.4745027613058435,51.50088060815775],[7.474083868460899,51.50151045283151],[7.471701748713095,51.503934162809394],[7.4712856979637925,51.504642220691494],[7.470907458832344,51.50573189028568],[7.470048330616412,51.506868291860776],[7.470070318220962,51.50697529301013],[7.469845559185552,51.507097537456396],[7.468148050560936,51.50908126437624],[7.4670087217500045,51.509864353565156],[7.463478108757703,51.511201263694026],[7.462700017302473,51.51177374660761],[7.462252765634037,51.51235106434915],[7.4621333871792155,51.513218556622355],[7.462318206179047,51.51432209097037],[7.462153654328518,51.51514422434101],[7.461813834907973,51.516005889620196],[7.460789756309139,51.51689766120496],[7.460400844203866,51.51756495156733],[7.459852733333334,51.521045533333336],[7.460022245452839,51.522169527535105],[7.45997666238728,51.52258185645979],[7.459774145630893,51.52269199941158],[7.459778711162454,51.52300553224518],[7.459951225426416,51.523174253080924],[7.459796180410266,51.52326444615511],[7.459957039252146,51.52333720292705],[7.459815725863366,51.52342735310649],[7.460254092518667,51.52525672088105],[7.460174265418823,51.526969858961294],[7.46022259962345,51.52724204550404],[7.460910575410871,51.52816564791289],[7.4610008,51.5285099],[7.460401300547769,51.5291117168882],[7.457354227319454,51.53094930538729],[7.456566848016583,51.531644192120275],[7.456083877994131,51.532935084247654],[7.455931719212493,51.533786955813305],[7.456405688901747,51.53641525603836],[7.456260914789567,51.53683665037537],[7.455784198724004,51.53695079541542],[7.455527646528951,51.53680184462908],[7.455525519671462,51.53664054561924],[7.4561505126166985,51.53578385102621],[7.456279792513096,51.535322061296796]]}},{"type":"Feature","properties":{"route_ref":"U44","route_color":"#7fd2e6"},"geometry":{"type":"LineString","coordinates":[[7.3862732860669436,51.509452945038575],[7.385763492392915,51.509518095351794],[7.38734583373218,51.509292973197525],[7.38919367666978,51.50882443528656],[7.390547550654713,51.50904724381237],[7.391464729746345,51.50852648935474],[7.392170614922011,51.50846210966937],[7.393502357747595,51.50906959147198],[7.396191799999998,51.509418866666664],[7.399026848007252,51.50998320354793],[7.401781870588235,51.51058524117647],[7.407562000000001,51.512029000000005],[7.413727882145536,51.51278368082952],[7.414402158982388,51.512812804067245],[7.415357640153304,51.51271583983266],[7.41724422708548,51.5121710848788],[7.418297741639137,51.51268641396413],[7.419137323852036,51.512893284529966],[7.420929367377267,51.51284581178898],[7.422931315549627,51.51308841379191],[7.424672707033768,51.51300350735044],[7.4254456,51.5128637],[7.427789963948951,51.51166546098713],[7.429686506646379,51.511510526665745],[7.437797641395459,51.51249687466394],[7.4392788181160805,51.51271083374673],[7.440663633164882,51.51303009056213],[7.4467785,51.512995700000005],[7.452527053168111,51.513498019695206],[7.4540562499999945,51.51373705],[7.457314753330321,51.514640410291925],[7.459413339114023,51.514954338485666],[7.461956087835935,51.515096849971115],[7.465718433333333,51.51488150000001],[7.46869265,51.515077950000006],[7.472290651245965,51.51504708419699],[7.472911507696272,51.515105008751085],[7.473464223994638,51.51523740397067],[7.474075011254504,51.515560281894814],[7.474436227093062,51.51586000739329],[7.474664444105063,51.5164220677239],[7.474652834759992,51.5181223079572],[7.474034850000001,51.5194909],[7.473864172292614,51.52027076092789],[7.476439341992719,51.52137978705433],[7.481174032592695,51.52322147549153],[7.48158681391253,51.5234773080009],[7.48218107142857,51.524789271428574],[7.48373378676282,51.52910501108063],[7.483518420806284,51.52861498081789]]}},{"type":"Feature","properties":{"route_ref":"U43","route_color":"#7fd2e6"},"geometry":{"type":"LineString","coordinates":[[7.418883686789906,51.51332500452281],[7.418924233348547,51.5129759447996],[7.4195015198197245,51.512863803742654],[7.420929367377267,51.51284581178898],[7.422931315549627,51.51308841379191],[7.425136705290132,51.51295181520329],[7.427789963948951,51.51166546098713],[7.429387679473445,51.511504162010105],[7.437797641395459,51.51249687466394],[7.4392788181160805,51.51271083374673],[7.440663633164882,51.51303009056213],[7.4467785,51.512995700000005],[7.452527053168111,51.513498019695206],[7.4540562499999945,51.51373705],[7.457447326059445,51.51466586388216],[7.459413339114023,51.514954338485666],[7.461205724893957,51.5150796476702],[7.462307872763679,51.51508389842012],[7.465181099459162,51.51488172393367],[7.468860422608129,51.515082210260964],[7.473717442600664,51.514935880321985],[7.4738491000000025,51.51485880000001],[7.4741582381360265,51.51488429652214],[7.476963350000003,51.51451325000001],[7.482570383530877,51.51402215569211],[7.486444312776504,51.513499012894535],[7.489145246820306,51.51380485399231],[7.4883074305517585,51.5136862560001],[7.491460251968836,51.51427560028665],[7.497114,51.5142511],[7.500386064385221,51.51520553528561],[7.503534721680508,51.515786640102434],[7.505100372140851,51.51592957900306],[7.50690369010872,51.51583147370848],[7.508652037722563,51.51617953635826],[7.510283571833282,51.5169582756594],[7.512301855117307,51.51849669703367],[7.514047338843427,51.519658108728926],[7.515858155157451,51.52039354029823],[7.517247111325693,51.5206889199864],[7.523368050275217,51.5210204307905],[7.525859515753167,51.521416511102125],[7.53121070106045,51.52247819353974],[7.540796404829397,51.5227104270713],[7.545052656159776,51.52352418068402],[7.547758648841393,51.52371715133518],[7.549716994163419,51.52402416192893],[7.552477709868784,51.524024398298515],[7.5612184478474935,51.5246828892702],[7.570248742674422,51.52642400769903],[7.575820433196285,51.52761282570534],[7.576986056260208,51.527760589369784],[7.578639537214593,51.52779731727035],[7.581526070951473,51.52805912395514],[7.58421785597414,51.52796693451038],[7.587522155964112,51.5282349816777],[7.587585202750306,51.5281802544256],[7.590419923594021,51.528822956198375],[7.592155032937926,51.52911956345434],[7.601627393015543,51.5301653399706],[7.605692887500001,51.5311913375],[7.6083590000309735,51.53196305995758],[7.612653928233753,51.53253893872131],[7.614751139653537,51.532731737450725]]}},{"type":"Feature","properties":{"route_ref":"U47","route_color":"#a3d20b"},"geometry":{"type":"LineString","coordinates":[[7.5561498407212,51.493263826340396],[7.555533062678381,51.49518031802468],[7.55472,51.4968313],[7.553283733333329,51.4986094],[7.5518722,51.499690799999996],[7.550336459999996,51.50125498],[7.548347213320435,51.502987469973455],[7.545910591680366,51.50577219279866],[7.544597986882022,51.507643041331406],[7.543728964616009,51.50815336336617],[7.542703665265413,51.50840543062655],[7.541251291721092,51.508343273707254],[7.529627655996124,51.50658816021992],[7.52455081752157,51.50566875620526],[7.5218349874999975,51.505039587500015],[7.515471399135912,51.503879812727135],[7.501089838146477,51.50376597401137],[7.497713654274777,51.5035973011258],[7.491515413110326,51.502682542330625],[7.485015024834776,51.50099091333312],[7.481184299999999,51.500274540000014],[7.478301106665932,51.49990018048645],[7.47705721108899,51.499961789295966],[7.4761801510553525,51.50015119117334],[7.475381470312206,51.50049106589927],[7.474635877853209,51.50100232278917],[7.4720275714285735,51.50355211428571],[7.471496734017883,51.50422891697764],[7.470907458832344,51.50573189028568],[7.470048330616412,51.506868291860776],[7.470070318220962,51.50697529301013],[7.469845559185552,51.507097537456396],[7.468068046248864,51.509154128272286],[7.4670087217500045,51.509864353565156],[7.463478108757703,51.511201263694026],[7.463028402137687,51.511474820783604],[7.462435587343249,51.512084004509525],[7.462187543573094,51.51257127906753],[7.462136700000001,51.51330743333333],[7.462318206179047,51.51432209097037],[7.462035814859206,51.515524608579625],[7.461813834907973,51.516005889620196],[7.460789756309139,51.51689766120496],[7.460400844203866,51.51756495156733],[7.4594797,51.5225314],[7.459083266666668,51.523221433333326],[7.4584302333333365,51.52369486666666],[7.45772163793684,51.523972347538944],[7.456528896099919,51.52414551565851],[7.45211095,51.52384120000001],[7.445413929349536,51.524066516124954],[7.441916561859511,51.52395411136929],[7.435546046930832,51.52406871327267],[7.433051086033215,51.52395394969826],[7.430926041803094,51.52370228028807],[7.425518790382581,51.52277259711229],[7.423831168133718,51.52258629080203],[7.422989698457224,51.52263967660601],[7.42264522881884,51.52286923672334],[7.422668086273658,51.523206347355654],[7.423608282195579,51.52403169965927],[7.423906193458642,51.524693344874535],[7.423913361449923,51.525470814987905],[7.423545486177902,51.52646871852865],[7.423285615044333,51.52689270883919],[7.4212492614011625,51.52918179058429],[7.4207953178811925,51.52990287276916],[7.419084710616749,51.53121656468622],[7.417590979566499,51.532679006864186],[7.41727878153007,51.53321880654537],[7.4169878916155305,51.53434904110824],[7.4167333774685575,51.53449612528076],[7.415359860482045,51.53469371157403],[7.4140006,51.5350755],[7.413213488291069,51.53536994224229],[7.412759354406817,51.53566445117778],[7.409312897624694,51.539266275581156],[7.408654145262802,51.53971070742641],[7.407561314098042,51.54021689865999],[7.407141192474844,51.5405540319647],[7.404795626093592,51.543898666212556],[7.4031606831285055,51.54525945914139],[7.4012486117038065,51.547192126633206],[7.400538220486772,51.5477405834267],[7.398226362749163,51.54880219283457],[7.397484047613136,51.54898673766111],[7.396709204059267,51.549027242835564],[7.395869983943707,51.54891542780936],[7.393880824727821,51.54836874454685],[7.386574914669598,51.547083967350275],[7.384471467057293,51.54706602867593],[7.3820716528526935,51.54748402975028]]}},{"type":"Feature","properties":{"route_ref":"U49","route_color":"#a3d20b"},"geometry":{"type":"LineString","coordinates":[[7.443186981750879,51.52401476329844],[7.445345049999999,51.52406899999999],[7.452390187341245,51.52383000803113],[7.45584495,51.524129699999996],[7.45747931749428,51.52413889965627],[7.4579863,51.5240555],[7.45881886113907,51.523747141246666],[7.45933165,51.52341445],[7.4597013,51.522970066666666],[7.4600630266534775,51.52203742264211],[7.460052838381467,51.520144380273585],[7.460361982801238,51.51771385220482],[7.460884471385755,51.51681044545825],[7.4618138382403325,51.516000995290376],[7.4621621313456465,51.515244027621655],[7.462315913230736,51.51439669429024],[7.462130428664794,51.51319979265786],[7.4624414161902175,51.5120783748383],[7.463144184979735,51.51139369446286],[7.46360730431969,51.51113877478385],[7.466802326763703,51.50996749396294],[7.4680365796996435,51.509235969184175],[7.470423971885041,51.506568666362014],[7.470361164589565,51.50646181289549],[7.4707149353055105,51.5061895871887],[7.470759476228685,51.505878951654964],[7.4710286389277005,51.50565188134056],[7.471285262986594,51.50482763586084],[7.47156955,51.5043809],[7.47154221800966,51.50416884945841],[7.4717224,51.5041273],[7.472025498236422,51.50357953205173],[7.474197716666667,51.50140569166666],[7.474504953823593,51.50090532757184],[7.474443305985683,51.500032932128605],[7.474197089452401,51.49965476191497],[7.4736224307390025,51.499170719810756],[7.4727590651347375,51.498810477256775],[7.470799956963296,51.49841008438948],[7.470219161699125,51.49821669757435],[7.469440539294613,51.49770609950986],[7.46886997720194,51.49694627328075],[7.4676297467632935,51.493723548289324],[7.467535349421645,51.49117659494495],[7.467170739624108,51.488885519292275],[7.46717761725107,51.48803082709115],[7.467321391422407,51.487319421426136],[7.467857533095032,51.48633500973301],[7.468692179756964,51.485521862771456],[7.470131861902515,51.48458466160269],[7.473601221868875,51.48317495605069],[7.474521276005402,51.48245151642021],[7.475324378487715,51.48099345530344],[7.475672210737412,51.47996746930508],[7.475803212246277,51.4786034057956],[7.47571835572764,51.476880570377084]]}},{"type":"Feature","properties":{"route_ref":"U41","route_color":"#a3d20b"},"geometry":{"type":"LineString","coordinates":[[7.501640158542169,51.48290232869152],[7.501500090437104,51.483319802983615],[7.501623568303343,51.48508387903752],[7.50154957408421,51.48578114461134],[7.50035453577312,51.488926742750664],[7.50038262304677,51.48922781320964],[7.50016822857143,51.4893877],[7.500019313851322,51.49004301976676],[7.4980574669185485,51.49344586403551],[7.497034479037631,51.495514030605804],[7.496357333016859,51.49645690067346],[7.495180168112888,51.497149942392404],[7.494477775941288,51.49743815747189],[7.489513158380664,51.499091552407236],[7.4872960051237065,51.50050790559724],[7.486340186244608,51.500733763369475],[7.48550425,51.500824599999994],[7.4843229,51.500773980000005],[7.478465365949983,51.49990445300414],[7.476805456151655,51.49999763015425],[7.475650147573879,51.500349067590996],[7.474346873093887,51.50124632709715],[7.4720275714285735,51.50355211428571],[7.471496734017883,51.50422891697764],[7.470907458832344,51.50573189028568],[7.470048330616412,51.506868291860776],[7.470070318220962,51.50697529301013],[7.469845559185552,51.507097537456396],[7.468068046248864,51.509154128272286],[7.4670087217500045,51.509864353565156],[7.463478108757703,51.511201263694026],[7.462700017302473,51.51177374660761],[7.462252765634037,51.51235106434915],[7.4621333871792155,51.513218556622355],[7.462318206179047,51.51432209097037],[7.462153654328518,51.51514422434101],[7.461813834907973,51.516005889620196],[7.460789756309139,51.51689766120496],[7.460400844203866,51.51756495156733],[7.459852733333334,51.521045533333336],[7.460022245452839,51.522169527535105],[7.45997666238728,51.52258185645979],[7.459774145630893,51.52269199941158],[7.459778711162454,51.52300553224518],[7.459951225426416,51.523174253080924],[7.459796180410266,51.52326444615511],[7.459957039252146,51.52333720292705],[7.459815725863366,51.52342735310649],[7.460254092518667,51.52525672088105],[7.460174265418823,51.526969858961294],[7.46022259962345,51.52724204550404],[7.460910575410871,51.52816564791289],[7.4610008,51.5285099],[7.460401300547769,51.5291117168882],[7.457354227319454,51.53094930538729],[7.456696748764005,51.53146701613471],[7.456083877994131,51.532935084247654],[7.455929702858636,51.533857443612334],[7.456439534989728,51.53630747447929],[7.456108978424693,51.537982757261574],[7.456331187226283,51.53867710153901],[7.46067173891138,51.54611799670036],[7.461680691633507,51.547524996954245],[7.462231162503114,51.54868785643109],[7.465478603676054,51.55431121688582],[7.464635333333334,51.559099266666664],[7.4650447319332685,51.56838400792884],[7.464916155048075,51.56926791969584],[7.464776,51.5694265],[7.462689215354988,51.576886403585576],[7.4626192626648935,51.577589502740416],[7.46282573711223,51.58103270433125],[7.462489519640693,51.58140432523328],[7.460529342569698,51.58188784957105],[7.45438338221717,51.58308431579675],[7.4508217760596835,51.583884745777794],[7.442407430284993,51.587475525363715],[7.441993618045273,51.58785873263106],[7.441728350000001,51.5883624],[7.439895657460635,51.59420135839526],[7.439925793131621,51.59442686132678],[7.440129902989242,51.594577825395],[7.441339185503134,51.59483881380529]]}}]}