{"type":"FeatureCollection","features":[{"type":"Feature","properties":{"route_ref":"1","route_color":"#ff8a8a"},"geometry":{"type":"LineString","coordinates":[[28.431075964510597,49.21368923913627],[28.431071930924293,49.21338985936412],[28.431475055622364,49.21343077153804],[28.431516487842483,49.21386587727213],[28.431679421073106,49.21400830168849],[28.43715208064583,49.217377761022135],[28.44485653233795,49.22440229216644],[28.44689654468913,49.225813365495036],[28.44741561225463,49.226489945602665],[28.449024629866596,49.227458078494635],[28.45244161846162,49.229285354033884],[28.45335282043296,49.229620985525344],[28.456090699999997,49.23126904],[28.456455053034187,49.23160082481224],[28.457100753517306,49.23265173251807],[28.45820198148811,49.23383207356334],[28.458559535467288,49.234070067939086],[28.46040923641738,49.23423110602492],[28.461484923525433,49.234209871079095],[28.471127974559383,49.23263617820925],[28.47787617502035,49.233774782246996],[28.485588252093855,49.235542702132946],[28.488508365823183,49.23677617712406],[28.489446728013387,49.23703640534132],[28.492794683807247,49.238623019203125],[28.49328495141612,49.23897079871624],[28.49341614901308,49.23935435254271],[28.493034097060523,49.244879920752744],[28.493077764621486,49.24577058640509],[28.49317311099245,49.24590199288117],[28.493416018543286,49.24597431541364],[28.50734865895375,49.24657853364662],[28.507934365318828,49.24648997199425],[28.508479807605283,49.246097309655056],[28.508616816733248,49.24560735434203],[28.508801740000003,49.24230658],[28.509059714488313,49.24080180094067],[28.5092050591895,49.240631497263074],[28.50958909143559,49.24066176989767],[28.509849561520863,49.24112388727756],[28.50973260860533,49.24124970708581],[28.508992311107686,49.24153104066955],[28.50885811200554,49.24184925999899],[28.508617657142857,49.245606957142854],[28.508520734273265,49.24602409797817],[28.508250442403483,49.246424854909016],[28.508017562597836,49.248247907786116],[28.507779385599207,49.24839956501023],[28.507412612499998,49.24844543125],[28.49770868,49.24818176666667],[28.49324323333333,49.24803026666667],[28.49287612307452,49.24795636769957],[28.492796144444444,49.24757261111111],[28.493347780603838,49.239166402651925],[28.492889280510326,49.23867148288193],[28.490802856959167,49.23765940418509],[28.489567559509894,49.237085149409346],[28.488505390532517,49.23677820772315],[28.4855895,49.2355431],[28.477869755633463,49.23378653360987],[28.471124447786504,49.23263643376441],[28.461485112449164,49.234209899311914],[28.46029238798865,49.23422607865799],[28.458548353787975,49.23406925526149],[28.45811011972525,49.233744093294106],[28.45719053687079,49.23275081637037],[28.456407225522483,49.231667451367706],[28.452313880488088,49.22922012003009],[28.4490637757552,49.227482947962066],[28.44736326017172,49.22645149074293],[28.446834399707768,49.225768779313235],[28.44502196997163,49.224552651905825],[28.436915913589036,49.21719962271895],[28.4310747,49.21369]]}},{"type":"Feature","properties":{"route_ref":"5","route_color":"#ff8a8a"},"geometry":{"type":"MultiLineString","coordinates":[[[28.45188245071925,49.23366859418309],[28.446676967735566,49.23336667144411],[28.437808752360663,49.234293877934405],[28.414956117418743,49.23439611555812],[28.409625287400008,49.235537829155426],[28.406557914618116,49.23666482792346],[28.405923152341597,49.236802989037116],[28.40506941885005,49.23668994285787],[28.40315702395595,49.236012880763965],[28.403010273341536,49.23584047592094],[28.40316971643815,49.23562757304027],[28.40338618347128,49.235622835972585],[28.403605680590637,49.23572236412965],[28.4039405387619,49.236238973005854],[28.405237941682596,49.23674133289193],[28.40602132148744,49.236796950213765],[28.409629391716045,49.23553721825908],[28.414959365984565,49.23439627092458],[28.43781128295371,49.234293432528794],[28.446676119871203,49.2333562703564],[28.45713768339795,49.23398146930529],[28.45775596636818,49.233935609174274],[28.457943770771575,49.233811585517095],[28.4579386,49.2335836],[28.45798385442428,49.2337503547261],[28.457696727255154,49.23395213778427],[28.45663829552504,49.233950676713654]],[[28.431075964510597,49.21368923913627],[28.431071930924293,49.21338985936412],[28.431475055622364,49.21343077153804],[28.431516487842483,49.21386587727213],[28.431679421073106,49.21400830168849],[28.43715208064583,49.217377761022135],[28.44485653233795,49.22440229216644],[28.44689654468913,49.225813365495036],[28.44741561225463,49.226489945602665],[28.449024629866596,49.227458078494635],[28.45244161846162,49.229285354033884],[28.45335282043296,49.229620985525344],[28.456090699999997,49.23126904],[28.456455053034187,49.23160082481224],[28.456924034966228,49.232441848003106],[28.4579768,49.2335703],[28.456946704447365,49.23247556745921],[28.456407225522483,49.231667451367706],[28.452313880488088,49.22922012003009],[28.4490637757552,49.227482947962066],[28.44736326017172,49.22645149074293],[28.446834399707768,49.225768779313235],[28.44502196997163,49.224552651905825],[28.436915913589036,49.21719962271895],[28.4310747,49.21369]]]}},{"type":"Feature","properties":{"route_ref":"3","route_color":"#ff8a8a"},"geometry":{"type":"LineString","coordinates":[[28.446426987038336,49.2262875131195],[28.434291566666666,49.22557509999999],[28.425959741239893,49.22498723971583],[28.415882637857184,49.22501723459686],[28.399872966648175,49.22754086200975],[28.398749,49.227864450000006],[28.39301579271982,49.228756543507096],[28.392310278743146,49.22900484305667],[28.391451851194848,49.22987809330273],[28.39070434986975,49.23129028613379],[28.390769665256524,49.231523601915896],[28.396918821052626,49.233634131578945],[28.40226779813042,49.23562953733546],[28.402645233221563,49.23569273218509],[28.4033854461296,49.23562409220074],[28.403633269637393,49.23580450163003],[28.403322810289318,49.236022097533514],[28.39764885275129,49.23389914835035],[28.390841600321906,49.23156670773779],[28.390683803734895,49.23143793847773],[28.391610301308287,49.22967225194526],[28.392191256035332,49.2290877459127],[28.392879285257358,49.228788891532865],[28.397938587501343,49.22797732560753],[28.39875275,49.2277015],[28.41576535076587,49.22502637776389],[28.426077838138358,49.22498974900182],[28.439843916434004,49.22592108530097],[28.446149407576392,49.22628478836664],[28.44672858781394,49.22621014024131],[28.446862314623782,49.22602107426518],[28.446673217384557,49.2256480969344],[28.44502196997163,49.224552651905825],[28.4371497033271,49.21737885691892],[28.43107691378227,49.213688523843985],[28.43100280220691,49.213471985554655],[28.431176539734505,49.21336114676933],[28.431499443959012,49.213452922563164],[28.431516487842483,49.21386587727213],[28.431969038472143,49.21420874987034],[28.43715208064583,49.217377761022135],[28.44485653233795,49.22440229216644],[28.446671779532167,49.225644380512136],[28.44685744531535,49.22614092643704],[28.446418156305416,49.22628602093381]]}},{"type":"Feature","properties":{"route_ref":"6","route_color":"#ff8a8a"},"geometry":{"type":"LineString","coordinates":[[28.403158621226297,49.23601104643054],[28.4020645564,49.235522187371004],[28.398258247661655,49.234118561974924],[28.39077240086346,49.231528599146],[28.39068459162878,49.231323834172585],[28.391450967615715,49.22988003095634],[28.39232076222555,49.22899960793552],[28.393143850000005,49.228731950000004],[28.397938587501343,49.22797732560753],[28.39875275,49.2277015],[28.41576535076587,49.22502637776389],[28.426077838138358,49.22498974900182],[28.43392001445889,49.22555184130004],[28.447081090360474,49.22633312458744],[28.45244161846162,49.229285354033884],[28.45335282043296,49.229620985525344],[28.456090699999997,49.23126904],[28.456455053034187,49.23160082481224],[28.456924034966228,49.232441848003106],[28.45811689506316,49.23374869109455],[28.458401034163142,49.23399414123096],[28.458768464921185,49.23412533159756],[28.460734042446322,49.23424503926859],[28.461484923525433,49.234209871079095],[28.471127974559383,49.23263617820925],[28.47787617502035,49.233774782246996],[28.485588252093855,49.235542702132946],[28.488508365823183,49.23677617712406],[28.489446728013387,49.23703640534132],[28.492794683807247,49.238623019203125],[28.49328495141612,49.23897079871624],[28.49341614901308,49.23935435254271],[28.493034097060523,49.244879920752744],[28.493077764621486,49.24577058640509],[28.49317311099245,49.24590199288117],[28.493416018543286,49.24597431541364],[28.50734865895375,49.24657853364662],[28.507934365318828,49.24648997199425],[28.508479807605283,49.246097309655056],[28.508616816733248,49.24560735434203],[28.508801740000003,49.24230658],[28.50908041505819,49.24073634658706],[28.509232883299667,49.24062593745859],[28.50958909143559,49.24066176989767],[28.50986584913915,49.241003112294784],[28.50973260860533,49.24124970708581],[28.50903576041502,49.24150702459675],[28.50890155002124,49.24164567493841],[28.508617657142857,49.245606957142854],[28.508520734273265,49.24602409797817],[28.508250442403483,49.246424854909016],[28.508103574999996,49.248061125],[28.507779385599207,49.24839956501023],[28.50340179333333,49.248346559999995],[28.493042051592276,49.248009252875015],[28.492854983170748,49.247937446565736],[28.49279147665671,49.247660304025864],[28.493347780603838,49.239166402651925],[28.492889280510326,49.23867148288193],[28.490802856959167,49.23765940418509],[28.489567559509894,49.237085149409346],[28.488505390532517,49.23677820772315],[28.485686077588188,49.23557273256218],[28.477869755633463,49.23378653360987],[28.471124447786504,49.23263643376441],[28.461485112449164,49.234209899311914],[28.460876036528603,49.234251202135255],[28.458870941400406,49.23414582670092],[28.458382152319448,49.23398360940579],[28.457800540843763,49.23343464512234],[28.456946704447365,49.23247556745921],[28.456407225522483,49.231667451367706],[28.452313880488088,49.22922012003009],[28.447142696505104,49.22637157040217],[28.426717074980797,49.225021333479816],[28.415764178769045,49.225026454216554],[28.399872966648175,49.22754086200975],[28.398749,49.227864450000006],[28.39301579271982,49.228756543507096],[28.392310278743146,49.22900484305667],[28.391451851194848,49.22987809330273],[28.39070434986975,49.23129028613379],[28.390769665256524,49.231523601915896],[28.396918821052626,49.233634131578945],[28.40226779813042,49.23562953733546],[28.402645233221563,49.23569273218509],[28.4033854461296,49.23562409220074],[28.403600007151574,49.23572358881792],[28.403620164367528,49.23583887264138],[28.403322810289318,49.236022097533514],[28.40316117419559,49.23599574168218]]}},{"type":"Feature","properties":{"route_ref":"2","route_color":"#ff8a8a"},"geometry":{"type":"LineString","coordinates":[[28.45188245071925,49.23366859418309],[28.446676967735566,49.23336667144411],[28.437808752360663,49.234293877934405],[28.414956117418743,49.23439611555812],[28.409625287400008,49.235537829155426],[28.406557914618116,49.23666482792346],[28.40575398551753,49.2368032691711],[28.40506941885005,49.23668994285787],[28.39789274466464,49.23398675398002],[28.390841600321906,49.23156670773779],[28.39068459162878,49.231323834172585],[28.391450967615715,49.22988003095634],[28.39232076222555,49.22899960793552],[28.393143850000005,49.228731950000004],[28.397938587501343,49.22797732560753],[28.39875275,49.2277015],[28.41576535076587,49.22502637776389],[28.426077838138358,49.22498974900182],[28.43392001445889,49.22555184130004],[28.447081090360474,49.22633312458744],[28.45244161846162,49.229285354033884],[28.45335282043296,49.229620985525344],[28.456090699999997,49.23126904],[28.456455053034187,49.23160082481224],[28.456924034966228,49.232441848003106],[28.4579768,49.2335703],[28.456946704447365,49.23247556745921],[28.456407225522483,49.231667451367706],[28.452313880488088,49.22922012003009],[28.447142696505104,49.22637157040217],[28.425959741239893,49.22498723971583],[28.415764178769045,49.225026454216554],[28.399872966648175,49.22754086200975],[28.398749,49.227864450000006],[28.39314794268212,49.22873161539488],[28.392310278743146,49.22900484305667],[28.39179679390146,49.22945995731133],[28.391451851194848,49.22987809330273],[28.390681842881257,49.231420317596594],[28.39084566370143,49.23156845979122],[28.39837966315789,49.23416219473685],[28.402290255040082,49.235602574158456],[28.403299056143158,49.236061333795234],[28.405070006953242,49.236691294993285],[28.40575193562517,49.23680102483164],[28.406420251132605,49.236695943610506],[28.409629391716045,49.23553721825908],[28.414959365984565,49.23439627092458],[28.43781128295371,49.234293432528794],[28.446676119871203,49.2333562703564],[28.45713768339795,49.23398146930529],[28.45775596636818,49.233935609174274],[28.457943770771575,49.233811585517095],[28.4579386,49.2335836],[28.45798385442428,49.2337503547261],[28.457696727255154,49.23395213778427],[28.45663829552504,49.233950676713654]]}},{"type":"Feature","properties":{"route_ref":"4","route_color":"#ff8a8a"},"geometry":{"type":"LineString","coordinates":[[28.45663829552504,49.233950676713654],[28.457689281235147,49.233988769635666],[28.458864498111108,49.23416506067326],[28.461230516269758,49.23423660718584],[28.471127974559383,49.23263617820925],[28.47787617502035,49.233774782246996],[28.485588252093855,49.235542702132946],[28.488508365823183,49.23677617712406],[28.489446728013387,49.23703640534132],[28.492265140909083,49.23836789090909],[28.49328495141612,49.23897079871624],[28.49341614901308,49.23935435254271],[28.493034097060523,49.244879920752744],[28.493077764621486,49.24577058640509],[28.49317311099245,49.24590199288117],[28.493416018543286,49.24597431541364],[28.50734865895375,49.24657853364662],[28.507934365318828,49.24648997199425],[28.508241371243162,49.2463262362375],[28.508538290156622,49.24599151296237],[28.508913817561943,49.241362626487046],[28.50908041505819,49.24073634658706],[28.509232883299667,49.24062593745859],[28.509539013443874,49.24064724747336],[28.50986584913915,49.241003112294784],[28.509849561520863,49.24112388727756],[28.50973260860533,49.24124970708581],[28.508992311107686,49.24153104066955],[28.50885811200554,49.24184925999899],[28.508617657142857,49.245606957142854],[28.508520734273265,49.24602409797817],[28.508250442403483,49.246424854909016],[28.508017562597836,49.248247907786116],[28.507779385599207,49.24839956501023],[28.507412612499998,49.24844543125],[28.49770868,49.24818176666667],[28.49324323333333,49.24803026666667],[28.49287612307452,49.24795636769957],[28.492796144444444,49.24757261111111],[28.493347780603838,49.239166402651925],[28.493026287099973,49.238782248388745],[28.489567559509894,49.237085149409346],[28.488505390532517,49.23677820772315],[28.4855895,49.2355431],[28.477869755633463,49.23378653360987],[28.471186470142868,49.23264201374177],[28.469941191857465,49.23278111336726],[28.461129326139016,49.234242874947796],[28.45876,49.23415095],[28.4577157,49.2339885],[28.455286758823526,49.23382529411765],[28.446676119871203,49.2333562703564],[28.43781128295371,49.234293432528794],[28.42391373529412,49.234313952941186],[28.414671099708595,49.234420123291954],[28.409629391716045,49.23553721825908],[28.40602132148744,49.236796950213765],[28.405237941682596,49.23674133289193],[28.4039405387619,49.236238973005854],[28.403605680590637,49.23572236412965],[28.40338618347128,49.235622835972585],[28.40316971643815,49.23562757304027],[28.403010273341536,49.23584047592094],[28.40315702395595,49.236012880763965],[28.40506941885005,49.23668994285787],[28.405923152341597,49.236802989037116],[28.406557914618116,49.23666482792346],[28.409625287400008,49.235537829155426],[28.414956117418743,49.23439611555812],[28.437808752360663,49.234293877934405],[28.446676967735566,49.23336667144411],[28.45188570749201,49.23366392385918]]}}]}