{"type":"FeatureCollection","metro_system":{"continent":"asia","country":"Turkey","city":"Konya","official_website":null,"official_map":"https://tr.wikipedia.org/wiki/Konya_Tramvayı","wikipedia":"tr:Konya Tramvayı","line_count":6,"segment_count":11,"station_count":40,"modes":["tram"],"audit":{"strategies_tried":[],"passed":true,"checks":[{"id":"has_lines","ok":true,"detail":"6 lines","level":"error"},{"id":"has_stations","ok":true,"detail":"40 stations","level":"error"},{"id":"stations_have_lines","ok":true,"detail":"40/40 站皆有所屬路線","level":"error"},{"id":"line_geometry_stations","ok":true,"detail":"54 個折點/端點皆為車站","level":"error"},{"id":"route_stations_match_geometry","ok":true,"detail":"各線車站列表與圖面一致","level":"error"},{"id":"interchange_rule","ok":true,"detail":"所有車站紅/藍點符合骨架＋路線色規則（藍＝端點、紅＝交叉）","level":"error"},{"id":"stations_named","ok":true,"detail":"40/40 站皆有名稱","level":"error"},{"id":"station_order","ok":true,"detail":"所有線路站序合理","level":"warn"},{"id":"station_span","ok":true,"detail":"各線相鄰站距與系統站群跨度正常","level":"error"},{"id":"line_wiki_stations","ok":true,"detail":"各線站數與 wiki 線路條目相符（營運中站數）","level":"error"},{"id":"line_wiki_coverage","ok":false,"detail":"5 條線無 wiki 站數對照：H2、H3、H1","level":"warn"}],"reasons":[],"warnings":["5 條線無 wiki 站數對照：H2、H3、H1"],"audited_at":"2026-07-27T11:54:48.466Z"}},"features":[{"type":"Feature","properties":{"seg_id":"konya-0","routes":[{"route_id":"r15395160","route_name":"H2","route_name_local":"H2","route_name_en":null,"route_ref":"H2","route_color":"#21a73f","wikipedia":"tr:Konya Tramvayı","osm_route_ids":[15395160],"status":null,"order_suspect":0,"span_suspect":0,"stations":[{"station_id":"n3282595303","station_name":"Alaaddin"},{"station_id":"junc:32.49399:37.87294","station_name":""},{"station_id":"n4407082790","station_name":"Zafer","pass":true},{"station_id":"n9413781857","station_name":"Belediye"},{"station_id":"n9413781859","station_name":"Nalçacı"},{"station_id":"n9413781860","station_name":"Kule"},{"station_id":"n9413781861","station_name":"Kunduracılar"},{"station_id":"n3282568834","station_name":"Eski Sanayi"},{"station_id":"n9413781864","station_name":"Aydınlıkevler"},{"station_id":"n9413781865","station_name":"Şehitler Camii"},{"station_id":"n9413781867","station_name":"Sakarya"},{"station_id":"n9413781868","station_name":"Teknik Lise"},{"station_id":"n9413781870","station_name":"1.Organize Sanayi"},{"station_id":"n9413781871","station_name":"Eyüp Sultan"},{"station_id":"n9413781872","station_name":"Binkonutlar"},{"station_id":"n9413781874","station_name":"Erenkaya"},{"station_id":"n13625911380","station_name":"Otogar"},{"station_id":"n9413781876","station_name":"Medaş"},{"station_id":"n9413781877","station_name":"Elmalılı Hamdi"},{"station_id":"n6150157570","station_name":"MTA"},{"station_id":"n9413781878","station_name":"Yazır"},{"station_id":"n9413781880","station_name":"Japon Parkı"},{"station_id":"n9413781881","station_name":"Sancak"},{"station_id":"n9413781882","station_name":"Piri Reis"},{"station_id":"n9413781883","station_name":"Fırat Caddesi"},{"station_id":"n9413781885","station_name":"Buzlukbaşı Köprüsü"},{"station_id":"n9413781887","station_name":"Bosna Hersek"},{"station_id":"n2468202468","station_name":"Kayalar Camii"},{"station_id":"n9413781888","station_name":"Kampüs Giriş"},{"station_id":"n1404558205","station_name":"Selçuk Üniversitesi Tıp Fakültesi"},{"station_id":"n1404558418","station_name":"Mühendislik Fakültesi"},{"station_id":"n1404558404","station_name":"Fen Edebiyat Fakultesi"},{"station_id":"n1404558302","station_name":"Hukuk Fakultesi"},{"station_id":"n1404558205","station_name":"Selçuk Üniversitesi Tıp Fakültesi"},{"station_id":"n1404557937","station_name":"Kampüs"}]},{"route_id":"r15395161","route_name":"H4","route_name_local":"H4","route_name_en":null,"route_ref":"H4","route_color":"#00b0cb","wikipedia":"tr:Konya Tramvayı","osm_route_ids":[15395161],"status":null,"order_suspect":0,"span_suspect":0,"stations":[{"station_id":"n9439021204","station_name":"Adliye"},{"station_id":"n9439021192","station_name":"Karşehir Caddesi"},{"station_id":"n9439021190","station_name":"Spor ve Kongre Merkezi"},{"station_id":"n9439021188","station_name":"Fetih Caddesi"},{"station_id":"n9439021179","station_name":"Mevlana Kültür Merkezi"},{"station_id":"n9439021175","station_name":"Mevlana"},{"station_id":"n9439021167","station_name":"Hükümet"},{"station_id":"junc:32.49399:37.87294","station_name":""},{"station_id":"n4407082790","station_name":"Zafer"},{"station_id":"junc:32.49399:37.87294","station_name":""},{"station_id":"n3282595303","station_name":"Alaaddin"}]},{"route_id":"r20830197","route_name":"H1","route_name_local":"H1","route_name_en":null,"route_ref":"H1","route_color":"#21a73f","wikipedia":"tr:Konya Tramvayı","osm_route_ids":[20830197],"status":null,"order_suspect":0,"span_suspect":0,"stations":[{"station_id":"n1404557937","station_name":"Kampüs"},{"station_id":"n2468202468","station_name":"Kayalar Camii"},{"station_id":"n9413781887","station_name":"Bosna Hersek"},{"station_id":"n9413781885","station_name":"Buzlukbaşı Köprüsü"},{"station_id":"n9413781883","station_name":"Fırat Caddesi"},{"station_id":"n9413781882","station_name":"Piri Reis"},{"station_id":"n9413781881","station_name":"Sancak"},{"station_id":"n9413781880","station_name":"Japon Parkı"},{"station_id":"n9413781878","station_name":"Yazır"},{"station_id":"n6150157570","station_name":"MTA"},{"station_id":"n9413781877","station_name":"Elmalılı Hamdi"},{"station_id":"n9413781876","station_name":"Medaş"},{"station_id":"n13625911380","station_name":"Otogar"},{"station_id":"n9413781874","station_name":"Erenkaya"},{"station_id":"n9413781872","station_name":"Binkonutlar"},{"station_id":"n9413781871","station_name":"Eyüp Sultan"},{"station_id":"n9413781870","station_name":"1.Organize Sanayi"},{"station_id":"n9413781868","station_name":"Teknik Lise"},{"station_id":"n9413781867","station_name":"Sakarya"},{"station_id":"n9413781865","station_name":"Şehitler Camii"},{"station_id":"n9413781864","station_name":"Aydınlıkevler"},{"station_id":"n3282568834","station_name":"Eski Sanayi"},{"station_id":"n9413781861","station_name":"Kunduracılar"},{"station_id":"n9413781860","station_name":"Kule"},{"station_id":"n9413781859","station_name":"Nalçacı"},{"station_id":"n9413781857","station_name":"Belediye"},{"station_id":"n4407082790","station_name":"Zafer"},{"station_id":"junc:32.49399:37.87294","station_name":""},{"station_id":"n3282595303","station_name":"Alaaddin"}]},{"route_id":"r20830198","route_name":"H3","route_name_local":"H3","route_name_en":null,"route_ref":"H3","route_color":"#21a73f","wikipedia":"tr:Konya Tramvayı","osm_route_ids":[20830198],"status":null,"order_suspect":0,"span_suspect":0,"stations":[{"station_id":"n3282595303","station_name":"Alaaddin"},{"station_id":"junc:32.49399:37.87294","station_name":""},{"station_id":"n4407082790","station_name":"Zafer","pass":true},{"station_id":"n9413781857","station_name":"Belediye"},{"station_id":"n9413781859","station_name":"Nalçacı"},{"station_id":"n9413781860","station_name":"Kule"},{"station_id":"n9413781861","station_name":"Kunduracılar"},{"station_id":"n3282568834","station_name":"Eski Sanayi"},{"station_id":"n9413781864","station_name":"Aydınlıkevler"},{"station_id":"n9413781865","station_name":"Şehitler Camii"},{"station_id":"n9413781867","station_name":"Sakarya"},{"station_id":"n9413781868","station_name":"Teknik Lise"},{"station_id":"n9413781870","station_name":"1.Organize Sanayi"},{"station_id":"n9413781871","station_name":"Eyüp Sultan"},{"station_id":"n9413781872","station_name":"Binkonutlar"},{"station_id":"n9413781874","station_name":"Erenkaya"},{"station_id":"n13625911380","station_name":"Otogar"},{"station_id":"n9413781876","station_name":"Medaş"},{"station_id":"n9413781877","station_name":"Elmalılı Hamdi"},{"station_id":"n6150157570","station_name":"MTA"},{"station_id":"n9413781878","station_name":"Yazır"},{"station_id":"n9413781880","station_name":"Japon Parkı"},{"station_id":"n9413781881","station_name":"Sancak"},{"station_id":"n9413781882","station_name":"Piri Reis"},{"station_id":"n9413781883","station_name":"Fırat Caddesi"},{"station_id":"n9413781885","station_name":"Buzlukbaşı Köprüsü"},{"station_id":"n9413781887","station_name":"Bosna Hersek"},{"station_id":"n2468202468","station_name":"Kayalar Camii"},{"station_id":"n9413781888","station_name":"Kampüs Giriş"}]}],"route_count":4,"route_refs":["H2","H4","H1","H3"],"route_colors":["#21a73f","#00b0cb","#21a73f","#21a73f"],"city":"Konya","country":"Turkey"},"geometry":{"type":"MultiLineString","coordinates":[[[32.4935498,37.8716343],[32.4939935,37.8729371],[32.4902403,37.8721789]]]}},{"type":"Feature","properties":{"seg_id":"konya-1","routes":[{"route_id":"r15395160","route_name":"H2","route_name_local":"H2","route_name_en":null,"route_ref":"H2","route_color":"#21a73f","wikipedia":"tr:Konya Tramvayı","osm_route_ids":[15395160],"status":null,"order_suspect":0,"span_suspect":0,"stations":[{"station_id":"n3282595303","station_name":"Alaaddin"},{"station_id":"junc:32.49399:37.87294","station_name":""},{"station_id":"n4407082790","station_name":"Zafer","pass":true},{"station_id":"n9413781857","station_name":"Belediye"},{"station_id":"n9413781859","station_name":"Nalçacı"},{"station_id":"n9413781860","station_name":"Kule"},{"station_id":"n9413781861","station_name":"Kunduracılar"},{"station_id":"n3282568834","station_name":"Eski Sanayi"},{"station_id":"n9413781864","station_name":"Aydınlıkevler"},{"station_id":"n9413781865","station_name":"Şehitler Camii"},{"station_id":"n9413781867","station_name":"Sakarya"},{"station_id":"n9413781868","station_name":"Teknik Lise"},{"station_id":"n9413781870","station_name":"1.Organize Sanayi"},{"station_id":"n9413781871","station_name":"Eyüp Sultan"},{"station_id":"n9413781872","station_name":"Binkonutlar"},{"station_id":"n9413781874","station_name":"Erenkaya"},{"station_id":"n13625911380","station_name":"Otogar"},{"station_id":"n9413781876","station_name":"Medaş"},{"station_id":"n9413781877","station_name":"Elmalılı Hamdi"},{"station_id":"n6150157570","station_name":"MTA"},{"station_id":"n9413781878","station_name":"Yazır"},{"station_id":"n9413781880","station_name":"Japon Parkı"},{"station_id":"n9413781881","station_name":"Sancak"},{"station_id":"n9413781882","station_name":"Piri Reis"},{"station_id":"n9413781883","station_name":"Fırat Caddesi"},{"station_id":"n9413781885","station_name":"Buzlukbaşı Köprüsü"},{"station_id":"n9413781887","station_name":"Bosna Hersek"},{"station_id":"n2468202468","station_name":"Kayalar Camii"},{"station_id":"n9413781888","station_name":"Kampüs Giriş"},{"station_id":"n1404558205","station_name":"Selçuk Üniversitesi Tıp Fakültesi"},{"station_id":"n1404558418","station_name":"Mühendislik Fakültesi"},{"station_id":"n1404558404","station_name":"Fen Edebiyat Fakultesi"},{"station_id":"n1404558302","station_name":"Hukuk Fakultesi"},{"station_id":"n1404558205","station_name":"Selçuk Üniversitesi Tıp Fakültesi"},{"station_id":"n1404557937","station_name":"Kampüs"}]},{"route_id":"r20830197","route_name":"H1","route_name_local":"H1","route_name_en":null,"route_ref":"H1","route_color":"#21a73f","wikipedia":"tr:Konya Tramvayı","osm_route_ids":[20830197],"status":null,"order_suspect":0,"span_suspect":0,"stations":[{"station_id":"n1404557937","station_name":"Kampüs"},{"station_id":"n2468202468","station_name":"Kayalar Camii"},{"station_id":"n9413781887","station_name":"Bosna Hersek"},{"station_id":"n9413781885","station_name":"Buzlukbaşı Köprüsü"},{"station_id":"n9413781883","station_name":"Fırat Caddesi"},{"station_id":"n9413781882","station_name":"Piri Reis"},{"station_id":"n9413781881","station_name":"Sancak"},{"station_id":"n9413781880","station_name":"Japon Parkı"},{"station_id":"n9413781878","station_name":"Yazır"},{"station_id":"n6150157570","station_name":"MTA"},{"station_id":"n9413781877","station_name":"Elmalılı Hamdi"},{"station_id":"n9413781876","station_name":"Medaş"},{"station_id":"n13625911380","station_name":"Otogar"},{"station_id":"n9413781874","station_name":"Erenkaya"},{"station_id":"n9413781872","station_name":"Binkonutlar"},{"station_id":"n9413781871","station_name":"Eyüp Sultan"},{"station_id":"n9413781870","station_name":"1.Organize Sanayi"},{"station_id":"n9413781868","station_name":"Teknik Lise"},{"station_id":"n9413781867","station_name":"Sakarya"},{"station_id":"n9413781865","station_name":"Şehitler Camii"},{"station_id":"n9413781864","station_name":"Aydınlıkevler"},{"station_id":"n3282568834","station_name":"Eski Sanayi"},{"station_id":"n9413781861","station_name":"Kunduracılar"},{"station_id":"n9413781860","station_name":"Kule"},{"station_id":"n9413781859","station_name":"Nalçacı"},{"station_id":"n9413781857","station_name":"Belediye"},{"station_id":"n4407082790","station_name":"Zafer"},{"station_id":"junc:32.49399:37.87294","station_name":""},{"station_id":"n3282595303","station_name":"Alaaddin"}]},{"route_id":"r20830198","route_name":"H3","route_name_local":"H3","route_name_en":null,"route_ref":"H3","route_color":"#21a73f","wikipedia":"tr:Konya Tramvayı","osm_route_ids":[20830198],"status":null,"order_suspect":0,"span_suspect":0,"stations":[{"station_id":"n3282595303","station_name":"Alaaddin"},{"station_id":"junc:32.49399:37.87294","station_name":""},{"station_id":"n4407082790","station_name":"Zafer","pass":true},{"station_id":"n9413781857","station_name":"Belediye"},{"station_id":"n9413781859","station_name":"Nalçacı"},{"station_id":"n9413781860","station_name":"Kule"},{"station_id":"n9413781861","station_name":"Kunduracılar"},{"station_id":"n3282568834","station_name":"Eski Sanayi"},{"station_id":"n9413781864","station_name":"Aydınlıkevler"},{"station_id":"n9413781865","station_name":"Şehitler Camii"},{"station_id":"n9413781867","station_name":"Sakarya"},{"station_id":"n9413781868","station_name":"Teknik Lise"},{"station_id":"n9413781870","station_name":"1.Organize Sanayi"},{"station_id":"n9413781871","station_name":"Eyüp Sultan"},{"station_id":"n9413781872","station_name":"Binkonutlar"},{"station_id":"n9413781874","station_name":"Erenkaya"},{"station_id":"n13625911380","station_name":"Otogar"},{"station_id":"n9413781876","station_name":"Medaş"},{"station_id":"n9413781877","station_name":"Elmalılı Hamdi"},{"station_id":"n6150157570","station_name":"MTA"},{"station_id":"n9413781878","station_name":"Yazır"},{"station_id":"n9413781880","station_name":"Japon Parkı"},{"station_id":"n9413781881","station_name":"Sancak"},{"station_id":"n9413781882","station_name":"Piri Reis"},{"station_id":"n9413781883","station_name":"Fırat Caddesi"},{"station_id":"n9413781885","station_name":"Buzlukbaşı Köprüsü"},{"station_id":"n9413781887","station_name":"Bosna Hersek"},{"station_id":"n2468202468","station_name":"Kayalar Camii"},{"station_id":"n9413781888","station_name":"Kampüs Giriş"}]}],"route_count":3,"route_refs":["H2","H1","H3"],"route_colors":["#21a73f","#21a73f","#21a73f"],"city":"Konya","country":"Turkey"},"geometry":{"type":"MultiLineString","coordinates":[[[32.4902403,37.8721789],[32.48849455,37.87667345],[32.489488550000004,37.88177965],[32.4949796,37.8878917],[32.49750280000001,37.893741899999995]]]}},{"type":"Feature","properties":{"seg_id":"konya-2","routes":[{"route_id":"r15395160","route_name":"H2","route_name_local":"H2","route_name_en":null,"route_ref":"H2","route_color":"#21a73f","wikipedia":"tr:Konya Tramvayı","osm_route_ids":[15395160],"status":null,"order_suspect":0,"span_suspect":0,"stations":[{"station_id":"n3282595303","station_name":"Alaaddin"},{"station_id":"junc:32.49399:37.87294","station_name":""},{"station_id":"n4407082790","station_name":"Zafer","pass":true},{"station_id":"n9413781857","station_name":"Belediye"},{"station_id":"n9413781859","station_name":"Nalçacı"},{"station_id":"n9413781860","station_name":"Kule"},{"station_id":"n9413781861","station_name":"Kunduracılar"},{"station_id":"n3282568834","station_name":"Eski Sanayi"},{"station_id":"n9413781864","station_name":"Aydınlıkevler"},{"station_id":"n9413781865","station_name":"Şehitler Camii"},{"station_id":"n9413781867","station_name":"Sakarya"},{"station_id":"n9413781868","station_name":"Teknik Lise"},{"station_id":"n9413781870","station_name":"1.Organize Sanayi"},{"station_id":"n9413781871","station_name":"Eyüp Sultan"},{"station_id":"n9413781872","station_name":"Binkonutlar"},{"station_id":"n9413781874","station_name":"Erenkaya"},{"station_id":"n13625911380","station_name":"Otogar"},{"station_id":"n9413781876","station_name":"Medaş"},{"station_id":"n9413781877","station_name":"Elmalılı Hamdi"},{"station_id":"n6150157570","station_name":"MTA"},{"station_id":"n9413781878","station_name":"Yazır"},{"station_id":"n9413781880","station_name":"Japon Parkı"},{"station_id":"n9413781881","station_name":"Sancak"},{"station_id":"n9413781882","station_name":"Piri Reis"},{"station_id":"n9413781883","station_name":"Fırat Caddesi"},{"station_id":"n9413781885","station_name":"Buzlukbaşı Köprüsü"},{"station_id":"n9413781887","station_name":"Bosna Hersek"},{"station_id":"n2468202468","station_name":"Kayalar Camii"},{"station_id":"n9413781888","station_name":"Kampüs Giriş"},{"station_id":"n1404558205","station_name":"Selçuk Üniversitesi Tıp Fakültesi"},{"station_id":"n1404558418","station_name":"Mühendislik Fakültesi"},{"station_id":"n1404558404","station_name":"Fen Edebiyat Fakultesi"},{"station_id":"n1404558302","station_name":"Hukuk Fakultesi"},{"station_id":"n1404558205","station_name":"Selçuk Üniversitesi Tıp Fakültesi"},{"station_id":"n1404557937","station_name":"Kampüs"}]},{"route_id":"r20830197","route_name":"H1","route_name_local":"H1","route_name_en":null,"route_ref":"H1","route_color":"#21a73f","wikipedia":"tr:Konya Tramvayı","osm_route_ids":[20830197],"status":null,"order_suspect":0,"span_suspect":0,"stations":[{"station_id":"n1404557937","station_name":"Kampüs"},{"station_id":"n2468202468","station_name":"Kayalar Camii"},{"station_id":"n9413781887","station_name":"Bosna Hersek"},{"station_id":"n9413781885","station_name":"Buzlukbaşı Köprüsü"},{"station_id":"n9413781883","station_name":"Fırat Caddesi"},{"station_id":"n9413781882","station_name":"Piri Reis"},{"station_id":"n9413781881","station_name":"Sancak"},{"station_id":"n9413781880","station_name":"Japon Parkı"},{"station_id":"n9413781878","station_name":"Yazır"},{"station_id":"n6150157570","station_name":"MTA"},{"station_id":"n9413781877","station_name":"Elmalılı Hamdi"},{"station_id":"n9413781876","station_name":"Medaş"},{"station_id":"n13625911380","station_name":"Otogar"},{"station_id":"n9413781874","station_name":"Erenkaya"},{"station_id":"n9413781872","station_name":"Binkonutlar"},{"station_id":"n9413781871","station_name":"Eyüp Sultan"},{"station_id":"n9413781870","station_name":"1.Organize Sanayi"},{"station_id":"n9413781868","station_name":"Teknik Lise"},{"station_id":"n9413781867","station_name":"Sakarya"},{"station_id":"n9413781865","station_name":"Şehitler Camii"},{"station_id":"n9413781864","station_name":"Aydınlıkevler"},{"station_id":"n3282568834","station_name":"Eski Sanayi"},{"station_id":"n9413781861","station_name":"Kunduracılar"},{"station_id":"n9413781860","station_name":"Kule"},{"station_id":"n9413781859","station_name":"Nalçacı"},{"station_id":"n9413781857","station_name":"Belediye"},{"station_id":"n4407082790","station_name":"Zafer"},{"station_id":"junc:32.49399:37.87294","station_name":""},{"station_id":"n3282595303","station_name":"Alaaddin"}]},{"route_id":"r20830198","route_name":"H3","route_name_local":"H3","route_name_en":null,"route_ref":"H3","route_color":"#21a73f","wikipedia":"tr:Konya Tramvayı","osm_route_ids":[20830198],"status":null,"order_suspect":0,"span_suspect":0,"stations":[{"station_id":"n3282595303","station_name":"Alaaddin"},{"station_id":"junc:32.49399:37.87294","station_name":""},{"station_id":"n4407082790","station_name":"Zafer","pass":true},{"station_id":"n9413781857","station_name":"Belediye"},{"station_id":"n9413781859","station_name":"Nalçacı"},{"station_id":"n9413781860","station_name":"Kule"},{"station_id":"n9413781861","station_name":"Kunduracılar"},{"station_id":"n3282568834","station_name":"Eski Sanayi"},{"station_id":"n9413781864","station_name":"Aydınlıkevler"},{"station_id":"n9413781865","station_name":"Şehitler Camii"},{"station_id":"n9413781867","station_name":"Sakarya"},{"station_id":"n9413781868","station_name":"Teknik Lise"},{"station_id":"n9413781870","station_name":"1.Organize Sanayi"},{"station_id":"n9413781871","station_name":"Eyüp Sultan"},{"station_id":"n9413781872","station_name":"Binkonutlar"},{"station_id":"n9413781874","station_name":"Erenkaya"},{"station_id":"n13625911380","station_name":"Otogar"},{"station_id":"n9413781876","station_name":"Medaş"},{"station_id":"n9413781877","station_name":"Elmalılı Hamdi"},{"station_id":"n6150157570","station_name":"MTA"},{"station_id":"n9413781878","station_name":"Yazır"},{"station_id":"n9413781880","station_name":"Japon Parkı"},{"station_id":"n9413781881","station_name":"Sancak"},{"station_id":"n9413781882","station_name":"Piri Reis"},{"station_id":"n9413781883","station_name":"Fırat Caddesi"},{"station_id":"n9413781885","station_name":"Buzlukbaşı Köprüsü"},{"station_id":"n9413781887","station_name":"Bosna Hersek"},{"station_id":"n2468202468","station_name":"Kayalar Camii"},{"station_id":"n9413781888","station_name":"Kampüs Giriş"}]}],"route_count":3,"route_refs":["H2","H1","H3"],"route_colors":["#21a73f","#21a73f","#21a73f"],"city":"Konya","country":"Turkey"},"geometry":{"type":"MultiLineString","coordinates":[[[32.489970799999995,37.899606750000004],[32.49561645,37.90601865],[32.500530049999995,37.9115494],[32.50591395,37.9162117],[32.50794415,37.92477125],[32.5091925,37.929351350000005],[32.51075695,37.936101199999996],[32.51145595,37.9407518],[32.51195425,37.9441382],[32.51259815,37.94904915],[32.51311665,37.953884450000004],[32.513830299999995,37.959197950000004],[32.5146857,37.96554005],[32.515498199999996,37.9719157],[32.51617485,37.9769117],[32.516825600000004,37.9820072],[32.51781565,37.98939165],[32.518626749999996,37.9954602],[32.5196548,38.00296324999999],[32.518582550000005,38.009817600000005],[32.5172604,38.0137267]]]}},{"type":"Feature","properties":{"seg_id":"konya-3","routes":[{"route_id":"r15395160","route_name":"H2","route_name_local":"H2","route_name_en":null,"route_ref":"H2","route_color":"#21a73f","wikipedia":"tr:Konya Tramvayı","osm_route_ids":[15395160],"status":null,"order_suspect":0,"span_suspect":0,"stations":[{"station_id":"n3282595303","station_name":"Alaaddin"},{"station_id":"junc:32.49399:37.87294","station_name":""},{"station_id":"n4407082790","station_name":"Zafer","pass":true},{"station_id":"n9413781857","station_name":"Belediye"},{"station_id":"n9413781859","station_name":"Nalçacı"},{"station_id":"n9413781860","station_name":"Kule"},{"station_id":"n9413781861","station_name":"Kunduracılar"},{"station_id":"n3282568834","station_name":"Eski Sanayi"},{"station_id":"n9413781864","station_name":"Aydınlıkevler"},{"station_id":"n9413781865","station_name":"Şehitler Camii"},{"station_id":"n9413781867","station_name":"Sakarya"},{"station_id":"n9413781868","station_name":"Teknik Lise"},{"station_id":"n9413781870","station_name":"1.Organize Sanayi"},{"station_id":"n9413781871","station_name":"Eyüp Sultan"},{"station_id":"n9413781872","station_name":"Binkonutlar"},{"station_id":"n9413781874","station_name":"Erenkaya"},{"station_id":"n13625911380","station_name":"Otogar"},{"station_id":"n9413781876","station_name":"Medaş"},{"station_id":"n9413781877","station_name":"Elmalılı Hamdi"},{"station_id":"n6150157570","station_name":"MTA"},{"station_id":"n9413781878","station_name":"Yazır"},{"station_id":"n9413781880","station_name":"Japon Parkı"},{"station_id":"n9413781881","station_name":"Sancak"},{"station_id":"n9413781882","station_name":"Piri Reis"},{"station_id":"n9413781883","station_name":"Fırat Caddesi"},{"station_id":"n9413781885","station_name":"Buzlukbaşı Köprüsü"},{"station_id":"n9413781887","station_name":"Bosna Hersek"},{"station_id":"n2468202468","station_name":"Kayalar Camii"},{"station_id":"n9413781888","station_name":"Kampüs Giriş"},{"station_id":"n1404558205","station_name":"Selçuk Üniversitesi Tıp Fakültesi"},{"station_id":"n1404558418","station_name":"Mühendislik Fakültesi"},{"station_id":"n1404558404","station_name":"Fen Edebiyat Fakultesi"},{"station_id":"n1404558302","station_name":"Hukuk Fakultesi"},{"station_id":"n1404558205","station_name":"Selçuk Üniversitesi Tıp Fakültesi"},{"station_id":"n1404557937","station_name":"Kampüs"}]},{"route_id":"r20140335","route_name":"Fetih Cad. Ahmet Özcan Cad. Ring Tramvay Hattı","route_name_local":"Fetih Cad. Ahmet Özcan Cad. Ring Tramvay Hattı","route_name_en":null,"route_ref":"Fetih Cad. Ahmet Özcan Cad. Ring Tramvay Hattı","route_color":null,"wikipedia":null,"osm_route_ids":[20140335],"status":null,"order_suspect":0,"span_suspect":0,"stations":[{"station_id":"n3282568834","station_name":"Eski Sanayi"},{"station_id":"n9413781861","station_name":"Kunduracılar"},{"station_id":"n9439021188","station_name":"Fetih Caddesi"}]},{"route_id":"r20830197","route_name":"H1","route_name_local":"H1","route_name_en":null,"route_ref":"H1","route_color":"#21a73f","wikipedia":"tr:Konya Tramvayı","osm_route_ids":[20830197],"status":null,"order_suspect":0,"span_suspect":0,"stations":[{"station_id":"n1404557937","station_name":"Kampüs"},{"station_id":"n2468202468","station_name":"Kayalar Camii"},{"station_id":"n9413781887","station_name":"Bosna Hersek"},{"station_id":"n9413781885","station_name":"Buzlukbaşı Köprüsü"},{"station_id":"n9413781883","station_name":"Fırat Caddesi"},{"station_id":"n9413781882","station_name":"Piri Reis"},{"station_id":"n9413781881","station_name":"Sancak"},{"station_id":"n9413781880","station_name":"Japon Parkı"},{"station_id":"n9413781878","station_name":"Yazır"},{"station_id":"n6150157570","station_name":"MTA"},{"station_id":"n9413781877","station_name":"Elmalılı Hamdi"},{"station_id":"n9413781876","station_name":"Medaş"},{"station_id":"n13625911380","station_name":"Otogar"},{"station_id":"n9413781874","station_name":"Erenkaya"},{"station_id":"n9413781872","station_name":"Binkonutlar"},{"station_id":"n9413781871","station_name":"Eyüp Sultan"},{"station_id":"n9413781870","station_name":"1.Organize Sanayi"},{"station_id":"n9413781868","station_name":"Teknik Lise"},{"station_id":"n9413781867","station_name":"Sakarya"},{"station_id":"n9413781865","station_name":"Şehitler Camii"},{"station_id":"n9413781864","station_name":"Aydınlıkevler"},{"station_id":"n3282568834","station_name":"Eski Sanayi"},{"station_id":"n9413781861","station_name":"Kunduracılar"},{"station_id":"n9413781860","station_name":"Kule"},{"station_id":"n9413781859","station_name":"Nalçacı"},{"station_id":"n9413781857","station_name":"Belediye"},{"station_id":"n4407082790","station_name":"Zafer"},{"station_id":"junc:32.49399:37.87294","station_name":""},{"station_id":"n3282595303","station_name":"Alaaddin"}]},{"route_id":"r20830198","route_name":"H3","route_name_local":"H3","route_name_en":null,"route_ref":"H3","route_color":"#21a73f","wikipedia":"tr:Konya Tramvayı","osm_route_ids":[20830198],"status":null,"order_suspect":0,"span_suspect":0,"stations":[{"station_id":"n3282595303","station_name":"Alaaddin"},{"station_id":"junc:32.49399:37.87294","station_name":""},{"station_id":"n4407082790","station_name":"Zafer","pass":true},{"station_id":"n9413781857","station_name":"Belediye"},{"station_id":"n9413781859","station_name":"Nalçacı"},{"station_id":"n9413781860","station_name":"Kule"},{"station_id":"n9413781861","station_name":"Kunduracılar"},{"station_id":"n3282568834","station_name":"Eski Sanayi"},{"station_id":"n9413781864","station_name":"Aydınlıkevler"},{"station_id":"n9413781865","station_name":"Şehitler Camii"},{"station_id":"n9413781867","station_name":"Sakarya"},{"station_id":"n9413781868","station_name":"Teknik Lise"},{"station_id":"n9413781870","station_name":"1.Organize Sanayi"},{"station_id":"n9413781871","station_name":"Eyüp Sultan"},{"station_id":"n9413781872","station_name":"Binkonutlar"},{"station_id":"n9413781874","station_name":"Erenkaya"},{"station_id":"n13625911380","station_name":"Otogar"},{"station_id":"n9413781876","station_name":"Medaş"},{"station_id":"n9413781877","station_name":"Elmalılı Hamdi"},{"station_id":"n6150157570","station_name":"MTA"},{"station_id":"n9413781878","station_name":"Yazır"},{"station_id":"n9413781880","station_name":"Japon Parkı"},{"station_id":"n9413781881","station_name":"Sancak"},{"station_id":"n9413781882","station_name":"Piri Reis"},{"station_id":"n9413781883","station_name":"Fırat Caddesi"},{"station_id":"n9413781885","station_name":"Buzlukbaşı Köprüsü"},{"station_id":"n9413781887","station_name":"Bosna Hersek"},{"station_id":"n2468202468","station_name":"Kayalar Camii"},{"station_id":"n9413781888","station_name":"Kampüs Giriş"}]}],"route_count":4,"route_refs":["H2","Fetih Cad. Ahmet Özcan Cad. Ring Tramvay Hattı","H1","H3"],"route_colors":["#21a73f","#e11d48","#21a73f","#21a73f"],"city":"Konya","country":"Turkey"},"geometry":{"type":"MultiLineString","coordinates":[[[32.49750280000001,37.893741899999995],[32.489970799999995,37.899606750000004]]]}},{"type":"Feature","properties":{"seg_id":"konya-4","routes":[{"route_id":"r15395160","route_name":"H2","route_name_local":"H2","route_name_en":null,"route_ref":"H2","route_color":"#21a73f","wikipedia":"tr:Konya Tramvayı","osm_route_ids":[15395160],"status":null,"order_suspect":0,"span_suspect":0,"stations":[{"station_id":"n3282595303","station_name":"Alaaddin"},{"station_id":"junc:32.49399:37.87294","station_name":""},{"station_id":"n4407082790","station_name":"Zafer","pass":true},{"station_id":"n9413781857","station_name":"Belediye"},{"station_id":"n9413781859","station_name":"Nalçacı"},{"station_id":"n9413781860","station_name":"Kule"},{"station_id":"n9413781861","station_name":"Kunduracılar"},{"station_id":"n3282568834","station_name":"Eski Sanayi"},{"station_id":"n9413781864","station_name":"Aydınlıkevler"},{"station_id":"n9413781865","station_name":"Şehitler Camii"},{"station_id":"n9413781867","station_name":"Sakarya"},{"station_id":"n9413781868","station_name":"Teknik Lise"},{"station_id":"n9413781870","station_name":"1.Organize Sanayi"},{"station_id":"n9413781871","station_name":"Eyüp Sultan"},{"station_id":"n9413781872","station_name":"Binkonutlar"},{"station_id":"n9413781874","station_name":"Erenkaya"},{"station_id":"n13625911380","station_name":"Otogar"},{"station_id":"n9413781876","station_name":"Medaş"},{"station_id":"n9413781877","station_name":"Elmalılı Hamdi"},{"station_id":"n6150157570","station_name":"MTA"},{"station_id":"n9413781878","station_name":"Yazır"},{"station_id":"n9413781880","station_name":"Japon Parkı"},{"station_id":"n9413781881","station_name":"Sancak"},{"station_id":"n9413781882","station_name":"Piri Reis"},{"station_id":"n9413781883","station_name":"Fırat Caddesi"},{"station_id":"n9413781885","station_name":"Buzlukbaşı Köprüsü"},{"station_id":"n9413781887","station_name":"Bosna Hersek"},{"station_id":"n2468202468","station_name":"Kayalar Camii"},{"station_id":"n9413781888","station_name":"Kampüs Giriş"},{"station_id":"n1404558205","station_name":"Selçuk Üniversitesi Tıp Fakültesi"},{"station_id":"n1404558418","station_name":"Mühendislik Fakültesi"},{"station_id":"n1404558404","station_name":"Fen Edebiyat Fakultesi"},{"station_id":"n1404558302","station_name":"Hukuk Fakultesi"},{"station_id":"n1404558205","station_name":"Selçuk Üniversitesi Tıp Fakültesi"},{"station_id":"n1404557937","station_name":"Kampüs"}]},{"route_id":"r20830198","route_name":"H3","route_name_local":"H3","route_name_en":null,"route_ref":"H3","route_color":"#21a73f","wikipedia":"tr:Konya Tramvayı","osm_route_ids":[20830198],"status":null,"order_suspect":0,"span_suspect":0,"stations":[{"station_id":"n3282595303","station_name":"Alaaddin"},{"station_id":"junc:32.49399:37.87294","station_name":""},{"station_id":"n4407082790","station_name":"Zafer","pass":true},{"station_id":"n9413781857","station_name":"Belediye"},{"station_id":"n9413781859","station_name":"Nalçacı"},{"station_id":"n9413781860","station_name":"Kule"},{"station_id":"n9413781861","station_name":"Kunduracılar"},{"station_id":"n3282568834","station_name":"Eski Sanayi"},{"station_id":"n9413781864","station_name":"Aydınlıkevler"},{"station_id":"n9413781865","station_name":"Şehitler Camii"},{"station_id":"n9413781867","station_name":"Sakarya"},{"station_id":"n9413781868","station_name":"Teknik Lise"},{"station_id":"n9413781870","station_name":"1.Organize Sanayi"},{"station_id":"n9413781871","station_name":"Eyüp Sultan"},{"station_id":"n9413781872","station_name":"Binkonutlar"},{"station_id":"n9413781874","station_name":"Erenkaya"},{"station_id":"n13625911380","station_name":"Otogar"},{"station_id":"n9413781876","station_name":"Medaş"},{"station_id":"n9413781877","station_name":"Elmalılı Hamdi"},{"station_id":"n6150157570","station_name":"MTA"},{"station_id":"n9413781878","station_name":"Yazır"},{"station_id":"n9413781880","station_name":"Japon Parkı"},{"station_id":"n9413781881","station_name":"Sancak"},{"station_id":"n9413781882","station_name":"Piri Reis"},{"station_id":"n9413781883","station_name":"Fırat Caddesi"},{"station_id":"n9413781885","station_name":"Buzlukbaşı Köprüsü"},{"station_id":"n9413781887","station_name":"Bosna Hersek"},{"station_id":"n2468202468","station_name":"Kayalar Camii"},{"station_id":"n9413781888","station_name":"Kampüs Giriş"}]}],"route_count":2,"route_refs":["H2","H3"],"route_colors":["#21a73f","#21a73f"],"city":"Konya","country":"Turkey"},"geometry":{"type":"MultiLineString","coordinates":[[[32.5172604,38.0137267],[32.5156355,38.019229]]]}},{"type":"Feature","properties":{"seg_id":"konya-5","routes":[{"route_id":"r15395160","route_name":"H2","route_name_local":"H2","route_name_en":null,"route_ref":"H2","route_color":"#21a73f","wikipedia":"tr:Konya Tramvayı","osm_route_ids":[15395160],"status":null,"order_suspect":0,"span_suspect":0,"stations":[{"station_id":"n3282595303","station_name":"Alaaddin"},{"station_id":"junc:32.49399:37.87294","station_name":""},{"station_id":"n4407082790","station_name":"Zafer","pass":true},{"station_id":"n9413781857","station_name":"Belediye"},{"station_id":"n9413781859","station_name":"Nalçacı"},{"station_id":"n9413781860","station_name":"Kule"},{"station_id":"n9413781861","station_name":"Kunduracılar"},{"station_id":"n3282568834","station_name":"Eski Sanayi"},{"station_id":"n9413781864","station_name":"Aydınlıkevler"},{"station_id":"n9413781865","station_name":"Şehitler Camii"},{"station_id":"n9413781867","station_name":"Sakarya"},{"station_id":"n9413781868","station_name":"Teknik Lise"},{"station_id":"n9413781870","station_name":"1.Organize Sanayi"},{"station_id":"n9413781871","station_name":"Eyüp Sultan"},{"station_id":"n9413781872","station_name":"Binkonutlar"},{"station_id":"n9413781874","station_name":"Erenkaya"},{"station_id":"n13625911380","station_name":"Otogar"},{"station_id":"n9413781876","station_name":"Medaş"},{"station_id":"n9413781877","station_name":"Elmalılı Hamdi"},{"station_id":"n6150157570","station_name":"MTA"},{"station_id":"n9413781878","station_name":"Yazır"},{"station_id":"n9413781880","station_name":"Japon Parkı"},{"station_id":"n9413781881","station_name":"Sancak"},{"station_id":"n9413781882","station_name":"Piri Reis"},{"station_id":"n9413781883","station_name":"Fırat Caddesi"},{"station_id":"n9413781885","station_name":"Buzlukbaşı Köprüsü"},{"station_id":"n9413781887","station_name":"Bosna Hersek"},{"station_id":"n2468202468","station_name":"Kayalar Camii"},{"station_id":"n9413781888","station_name":"Kampüs Giriş"},{"station_id":"n1404558205","station_name":"Selçuk Üniversitesi Tıp Fakültesi"},{"station_id":"n1404558418","station_name":"Mühendislik Fakültesi"},{"station_id":"n1404558404","station_name":"Fen Edebiyat Fakultesi"},{"station_id":"n1404558302","station_name":"Hukuk Fakultesi"},{"station_id":"n1404558205","station_name":"Selçuk Üniversitesi Tıp Fakültesi"},{"station_id":"n1404557937","station_name":"Kampüs"}]}],"route_count":1,"route_refs":["H2"],"route_colors":["#21a73f"],"city":"Konya","country":"Turkey"},"geometry":{"type":"MultiLineString","coordinates":[[[32.5156355,38.019229],[32.512292900000006,38.0226016],[32.5113901,38.0267749],[32.507876,38.0266762],[32.5069231,38.0246374],[32.512292900000006,38.0226016],[32.513730949999996,38.019036]]]}},{"type":"Feature","properties":{"seg_id":"konya-6","routes":[{"route_id":"r15395161","route_name":"H4","route_name_local":"H4","route_name_en":null,"route_ref":"H4","route_color":"#00b0cb","wikipedia":"tr:Konya Tramvayı","osm_route_ids":[15395161],"status":null,"order_suspect":0,"span_suspect":0,"stations":[{"station_id":"n9439021204","station_name":"Adliye"},{"station_id":"n9439021192","station_name":"Karşehir Caddesi"},{"station_id":"n9439021190","station_name":"Spor ve Kongre Merkezi"},{"station_id":"n9439021188","station_name":"Fetih Caddesi"},{"station_id":"n9439021179","station_name":"Mevlana Kültür Merkezi"},{"station_id":"n9439021175","station_name":"Mevlana"},{"station_id":"n9439021167","station_name":"Hükümet"},{"station_id":"junc:32.49399:37.87294","station_name":""},{"station_id":"n4407082790","station_name":"Zafer"},{"station_id":"junc:32.49399:37.87294","station_name":""},{"station_id":"n3282595303","station_name":"Alaaddin"}]},{"route_id":"r20830200","route_name":"H5","route_name_local":"H5","route_name_en":null,"route_ref":"H5","route_color":"#00b0cb","wikipedia":"tr:Konya Tramvayı","osm_route_ids":[20830200],"status":null,"order_suspect":0,"span_suspect":0,"stations":[{"station_id":"n3282595303","station_name":"Alaaddin"},{"station_id":"junc:32.49399:37.87294","station_name":""},{"station_id":"n9439021167","station_name":"Hükümet"},{"station_id":"n9439021175","station_name":"Mevlana"},{"station_id":"n9439021179","station_name":"Mevlana Kültür Merkezi"},{"station_id":"n9439021188","station_name":"Fetih Caddesi"},{"station_id":"n9439021190","station_name":"Spor ve Kongre Merkezi"},{"station_id":"n9439021192","station_name":"Karşehir Caddesi"},{"station_id":"n9439021204","station_name":"Adliye"}]}],"route_count":2,"route_refs":["H4","H5"],"route_colors":["#00b0cb","#00b0cb"],"city":"Konya","country":"Turkey"},"geometry":{"type":"MultiLineString","coordinates":[[[32.54298489999999,37.86136125],[32.54221355,37.868838600000004],[32.53580585,37.868898],[32.5260421,37.87002305],[32.51479575,37.87053105],[32.5066453,37.87056515],[32.4977028,37.87203605]]]}},{"type":"Feature","properties":{"seg_id":"konya-7","routes":[{"route_id":"r15395161","route_name":"H4","route_name_local":"H4","route_name_en":null,"route_ref":"H4","route_color":"#00b0cb","wikipedia":"tr:Konya Tramvayı","osm_route_ids":[15395161],"status":null,"order_suspect":0,"span_suspect":0,"stations":[{"station_id":"n9439021204","station_name":"Adliye"},{"station_id":"n9439021192","station_name":"Karşehir Caddesi"},{"station_id":"n9439021190","station_name":"Spor ve Kongre Merkezi"},{"station_id":"n9439021188","station_name":"Fetih Caddesi"},{"station_id":"n9439021179","station_name":"Mevlana Kültür Merkezi"},{"station_id":"n9439021175","station_name":"Mevlana"},{"station_id":"n9439021167","station_name":"Hükümet"},{"station_id":"junc:32.49399:37.87294","station_name":""},{"station_id":"n4407082790","station_name":"Zafer"},{"station_id":"junc:32.49399:37.87294","station_name":""},{"station_id":"n3282595303","station_name":"Alaaddin"}]}],"route_count":1,"route_refs":["H4"],"route_colors":["#00b0cb"],"city":"Konya","country":"Turkey"},"geometry":{"type":"MultiLineString","coordinates":[[[32.4977028,37.87203605],[32.4939935,37.8729371],[32.4902403,37.8721789]]]}},{"type":"Feature","properties":{"seg_id":"konya-8","routes":[{"route_id":"r20140335","route_name":"Fetih Cad. Ahmet Özcan Cad. Ring Tramvay Hattı","route_name_local":"Fetih Cad. Ahmet Özcan Cad. Ring Tramvay Hattı","route_name_en":null,"route_ref":"Fetih Cad. Ahmet Özcan Cad. Ring Tramvay Hattı","route_color":null,"wikipedia":null,"osm_route_ids":[20140335],"status":null,"order_suspect":0,"span_suspect":0,"stations":[{"station_id":"n3282568834","station_name":"Eski Sanayi"},{"station_id":"n9413781861","station_name":"Kunduracılar"},{"station_id":"n9439021188","station_name":"Fetih Caddesi"}]}],"route_count":1,"route_refs":["Fetih Cad. Ahmet Özcan Cad. Ring Tramvay Hattı"],"route_colors":["#e11d48"],"city":"Konya","country":"Turkey"},"geometry":{"type":"MultiLineString","coordinates":[[[32.49750280000001,37.893741899999995],[32.5260421,37.87002305]]]}},{"type":"Feature","properties":{"seg_id":"konya-9","routes":[{"route_id":"r20830197","route_name":"H1","route_name_local":"H1","route_name_en":null,"route_ref":"H1","route_color":"#21a73f","wikipedia":"tr:Konya Tramvayı","osm_route_ids":[20830197],"status":null,"order_suspect":0,"span_suspect":0,"stations":[{"station_id":"n1404557937","station_name":"Kampüs"},{"station_id":"n2468202468","station_name":"Kayalar Camii"},{"station_id":"n9413781887","station_name":"Bosna Hersek"},{"station_id":"n9413781885","station_name":"Buzlukbaşı Köprüsü"},{"station_id":"n9413781883","station_name":"Fırat Caddesi"},{"station_id":"n9413781882","station_name":"Piri Reis"},{"station_id":"n9413781881","station_name":"Sancak"},{"station_id":"n9413781880","station_name":"Japon Parkı"},{"station_id":"n9413781878","station_name":"Yazır"},{"station_id":"n6150157570","station_name":"MTA"},{"station_id":"n9413781877","station_name":"Elmalılı Hamdi"},{"station_id":"n9413781876","station_name":"Medaş"},{"station_id":"n13625911380","station_name":"Otogar"},{"station_id":"n9413781874","station_name":"Erenkaya"},{"station_id":"n9413781872","station_name":"Binkonutlar"},{"station_id":"n9413781871","station_name":"Eyüp Sultan"},{"station_id":"n9413781870","station_name":"1.Organize Sanayi"},{"station_id":"n9413781868","station_name":"Teknik Lise"},{"station_id":"n9413781867","station_name":"Sakarya"},{"station_id":"n9413781865","station_name":"Şehitler Camii"},{"station_id":"n9413781864","station_name":"Aydınlıkevler"},{"station_id":"n3282568834","station_name":"Eski Sanayi"},{"station_id":"n9413781861","station_name":"Kunduracılar"},{"station_id":"n9413781860","station_name":"Kule"},{"station_id":"n9413781859","station_name":"Nalçacı"},{"station_id":"n9413781857","station_name":"Belediye"},{"station_id":"n4407082790","station_name":"Zafer"},{"station_id":"junc:32.49399:37.87294","station_name":""},{"station_id":"n3282595303","station_name":"Alaaddin"}]}],"route_count":1,"route_refs":["H1"],"route_colors":["#21a73f"],"city":"Konya","country":"Turkey"},"geometry":{"type":"MultiLineString","coordinates":[[[32.513730949999996,38.019036],[32.5172604,38.0137267]]]}},{"type":"Feature","properties":{"seg_id":"konya-10","routes":[{"route_id":"r20830200","route_name":"H5","route_name_local":"H5","route_name_en":null,"route_ref":"H5","route_color":"#00b0cb","wikipedia":"tr:Konya Tramvayı","osm_route_ids":[20830200],"status":null,"order_suspect":0,"span_suspect":0,"stations":[{"station_id":"n3282595303","station_name":"Alaaddin"},{"station_id":"junc:32.49399:37.87294","station_name":""},{"station_id":"n9439021167","station_name":"Hükümet"},{"station_id":"n9439021175","station_name":"Mevlana"},{"station_id":"n9439021179","station_name":"Mevlana Kültür Merkezi"},{"station_id":"n9439021188","station_name":"Fetih Caddesi"},{"station_id":"n9439021190","station_name":"Spor ve Kongre Merkezi"},{"station_id":"n9439021192","station_name":"Karşehir Caddesi"},{"station_id":"n9439021204","station_name":"Adliye"}]}],"route_count":1,"route_refs":["H5"],"route_colors":["#00b0cb"],"city":"Konya","country":"Turkey"},"geometry":{"type":"MultiLineString","coordinates":[[[32.4935498,37.8716343],[32.4939935,37.8729371],[32.4977028,37.87203605]]]}},{"type":"Feature","properties":{"station_id":"n1404557937","station_name":"Kampüs","station_name_local":"Kampüs","station_name_en":null,"city":"Konya","country":"Turkey","lines":["H1","H2"],"wikipedia":null,"merged_from":2,"merged_names":null,"is_terminus":false,"codes":["T1"],"routes":[{"ref":"H1","name":"H1","route_color":"#21a73f"},{"ref":"H2","name":"H2","route_color":"#21a73f"}],"pass_count":2,"station_degree":2,"is_interchange":false,"station_role":"normal"},"geometry":{"type":"Point","coordinates":[32.513730949999996,38.019036]},"__memberLines":{}},{"type":"Feature","properties":{"station_id":"n1404558205","station_name":"Selçuk Üniversitesi Tıp Fakültesi","station_name_local":"Selçuk Üniversitesi Tıp Fakültesi","station_name_en":null,"city":"Konya","country":"Turkey","lines":["H2"],"wikipedia":null,"merged_from":2,"merged_names":null,"is_terminus":false,"codes":["T32"],"routes":[{"ref":"H2","name":"H2","route_color":"#21a73f"}],"pass_count":2,"station_degree":4,"is_interchange":true,"station_role":"interchange"},"geometry":{"type":"Point","coordinates":[32.512292900000006,38.0226016]},"__memberLines":{}},{"type":"Feature","properties":{"station_id":"n1404558302","station_name":"Hukuk Fakultesi","station_name_local":"Hukuk Fakultesi","station_name_en":null,"city":"Konya","country":"Turkey","lines":["H2"],"wikipedia":null,"is_terminus":false,"codes":["T33"],"routes":[{"ref":"H2","name":"H2","route_color":"#21a73f"}],"pass_count":1,"station_degree":2,"merged_from":null,"merged_names":null,"is_interchange":false,"station_role":"normal"},"geometry":{"type":"Point","coordinates":[32.5069231,38.0246374]},"__memberLines":{}},{"type":"Feature","properties":{"station_id":"n1404558404","station_name":"Fen Edebiyat Fakultesi","station_name_local":"Fen Edebiyat Fakultesi","station_name_en":null,"city":"Konya","country":"Turkey","lines":["H2"],"wikipedia":null,"is_terminus":false,"codes":["T34"],"routes":[{"ref":"H2","name":"H2","route_color":"#21a73f"}],"pass_count":1,"station_degree":2,"merged_from":null,"merged_names":null,"is_interchange":false,"station_role":"normal"},"geometry":{"type":"Point","coordinates":[32.507876,38.0266762]},"__memberLines":{}},{"type":"Feature","properties":{"station_id":"n1404558418","station_name":"Mühendislik Fakültesi","station_name_local":"Mühendislik Fakültesi","station_name_en":null,"city":"Konya","country":"Turkey","lines":["H2"],"wikipedia":null,"is_terminus":false,"codes":["T33"],"routes":[{"ref":"H2","name":"H2","route_color":"#21a73f"}],"pass_count":1,"station_degree":2,"merged_from":null,"merged_names":null,"is_interchange":false,"station_role":"normal"},"geometry":{"type":"Point","coordinates":[32.5113901,38.0267749]},"__memberLines":{}},{"type":"Feature","properties":{"station_id":"n6150157570","station_name":"MTA","station_name_local":"MTA","station_name_en":null,"city":"Konya","country":"Turkey","lines":["H1","H2","H3"],"wikipedia":null,"merged_from":2,"merged_names":null,"is_terminus":false,"codes":["T10"],"routes":[{"ref":"H1","name":"H1","route_color":"#21a73f"},{"ref":"H2","name":"H2","route_color":"#21a73f"},{"ref":"H3","name":"H3","route_color":"#21a73f"}],"pass_count":3,"station_degree":2,"is_interchange":false,"station_role":"normal"},"geometry":{"type":"Point","coordinates":[32.5146857,37.96554005]},"__memberLines":{}},{"type":"Feature","properties":{"station_id":"n9413781861","station_name":"Kunduracılar","station_name_local":"Kunduracılar","station_name_en":null,"city":"Konya","country":"Turkey","lines":["Fetih Cad. Ahmet Özcan Cad. Ring Tramvay Hattı","H1","H2","H3"],"wikipedia":null,"merged_from":2,"merged_names":null,"is_terminus":false,"codes":["T25"],"routes":[{"ref":"Fetih Cad. Ahmet Özcan Cad. Ring Tramvay Hattı","name":"Fetih Cad. Ahmet Özcan Cad. Ring Tramvay Hattı","route_color":null},{"ref":"H1","name":"H1","route_color":"#21a73f"},{"ref":"H2","name":"H2","route_color":"#21a73f"},{"ref":"H3","name":"H3","route_color":"#21a73f"}],"pass_count":4,"station_degree":3,"is_interchange":true,"station_role":"interchange"},"geometry":{"type":"Point","coordinates":[32.49750280000001,37.893741899999995]},"__memberLines":{}},{"type":"Feature","properties":{"station_id":"n9413781883","station_name":"Fırat Caddesi","station_name_local":"Fırat Caddesi","station_name_en":null,"city":"Konya","country":"Turkey","lines":["H1","H2","H3"],"wikipedia":null,"merged_from":2,"merged_names":null,"is_terminus":false,"codes":["T5"],"routes":[{"ref":"H1","name":"H1","route_color":"#21a73f"},{"ref":"H2","name":"H2","route_color":"#21a73f"},{"ref":"H3","name":"H3","route_color":"#21a73f"}],"pass_count":3,"station_degree":2,"is_interchange":false,"station_role":"normal"},"geometry":{"type":"Point","coordinates":[32.518626749999996,37.9954602]},"__memberLines":{}},{"type":"Feature","properties":{"station_id":"n2468202468","station_name":"Kayalar Camii","station_name_local":"Kayalar Camii","station_name_en":null,"city":"Konya","country":"Turkey","lines":["H1","H2","H3"],"wikipedia":null,"merged_from":2,"merged_names":null,"is_terminus":false,"codes":["T2"],"routes":[{"ref":"H1","name":"H1","route_color":"#21a73f"},{"ref":"H2","name":"H2","route_color":"#21a73f"},{"ref":"H3","name":"H3","route_color":"#21a73f"}],"pass_count":3,"station_degree":3,"is_interchange":true,"station_role":"interchange"},"geometry":{"type":"Point","coordinates":[32.5172604,38.0137267]},"__memberLines":{}},{"type":"Feature","properties":{"station_id":"n9413781871","station_name":"Eyüp Sultan","station_name_local":"Eyüp Sultan","station_name_en":null,"city":"Konya","country":"Turkey","lines":["H1","H2","H3"],"wikipedia":null,"merged_from":2,"merged_names":null,"is_terminus":false,"codes":["T17"],"routes":[{"ref":"H1","name":"H1","route_color":"#21a73f"},{"ref":"H2","name":"H2","route_color":"#21a73f"},{"ref":"H3","name":"H3","route_color":"#21a73f"}],"pass_count":3,"station_degree":2,"is_interchange":false,"station_role":"normal"},"geometry":{"type":"Point","coordinates":[32.51075695,37.936101199999996]},"__memberLines":{}},{"type":"Feature","properties":{"station_id":"n9413781882","station_name":"Piri Reis","station_name_local":"Piri Reis","station_name_en":null,"city":"Konya","country":"Turkey","lines":["H1","H2","H3"],"wikipedia":null,"merged_from":2,"merged_names":null,"is_terminus":false,"codes":["T6"],"routes":[{"ref":"H1","name":"H1","route_color":"#21a73f"},{"ref":"H2","name":"H2","route_color":"#21a73f"},{"ref":"H3","name":"H3","route_color":"#21a73f"}],"pass_count":3,"station_degree":2,"is_interchange":false,"station_role":"normal"},"geometry":{"type":"Point","coordinates":[32.51781565,37.98939165]},"__memberLines":{}},{"type":"Feature","properties":{"station_id":"n9413781881","station_name":"Sancak","station_name_local":"Sancak","station_name_en":null,"city":"Konya","country":"Turkey","lines":["H1","H2","H3"],"wikipedia":null,"merged_from":2,"merged_names":null,"is_terminus":false,"codes":["T7"],"routes":[{"ref":"H1","name":"H1","route_color":"#21a73f"},{"ref":"H2","name":"H2","route_color":"#21a73f"},{"ref":"H3","name":"H3","route_color":"#21a73f"}],"pass_count":3,"station_degree":2,"is_interchange":false,"station_role":"normal"},"geometry":{"type":"Point","coordinates":[32.516825600000004,37.9820072]},"__memberLines":{}},{"type":"Feature","properties":{"station_id":"n9413781878","station_name":"Yazır","station_name_local":"Yazır","station_name_en":null,"city":"Konya","country":"Turkey","lines":["H1","H2","H3"],"wikipedia":null,"merged_from":2,"merged_names":null,"is_terminus":false,"codes":["T9"],"routes":[{"ref":"H1","name":"H1","route_color":"#21a73f"},{"ref":"H2","name":"H2","route_color":"#21a73f"},{"ref":"H3","name":"H3","route_color":"#21a73f"}],"pass_count":3,"station_degree":2,"is_interchange":false,"station_role":"normal"},"geometry":{"type":"Point","coordinates":[32.515498199999996,37.9719157]},"__memberLines":{}},{"type":"Feature","properties":{"station_id":"n9413781877","station_name":"Elmalılı Hamdi","station_name_local":"Elmalılı Hamdi","station_name_en":null,"city":"Konya","country":"Turkey","lines":["H1","H2","H3"],"wikipedia":null,"merged_from":2,"merged_names":null,"is_terminus":false,"codes":["T11"],"routes":[{"ref":"H1","name":"H1","route_color":"#21a73f"},{"ref":"H2","name":"H2","route_color":"#21a73f"},{"ref":"H3","name":"H3","route_color":"#21a73f"}],"pass_count":3,"station_degree":2,"is_interchange":false,"station_role":"normal"},"geometry":{"type":"Point","coordinates":[32.513830299999995,37.959197950000004]},"__memberLines":{}},{"type":"Feature","properties":{"station_id":"n9413781876","station_name":"Medaş","station_name_local":"Medaş","station_name_en":null,"city":"Konya","country":"Turkey","lines":["H1","H2","H3"],"wikipedia":null,"merged_from":2,"merged_names":null,"is_terminus":false,"codes":["T12"],"routes":[{"ref":"H1","name":"H1","route_color":"#21a73f"},{"ref":"H2","name":"H2","route_color":"#21a73f"},{"ref":"H3","name":"H3","route_color":"#21a73f"}],"pass_count":3,"station_degree":2,"is_interchange":false,"station_role":"normal"},"geometry":{"type":"Point","coordinates":[32.51311665,37.953884450000004]},"__memberLines":{}},{"type":"Feature","properties":{"station_id":"n9413781874","station_name":"Erenkaya","station_name_local":"Erenkaya","station_name_en":null,"city":"Konya","country":"Turkey","lines":["H1","H2","H3"],"wikipedia":null,"merged_from":2,"merged_names":null,"is_terminus":false,"codes":["T15"],"routes":[{"ref":"H1","name":"H1","route_color":"#21a73f"},{"ref":"H2","name":"H2","route_color":"#21a73f"},{"ref":"H3","name":"H3","route_color":"#21a73f"}],"pass_count":3,"station_degree":2,"is_interchange":false,"station_role":"normal"},"geometry":{"type":"Point","coordinates":[32.51195425,37.9441382]},"__memberLines":{}},{"type":"Feature","properties":{"station_id":"n9413781865","station_name":"Şehitler Camii","station_name_local":"Şehitler Camii","station_name_en":null,"city":"Konya","country":"Turkey","lines":["H1","H2","H3"],"wikipedia":null,"merged_from":2,"merged_names":null,"is_terminus":false,"codes":["T21"],"routes":[{"ref":"H1","name":"H1","route_color":"#21a73f"},{"ref":"H2","name":"H2","route_color":"#21a73f"},{"ref":"H3","name":"H3","route_color":"#21a73f"}],"pass_count":3,"station_degree":2,"is_interchange":false,"station_role":"normal"},"geometry":{"type":"Point","coordinates":[32.500530049999995,37.9115494]},"__memberLines":{}},{"type":"Feature","properties":{"station_id":"n9413781868","station_name":"Teknik Lise","station_name_local":"Teknik Lise","station_name_en":null,"city":"Konya","country":"Turkey","lines":["H1","H2","H3"],"wikipedia":null,"merged_from":2,"merged_names":null,"is_terminus":false,"codes":["T19"],"routes":[{"ref":"H1","name":"H1","route_color":"#21a73f"},{"ref":"H2","name":"H2","route_color":"#21a73f"},{"ref":"H3","name":"H3","route_color":"#21a73f"}],"pass_count":3,"station_degree":2,"is_interchange":false,"station_role":"normal"},"geometry":{"type":"Point","coordinates":[32.50794415,37.92477125]},"__memberLines":{}},{"type":"Feature","properties":{"station_id":"n3282568834","station_name":"Eski Sanayi","station_name_local":"Eski Sanayi","station_name_en":null,"city":"Konya","country":"Turkey","lines":["Fetih Cad. Ahmet Özcan Cad. Ring Tramvay Hattı","H1","H2","H3"],"wikipedia":null,"merged_from":2,"merged_names":null,"is_terminus":false,"codes":["T24"],"routes":[{"ref":"Fetih Cad. Ahmet Özcan Cad. Ring Tramvay Hattı","name":"Fetih Cad. Ahmet Özcan Cad. Ring Tramvay Hattı","route_color":null},{"ref":"H1","name":"H1","route_color":"#21a73f"},{"ref":"H2","name":"H2","route_color":"#21a73f"},{"ref":"H3","name":"H3","route_color":"#21a73f"}],"pass_count":4,"station_degree":2,"is_interchange":true,"station_role":"interchange"},"geometry":{"type":"Point","coordinates":[32.489970799999995,37.899606750000004]},"__memberLines":{}},{"type":"Feature","properties":{"station_id":"n9413781860","station_name":"Kule","station_name_local":"Kule","station_name_en":null,"city":"Konya","country":"Turkey","lines":["H1","H2","H3"],"wikipedia":null,"merged_from":2,"merged_names":null,"is_terminus":false,"codes":["T26"],"routes":[{"ref":"H1","name":"H1","route_color":"#21a73f"},{"ref":"H2","name":"H2","route_color":"#21a73f"},{"ref":"H3","name":"H3","route_color":"#21a73f"}],"pass_count":3,"station_degree":2,"is_interchange":false,"station_role":"normal"},"geometry":{"type":"Point","coordinates":[32.4949796,37.8878917]},"__memberLines":{}},{"type":"Feature","properties":{"station_id":"n9413781859","station_name":"Nalçacı","station_name_local":"Nalçacı","station_name_en":null,"city":"Konya","country":"Turkey","lines":["H1","H2","H3"],"wikipedia":null,"merged_from":2,"merged_names":null,"is_terminus":false,"codes":["T27"],"routes":[{"ref":"H1","name":"H1","route_color":"#21a73f"},{"ref":"H2","name":"H2","route_color":"#21a73f"},{"ref":"H3","name":"H3","route_color":"#21a73f"}],"pass_count":3,"station_degree":2,"is_interchange":false,"station_role":"normal"},"geometry":{"type":"Point","coordinates":[32.489488550000004,37.88177965]},"__memberLines":{}},{"type":"Feature","properties":{"station_id":"n3282595303","station_name":"Alaaddin","station_name_local":"Alaaddin","station_name_en":null,"city":"Konya","country":"Turkey","lines":["H1","H2","H3","H4","H5"],"wikipedia":null,"is_terminus":false,"codes":["T31"],"routes":[{"ref":"H1","name":"H1","route_color":"#21a73f"},{"ref":"H2","name":"H2","route_color":"#21a73f"},{"ref":"H3","name":"H3","route_color":"#21a73f"},{"ref":"H4","name":"H4","route_color":"#00b0cb"},{"ref":"H5","name":"H5","route_color":"#00b0cb"}],"pass_count":5,"station_degree":2,"merged_from":null,"merged_names":null,"is_interchange":true,"station_role":"interchange"},"geometry":{"type":"Point","coordinates":[32.4935498,37.8716343]},"__memberLines":{}},{"type":"Feature","properties":{"station_id":"n4407082790","station_name":"Zafer","station_name_local":"Zafer","station_name_en":null,"city":"Konya","country":"Turkey","lines":["H1","H4"],"wikipedia":null,"is_terminus":false,"codes":["T30"],"routes":[{"ref":"H1","name":"H1","route_color":"#21a73f"},{"ref":"H4","name":"H4","route_color":"#00b0cb"},{"ref":"H2","name":"H2","route_color":"#21a73f","pass":true},{"ref":"H3","name":"H3","route_color":"#21a73f","pass":true}],"pass_count":4,"station_degree":3,"merged_from":null,"merged_names":null,"is_interchange":true,"station_role":"interchange"},"geometry":{"type":"Point","coordinates":[32.4902403,37.8721789]},"__memberLines":{}},{"type":"Feature","properties":{"station_id":"n9413781857","station_name":"Belediye","station_name_local":"Belediye","station_name_en":null,"city":"Konya","country":"Turkey","lines":["H1","H2","H3"],"wikipedia":null,"merged_from":2,"merged_names":null,"is_terminus":false,"codes":["T28"],"routes":[{"ref":"H1","name":"H1","route_color":"#21a73f"},{"ref":"H2","name":"H2","route_color":"#21a73f"},{"ref":"H3","name":"H3","route_color":"#21a73f"}],"pass_count":3,"station_degree":2,"is_interchange":false,"station_role":"normal"},"geometry":{"type":"Point","coordinates":[32.48849455,37.87667345]},"__memberLines":{}},{"type":"Feature","properties":{"station_id":"n9413781864","station_name":"Aydınlıkevler","station_name_local":"Aydınlıkevler","station_name_en":null,"city":"Konya","country":"Turkey","lines":["H1","H2","H3"],"wikipedia":null,"merged_from":2,"merged_names":null,"is_terminus":false,"codes":["T22"],"routes":[{"ref":"H1","name":"H1","route_color":"#21a73f"},{"ref":"H2","name":"H2","route_color":"#21a73f"},{"ref":"H3","name":"H3","route_color":"#21a73f"}],"pass_count":3,"station_degree":2,"is_interchange":false,"station_role":"normal"},"geometry":{"type":"Point","coordinates":[32.49561645,37.90601865]},"__memberLines":{}},{"type":"Feature","properties":{"station_id":"n9413781867","station_name":"Sakarya","station_name_local":"Sakarya","station_name_en":null,"city":"Konya","country":"Turkey","lines":["H1","H2","H3"],"wikipedia":null,"merged_from":2,"merged_names":null,"is_terminus":false,"codes":["T20"],"routes":[{"ref":"H1","name":"H1","route_color":"#21a73f"},{"ref":"H2","name":"H2","route_color":"#21a73f"},{"ref":"H3","name":"H3","route_color":"#21a73f"}],"pass_count":3,"station_degree":2,"is_interchange":false,"station_role":"normal"},"geometry":{"type":"Point","coordinates":[32.50591395,37.9162117]},"__memberLines":{}},{"type":"Feature","properties":{"station_id":"n9413781870","station_name":"1.Organize Sanayi","station_name_local":"1.Organize Sanayi","station_name_en":null,"city":"Konya","country":"Turkey","lines":["H1","H2","H3"],"wikipedia":null,"merged_from":2,"merged_names":null,"is_terminus":false,"codes":["T18"],"routes":[{"ref":"H1","name":"H1","route_color":"#21a73f"},{"ref":"H2","name":"H2","route_color":"#21a73f"},{"ref":"H3","name":"H3","route_color":"#21a73f"}],"pass_count":3,"station_degree":2,"is_interchange":false,"station_role":"normal"},"geometry":{"type":"Point","coordinates":[32.5091925,37.929351350000005]},"__memberLines":{}},{"type":"Feature","properties":{"station_id":"n9413781872","station_name":"Binkonutlar","station_name_local":"Binkonutlar","station_name_en":null,"city":"Konya","country":"Turkey","lines":["H1","H2","H3"],"wikipedia":null,"merged_from":2,"merged_names":null,"is_terminus":false,"codes":["T16"],"routes":[{"ref":"H1","name":"H1","route_color":"#21a73f"},{"ref":"H2","name":"H2","route_color":"#21a73f"},{"ref":"H3","name":"H3","route_color":"#21a73f"}],"pass_count":3,"station_degree":2,"is_interchange":false,"station_role":"normal"},"geometry":{"type":"Point","coordinates":[32.51145595,37.9407518]},"__memberLines":{}},{"type":"Feature","properties":{"station_id":"n9413781880","station_name":"Japon Parkı","station_name_local":"Japon Parkı","station_name_en":null,"city":"Konya","country":"Turkey","lines":["H1","H2","H3"],"wikipedia":null,"merged_from":2,"merged_names":null,"is_terminus":false,"codes":["T8"],"routes":[{"ref":"H1","name":"H1","route_color":"#21a73f"},{"ref":"H2","name":"H2","route_color":"#21a73f"},{"ref":"H3","name":"H3","route_color":"#21a73f"}],"pass_count":3,"station_degree":2,"is_interchange":false,"station_role":"normal"},"geometry":{"type":"Point","coordinates":[32.51617485,37.9769117]},"__memberLines":{}},{"type":"Feature","properties":{"station_id":"n9413781885","station_name":"Buzlukbaşı Köprüsü","station_name_local":"Buzlukbaşı Köprüsü","station_name_en":null,"city":"Konya","country":"Turkey","lines":["H1","H2","H3"],"wikipedia":null,"merged_from":2,"merged_names":null,"is_terminus":false,"codes":["T4"],"routes":[{"ref":"H1","name":"H1","route_color":"#21a73f"},{"ref":"H2","name":"H2","route_color":"#21a73f"},{"ref":"H3","name":"H3","route_color":"#21a73f"}],"pass_count":3,"station_degree":2,"is_interchange":false,"station_role":"normal"},"geometry":{"type":"Point","coordinates":[32.5196548,38.00296324999999]},"__memberLines":{}},{"type":"Feature","properties":{"station_id":"n9413781887","station_name":"Bosna Hersek","station_name_local":"Bosna Hersek","station_name_en":null,"city":"Konya","country":"Turkey","lines":["H1","H2","H3"],"wikipedia":null,"merged_from":2,"merged_names":null,"is_terminus":false,"codes":["T3"],"routes":[{"ref":"H1","name":"H1","route_color":"#21a73f"},{"ref":"H2","name":"H2","route_color":"#21a73f"},{"ref":"H3","name":"H3","route_color":"#21a73f"}],"pass_count":3,"station_degree":2,"is_interchange":false,"station_role":"normal"},"geometry":{"type":"Point","coordinates":[32.518582550000005,38.009817600000005]},"__memberLines":{}},{"type":"Feature","properties":{"station_id":"n9413781888","station_name":"Kampüs Giriş","station_name_local":"Kampüs Giriş","station_name_en":null,"city":"Konya","country":"Turkey","lines":["H2","H3"],"wikipedia":null,"is_terminus":false,"codes":["T1"],"routes":[{"ref":"H2","name":"H2","route_color":"#21a73f"},{"ref":"H3","name":"H3","route_color":"#21a73f"}],"pass_count":2,"station_degree":2,"merged_from":null,"merged_names":null,"is_interchange":false,"station_role":"normal"},"geometry":{"type":"Point","coordinates":[32.5156355,38.019229]},"__memberLines":{}},{"type":"Feature","properties":{"station_id":"n9439021167","station_name":"Hükümet","station_name_local":"Hükümet","station_name_en":null,"city":"Konya","country":"Turkey","lines":["H4","H5"],"wikipedia":null,"merged_from":2,"merged_names":null,"is_terminus":false,"codes":["T36"],"routes":[{"ref":"H4","name":"H4","route_color":"#00b0cb"},{"ref":"H5","name":"H5","route_color":"#00b0cb"}],"pass_count":2,"station_degree":3,"is_interchange":true,"station_role":"interchange"},"geometry":{"type":"Point","coordinates":[32.4977028,37.87203605]},"__memberLines":{}},{"type":"Feature","properties":{"station_id":"n9439021175","station_name":"Mevlana","station_name_local":"Mevlana","station_name_en":null,"city":"Konya","country":"Turkey","lines":["H4","H5"],"wikipedia":null,"merged_from":2,"merged_names":null,"is_terminus":false,"codes":["T37"],"routes":[{"ref":"H4","name":"H4","route_color":"#00b0cb"},{"ref":"H5","name":"H5","route_color":"#00b0cb"}],"pass_count":2,"station_degree":2,"is_interchange":false,"station_role":"normal"},"geometry":{"type":"Point","coordinates":[32.5066453,37.87056515]},"__memberLines":{}},{"type":"Feature","properties":{"station_id":"n9439021179","station_name":"Mevlana Kültür Merkezi","station_name_local":"Mevlana Kültür Merkezi","station_name_en":null,"city":"Konya","country":"Turkey","lines":["H4","H5"],"wikipedia":null,"merged_from":2,"merged_names":null,"is_terminus":false,"codes":["T38"],"routes":[{"ref":"H4","name":"H4","route_color":"#00b0cb"},{"ref":"H5","name":"H5","route_color":"#00b0cb"}],"pass_count":2,"station_degree":2,"is_interchange":false,"station_role":"normal"},"geometry":{"type":"Point","coordinates":[32.51479575,37.87053105]},"__memberLines":{}},{"type":"Feature","properties":{"station_id":"n9439021188","station_name":"Fetih Caddesi","station_name_local":"Fetih Caddesi","station_name_en":null,"city":"Konya","country":"Turkey","lines":["Fetih Cad. Ahmet Özcan Cad. Ring Tramvay Hattı","H4","H5"],"wikipedia":null,"merged_from":2,"merged_names":null,"is_terminus":false,"codes":["T39"],"routes":[{"ref":"Fetih Cad. Ahmet Özcan Cad. Ring Tramvay Hattı","name":"Fetih Cad. Ahmet Özcan Cad. Ring Tramvay Hattı","route_color":null},{"ref":"H4","name":"H4","route_color":"#00b0cb"},{"ref":"H5","name":"H5","route_color":"#00b0cb"}],"pass_count":3,"station_degree":3,"is_interchange":true,"station_role":"interchange"},"geometry":{"type":"Point","coordinates":[32.5260421,37.87002305]},"__memberLines":{}},{"type":"Feature","properties":{"station_id":"n9439021190","station_name":"Spor ve Kongre Merkezi","station_name_local":"Spor ve Kongre Merkezi","station_name_en":null,"city":"Konya","country":"Turkey","lines":["H4","H5"],"wikipedia":null,"merged_from":2,"merged_names":null,"is_terminus":false,"codes":["T40"],"routes":[{"ref":"H4","name":"H4","route_color":"#00b0cb"},{"ref":"H5","name":"H5","route_color":"#00b0cb"}],"pass_count":2,"station_degree":2,"is_interchange":false,"station_role":"normal"},"geometry":{"type":"Point","coordinates":[32.53580585,37.868898]},"__memberLines":{}},{"type":"Feature","properties":{"station_id":"n9439021192","station_name":"Karşehir Caddesi","station_name_local":"Karşehir Caddesi","station_name_en":null,"city":"Konya","country":"Turkey","lines":["H4","H5"],"wikipedia":null,"merged_from":2,"merged_names":null,"is_terminus":false,"codes":["T41"],"routes":[{"ref":"H4","name":"H4","route_color":"#00b0cb"},{"ref":"H5","name":"H5","route_color":"#00b0cb"}],"pass_count":2,"station_degree":2,"is_interchange":false,"station_role":"normal"},"geometry":{"type":"Point","coordinates":[32.54221355,37.868838600000004]},"__memberLines":{}},{"type":"Feature","properties":{"station_id":"n9439021204","station_name":"Adliye","station_name_local":"Adliye","station_name_en":null,"city":"Konya","country":"Turkey","lines":["H4","H5"],"wikipedia":null,"merged_from":2,"merged_names":null,"is_terminus":true,"codes":["T42"],"routes":[{"ref":"H4","name":"H4","route_color":"#00b0cb"},{"ref":"H5","name":"H5","route_color":"#00b0cb"}],"pass_count":2,"station_degree":1,"is_interchange":false,"station_role":"terminus"},"geometry":{"type":"Point","coordinates":[32.54298489999999,37.86136125]},"__memberLines":{}},{"type":"Feature","properties":{"station_id":"n13625911380","station_name":"Otogar","station_name_local":"Otogar","station_name_en":null,"city":"Konya","country":"Turkey","lines":["H1","H2","H3"],"wikipedia":null,"merged_from":2,"merged_names":null,"is_terminus":false,"codes":["T13"],"routes":[{"ref":"H1","name":"H1","route_color":"#21a73f"},{"ref":"H2","name":"H2","route_color":"#21a73f"},{"ref":"H3","name":"H3","route_color":"#21a73f"}],"pass_count":3,"station_degree":2,"is_interchange":false,"station_role":"normal"},"geometry":{"type":"Point","coordinates":[32.51259815,37.94904915]},"__memberLines":{}},{"type":"Feature","properties":{"station_id":"junc:32.49399:37.87294","station_name":"","station_name_local":null,"station_name_en":null,"city":"Konya","country":"Turkey","lines":null,"station_role":"junction","is_junction":true,"is_interchange":false,"is_terminus":false,"merged_from":null,"merged_names":null,"codes":null},"geometry":{"type":"Point","coordinates":[32.4939935,37.8729371]}}]}