{"type":"FeatureCollection","features":[{"type":"Feature","properties":{"way_id":1136963260,"route_colors":[],"route_refs":["1","5","4","7"]},"geometry":{"type":"LineString","coordinates":[[107.6130132,51.8415865],[107.6132473,51.8415977],[107.6136354,51.8416127],[107.6138261,51.8416187]]}},{"type":"Feature","properties":{"way_id":1136978338,"route_colors":[],"route_refs":["1","5","7"]},"geometry":{"type":"LineString","coordinates":[[107.6138261,51.8416187],[107.6141827,51.8416257]]}},{"type":"Feature","properties":{"way_id":324470324,"route_colors":[],"route_refs":["1","5","7"]},"geometry":{"type":"LineString","coordinates":[[107.6141827,51.8416257],[107.6146969,51.8416345],[107.6153494,51.8416168],[107.6207767,51.8414434],[107.6245807,51.8413218],[107.6252813,51.8413195],[107.6254781,51.8413253],[107.6271836,51.8413754],[107.6275616,51.8413962],[107.6278151,51.8414094],[107.6284758,51.8414438],[107.6315899,51.8416443],[107.633674,51.8417786],[107.6338515,51.84179],[107.6351697,51.8418737],[107.63612,51.8419311],[107.6409046,51.8422285],[107.6415231,51.8422666],[107.6421156,51.8422831],[107.6423118,51.8422885],[107.642946,51.8422694],[107.6437057,51.842207],[107.6443409,51.8421206],[107.646209,51.8418437],[107.6477499,51.8416137],[107.6479739,51.8415807],[107.6482705,51.8415355],[107.6502374,51.8412361]]}},{"type":"Feature","properties":{"way_id":1136978344,"route_colors":[],"route_refs":["1","5","7"]},"geometry":{"type":"LineString","coordinates":[[107.6502374,51.8412361],[107.6512151,51.8410873],[107.6514539,51.8410362],[107.6516418,51.8409597],[107.6517437,51.8408742],[107.6518189,51.8407529]]}},{"type":"Feature","properties":{"way_id":1136978343,"route_colors":[],"route_refs":["1","5","7"]},"geometry":{"type":"LineString","coordinates":[[107.6518189,51.8407529],[107.6521492,51.8399796],[107.6528161,51.8384704],[107.6535305,51.8369104],[107.6536364,51.8366843],[107.6541522,51.8355824],[107.6547432,51.8343183],[107.6552468,51.8332563],[107.6556332,51.8324417],[107.6561822,51.8312508],[107.6564942,51.8305925]]}},{"type":"Feature","properties":{"way_id":169900606,"route_colors":[],"route_refs":["1","5","7"]},"geometry":{"type":"LineString","coordinates":[[107.6564942,51.8305925],[107.6569691,51.8295494]]}},{"type":"Feature","properties":{"way_id":169900609,"route_colors":[],"route_refs":["1","5","7"]},"geometry":{"type":"LineString","coordinates":[[107.6569691,51.8295494],[107.6579636,51.8273185],[107.6580516,51.8270368],[107.6580901,51.8268006],[107.6581139,51.8264091],[107.6580726,51.8258035]]}},{"type":"Feature","properties":{"way_id":103747198,"route_colors":[],"route_refs":["1","5","7"]},"geometry":{"type":"LineString","coordinates":[[107.6580726,51.8258035],[107.6577314,51.8222728]]}},{"type":"Feature","properties":{"way_id":103747191,"route_colors":[],"route_refs":["1","5","7"]},"geometry":{"type":"LineString","coordinates":[[107.6577314,51.8222728],[107.6576916,51.8218402]]}},{"type":"Feature","properties":{"way_id":1136963318,"route_colors":[],"route_refs":["1","5","7"]},"geometry":{"type":"LineString","coordinates":[[107.6576916,51.8218402],[107.657644,51.8216365],[107.6576085,51.821565],[107.6574064,51.8214331]]}},{"type":"Feature","properties":{"way_id":169901496,"route_colors":[],"route_refs":["1","5","4","7"]},"geometry":{"type":"LineString","coordinates":[[107.6574064,51.8214331],[107.657284,51.821383],[107.6571881,51.8213142]]}},{"type":"Feature","properties":{"way_id":169901501,"route_colors":[],"route_refs":["1","5"]},"geometry":{"type":"LineString","coordinates":[[107.6571881,51.8213142],[107.6571138,51.8212029],[107.6571085,51.8210826],[107.6571449,51.8209595]]}},{"type":"Feature","properties":{"way_id":169901498,"route_colors":[],"route_refs":["1","5","4","8"]},"geometry":{"type":"LineString","coordinates":[[107.6571449,51.8209595],[107.6572214,51.820896],[107.6572979,51.8208428]]}},{"type":"Feature","properties":{"way_id":1136963322,"route_colors":[],"route_refs":["1"]},"geometry":{"type":"LineString","coordinates":[[107.6572979,51.8208428],[107.6573939,51.8207823],[107.6574624,51.8207333],[107.6575002,51.8206877],[107.6575176,51.8206411],[107.6575243,51.8206191],[107.6575276,51.8205896],[107.6575257,51.8205287],[107.6575086,51.8203079]]}},{"type":"Feature","properties":{"way_id":1136983551,"route_colors":[],"route_refs":["1"]},"geometry":{"type":"LineString","coordinates":[[107.6575086,51.8203079],[107.6573577,51.8184027],[107.6573234,51.81777]]}},{"type":"Feature","properties":{"way_id":73287938,"route_colors":[],"route_refs":["1"]},"geometry":{"type":"LineString","coordinates":[[107.6573234,51.81777],[107.6572448,51.8161327]]}},{"type":"Feature","properties":{"way_id":1136983552,"route_colors":[],"route_refs":["1"]},"geometry":{"type":"LineString","coordinates":[[107.6572448,51.8161327],[107.6571868,51.8149975]]}},{"type":"Feature","properties":{"way_id":1136983549,"route_colors":[],"route_refs":["1"]},"geometry":{"type":"LineString","coordinates":[[107.6571868,51.8149975],[107.6571696,51.8148353],[107.6571315,51.814662],[107.6570332,51.8143592],[107.6569794,51.8142069],[107.6569291,51.8140956],[107.6568821,51.8140045],[107.6568189,51.813912],[107.6567677,51.8138409],[107.6567468,51.8138158],[107.6566928,51.8137558],[107.6566706,51.8137359],[107.6566286,51.8136982],[107.6565689,51.8136521],[107.6564924,51.8135957],[107.6564002,51.8135473],[107.6561948,51.8134342]]}},{"type":"Feature","properties":{"way_id":1136983547,"route_colors":[],"route_refs":["1"]},"geometry":{"type":"LineString","coordinates":[[107.6561948,51.8134342],[107.6561495,51.8134096],[107.6542123,51.812357],[107.654097,51.8122896],[107.6531509,51.8117369]]}},{"type":"Feature","properties":{"way_id":1136983544,"route_colors":[],"route_refs":["1"]},"geometry":{"type":"LineString","coordinates":[[107.6531509,51.8117369],[107.6530068,51.8116541],[107.6526741,51.8114806],[107.6524576,51.8113677],[107.652259,51.8112813]]}},{"type":"Feature","properties":{"way_id":1136983542,"route_colors":[],"route_refs":["1"]},"geometry":{"type":"LineString","coordinates":[[107.652259,51.8112813],[107.6509505,51.8107119],[107.6484381,51.8096186],[107.6483024,51.809559],[107.6461337,51.8086064],[107.6459216,51.8085263],[107.6456871,51.80842],[107.6449849,51.8081019]]}},{"type":"Feature","properties":{"way_id":1136983541,"route_colors":[],"route_refs":["1"]},"geometry":{"type":"LineString","coordinates":[[107.6449849,51.8081019],[107.6446431,51.8079127],[107.6444066,51.8077497],[107.6441949,51.8075561],[107.6440014,51.8073499],[107.6439627,51.8072961]]}},{"type":"Feature","properties":{"way_id":1136983539,"route_colors":[],"route_refs":["1"]},"geometry":{"type":"LineString","coordinates":[[107.6439627,51.8072961],[107.6431305,51.8061379],[107.6428481,51.8057449]]}},{"type":"Feature","properties":{"way_id":1137522836,"route_colors":[],"route_refs":["1"]},"geometry":{"type":"LineString","coordinates":[[107.6428481,51.8057449],[107.6427768,51.8056456],[107.6426755,51.8054958],[107.6426227,51.805438],[107.6425536,51.8053837],[107.6424749,51.8053368],[107.6423975,51.8052971],[107.6423236,51.8052686],[107.6422592,51.8052485],[107.6421895,51.8052318],[107.6421244,51.8052185],[107.6420467,51.8052086],[107.6419685,51.8052026],[107.6418885,51.8052089],[107.6416725,51.8052255],[107.6409094,51.8052903]]}},{"type":"Feature","properties":{"way_id":1136983536,"route_colors":[],"route_refs":["1"]},"geometry":{"type":"LineString","coordinates":[[107.6409094,51.8052903],[107.6403904,51.8053398],[107.6379558,51.8055721],[107.6351619,51.8058572],[107.6327491,51.8061272],[107.6327128,51.8061313],[107.6316295,51.8062605]]}},{"type":"Feature","properties":{"way_id":1136983533,"route_colors":[],"route_refs":["1"]},"geometry":{"type":"LineString","coordinates":[[107.6316295,51.8062605],[107.6313845,51.8062897],[107.6310322,51.8063484],[107.6307189,51.8064202],[107.6304471,51.8065067]]}},{"type":"Feature","properties":{"way_id":1136983532,"route_colors":[],"route_refs":["1"]},"geometry":{"type":"LineString","coordinates":[[107.6304471,51.8065067],[107.6275582,51.8074808]]}},{"type":"Feature","properties":{"way_id":1136983530,"route_colors":[],"route_refs":["1"]},"geometry":{"type":"LineString","coordinates":[[107.6275582,51.8074808],[107.627497,51.8075015],[107.6272986,51.8075655],[107.6269267,51.8076755],[107.6266227,51.8077452],[107.6262321,51.807817],[107.6258874,51.8078514],[107.6255428,51.8078715],[107.6252334,51.8078673]]}},{"type":"Feature","properties":{"way_id":1136983527,"route_colors":[],"route_refs":["1"]},"geometry":{"type":"LineString","coordinates":[[107.6252334,51.8078673],[107.6246562,51.8078596],[107.6234474,51.8078433]]}},{"type":"Feature","properties":{"way_id":1136983525,"route_colors":[],"route_refs":["1"]},"geometry":{"type":"LineString","coordinates":[[107.6234474,51.8078433],[107.6230044,51.8078373],[107.6226396,51.8078575],[107.6222851,51.80793],[107.6218493,51.8080327],[107.6215849,51.8081102]]}},{"type":"Feature","properties":{"way_id":1136983523,"route_colors":[],"route_refs":["1"]},"geometry":{"type":"LineString","coordinates":[[107.6215849,51.8081102],[107.6206095,51.8083962]]}},{"type":"Feature","properties":{"way_id":169903231,"route_colors":[],"route_refs":["1"]},"geometry":{"type":"LineString","coordinates":[[107.6206095,51.8083962],[107.6204706,51.8084443],[107.6202497,51.8085207],[107.6192621,51.8088428],[107.6188109,51.8089855],[107.6186167,51.8090496],[107.6185716,51.80906],[107.6184551,51.8090704]]}},{"type":"Feature","properties":{"way_id":324470321,"route_colors":[],"route_refs":["1","4","7"]},"geometry":{"type":"LineString","coordinates":[[107.6184551,51.8090704],[107.6182413,51.8090718],[107.6174123,51.8090781],[107.6162278,51.809079],[107.6133201,51.8090844],[107.6105722,51.8090896],[107.608957,51.809092],[107.6087113,51.8090934],[107.6034276,51.8090903],[107.6020251,51.8090895],[107.5997123,51.8090902],[107.5992441,51.8090903]]}},{"type":"Feature","properties":{"way_id":1136963291,"route_colors":[],"route_refs":["1","4","7"]},"geometry":{"type":"LineString","coordinates":[[107.5992441,51.8090903],[107.5991261,51.8090903],[107.598843,51.8091056],[107.5985952,51.8091638],[107.598326,51.809276],[107.5981405,51.8094075]]}},{"type":"Feature","properties":{"way_id":1136963290,"route_colors":[],"route_refs":["1","4","7"]},"geometry":{"type":"LineString","coordinates":[[107.5981405,51.8094075],[107.5970414,51.8102035],[107.5967414,51.8104208]]}},{"type":"Feature","properties":{"way_id":1136963288,"route_colors":[],"route_refs":["1","4","7"]},"geometry":{"type":"LineString","coordinates":[[107.5967414,51.8104208],[107.5966665,51.8104763],[107.5964688,51.8106513],[107.5963371,51.8108114],[107.5959967,51.8113849],[107.5959373,51.811525],[107.5958435,51.811752],[107.5957091,51.8122607]]}},{"type":"Feature","properties":{"way_id":1136963286,"route_colors":[],"route_refs":["1","4","7"]},"geometry":{"type":"LineString","coordinates":[[107.5957091,51.8122607],[107.5956221,51.81259]]}},{"type":"Feature","properties":{"way_id":1136963284,"route_colors":[],"route_refs":["1","4","7"]},"geometry":{"type":"LineString","coordinates":[[107.5956221,51.81259],[107.5954951,51.8130708],[107.595327,51.813707]]}},{"type":"Feature","properties":{"way_id":1136963282,"route_colors":[],"route_refs":["1","4","7"]},"geometry":{"type":"LineString","coordinates":[[107.595327,51.813707],[107.5951888,51.8142302],[107.5947233,51.8155582]]}},{"type":"Feature","properties":{"way_id":1136963279,"route_colors":[],"route_refs":["1","4","7"]},"geometry":{"type":"LineString","coordinates":[[107.5947233,51.8155582],[107.5946275,51.8157947],[107.593579,51.8177554],[107.5934705,51.8179651],[107.5933588,51.8183363]]}},{"type":"Feature","properties":{"way_id":1136963277,"route_colors":[],"route_refs":["1","4","7"]},"geometry":{"type":"LineString","coordinates":[[107.5933588,51.8183363],[107.593334,51.8184145]]}},{"type":"Feature","properties":{"way_id":169905067,"route_colors":[],"route_refs":["1","4","7"]},"geometry":{"type":"LineString","coordinates":[[107.593334,51.8184145],[107.592484,51.8208381]]}},{"type":"Feature","properties":{"way_id":169905066,"route_colors":[],"route_refs":["1","4","7"]},"geometry":{"type":"LineString","coordinates":[[107.592484,51.8208381],[107.5922944,51.8214439],[107.5922321,51.8217423],[107.5921963,51.8220341],[107.5921605,51.8238264],[107.5921413,51.8240742],[107.5919539,51.8249967],[107.5918933,51.8251552],[107.5918087,51.8252652],[107.5916613,51.8254105],[107.5902418,51.8268096],[107.5897939,51.827253],[107.587907,51.829121],[107.5876742,51.8293613],[107.5875973,51.8294577],[107.5875227,51.8296379],[107.587504,51.8300216]]}},{"type":"Feature","properties":{"way_id":1136963273,"route_colors":[],"route_refs":["1","4","7"]},"geometry":{"type":"LineString","coordinates":[[107.587504,51.8300216],[107.5874814,51.8304833],[107.5874264,51.8311492],[107.5873821,51.8314481],[107.5873427,51.8317143],[107.5873337,51.8318368]]}},{"type":"Feature","properties":{"way_id":1136963272,"route_colors":[],"route_refs":["1","4","7"]},"geometry":{"type":"LineString","coordinates":[[107.5873337,51.8318368],[107.5872379,51.8331451]]}},{"type":"Feature","properties":{"way_id":1136963268,"route_colors":[],"route_refs":["1","4","7"]},"geometry":{"type":"LineString","coordinates":[[107.5872379,51.8331451],[107.5872309,51.8332295],[107.5872294,51.8332477],[107.5872667,51.8333334],[107.5873005,51.8333805],[107.5873715,51.8334425],[107.5874702,51.8335001],[107.5876461,51.8335884],[107.5876706,51.8336004]]}},{"type":"Feature","properties":{"way_id":1136963267,"route_colors":[],"route_refs":["1","4","7"]},"geometry":{"type":"LineString","coordinates":[[107.5876706,51.8336004],[107.587855,51.8336907],[107.5893279,51.8344015],[107.5916479,51.8355153],[107.5934434,51.8363476],[107.5938316,51.8365477],[107.5939143,51.8366059],[107.594027,51.8367017],[107.5940939,51.8367569],[107.5941728,51.8368028]]}},{"type":"Feature","properties":{"way_id":101569582,"route_colors":[],"route_refs":["1","4","7"]},"geometry":{"type":"LineString","coordinates":[[107.5941728,51.8368028],[107.5945704,51.8369817],[107.5950103,51.8371897],[107.5955669,51.8374657]]}},{"type":"Feature","properties":{"way_id":169821844,"route_colors":[],"route_refs":["1"]},"geometry":{"type":"LineString","coordinates":[[107.5955669,51.8374657],[107.5956257,51.8375162],[107.5956571,51.8375522],[107.5956787,51.8376343],[107.5956659,51.8377183],[107.5956636,51.8377338],[107.5956674,51.8377484],[107.5956246,51.8378072]]}},{"type":"Feature","properties":{"way_id":1137009484,"route_colors":[],"route_refs":["1","2","5"]},"geometry":{"type":"LineString","coordinates":[[107.5956246,51.8378072],[107.5955264,51.8378922],[107.5954027,51.8379994],[107.5953223,51.8380645],[107.5951823,51.8381781],[107.5950144,51.8383144],[107.5948834,51.8384207],[107.5946381,51.8386198],[107.5945862,51.838662],[107.5938362,51.8392711],[107.5938222,51.8392827],[107.5937074,51.8393774],[107.5930507,51.8399188]]}},{"type":"Feature","properties":{"way_id":1137009486,"route_colors":[],"route_refs":["1","2","5"]},"geometry":{"type":"LineString","coordinates":[[107.5930507,51.8399188],[107.5929235,51.8400237],[107.5927955,51.840115],[107.592725,51.8401653],[107.5923518,51.840391]]}},{"type":"Feature","properties":{"way_id":1137009487,"route_colors":[],"route_refs":["1","2","5"]},"geometry":{"type":"LineString","coordinates":[[107.5923518,51.840391],[107.5915457,51.8408369],[107.5912066,51.8410415],[107.590904,51.8412241],[107.5906448,51.8413799],[107.5903782,51.8415402]]}},{"type":"Feature","properties":{"way_id":1137009489,"route_colors":[],"route_refs":["1","2","5"]},"geometry":{"type":"LineString","coordinates":[[107.5903782,51.8415402],[107.5902806,51.8415983],[107.5900957,51.8417083],[107.5893337,51.8421618],[107.5882561,51.8428394],[107.5874671,51.8433184],[107.5872782,51.8434358],[107.5871693,51.8435051],[107.5870687,51.8435679],[107.5868116,51.8437283],[107.5862492,51.8440791]]}},{"type":"Feature","properties":{"way_id":1137009493,"route_colors":[],"route_refs":["1","2","5"]},"geometry":{"type":"LineString","coordinates":[[107.5862492,51.8440791],[107.585189,51.8447489]]}},{"type":"Feature","properties":{"way_id":1137009491,"route_colors":[],"route_refs":["1","2","5"]},"geometry":{"type":"LineString","coordinates":[[107.585189,51.8447489],[107.5850282,51.8448504],[107.5846664,51.8451011],[107.584548,51.8451831],[107.5845028,51.8452153],[107.584378,51.8452924],[107.5842466,51.8453735],[107.5841519,51.845432]]}},{"type":"Feature","properties":{"way_id":1137009494,"route_colors":[],"route_refs":["1","2","5"]},"geometry":{"type":"LineString","coordinates":[[107.5841519,51.845432],[107.5827528,51.8462957],[107.5811642,51.8472765],[107.5809357,51.8474177],[107.5808746,51.8474555],[107.580274,51.8478266]]}},{"type":"Feature","properties":{"way_id":1137009496,"route_colors":[],"route_refs":["1","2","5"]},"geometry":{"type":"LineString","coordinates":[[107.580274,51.8478266],[107.5802007,51.8478991],[107.5801978,51.8479465],[107.5801987,51.8479569],[107.5802007,51.8479784],[107.5802416,51.8480303],[107.5803286,51.8481034]]}},{"type":"Feature","properties":{"way_id":1137009500,"route_colors":[],"route_refs":["1","2","5"]},"geometry":{"type":"LineString","coordinates":[[107.5803286,51.8481034],[107.5816599,51.8489326]]}},{"type":"Feature","properties":{"way_id":1137009501,"route_colors":[],"route_refs":["1","2","5"]},"geometry":{"type":"LineString","coordinates":[[107.5816599,51.8489326],[107.5830596,51.8498115]]}},{"type":"Feature","properties":{"way_id":1137009504,"route_colors":[],"route_refs":["1","2","5"]},"geometry":{"type":"LineString","coordinates":[[107.5830596,51.8498115],[107.5831299,51.8498799],[107.583166,51.8499588],[107.5831426,51.8500601],[107.5830511,51.8501469],[107.5829389,51.8502126]]}},{"type":"Feature","properties":{"way_id":324470319,"route_colors":[],"route_refs":["1","2","5"]},"geometry":{"type":"LineString","coordinates":[[107.5829389,51.8502126],[107.5826785,51.8503652],[107.582658,51.8503777],[107.5824856,51.8504829],[107.5804006,51.8517552],[107.5791388,51.8525261],[107.5788961,51.8526744],[107.5784491,51.8529474],[107.5777234,51.8533764],[107.5765408,51.8540987],[107.5754845,51.8547298]]}},{"type":"Feature","properties":{"way_id":1137009505,"route_colors":[],"route_refs":["1","2"]},"geometry":{"type":"LineString","coordinates":[[107.5754845,51.8547298],[107.5750058,51.8550208],[107.5745636,51.8552897]]}},{"type":"Feature","properties":{"way_id":848639698,"route_colors":[],"route_refs":["1","2"]},"geometry":{"type":"LineString","coordinates":[[107.5745636,51.8552897],[107.5744413,51.8553504],[107.5742817,51.8553925],[107.5741156,51.8553741],[107.5740107,51.8553324],[107.5739341,51.855243],[107.5739341,51.8551681],[107.5739894,51.8550931],[107.5741704,51.8550116],[107.5743839,51.8550073],[107.5745691,51.8550401],[107.5747692,51.8550401],[107.5749698,51.8549897]]}},{"type":"Feature","properties":{"way_id":848639697,"route_colors":[],"route_refs":["1","2","5"]},"geometry":{"type":"LineString","coordinates":[[107.5749698,51.8549897],[107.5751307,51.8548947],[107.5752602,51.8548183],[107.5754553,51.8547031],[107.5761108,51.8543085],[107.5763258,51.8541791],[107.5765017,51.8540732],[107.5776939,51.8533565],[107.5784151,51.8529251],[107.5786696,51.8527686],[107.5788611,51.8526508],[107.5803602,51.8517289],[107.5824558,51.8504624],[107.5826266,51.8503592],[107.5829184,51.8501828]]}},{"type":"Feature","properties":{"way_id":1137009503,"route_colors":[],"route_refs":["1","2","5"]},"geometry":{"type":"LineString","coordinates":[[107.5829184,51.8501828],[107.5830149,51.8501245],[107.5830958,51.8500469],[107.5831128,51.8499602],[107.5830852,51.8498905],[107.5830298,51.8498273]]}},{"type":"Feature","properties":{"way_id":1137009502,"route_colors":[],"route_refs":["1","2","5"]},"geometry":{"type":"LineString","coordinates":[[107.5830298,51.8498273],[107.5822971,51.8493694]]}},{"type":"Feature","properties":{"way_id":1137009498,"route_colors":[],"route_refs":["1","2","5"]},"geometry":{"type":"LineString","coordinates":[[107.5822971,51.8493694],[107.5816152,51.8489432],[107.5808271,51.8484492]]}},{"type":"Feature","properties":{"way_id":1137009499,"route_colors":[],"route_refs":["1","2","5"]},"geometry":{"type":"LineString","coordinates":[[107.5808271,51.8484492],[107.5802911,51.8481133]]}},{"type":"Feature","properties":{"way_id":1137009497,"route_colors":[],"route_refs":["1","2","5"]},"geometry":{"type":"LineString","coordinates":[[107.5802911,51.8481133],[107.5802017,51.848042],[107.5801606,51.8479908],[107.5801463,51.8479476],[107.58015,51.8479316],[107.580174,51.8478858],[107.58024,51.8478148]]}},{"type":"Feature","properties":{"way_id":1137009495,"route_colors":[],"route_refs":["1","2","5"]},"geometry":{"type":"LineString","coordinates":[[107.58024,51.8478148],[107.5809081,51.8473999],[107.5810845,51.8472904],[107.5811355,51.8472587],[107.5827201,51.8462752],[107.5841187,51.8454072]]}},{"type":"Feature","properties":{"way_id":1137009490,"route_colors":[],"route_refs":["1","2","5"]},"geometry":{"type":"LineString","coordinates":[[107.5841187,51.8454072],[107.5842139,51.8453481],[107.5843403,51.8452696],[107.5844599,51.8451954],[107.5845022,51.8451566],[107.5846059,51.8450747],[107.5847843,51.8449327],[107.585139,51.8447042]]}},{"type":"Feature","properties":{"way_id":1137009492,"route_colors":[],"route_refs":["1","2","5"]},"geometry":{"type":"LineString","coordinates":[[107.585139,51.8447042],[107.5861993,51.8440333]]}},{"type":"Feature","properties":{"way_id":1137009488,"route_colors":[],"route_refs":["1","2","5"]},"geometry":{"type":"LineString","coordinates":[[107.5861993,51.8440333],[107.5863282,51.8439518],[107.5867863,51.8436783],[107.5869405,51.8435849],[107.5870165,51.8435391],[107.5871338,51.8434682],[107.5874367,51.8432821],[107.587619,51.843163],[107.588022,51.8429069],[107.5881947,51.8428034],[107.5887094,51.8424847],[107.5892636,51.8421413],[107.5894304,51.8420407],[107.5900352,51.8416758],[107.5901109,51.8416323],[107.5906186,51.8413656],[107.5908056,51.8412497],[107.5911713,51.8410231],[107.5912484,51.8409766],[107.5915092,51.8408192],[107.5919499,51.8405697],[107.5923208,51.8403597]]}},{"type":"Feature","properties":{"way_id":1137009485,"route_colors":[],"route_refs":["1","2","5"]},"geometry":{"type":"LineString","coordinates":[[107.5923208,51.8403597],[107.5926617,51.8401512],[107.5927499,51.8400947],[107.5928937,51.8400025],[107.5930191,51.8398972]]}},{"type":"Feature","properties":{"way_id":1137009483,"route_colors":[],"route_refs":["1","2","5"]},"geometry":{"type":"LineString","coordinates":[[107.5930191,51.8398972],[107.5936679,51.8393526],[107.5937769,51.8392611],[107.5945474,51.8386463],[107.594836,51.8383967],[107.5949681,51.8382906],[107.5951323,51.8381559],[107.5952677,51.8380439],[107.5954808,51.8378693],[107.5955697,51.837798]]}},{"type":"Feature","properties":{"way_id":169821842,"route_colors":[],"route_refs":["1","5"]},"geometry":{"type":"LineString","coordinates":[[107.5955697,51.837798],[107.5956636,51.8377338],[107.59571,51.8377187],[107.5957616,51.8377022],[107.5958337,51.837682],[107.5959288,51.8376864],[107.5960879,51.8377168]]}},{"type":"Feature","properties":{"way_id":169821841,"route_colors":[],"route_refs":["1","5","4","7"]},"geometry":{"type":"LineString","coordinates":[[107.5960879,51.8377168],[107.5976828,51.838481],[107.5995053,51.8393684],[107.5997989,51.8395076],[107.6026671,51.840867]]}},{"type":"Feature","properties":{"way_id":1136963264,"route_colors":[],"route_refs":["1","5","4","7"]},"geometry":{"type":"LineString","coordinates":[[107.6026671,51.840867],[107.6027147,51.8408895],[107.6027605,51.8409107],[107.6028436,51.8409493],[107.6028967,51.8409711],[107.6031189,51.8410621],[107.6032303,51.8410954],[107.6033946,51.8411214],[107.603476,51.8411284],[107.6035392,51.8411338],[107.6037614,51.8411569],[107.6041606,51.8411817]]}},{"type":"Feature","properties":{"way_id":1136963262,"route_colors":[],"route_refs":["1","5","4","7"]},"geometry":{"type":"LineString","coordinates":[[107.6041606,51.8411817],[107.6043753,51.8411909],[107.6060315,51.8412622],[107.6085944,51.8413843],[107.6097335,51.841437],[107.612292,51.8415554],[107.6130132,51.8415865]]}},{"type":"Feature","properties":{"way_id":169821840,"route_colors":[],"route_refs":["2"]},"geometry":{"type":"LineString","coordinates":[[107.5955697,51.837798],[107.5955894,51.8377568],[107.5956162,51.8377008],[107.5956272,51.8376339],[107.5956098,51.8375626],[107.595532,51.8374889]]}},{"type":"Feature","properties":{"way_id":1136963266,"route_colors":[],"route_refs":["2","4","8"]},"geometry":{"type":"LineString","coordinates":[[107.595532,51.8374889],[107.594981,51.8372168],[107.5944673,51.836976],[107.5941439,51.8368406],[107.5940453,51.8367803],[107.5939285,51.8366817],[107.5938703,51.8366308],[107.5937861,51.8365736],[107.5934049,51.8363765],[107.5916501,51.83556],[107.5893002,51.834424],[107.5876339,51.8336224]]}},{"type":"Feature","properties":{"way_id":1136963269,"route_colors":[],"route_refs":["2","4","8"]},"geometry":{"type":"LineString","coordinates":[[107.5876339,51.8336224],[107.5875609,51.8335873],[107.5874303,51.8335204],[107.5873446,51.8334694],[107.5872971,51.8334292],[107.5872265,51.8333498],[107.5871866,51.8332502],[107.587188,51.833231],[107.5871941,51.8331461]]}},{"type":"Feature","properties":{"way_id":1136963270,"route_colors":[],"route_refs":["2","4","8"]},"geometry":{"type":"LineString","coordinates":[[107.5871941,51.8331461],[107.5872783,51.8318322]]}},{"type":"Feature","properties":{"way_id":1136963271,"route_colors":[],"route_refs":["2","4","8"]},"geometry":{"type":"LineString","coordinates":[[107.5872783,51.8318322],[107.5872839,51.8317445],[107.5873275,51.8314469],[107.5873759,51.8311168],[107.5873804,51.8310702]]}},{"type":"Feature","properties":{"way_id":1136963274,"route_colors":[],"route_refs":["2","4","8"]},"geometry":{"type":"LineString","coordinates":[[107.5873804,51.8310702],[107.5874261,51.8304776]]}},{"type":"Feature","properties":{"way_id":1136963275,"route_colors":[],"route_refs":["2","4","8"]},"geometry":{"type":"LineString","coordinates":[[107.5874261,51.8304776],[107.5874496,51.8300159]]}},{"type":"Feature","properties":{"way_id":169905069,"route_colors":[],"route_refs":["2","4","8"]},"geometry":{"type":"LineString","coordinates":[[107.5874496,51.8300159],[107.587479,51.8296333],[107.5875532,51.8294486],[107.5876354,51.8293444],[107.5878573,51.829107],[107.5881861,51.8287808],[107.5892147,51.8277733],[107.5897561,51.8272383],[107.5902011,51.8267932],[107.5916143,51.8253904],[107.5917218,51.8252837],[107.5918307,51.825154],[107.5918848,51.8250092],[107.592081,51.8240746],[107.5921051,51.8238231],[107.5921364,51.8220471],[107.5921744,51.8217448],[107.5922349,51.8214302],[107.592418,51.8208294]]}},{"type":"Feature","properties":{"way_id":169905068,"route_colors":[],"route_refs":["2","4","8"]},"geometry":{"type":"LineString","coordinates":[[107.592418,51.8208294],[107.5932532,51.8184039]]}},{"type":"Feature","properties":{"way_id":1136963276,"route_colors":[],"route_refs":["2","4","8"]},"geometry":{"type":"LineString","coordinates":[[107.5932532,51.8184039],[107.5932622,51.8183743]]}},{"type":"Feature","properties":{"way_id":1136963278,"route_colors":[],"route_refs":["2","4","8"]},"geometry":{"type":"LineString","coordinates":[[107.5932622,51.8183743],[107.5934112,51.8179579],[107.5935267,51.8177375]]}},{"type":"Feature","properties":{"way_id":1136963280,"route_colors":[],"route_refs":["2","4","8"]},"geometry":{"type":"LineString","coordinates":[[107.5935267,51.8177375],[107.5940215,51.816793]]}},{"type":"Feature","properties":{"way_id":1136963281,"route_colors":[],"route_refs":["2","4","8"]},"geometry":{"type":"LineString","coordinates":[[107.5940215,51.816793],[107.5945481,51.8157878],[107.594662,51.8155486],[107.595115,51.8142239],[107.5952566,51.8136984]]}},{"type":"Feature","properties":{"way_id":1136963283,"route_colors":[],"route_refs":["2","4","8"]},"geometry":{"type":"LineString","coordinates":[[107.5952566,51.8136984],[107.5954274,51.8130649],[107.5955568,51.8125851]]}},{"type":"Feature","properties":{"way_id":1136963285,"route_colors":[],"route_refs":["2","4","8"]},"geometry":{"type":"LineString","coordinates":[[107.5955568,51.8125851],[107.5956455,51.812256]]}},{"type":"Feature","properties":{"way_id":1136963287,"route_colors":[],"route_refs":["2","4","8"]},"geometry":{"type":"LineString","coordinates":[[107.5956455,51.812256],[107.5957854,51.8117372],[107.5958755,51.8115215],[107.5959435,51.8113689],[107.596284,51.8108038],[107.5964098,51.8106355],[107.5966198,51.8104521],[107.5967034,51.8103916]]}},{"type":"Feature","properties":{"way_id":1136963289,"route_colors":[],"route_refs":["2","4","8"]},"geometry":{"type":"LineString","coordinates":[[107.5967034,51.8103916],[107.5969962,51.8101799],[107.5980954,51.8093849]]}},{"type":"Feature","properties":{"way_id":1136963292,"route_colors":[],"route_refs":["2","4","8"]},"geometry":{"type":"LineString","coordinates":[[107.5980954,51.8093849],[107.5982899,51.8092535],[107.5985119,51.8091623],[107.598663,51.8091094],[107.5988269,51.8090781],[107.5991038,51.8090706],[107.5992389,51.8090696]]}},{"type":"Feature","properties":{"way_id":169903241,"route_colors":[],"route_refs":["2","4","8"]},"geometry":{"type":"LineString","coordinates":[[107.5992389,51.8090696],[107.5993739,51.8090685],[107.5997123,51.8090682],[107.6020259,51.8090661],[107.603429,51.8090661],[107.6087163,51.8090659],[107.6089556,51.8090671],[107.6105715,51.8090628],[107.6133204,51.8090576],[107.6174118,51.8090499],[107.6183121,51.8090494]]}},{"type":"Feature","properties":{"way_id":73287940,"route_colors":[],"route_refs":["2"]},"geometry":{"type":"LineString","coordinates":[[107.6183121,51.8090494],[107.6185653,51.8090322],[107.6187119,51.8089854],[107.6192361,51.8088205],[107.6202625,51.8084792],[107.6206124,51.8083633]]}},{"type":"Feature","properties":{"way_id":1136983524,"route_colors":[],"route_refs":["2"]},"geometry":{"type":"LineString","coordinates":[[107.6206124,51.8083633],[107.6206967,51.808334],[107.6210081,51.8082409],[107.6215585,51.8080835]]}},{"type":"Feature","properties":{"way_id":1136983526,"route_colors":[],"route_refs":["2"]},"geometry":{"type":"LineString","coordinates":[[107.6215585,51.8080835],[107.6218219,51.8080082],[107.622285,51.8078969],[107.6226191,51.807831],[107.6229981,51.8078078],[107.6234414,51.8078134]]}},{"type":"Feature","properties":{"way_id":1136983528,"route_colors":[],"route_refs":["2"]},"geometry":{"type":"LineString","coordinates":[[107.6234414,51.8078134],[107.6246586,51.8078287],[107.6252333,51.8078359]]}},{"type":"Feature","properties":{"way_id":1136983529,"route_colors":[],"route_refs":["2"]},"geometry":{"type":"LineString","coordinates":[[107.6252333,51.8078359],[107.62554,51.8078398],[107.625894,51.8078203],[107.6262293,51.8077865],[107.6266051,51.8077138],[107.6268972,51.8076439],[107.6272741,51.8075353],[107.6275295,51.8074494]]}},{"type":"Feature","properties":{"way_id":1136983531,"route_colors":[],"route_refs":["2"]},"geometry":{"type":"LineString","coordinates":[[107.6275295,51.8074494],[107.6304135,51.8064749]]}},{"type":"Feature","properties":{"way_id":1136983534,"route_colors":[],"route_refs":["2"]},"geometry":{"type":"LineString","coordinates":[[107.6304135,51.8064749],[107.6307,51.8063873],[107.6310256,51.8063125],[107.6313513,51.8062568],[107.6316233,51.806226]]}},{"type":"Feature","properties":{"way_id":1136983535,"route_colors":[],"route_refs":["2"]},"geometry":{"type":"LineString","coordinates":[[107.6316233,51.806226],[107.6327071,51.8061034],[107.63274,51.8060997],[107.6351478,51.8058273],[107.6379525,51.8055246],[107.6398364,51.805353]]}},{"type":"Feature","properties":{"way_id":1136983537,"route_colors":[],"route_refs":["2"]},"geometry":{"type":"LineString","coordinates":[[107.6398364,51.805353],[107.6403808,51.8053034],[107.6409071,51.8052555],[107.6416541,51.8051898],[107.641876,51.8051714],[107.6419933,51.8051692],[107.6421015,51.8051781],[107.6423295,51.8052257],[107.6425566,51.8053272],[107.6426583,51.8054008],[107.6427347,51.8054867],[107.6428549,51.8056354],[107.6429138,51.8057187]]}},{"type":"Feature","properties":{"way_id":1136983538,"route_colors":[],"route_refs":["2"]},"geometry":{"type":"LineString","coordinates":[[107.6429138,51.8057187],[107.6432015,51.8061256],[107.6440188,51.8072815]]}},{"type":"Feature","properties":{"way_id":1136983540,"route_colors":[],"route_refs":["2"]},"geometry":{"type":"LineString","coordinates":[[107.6440188,51.8072815],[107.644244,51.8075327],[107.6444564,51.8077194],[107.6446779,51.8078778],[107.6450389,51.8080713]]}},{"type":"Feature","properties":{"way_id":1136983543,"route_colors":[],"route_refs":["2"]},"geometry":{"type":"LineString","coordinates":[[107.6450389,51.8080713],[107.6457336,51.8083924],[107.6459649,51.8084993],[107.6481672,51.8094539],[107.6483335,51.8095267],[107.6509811,51.8106849],[107.652282,51.811242]]}},{"type":"Feature","properties":{"way_id":1136983545,"route_colors":[],"route_refs":["2"]},"geometry":{"type":"LineString","coordinates":[[107.652282,51.811242],[107.6524817,51.8113276],[107.6527184,51.8114507],[107.653041,51.8116185],[107.6531969,51.8117087]]}},{"type":"Feature","properties":{"way_id":1136983546,"route_colors":[],"route_refs":["2"]},"geometry":{"type":"LineString","coordinates":[[107.6531969,51.8117087],[107.6539933,51.812162],[107.6541545,51.8122509],[107.6561977,51.8133778],[107.6562352,51.8133985]]}},{"type":"Feature","properties":{"way_id":1136983548,"route_colors":[],"route_refs":["2"]},"geometry":{"type":"LineString","coordinates":[[107.6562352,51.8133985],[107.6564561,51.8135293],[107.6565735,51.8136072],[107.6566468,51.8136604],[107.6567061,51.8137136],[107.6567147,51.8137225],[107.6567954,51.8138063],[107.6568648,51.8138965],[107.6569337,51.8140002],[107.6569961,51.8141187],[107.6570604,51.8142883],[107.6571203,51.8144604],[107.6571826,51.8146596],[107.6572221,51.8148202],[107.6572522,51.8149965]]}},{"type":"Feature","properties":{"way_id":1136983553,"route_colors":[],"route_refs":["2"]},"geometry":{"type":"LineString","coordinates":[[107.6572522,51.8149965],[107.6573232,51.8161317]]}},{"type":"Feature","properties":{"way_id":169903236,"route_colors":[],"route_refs":["2"]},"geometry":{"type":"LineString","coordinates":[[107.6573232,51.8161317],[107.6573983,51.817769]]}},{"type":"Feature","properties":{"way_id":1136983550,"route_colors":[],"route_refs":["2"]},"geometry":{"type":"LineString","coordinates":[[107.6573983,51.817769],[107.6574258,51.8183952],[107.6575581,51.8203077]]}},{"type":"Feature","properties":{"way_id":1136963323,"route_colors":[],"route_refs":["2"]},"geometry":{"type":"LineString","coordinates":[[107.6575581,51.8203077],[107.6575743,51.820528],[107.657578,51.8205856],[107.6575833,51.8206159],[107.6575859,51.8206394],[107.6576063,51.8206738],[107.6576356,51.8207142],[107.6576823,51.8207546],[107.6577892,51.8208178]]}},{"type":"Feature","properties":{"way_id":169901495,"route_colors":[],"route_refs":["2","5","4","8"]},"geometry":{"type":"LineString","coordinates":[[107.6577892,51.8208178],[107.6579302,51.8208719],[107.6580438,51.8209319]]}},{"type":"Feature","properties":{"way_id":169901500,"route_colors":[],"route_refs":["2","8"]},"geometry":{"type":"LineString","coordinates":[[107.6580438,51.8209319],[107.6581156,51.8209936],[107.6581591,51.8210513],[107.6581759,51.8211259],[107.658165,51.8212009],[107.658127,51.8212725]]}},{"type":"Feature","properties":{"way_id":169901497,"route_colors":[],"route_refs":["2","5","4","8"]},"geometry":{"type":"LineString","coordinates":[[107.658127,51.8212725],[107.6580523,51.8213459],[107.6579493,51.8214049]]}},{"type":"Feature","properties":{"way_id":73287952,"route_colors":[],"route_refs":["2","5","8"]},"geometry":{"type":"LineString","coordinates":[[107.6579493,51.8214049],[107.6577828,51.8215683],[107.6577534,51.8216307],[107.6577426,51.8218319]]}},{"type":"Feature","properties":{"way_id":1136963319,"route_colors":[],"route_refs":["2","5","8"]},"geometry":{"type":"LineString","coordinates":[[107.6577426,51.8218319],[107.6577876,51.8222703]]}},{"type":"Feature","properties":{"way_id":169900602,"route_colors":[],"route_refs":["2","5","8"]},"geometry":{"type":"LineString","coordinates":[[107.6577876,51.8222703],[107.6581228,51.8257965]]}},{"type":"Feature","properties":{"way_id":169900608,"route_colors":[],"route_refs":["2","5","8"]},"geometry":{"type":"LineString","coordinates":[[107.6581228,51.8257965],[107.6581748,51.8264022],[107.6581541,51.8268013],[107.6581134,51.8270354],[107.6580165,51.8273292],[107.6570184,51.8295593]]}},{"type":"Feature","properties":{"way_id":169900605,"route_colors":[],"route_refs":["2","5","8"]},"geometry":{"type":"LineString","coordinates":[[107.6570184,51.8295593],[107.6565403,51.8306063]]}},{"type":"Feature","properties":{"way_id":1136978341,"route_colors":[],"route_refs":["2","5","8"]},"geometry":{"type":"LineString","coordinates":[[107.6565403,51.8306063],[107.6562277,51.831289],[107.6552959,51.8332657],[107.6547956,51.8343269],[107.6542014,51.8355915],[107.6536954,51.8366938],[107.6535907,51.8369219],[107.6528855,51.8384662],[107.6522043,51.8399912],[107.6518126,51.8408694]]}},{"type":"Feature","properties":{"way_id":1136978342,"route_colors":[],"route_refs":["2","5","8"]},"geometry":{"type":"LineString","coordinates":[[107.6518126,51.8408694],[107.6517893,51.8409188],[107.65161,51.8410413],[107.6514666,51.841088],[107.6512321,51.8411394],[107.6496774,51.8413743]]}},{"type":"Feature","properties":{"way_id":169900607,"route_colors":[],"route_refs":["2","5","8"]},"geometry":{"type":"LineString","coordinates":[[107.6496774,51.8413743],[107.6482992,51.8415826],[107.6477759,51.8416616],[107.6462627,51.8418938],[107.6443604,51.8421777],[107.6437587,51.8422552],[107.6429822,51.8423252],[107.6422956,51.8423446],[107.6415084,51.8423126],[107.6409297,51.8422732],[107.6402939,51.8422325],[107.637512,51.8420518],[107.6361131,51.8419686],[107.6351711,51.8419129],[107.6350695,51.8419069],[107.6338571,51.8418303],[107.6336706,51.8418181],[107.6317223,51.8416911],[107.6315878,51.8416836],[107.6306792,51.8416227],[107.6284673,51.841478],[107.6278079,51.8414417],[107.6275292,51.8414263],[107.6271757,51.8414093],[107.6254777,51.8413591],[107.6252816,51.8413533],[107.6245765,51.8413534],[107.6207826,51.841475],[107.6153722,51.8416483],[107.6146987,51.8416646],[107.6141709,51.8416564]]}},{"type":"Feature","properties":{"way_id":1136978337,"route_colors":[],"route_refs":["2","5","8"]},"geometry":{"type":"LineString","coordinates":[[107.6141709,51.8416564],[107.61404,51.8416528],[107.6138137,51.8416502]]}},{"type":"Feature","properties":{"way_id":1136963261,"route_colors":[],"route_refs":["2","5","4","8"]},"geometry":{"type":"LineString","coordinates":[[107.6138137,51.8416502],[107.613629,51.8416434],[107.6132404,51.8416267],[107.6130086,51.8416167]]}},{"type":"Feature","properties":{"way_id":1136963263,"route_colors":[],"route_refs":["2","5","4","8"]},"geometry":{"type":"LineString","coordinates":[[107.6130086,51.8416167],[107.6122835,51.8415855],[107.6097281,51.8414651],[107.608591,51.8414115],[107.6060214,51.8412904],[107.6046023,51.8412295]]}},{"type":"Feature","properties":{"way_id":1136963265,"route_colors":[],"route_refs":["2","5","4","8"]},"geometry":{"type":"LineString","coordinates":[[107.6046023,51.8412295],[107.6043723,51.8412216],[107.6041401,51.8412137],[107.6037446,51.8411867],[107.6034665,51.8411602],[107.6033872,51.8411526],[107.6032131,51.8411296],[107.6030171,51.8410649],[107.6029028,51.8410126]]}},{"type":"Feature","properties":{"way_id":1243542305,"route_colors":[],"route_refs":["2","5","4","8"]},"geometry":{"type":"LineString","coordinates":[[107.6029028,51.8410126],[107.602845,51.8409862],[107.6027668,51.8409505],[107.6027462,51.8409411],[107.6026393,51.8408903]]}},{"type":"Feature","properties":{"way_id":324470323,"route_colors":[],"route_refs":["2","5","4","8"]},"geometry":{"type":"LineString","coordinates":[[107.6026393,51.8408903],[107.5997731,51.8395266],[107.5994802,51.8393873],[107.5988954,51.839109],[107.5986307,51.8389831],[107.5976565,51.8385021],[107.5960607,51.8377418]]}},{"type":"Feature","properties":{"way_id":324470326,"route_colors":[],"route_refs":["2","5"]},"geometry":{"type":"LineString","coordinates":[[107.5960607,51.8377418],[107.5959307,51.8377156],[107.5958354,51.8377161],[107.5957462,51.8377426],[107.5957027,51.837762],[107.5956864,51.8377692],[107.5956246,51.8378072]]}},{"type":"Feature","properties":{"way_id":169901499,"route_colors":[],"route_refs":["5","4","8"]},"geometry":{"type":"LineString","coordinates":[[107.6572979,51.8208428],[107.6574391,51.8208054],[107.6575461,51.820795],[107.6576519,51.8207949],[107.6577892,51.8208178]]}},{"type":"Feature","properties":{"way_id":1136963321,"route_colors":[],"route_refs":["5","4"]},"geometry":{"type":"LineString","coordinates":[[107.6580438,51.8209319],[107.6582549,51.8210212],[107.6584253,51.8210329],[107.6586851,51.8210065]]}},{"type":"Feature","properties":{"way_id":1136963325,"route_colors":[],"route_refs":["5","4"]},"geometry":{"type":"LineString","coordinates":[[107.6586851,51.8210065],[107.6591134,51.8209712],[107.6597066,51.8209587],[107.6614151,51.8209531],[107.6624211,51.82095]]}},{"type":"Feature","properties":{"way_id":1136963326,"route_colors":[],"route_refs":["5","4"]},"geometry":{"type":"LineString","coordinates":[[107.6624211,51.82095],[107.6624899,51.8209501],[107.662994,51.8209773],[107.6634852,51.821031]]}},{"type":"Feature","properties":{"way_id":1136963329,"route_colors":[],"route_refs":["5","4"]},"geometry":{"type":"LineString","coordinates":[[107.6634852,51.821031],[107.6661729,51.8214926]]}},{"type":"Feature","properties":{"way_id":73287954,"route_colors":[],"route_refs":["5","4"]},"geometry":{"type":"LineString","coordinates":[[107.6661729,51.8214926],[107.666527,51.8215631],[107.6668518,51.8216427],[107.668535,51.8221186],[107.6687519,51.8221664],[107.6689035,51.8221846],[107.6690499,51.8221954],[107.6691783,51.8221936],[107.6700959,51.8221529],[107.6702457,51.8221513],[107.6703798,51.8221529],[107.6705113,51.8221588],[107.6706633,51.8221773],[107.6707824,51.822203],[107.6709002,51.8222277],[107.6710224,51.8222641],[107.6711373,51.8223146],[107.6728353,51.8231051]]}},{"type":"Feature","properties":{"way_id":1136963333,"route_colors":[],"route_refs":["5","4"]},"geometry":{"type":"LineString","coordinates":[[107.6728353,51.8231051],[107.6734778,51.8234042],[107.6735862,51.8234449],[107.6737002,51.8234863],[107.6738107,51.8235132],[107.6738973,51.8235311],[107.6739965,51.823542],[107.6741038,51.8235485],[107.6742124,51.8235465],[107.6748334,51.8235301]]}},{"type":"Feature","properties":{"way_id":1136963331,"route_colors":[],"route_refs":["5","4"]},"geometry":{"type":"LineString","coordinates":[[107.6748334,51.8235301],[107.6754686,51.8235133],[107.6761971,51.8234941],[107.677711,51.823453]]}},{"type":"Feature","properties":{"way_id":1136963335,"route_colors":[],"route_refs":["5","4"]},"geometry":{"type":"LineString","coordinates":[[107.677711,51.823453],[107.677915,51.8234475],[107.6780051,51.8234391],[107.6780923,51.82342],[107.6781481,51.8233964],[107.6781774,51.8233752],[107.6783559,51.8232237],[107.678378,51.823195],[107.6783903,51.8231791]]}},{"type":"Feature","properties":{"way_id":848639171,"route_colors":[],"route_refs":["5","4"]},"geometry":{"type":"LineString","coordinates":[[107.6783903,51.8231791],[107.6784235,51.8231274],[107.6784329,51.8230785],[107.6784342,51.8230265],[107.6784168,51.8229732],[107.6783372,51.8228789],[107.678225,51.8227428],[107.6781786,51.822672],[107.678158,51.8226118],[107.6781593,51.8225621],[107.6781848,51.8225073],[107.678225,51.8224668],[107.6782921,51.8224228],[107.6783849,51.822385],[107.6784866,51.8223623],[107.6785955,51.8223574],[107.6786931,51.8223689],[107.6787816,51.8223922],[107.6788714,51.8224297],[107.6789264,51.8224684],[107.6789707,51.8225065],[107.6790048,51.8225661],[107.6790149,51.8226193],[107.6790136,51.8226715],[107.6789922,51.8227254],[107.6789329,51.8228023]]}},{"type":"Feature","properties":{"way_id":1136963328,"route_colors":[],"route_refs":["5","4"]},"geometry":{"type":"LineString","coordinates":[[107.6661658,51.8215386],[107.6634495,51.821076]]}},{"type":"Feature","properties":{"way_id":1136963327,"route_colors":[],"route_refs":["5","4"]},"geometry":{"type":"LineString","coordinates":[[107.6634495,51.821076],[107.6629668,51.821022],[107.662485,51.8210038],[107.6624029,51.821003]]}},{"type":"Feature","properties":{"way_id":1136963324,"route_colors":[],"route_refs":["5","4"]},"geometry":{"type":"LineString","coordinates":[[107.6624029,51.821003],[107.6614109,51.8210015],[107.6596928,51.8210062],[107.659117,51.8210184],[107.6586814,51.8210477]]}},{"type":"Feature","properties":{"way_id":1136963320,"route_colors":[],"route_refs":["5","4"]},"geometry":{"type":"LineString","coordinates":[[107.6586814,51.8210477],[107.6586283,51.8210574],[107.6584406,51.8210915],[107.6582871,51.8211505],[107.658127,51.8212725]]}},{"type":"Feature","properties":{"way_id":1244971832,"route_colors":[],"route_refs":["5","4"]},"geometry":{"type":"LineString","coordinates":[[107.6789329,51.8228023],[107.6784411,51.8232072],[107.6783983,51.8232424]]}},{"type":"Feature","properties":{"way_id":1136963334,"route_colors":[],"route_refs":["5","4"]},"geometry":{"type":"LineString","coordinates":[[107.6783983,51.8232424],[107.6782673,51.8233746],[107.6782054,51.8234109],[107.6781084,51.8234507],[107.6780094,51.8234715],[107.6779109,51.8234793],[107.6777109,51.8234847]]}},{"type":"Feature","properties":{"way_id":1136963330,"route_colors":[],"route_refs":["5","4"]},"geometry":{"type":"LineString","coordinates":[[107.6777109,51.8234847],[107.6761963,51.8235256],[107.6754773,51.8235455],[107.6748285,51.8235634]]}},{"type":"Feature","properties":{"way_id":1136963332,"route_colors":[],"route_refs":["5","4"]},"geometry":{"type":"LineString","coordinates":[[107.6748285,51.8235634],[107.6742065,51.8235806],[107.6741078,51.8235825],[107.6739847,51.8235771],[107.6738812,51.8235634],[107.6737831,51.8235447],[107.6736747,51.8235162],[107.6735647,51.8234772],[107.6734437,51.8234287],[107.672802,51.8231324]]}},{"type":"Feature","properties":{"way_id":848639170,"route_colors":[],"route_refs":["5","4"]},"geometry":{"type":"LineString","coordinates":[[107.672802,51.8231324],[107.6718742,51.8227039],[107.6710979,51.8223454],[107.6709925,51.8223059],[107.6708691,51.822267],[107.6707457,51.8222355],[107.670621,51.8222148],[107.6704963,51.8222015],[107.6703595,51.8221949],[107.6702401,51.8221924],[107.6700955,51.8221933],[107.6691795,51.8222361],[107.6690264,51.8222355],[107.6688883,51.822228],[107.6687475,51.8222098],[107.668514,51.8221614],[107.6668268,51.8216916],[107.666498,51.8216065],[107.6661658,51.8215386]]}},{"type":"Feature","properties":{"way_id":1136963252,"route_colors":[],"route_refs":["4"]},"geometry":{"type":"LineString","coordinates":[[107.625495,51.8434634],[107.6249745,51.843746],[107.6246321,51.8439319],[107.6243866,51.8440586],[107.6237574,51.8443835]]}},{"type":"Feature","properties":{"way_id":1136963253,"route_colors":[],"route_refs":["4"]},"geometry":{"type":"LineString","coordinates":[[107.6237574,51.8443835],[107.6236549,51.8444261],[107.6234973,51.8444885],[107.6233255,51.8445009],[107.6231758,51.8444959],[107.6230355,51.8444618],[107.6229415,51.8444363]]}},{"type":"Feature","properties":{"way_id":1136963256,"route_colors":[],"route_refs":["4"]},"geometry":{"type":"LineString","coordinates":[[107.6229415,51.8444363],[107.6224416,51.8443006],[107.6218351,51.8441359],[107.621262,51.8439804],[107.6209601,51.8438984],[107.6207566,51.8438675],[107.6205897,51.8438783],[107.6204068,51.8439198],[107.6198314,51.8440546],[107.6191458,51.8442037],[107.6189748,51.8442392],[107.6188301,51.8442655],[107.6186491,51.8442735],[107.6185111,51.8442626],[107.618346,51.8442208],[107.6182054,51.8441663]]}},{"type":"Feature","properties":{"way_id":848639168,"route_colors":[],"route_refs":["4"]},"geometry":{"type":"LineString","coordinates":[[107.6182054,51.8441663],[107.6146969,51.8421698]]}},{"type":"Feature","properties":{"way_id":1136963258,"route_colors":[],"route_refs":["4"]},"geometry":{"type":"LineString","coordinates":[[107.6146969,51.8421698],[107.6144826,51.8420386],[107.6144005,51.8419756],[107.6143057,51.8418727],[107.6142588,51.8418217],[107.6141805,51.8417605],[107.6141291,51.8417221],[107.6140237,51.8416818],[107.6138137,51.8416502]]}},{"type":"Feature","properties":{"way_id":1243962267,"route_colors":[],"route_refs":["4","8"]},"geometry":{"type":"LineString","coordinates":[[107.5960607,51.8377418],[107.5959288,51.8376864],[107.5958262,51.8376378]]}},{"type":"Feature","properties":{"way_id":169821839,"route_colors":[],"route_refs":["4","8"]},"geometry":{"type":"LineString","coordinates":[[107.5958262,51.8376378],[107.5956571,51.8375522],[107.595532,51.8374889]]}},{"type":"Feature","properties":{"way_id":324470322,"route_colors":[],"route_refs":["4","8"]},"geometry":{"type":"LineString","coordinates":[[107.6183121,51.8090494],[107.6185693,51.8090497],[107.6186167,51.8090496],[107.6189168,51.8090453],[107.6200138,51.8090486],[107.6202174,51.8090589],[107.6203269,51.8090712],[107.620368,51.8090818],[107.6204601,51.8091187],[107.6205887,51.8092072]]}},{"type":"Feature","properties":{"way_id":169903229,"route_colors":[],"route_refs":["4","8"]},"geometry":{"type":"LineString","coordinates":[[107.6205887,51.8092072],[107.6213314,51.810267],[107.6215405,51.8105655],[107.6223995,51.8118114]]}},{"type":"Feature","properties":{"way_id":169903232,"route_colors":[],"route_refs":["4","8"]},"geometry":{"type":"LineString","coordinates":[[107.6223995,51.8118114],[107.6226439,51.8121573],[107.623028,51.8126918]]}},{"type":"Feature","properties":{"way_id":1136963294,"route_colors":[],"route_refs":["4","8"]},"geometry":{"type":"LineString","coordinates":[[107.623028,51.8126918],[107.6230981,51.8127978],[107.6232012,51.8129888]]}},{"type":"Feature","properties":{"way_id":1136963296,"route_colors":[],"route_refs":["4","8"]},"geometry":{"type":"LineString","coordinates":[[107.6232012,51.8129888],[107.6236668,51.8142363],[107.6238027,51.8147448]]}},{"type":"Feature","properties":{"way_id":1136963299,"route_colors":[],"route_refs":["4","8"]},"geometry":{"type":"LineString","coordinates":[[107.6238027,51.8147448],[107.623927,51.8152103],[107.6239912,51.8156783],[107.6240062,51.8161949],[107.6239794,51.816631],[107.6239238,51.8168839]]}},{"type":"Feature","properties":{"way_id":1136963301,"route_colors":[],"route_refs":["4","8"]},"geometry":{"type":"LineString","coordinates":[[107.6239238,51.8168839],[107.623762,51.8176024],[107.6237003,51.8178143]]}},{"type":"Feature","properties":{"way_id":1136963303,"route_colors":[],"route_refs":["4","8"]},"geometry":{"type":"LineString","coordinates":[[107.6237003,51.8178143],[107.6236449,51.8179788],[107.6236187,51.8180279],[107.6235726,51.8181144],[107.6234576,51.818267],[107.6234321,51.8183078],[107.6233799,51.8183817]]}},{"type":"Feature","properties":{"way_id":1136963304,"route_colors":[],"route_refs":["4","8"]},"geometry":{"type":"LineString","coordinates":[[107.6233799,51.8183817],[107.6228643,51.8191118],[107.6228104,51.8191882]]}},{"type":"Feature","properties":{"way_id":1136963306,"route_colors":[],"route_refs":["4","8"]},"geometry":{"type":"LineString","coordinates":[[107.6228104,51.8191882],[107.6227766,51.8192827],[107.6227886,51.8193138],[107.6228134,51.8193407],[107.6228546,51.8193688],[107.6229254,51.819394]]}},{"type":"Feature","properties":{"way_id":1136963309,"route_colors":[],"route_refs":["4","8"]},"geometry":{"type":"LineString","coordinates":[[107.6229254,51.819394],[107.623235,51.8194824],[107.6256471,51.8201715],[107.6264945,51.8204135],[107.6301326,51.8214726]]}},{"type":"Feature","properties":{"way_id":1136963310,"route_colors":[],"route_refs":["4","8"]},"geometry":{"type":"LineString","coordinates":[[107.6301326,51.8214726],[107.6304144,51.8215368],[107.6308184,51.8215697]]}},{"type":"Feature","properties":{"way_id":73287950,"route_colors":[],"route_refs":["4","8"]},"geometry":{"type":"LineString","coordinates":[[107.6308184,51.8215697],[107.6309915,51.8215705],[107.6328126,51.8215792],[107.6330866,51.8215805],[107.6333605,51.8215864],[107.6336038,51.8215886],[107.6344333,51.8215963],[107.6400745,51.8216692],[107.6413388,51.8216847],[107.6443369,51.821714],[107.6471016,51.821757],[107.6499789,51.8217972]]}},{"type":"Feature","properties":{"way_id":1136963314,"route_colors":[],"route_refs":["4","8"]},"geometry":{"type":"LineString","coordinates":[[107.6499789,51.8217972],[107.6503554,51.8218024],[107.6507874,51.8217935],[107.6512826,51.8217657],[107.651978,51.8216959]]}},{"type":"Feature","properties":{"way_id":1136963312,"route_colors":[],"route_refs":["4","8"]},"geometry":{"type":"LineString","coordinates":[[107.651978,51.8216959],[107.6545611,51.8214333],[107.6565157,51.8212304]]}},{"type":"Feature","properties":{"way_id":1136963317,"route_colors":[],"route_refs":["4","8"]},"geometry":{"type":"LineString","coordinates":[[107.6565157,51.8212304],[107.656745,51.8211933],[107.6568864,51.8211538],[107.6570296,51.8210553],[107.6571449,51.8209595]]}},{"type":"Feature","properties":{"way_id":73287935,"route_colors":[],"route_refs":["4"]},"geometry":{"type":"LineString","coordinates":[[107.6579493,51.8214049],[107.6578498,51.8214393],[107.6577407,51.8214599],[107.657627,51.8214658],[107.6575139,51.8214567],[107.6574064,51.8214331]]}},{"type":"Feature","properties":{"way_id":1136963316,"route_colors":[],"route_refs":["4","7"]},"geometry":{"type":"LineString","coordinates":[[107.6571881,51.8213142],[107.6570944,51.8212728],[107.6569291,51.8212325],[107.6567635,51.8212412],[107.6565379,51.8212685]]}},{"type":"Feature","properties":{"way_id":1136963313,"route_colors":[],"route_refs":["4","7"]},"geometry":{"type":"LineString","coordinates":[[107.6565379,51.8212685],[107.6545731,51.8214711],[107.6519889,51.8217316]]}},{"type":"Feature","properties":{"way_id":1136963315,"route_colors":[],"route_refs":["4","7"]},"geometry":{"type":"LineString","coordinates":[[107.6519889,51.8217316],[107.6512968,51.821802],[107.6508154,51.8218275],[107.6503717,51.8218378],[107.6499751,51.8218329]]}},{"type":"Feature","properties":{"way_id":73287948,"route_colors":[],"route_refs":["4","7"]},"geometry":{"type":"LineString","coordinates":[[107.6499751,51.8218329],[107.6471004,51.8217969],[107.6443351,51.8217467],[107.6413364,51.8217249],[107.6400743,51.8217087],[107.6344402,51.8216322],[107.6344288,51.821632],[107.6336027,51.8216244],[107.6333592,51.8216221],[107.6330841,51.8216191],[107.6328126,51.8216171],[107.6309912,51.821604],[107.6308132,51.8216027]]}},{"type":"Feature","properties":{"way_id":1136963311,"route_colors":[],"route_refs":["4","7"]},"geometry":{"type":"LineString","coordinates":[[107.6308132,51.8216027],[107.6304027,51.8215659],[107.630106,51.8214989]]}},{"type":"Feature","properties":{"way_id":1136963308,"route_colors":[],"route_refs":["4","7"]},"geometry":{"type":"LineString","coordinates":[[107.630106,51.8214989],[107.6264672,51.8204429],[107.6256239,51.8202012],[107.6229062,51.8194224]]}},{"type":"Feature","properties":{"way_id":1136963307,"route_colors":[],"route_refs":["4","7"]},"geometry":{"type":"LineString","coordinates":[[107.6229062,51.8194224],[107.6228385,51.8193986],[107.6227944,51.8193718],[107.6227484,51.8193277],[107.6227237,51.8192682],[107.6227593,51.8191829]]}},{"type":"Feature","properties":{"way_id":1136963305,"route_colors":[],"route_refs":["4","7"]},"geometry":{"type":"LineString","coordinates":[[107.6227593,51.8191829],[107.6228177,51.8190971],[107.6233191,51.8183606]]}},{"type":"Feature","properties":{"way_id":1136963302,"route_colors":[],"route_refs":["4","7"]},"geometry":{"type":"LineString","coordinates":[[107.6233191,51.8183606],[107.6233703,51.8182854],[107.623398,51.8182407],[107.6234409,51.8181776],[107.6234917,51.8181025],[107.6235514,51.8180152],[107.6235704,51.8179749],[107.6235965,51.8179119],[107.6236407,51.8178051]]}},{"type":"Feature","properties":{"way_id":1136963300,"route_colors":[],"route_refs":["4","7"]},"geometry":{"type":"LineString","coordinates":[[107.6236407,51.8178051],[107.6237003,51.8175972],[107.6238727,51.8168826]]}},{"type":"Feature","properties":{"way_id":1136963298,"route_colors":[],"route_refs":["4","7"]},"geometry":{"type":"LineString","coordinates":[[107.6238727,51.8168826],[107.6239284,51.816631],[107.6239365,51.8161949],[107.6239337,51.8156866],[107.6238661,51.8152207],[107.6237362,51.8147508]]}},{"type":"Feature","properties":{"way_id":1136963297,"route_colors":[],"route_refs":["4","7"]},"geometry":{"type":"LineString","coordinates":[[107.6237362,51.8147508],[107.6235895,51.8142205],[107.6231363,51.812989],[107.6230353,51.8128091],[107.6229589,51.8126908]]}},{"type":"Feature","properties":{"way_id":1136963295,"route_colors":[],"route_refs":["4","7"]},"geometry":{"type":"LineString","coordinates":[[107.6229589,51.8126908],[107.6228825,51.8125724],[107.622673,51.8122834],[107.6225804,51.812158]]}},{"type":"Feature","properties":{"way_id":249503895,"route_colors":[],"route_refs":["4","7"]},"geometry":{"type":"LineString","coordinates":[[107.6225804,51.812158],[107.621486,51.8105731],[107.6212811,51.8102798],[107.6205395,51.8092183]]}},{"type":"Feature","properties":{"way_id":324470325,"route_colors":[],"route_refs":["4","7"]},"geometry":{"type":"LineString","coordinates":[[107.6205395,51.8092183],[107.6204555,51.8091599],[107.6203729,51.8091201],[107.6203282,51.8091053],[107.6202974,51.8090968],[107.6202104,51.8090839],[107.6200413,51.8090731],[107.618862,51.8090708],[107.6185579,51.8090703],[107.6184551,51.8090704]]}},{"type":"Feature","properties":{"way_id":169821838,"route_colors":[],"route_refs":["4","7"]},"geometry":{"type":"LineString","coordinates":[[107.5955669,51.8374657],[107.595868,51.8376088],[107.5960879,51.8377168]]}},{"type":"Feature","properties":{"way_id":1136963259,"route_colors":[],"route_refs":["4"]},"geometry":{"type":"LineString","coordinates":[[107.6138261,51.8416187],[107.61404,51.8416528],[107.6141568,51.8416974],[107.6142489,51.8417643],[107.6143552,51.8418755],[107.6144386,51.8419628],[107.6145157,51.84202],[107.6147214,51.8421477]]}},{"type":"Feature","properties":{"way_id":169899949,"route_colors":[],"route_refs":["4"]},"geometry":{"type":"LineString","coordinates":[[107.6147214,51.8421477],[107.6182358,51.8441392]]}},{"type":"Feature","properties":{"way_id":1136963257,"route_colors":[],"route_refs":["4"]},"geometry":{"type":"LineString","coordinates":[[107.6182358,51.8441392],[107.6183925,51.8441994],[107.618516,51.8442335],[107.6186505,51.844248],[107.6188332,51.8442421],[107.619807,51.8440309],[107.620371,51.8438988],[107.6205936,51.843852],[107.6207632,51.8438407],[107.6209324,51.8438661],[107.6229555,51.8444146]]}},{"type":"Feature","properties":{"way_id":1136963255,"route_colors":[],"route_refs":["4"]},"geometry":{"type":"LineString","coordinates":[[107.6229555,51.8444146],[107.6230675,51.844445],[107.6231691,51.8444742],[107.6232854,51.8444835],[107.6234593,51.8444685],[107.6236194,51.8444052],[107.623714,51.8443576]]}},{"type":"Feature","properties":{"way_id":1136963254,"route_colors":[],"route_refs":["4"]},"geometry":{"type":"LineString","coordinates":[[107.623714,51.8443576],[107.6243557,51.8440343],[107.6244022,51.8440109],[107.6247858,51.8438079],[107.6249438,51.843721],[107.6251603,51.843602],[107.6254862,51.8434235]]}},{"type":"Feature","properties":{"way_id":848639169,"route_colors":[],"route_refs":["4"]},"geometry":{"type":"LineString","coordinates":[[107.6254862,51.8434235],[107.6255719,51.8433251],[107.6255583,51.8432251],[107.6255544,51.8431425],[107.6255637,51.8430403],[107.6255721,51.842998],[107.6256266,51.8429423],[107.6256957,51.8428882],[107.6257849,51.8428515],[107.6258942,51.8428453],[107.626006,51.84286],[107.6260724,51.842879],[107.6261154,51.842897],[107.6261569,51.8429262],[107.6261945,51.8429989],[107.6262002,51.843089],[107.6261786,51.8431134],[107.626082,51.8431996],[107.625817,51.8433445],[107.625495,51.8434634]]}}]}