{"type":"FeatureCollection","features":[{"type":"Feature","properties":{"way_id":907885542,"route_colors":["#f78f1e","#62bb46"],"route_refs":["Orange","Green"]},"geometry":{"type":"LineString","coordinates":[[-80.3132999,25.6852844],[-80.3132363,25.6853368],[-80.3130485,25.6854876]]}},{"type":"Feature","properties":{"way_id":907885581,"route_colors":["#f78f1e","#62bb46"],"route_refs":["Orange","Green"]},"geometry":{"type":"LineString","coordinates":[[-80.3130485,25.6854876],[-80.312499,25.6859336]]}},{"type":"Feature","properties":{"way_id":907885580,"route_colors":["#f78f1e","#62bb46"],"route_refs":["Orange","Green"]},"geometry":{"type":"LineString","coordinates":[[-80.312499,25.6859336],[-80.3115493,25.6867037]]}},{"type":"Feature","properties":{"way_id":11158758,"route_colors":["#f78f1e","#62bb46"],"route_refs":["Orange","Green"]},"geometry":{"type":"LineString","coordinates":[[-80.3115493,25.6867037],[-80.3110467,25.6871215],[-80.3107814,25.687345],[-80.3099142,25.6881103],[-80.3097441,25.6882535],[-80.3091378,25.6887515],[-80.3088211,25.6890085],[-80.3083701,25.6893745]]}},{"type":"Feature","properties":{"way_id":11158767,"route_colors":["#f78f1e","#62bb46"],"route_refs":["Orange","Green"]},"geometry":{"type":"LineString","coordinates":[[-80.3083701,25.6893745],[-80.3079097,25.6897495],[-80.3074801,25.6900785],[-80.3073166,25.6901959],[-80.3065999,25.6906989],[-80.3062061,25.6909981],[-80.3056972,25.6914118]]}},{"type":"Feature","properties":{"way_id":190854596,"route_colors":["#f78f1e","#62bb46"],"route_refs":["Orange","Green"]},"geometry":{"type":"LineString","coordinates":[[-80.3056972,25.6914118],[-80.3045406,25.6923512],[-80.3044148,25.6924534]]}},{"type":"Feature","properties":{"way_id":190854597,"route_colors":["#f78f1e","#62bb46"],"route_refs":["Orange","Green"]},"geometry":{"type":"LineString","coordinates":[[-80.3044148,25.6924534],[-80.3039257,25.6928516],[-80.3036282,25.6930942],[-80.3034318,25.69326],[-80.3032544,25.6934138],[-80.3028197,25.6937996],[-80.3025477,25.6940335],[-80.3022387,25.6942879],[-80.3019795,25.6944999],[-80.3011847,25.6951492],[-80.2995341,25.696487],[-80.2972355,25.6983594],[-80.2969355,25.698604],[-80.2933397,25.7015243],[-80.2918438,25.7027373],[-80.2912398,25.7032324],[-80.2900435,25.7042],[-80.2894768,25.7046624],[-80.2885539,25.7054121],[-80.2884346,25.705509],[-80.2877543,25.7060634],[-80.2867199,25.7069025],[-80.2860451,25.7074561]]}},{"type":"Feature","properties":{"way_id":174286978,"route_colors":["#f78f1e","#62bb46"],"route_refs":["Orange","Green"]},"geometry":{"type":"LineString","coordinates":[[-80.2860451,25.7074561],[-80.2853735,25.7079955],[-80.2851422,25.7081836],[-80.2829723,25.7099462],[-80.2822685,25.7105185],[-80.2802676,25.7121458],[-80.2795872,25.7126978],[-80.2792574,25.7129596],[-80.2789291,25.7132133],[-80.2783026,25.7136859],[-80.2780642,25.7138741],[-80.2778424,25.7140481],[-80.2775596,25.7142782],[-80.2772863,25.7145026],[-80.2765252,25.7151158],[-80.2764244,25.7151973],[-80.2761939,25.7153883],[-80.2748867,25.7164473],[-80.2742787,25.7169408],[-80.2736491,25.7174539],[-80.2712047,25.7194375],[-80.2696154,25.7207297],[-80.2666695,25.7231192],[-80.2663461,25.7233841],[-80.2657826,25.7238434],[-80.2653436,25.7242023],[-80.2631792,25.7259581],[-80.2617324,25.727133],[-80.2611078,25.7276414],[-80.2603473,25.7282497],[-80.2593255,25.7290872]]}},{"type":"Feature","properties":{"way_id":11114293,"route_colors":["#f78f1e"],"route_refs":["Orange"]},"geometry":{"type":"LineString","coordinates":[[-80.2593255,25.7290872],[-80.258399,25.7298348],[-80.2567705,25.731159]]}},{"type":"Feature","properties":{"way_id":38921752,"route_colors":["#f78f1e","#62bb46"],"route_refs":["Orange","Green"]},"geometry":{"type":"LineString","coordinates":[[-80.2567705,25.731159],[-80.2561159,25.7316904],[-80.2553499,25.7323123],[-80.2544386,25.7330541],[-80.2535466,25.733779],[-80.2530905,25.7341485],[-80.2528767,25.7343153],[-80.2526199,25.734503],[-80.2522942,25.7347173],[-80.2520558,25.7348585],[-80.2518003,25.7349995],[-80.2515504,25.7351214],[-80.2512965,25.7352376],[-80.251052,25.7353393],[-80.2507037,25.7354699],[-80.2491452,25.7360456],[-80.2460335,25.7371796],[-80.2444261,25.7377666],[-80.2437576,25.7380118],[-80.2415419,25.7388183],[-80.2412389,25.7389246],[-80.2404852,25.7391784],[-80.240236,25.7392672],[-80.239574,25.7395061],[-80.2384351,25.7399207],[-80.2382562,25.7399856],[-80.2358942,25.7408527],[-80.2338691,25.7415881],[-80.2304802,25.7428265],[-80.22933,25.7432473],[-80.2273166,25.7439792],[-80.2259103,25.7444949],[-80.2218707,25.7459687],[-80.2213174,25.7461697],[-80.2200635,25.7466271],[-80.2197169,25.7467545],[-80.2160597,25.7480873],[-80.2148207,25.7485391],[-80.2130161,25.7491988],[-80.2113399,25.7498087],[-80.2102943,25.7501932],[-80.2098437,25.7503813],[-80.2094881,25.7505513],[-80.2091479,25.7507401],[-80.2087951,25.7509561],[-80.2083338,25.7512691],[-80.2061136,25.7527926],[-80.2052416,25.7533915],[-80.2042527,25.7540675]]}},{"type":"Feature","properties":{"way_id":907885576,"route_colors":["#f78f1e","#62bb46"],"route_refs":["Orange","Green"]},"geometry":{"type":"LineString","coordinates":[[-80.2042527,25.7540675],[-80.2020185,25.755602]]}},{"type":"Feature","properties":{"way_id":907885573,"route_colors":["#f78f1e","#62bb46"],"route_refs":["Orange","Green"]},"geometry":{"type":"LineString","coordinates":[[-80.2020185,25.755602],[-80.2014569,25.7559884],[-80.2004622,25.7566699],[-80.1998449,25.7570957],[-80.199282,25.7574803]]}},{"type":"Feature","properties":{"way_id":11109203,"route_colors":["#f78f1e","#62bb46"],"route_refs":["Orange","Green"]},"geometry":{"type":"LineString","coordinates":[[-80.199282,25.7574803],[-80.1987447,25.7578466],[-80.1983022,25.7581532],[-80.1977349,25.7585414],[-80.197426,25.7587561],[-80.1971307,25.7589767]]}},{"type":"Feature","properties":{"way_id":38921986,"route_colors":["#f78f1e","#62bb46"],"route_refs":["Orange","Green"]},"geometry":{"type":"LineString","coordinates":[[-80.1971307,25.7589767],[-80.1969146,25.7591601],[-80.1967196,25.7593393],[-80.1964987,25.7595763],[-80.1963403,25.7597648],[-80.1962041,25.7599481],[-80.1960935,25.7601097],[-80.1959643,25.7603238],[-80.195856,25.7605307],[-80.1957628,25.7607238],[-80.1956777,25.7609335],[-80.1955992,25.7611524],[-80.1955274,25.7613965],[-80.1954622,25.7616946],[-80.195427,25.7619117],[-80.1954105,25.7620704],[-80.1953999,25.762264],[-80.1953948,25.7625215],[-80.1953922,25.7627314],[-80.1953968,25.7629908],[-80.1953984,25.7631702],[-80.1954173,25.7642421],[-80.1954171,25.7643541],[-80.1954208,25.7647431],[-80.1954273,25.7651377],[-80.1954371,25.7655103],[-80.1954765,25.7661076],[-80.1955833,25.7672985],[-80.1955917,25.7674662],[-80.1956336,25.7683885],[-80.1956508,25.7688347],[-80.1956644,25.7691805],[-80.1957249,25.7707725],[-80.1957432,25.7712358],[-80.1957656,25.771641],[-80.1957808,25.7718409]]}},{"type":"Feature","properties":{"way_id":38923030,"route_colors":["#f78f1e","#62bb46"],"route_refs":["Orange","Green"]},"geometry":{"type":"LineString","coordinates":[[-80.1957808,25.7718409],[-80.1958275,25.7723995],[-80.1958456,25.7725924]]}},{"type":"Feature","properties":{"way_id":38923107,"route_colors":["#f78f1e","#62bb46"],"route_refs":["Orange","Green"]},"geometry":{"type":"LineString","coordinates":[[-80.1958456,25.7725924],[-80.1958769,25.7728691],[-80.1959038,25.7731889]]}},{"type":"Feature","properties":{"way_id":11158688,"route_colors":["#f78f1e","#62bb46"],"route_refs":["Orange","Green"]},"geometry":{"type":"LineString","coordinates":[[-80.1959038,25.7731889],[-80.1959213,25.7733944],[-80.1959385,25.7736098],[-80.1959474,25.7738025],[-80.1959774,25.7746449],[-80.1959971,25.7751987],[-80.1960502,25.7766624],[-80.1960579,25.7768737],[-80.196084,25.7775113],[-80.1961137,25.7780899],[-80.1961513,25.7787737]]}},{"type":"Feature","properties":{"way_id":11110055,"route_colors":["#f78f1e","#62bb46"],"route_refs":["Orange","Green"]},"geometry":{"type":"LineString","coordinates":[[-80.1961513,25.7787737],[-80.1961833,25.7797692],[-80.1962056,25.7802805],[-80.1962479,25.7813848],[-80.1962539,25.7815404],[-80.1962604,25.7818223],[-80.1962723,25.7820907],[-80.1962881,25.7823176],[-80.1963272,25.7825442],[-80.1963821,25.7827721],[-80.196458,25.7829927],[-80.1965472,25.7831883],[-80.1966793,25.7834197],[-80.1967981,25.783592],[-80.1969463,25.7837705],[-80.1971212,25.783949],[-80.1972772,25.784085],[-80.1974404,25.7842119],[-80.1976046,25.7843218],[-80.1977975,25.7844339],[-80.1979727,25.7845147],[-80.1981595,25.7845899],[-80.1983438,25.7846529],[-80.1985331,25.7847046],[-80.1986942,25.7847377],[-80.198874,25.7847687],[-80.1990762,25.7847902],[-80.199276,25.784798]]}},{"type":"Feature","properties":{"way_id":38927254,"route_colors":["#f78f1e","#62bb46"],"route_refs":["Orange","Green"]},"geometry":{"type":"LineString","coordinates":[[-80.199276,25.784798],[-80.1994729,25.7847975],[-80.1996904,25.7847921]]}},{"type":"Feature","properties":{"way_id":38927280,"route_colors":["#f78f1e","#62bb46"],"route_refs":["Orange","Green"]},"geometry":{"type":"LineString","coordinates":[[-80.1996904,25.7847921],[-80.199879,25.7847859]]}},{"type":"Feature","properties":{"way_id":907885568,"route_colors":["#f78f1e","#62bb46"],"route_refs":["Orange","Green"]},"geometry":{"type":"LineString","coordinates":[[-80.199879,25.7847859],[-80.2001723,25.7847755]]}},{"type":"Feature","properties":{"way_id":907885567,"route_colors":["#f78f1e","#62bb46"],"route_refs":["Orange","Green"]},"geometry":{"type":"LineString","coordinates":[[-80.2001723,25.7847755],[-80.2007896,25.7847536]]}},{"type":"Feature","properties":{"way_id":38927284,"route_colors":["#f78f1e","#62bb46"],"route_refs":["Orange","Green"]},"geometry":{"type":"LineString","coordinates":[[-80.2007896,25.7847536],[-80.2011672,25.7847418],[-80.2016775,25.7847419],[-80.2019874,25.7847517],[-80.2030093,25.7848016]]}},{"type":"Feature","properties":{"way_id":113695484,"route_colors":["#f78f1e","#62bb46"],"route_refs":["Orange","Green"]},"geometry":{"type":"LineString","coordinates":[[-80.2030093,25.7848016],[-80.2037445,25.78484],[-80.2039864,25.7848462],[-80.2042227,25.7848472],[-80.2051976,25.7848283],[-80.2056381,25.784818],[-80.2059138,25.7848112],[-80.206188,25.7847931],[-80.2065095,25.7847559],[-80.2069889,25.7846897],[-80.2081143,25.7845261],[-80.2083913,25.7844861],[-80.2088887,25.7844131],[-80.209297,25.7843546],[-80.2094905,25.7843289],[-80.2096734,25.7843085],[-80.2098778,25.7842983],[-80.2100437,25.7842957],[-80.2101838,25.7843006],[-80.2103838,25.7843207],[-80.2105761,25.7843512],[-80.210772,25.7843912],[-80.210948,25.7844392],[-80.2111967,25.7845218],[-80.2114043,25.784614],[-80.2116093,25.7847226],[-80.2118904,25.7849021],[-80.2121181,25.785066],[-80.2125416,25.785385],[-80.2129651,25.7857041],[-80.2133886,25.7860232],[-80.2138121,25.7863423],[-80.2140218,25.7865146],[-80.2141167,25.7865995],[-80.2142051,25.7866867],[-80.2143034,25.7867893],[-80.2144055,25.786909],[-80.2144972,25.7870261],[-80.2146037,25.787191],[-80.2146856,25.7873422],[-80.2147498,25.7874793],[-80.2148165,25.7876416],[-80.2148858,25.7878457],[-80.2149335,25.7880416],[-80.214965,25.7882445],[-80.2149879,25.788527],[-80.2149995,25.7890555],[-80.2150216,25.7901131],[-80.2150259,25.7903179],[-80.215052,25.7912881],[-80.2150781,25.7922582],[-80.2151042,25.7932283],[-80.2151304,25.7941985],[-80.2151565,25.7951686],[-80.2151993,25.7962012],[-80.2152089,25.796432],[-80.2152316,25.7969505],[-80.2152543,25.797469],[-80.215277,25.7979875],[-80.2152997,25.798506],[-80.2153224,25.7990246],[-80.215334,25.7993386],[-80.215335,25.7996137],[-80.2153284,25.7999735],[-80.2153131,25.8002669],[-80.2152889,25.8006801],[-80.2152648,25.8010934],[-80.2152406,25.8015066],[-80.2152253,25.8019397],[-80.2152312,25.802325],[-80.2152645,25.8031622],[-80.2152978,25.8039994],[-80.2153312,25.8048365],[-80.2153394,25.8051847],[-80.2153415,25.8056411],[-80.2153342,25.8063901],[-80.2153369,25.8067319],[-80.2153592,25.8073101],[-80.2153923,25.8080794],[-80.2154331,25.8091711],[-80.2154392,25.8093346],[-80.2154656,25.8099397],[-80.2154819,25.8101743],[-80.2155143,25.8104146],[-80.2155695,25.8106503],[-80.215645,25.8108829],[-80.2157768,25.8111761],[-80.2158959,25.811376],[-80.2160406,25.8115757],[-80.2161923,25.8117545],[-80.2163451,25.8119076],[-80.2164921,25.8120364],[-80.2166812,25.8121765],[-80.2168644,25.8122941],[-80.21703,25.8123883],[-80.2172312,25.8124827],[-80.217431,25.81256],[-80.2176306,25.8126249],[-80.2178632,25.8126842],[-80.2180573,25.8127178],[-80.2182909,25.8127454],[-80.2185367,25.8127548],[-80.2188906,25.8127506],[-80.2192897,25.8127406],[-80.2206519,25.8126971],[-80.2220128,25.8126523],[-80.2233768,25.8126066],[-80.2247406,25.8125635],[-80.2261008,25.8125351],[-80.226608,25.8125273],[-80.2270331,25.8125285],[-80.2279201,25.8125428],[-80.2284006,25.8125412],[-80.2288482,25.8125334],[-80.2291497,25.8125281]]}},{"type":"Feature","properties":{"way_id":907885566,"route_colors":["#f78f1e","#62bb46"],"route_refs":["Orange","Green"]},"geometry":{"type":"LineString","coordinates":[[-80.2291497,25.8125281],[-80.2305847,25.8124967],[-80.2307955,25.8124922],[-80.231253,25.8124807]]}},{"type":"Feature","properties":{"way_id":113695481,"route_colors":["#f78f1e","#62bb46"],"route_refs":["Orange","Green"]},"geometry":{"type":"LineString","coordinates":[[-80.231253,25.8124807],[-80.2319398,25.8124656],[-80.2327882,25.812445],[-80.2331029,25.812442],[-80.2336674,25.8124427]]}},{"type":"Feature","properties":{"way_id":113569568,"route_colors":["#f78f1e"],"route_refs":["Orange"]},"geometry":{"type":"LineString","coordinates":[[-80.2336674,25.8124427],[-80.2342784,25.8124745],[-80.2368928,25.8126424]]}},{"type":"Feature","properties":{"way_id":174286546,"route_colors":["#f78f1e"],"route_refs":["Orange"]},"geometry":{"type":"LineString","coordinates":[[-80.2368928,25.8126424],[-80.2373028,25.8126661],[-80.2375846,25.8126786],[-80.2379236,25.8126944],[-80.2382415,25.812708],[-80.2385068,25.8127178],[-80.2389957,25.8127282],[-80.239433,25.8127363],[-80.2399939,25.8127355]]}},{"type":"Feature","properties":{"way_id":174286548,"route_colors":["#f78f1e"],"route_refs":["Orange"]},"geometry":{"type":"LineString","coordinates":[[-80.2399939,25.8127355],[-80.240202,25.812738],[-80.2403889,25.8127367],[-80.2410895,25.8127245],[-80.2474798,25.8125295],[-80.2477744,25.8125206],[-80.2479017,25.812514],[-80.2480216,25.8125053],[-80.248131,25.8124953],[-80.2482203,25.8124857],[-80.2482952,25.8124756],[-80.248403,25.8124594],[-80.2485164,25.8124394],[-80.2486251,25.8124193],[-80.2487284,25.8123955],[-80.24881,25.8123751],[-80.2489013,25.8123509],[-80.2489955,25.812324],[-80.2490772,25.8122979],[-80.2491753,25.8122644],[-80.2492915,25.8122226],[-80.249392,25.8121821],[-80.2494869,25.8121414],[-80.2495709,25.8121031],[-80.2496518,25.8120645],[-80.2497215,25.8120301],[-80.2497971,25.8119906],[-80.24988,25.8119438],[-80.2499644,25.8118939],[-80.2500563,25.8118364],[-80.2501391,25.8117824],[-80.2502443,25.8117123],[-80.2503719,25.8116257],[-80.2505709,25.8114877],[-80.2507525,25.8113635],[-80.2509193,25.8112594],[-80.2510344,25.8111895],[-80.2511423,25.8111293],[-80.2512214,25.8110878],[-80.2512832,25.8110565],[-80.2513693,25.8110143],[-80.25146,25.8109738],[-80.2515633,25.8109307],[-80.2516418,25.8109004],[-80.2517227,25.8108707],[-80.2518013,25.8108428],[-80.2518863,25.810815],[-80.251991,25.8107852],[-80.2520895,25.810759],[-80.2521844,25.8107345],[-80.2523146,25.8107051],[-80.2524423,25.8106776],[-80.252571,25.810652],[-80.2527219,25.8106229],[-80.2547164,25.8102517],[-80.2549603,25.810201],[-80.2550793,25.8101732],[-80.2552343,25.8101336],[-80.2553588,25.8100987],[-80.2554753,25.8100627],[-80.2555826,25.8100254],[-80.2556916,25.8099863],[-80.2557921,25.8099459],[-80.2558987,25.8099002],[-80.2560213,25.809842],[-80.256133,25.8097859],[-80.2562367,25.809729],[-80.2563122,25.8096856],[-80.2563814,25.8096439],[-80.2564604,25.8095942],[-80.256547,25.8095366],[-80.2566299,25.809478],[-80.2567103,25.8094181],[-80.256783,25.809363],[-80.2568675,25.8092934],[-80.2569463,25.8092247],[-80.2570363,25.8091456],[-80.2571371,25.8090474],[-80.2572087,25.8089713],[-80.2572862,25.8088867],[-80.2573566,25.8088023],[-80.2574214,25.8087234],[-80.2574954,25.8086259],[-80.2575697,25.8085203],[-80.2576547,25.808392],[-80.2577199,25.8082813],[-80.2577832,25.808166],[-80.2578459,25.8080417],[-80.2578922,25.8079445],[-80.2579375,25.8078317],[-80.2579892,25.8076941],[-80.2580319,25.8075661],[-80.2580741,25.8074166],[-80.2580995,25.8073114],[-80.2581223,25.8072042],[-80.2581494,25.8070694],[-80.2581737,25.8069124],[-80.258288,25.8061195],[-80.2584022,25.8053265],[-80.2585165,25.8045336],[-80.2586307,25.8037406],[-80.258745,25.8029476],[-80.2587867,25.8026647],[-80.2588249,25.8023434],[-80.2588453,25.8021093],[-80.2588568,25.8019115],[-80.2588618,25.8016385],[-80.2588337,25.8007713]]}},{"type":"Feature","properties":{"way_id":907885560,"route_colors":["#f78f1e"],"route_refs":["Orange"]},"geometry":{"type":"LineString","coordinates":[[-80.2588337,25.8007713],[-80.2587844,25.799345]]}},{"type":"Feature","properties":{"way_id":234077460,"route_colors":["#f78f1e"],"route_refs":["Orange"]},"geometry":{"type":"LineString","coordinates":[[-80.2587844,25.799345],[-80.2587606,25.79856],[-80.2587221,25.7975515]]}},{"type":"Feature","properties":{"way_id":764313961,"route_colors":["#f78f1e"],"route_refs":["Orange"]},"geometry":{"type":"LineString","coordinates":[[-80.2585789,25.7975521],[-80.2586136,25.7986039],[-80.2586363,25.7993508]]}},{"type":"Feature","properties":{"way_id":907885561,"route_colors":["#f78f1e"],"route_refs":["Orange"]},"geometry":{"type":"LineString","coordinates":[[-80.2586363,25.7993508],[-80.2586815,25.8007762]]}},{"type":"Feature","properties":{"way_id":684803671,"route_colors":["#f78f1e"],"route_refs":["Orange"]},"geometry":{"type":"LineString","coordinates":[[-80.2586815,25.8007762],[-80.258724,25.8020043],[-80.2587303,25.8023641],[-80.2587258,25.8025422],[-80.258718,25.8026941],[-80.2586964,25.8029435],[-80.2585825,25.8037356],[-80.2584687,25.8045277],[-80.2583548,25.8053198],[-80.258127,25.806904],[-80.2581017,25.8070607],[-80.2580758,25.8071952],[-80.2580532,25.8073004],[-80.2580289,25.8074039],[-80.2579855,25.8075528],[-80.257943,25.8076797],[-80.2578927,25.8078152],[-80.2578466,25.8079259],[-80.2578003,25.8080242],[-80.2577393,25.8081466],[-80.2576758,25.80826],[-80.2576108,25.8083709],[-80.2575285,25.808497],[-80.2574534,25.8086023],[-80.257383,25.8086958],[-80.2573194,25.8087739],[-80.2572469,25.8088571],[-80.2571688,25.8089418],[-80.2570984,25.8090157],[-80.2570004,25.8091124],[-80.2569117,25.8091926],[-80.2568313,25.8092615],[-80.2567487,25.8093288],[-80.2566775,25.8093839],[-80.2565972,25.8094443],[-80.2565181,25.8095009],[-80.2564323,25.8095577],[-80.2563543,25.8096073],[-80.2562826,25.8096506],[-80.2562097,25.8096927],[-80.2561106,25.8097462],[-80.2559966,25.8098035],[-80.255878,25.809859],[-80.255771,25.8099051],[-80.2556739,25.8099432],[-80.2555615,25.8099852],[-80.2554592,25.8100203],[-80.2553426,25.8100575],[-80.2552215,25.8100927],[-80.2550687,25.8101322],[-80.2549464,25.8101609],[-80.2547049,25.8102105],[-80.2527123,25.8105817],[-80.2525574,25.8106121],[-80.2524295,25.8106378],[-80.2522987,25.8106646],[-80.2521695,25.8106933],[-80.2520758,25.8107164],[-80.2519732,25.8107438],[-80.2518691,25.8107743],[-80.2517789,25.8108037],[-80.2517032,25.8108295],[-80.251626,25.8108571],[-80.2515436,25.8108902],[-80.2514395,25.810933],[-80.2513492,25.8109731],[-80.2512624,25.811014],[-80.2511928,25.8110484],[-80.2511139,25.8110889],[-80.2510046,25.8111499],[-80.2508904,25.8112195],[-80.2507224,25.8113264],[-80.250537,25.8114498],[-80.2503393,25.8115889],[-80.2502152,25.8116759],[-80.2501067,25.8117481],[-80.2500272,25.8117988],[-80.249937,25.8118561],[-80.2498534,25.8119061],[-80.249775,25.8119504],[-80.2496949,25.8119931],[-80.2496226,25.8120291],[-80.2495491,25.8120632],[-80.2494654,25.8121019],[-80.2493701,25.8121426],[-80.24927,25.8121823],[-80.2491547,25.8122247],[-80.2490597,25.812257],[-80.2489783,25.8122838],[-80.2488825,25.8123113],[-80.2487983,25.8123345],[-80.2487139,25.8123542],[-80.2486124,25.8123777],[-80.2485081,25.8123983],[-80.2483926,25.8124178],[-80.2482907,25.8124345],[-80.248214,25.8124448],[-80.2481222,25.8124547],[-80.2480179,25.8124641],[-80.2478955,25.8124719],[-80.2477751,25.8124776],[-80.2474753,25.812488],[-80.2410945,25.8126826],[-80.2409376,25.8126838],[-80.2407959,25.8126828],[-80.2406337,25.8126784],[-80.2403492,25.8126655],[-80.2401694,25.8126543],[-80.2400075,25.8126399],[-80.2397078,25.8126062],[-80.2391356,25.8125401],[-80.2377525,25.8123818],[-80.237525,25.8123573],[-80.2374104,25.8123484],[-80.2372899,25.8123414],[-80.2370328,25.8123364],[-80.2367281,25.8123403],[-80.2361585,25.8123507]]}},{"type":"Feature","properties":{"way_id":907885562,"route_colors":["#f78f1e","#62bb46"],"route_refs":["Orange","Green"]},"geometry":{"type":"LineString","coordinates":[[-80.2361585,25.8123507],[-80.2353838,25.8123508]]}},{"type":"Feature","properties":{"way_id":113695482,"route_colors":["#f78f1e","#62bb46"],"route_refs":["Orange","Green"]},"geometry":{"type":"LineString","coordinates":[[-80.2353838,25.8123508],[-80.2333737,25.8123436],[-80.233109,25.8123451],[-80.2327909,25.8123497],[-80.2319403,25.8123677],[-80.2312504,25.8123827]]}},{"type":"Feature","properties":{"way_id":907885565,"route_colors":["#f78f1e","#62bb46"],"route_refs":["Orange","Green"]},"geometry":{"type":"LineString","coordinates":[[-80.2312504,25.8123827],[-80.2308091,25.8123906],[-80.2294061,25.8124248],[-80.2291383,25.8124313]]}},{"type":"Feature","properties":{"way_id":38927385,"route_colors":["#f78f1e","#62bb46"],"route_refs":["Orange","Green"]},"geometry":{"type":"LineString","coordinates":[[-80.2291383,25.8124313],[-80.2280501,25.8124537],[-80.2260988,25.8124947],[-80.2247379,25.8125232],[-80.2233734,25.8125664],[-80.2220086,25.8126123],[-80.220647,25.8126571],[-80.2192841,25.8127007],[-80.2188896,25.8127145],[-80.2185423,25.8127145],[-80.2182906,25.8126973],[-80.2180752,25.8126672],[-80.2178852,25.8126269],[-80.2176498,25.8125651],[-80.2174544,25.8124931],[-80.2172702,25.8124166],[-80.2170796,25.8123231],[-80.2169115,25.812226],[-80.2167424,25.8121098],[-80.2165518,25.8119682],[-80.2164154,25.8118445],[-80.2162753,25.8116986],[-80.2161277,25.8115221],[-80.2159935,25.8113285],[-80.2158724,25.811121],[-80.2157514,25.810845],[-80.2156799,25.8106222],[-80.2156243,25.8103962],[-80.2155917,25.810168],[-80.2155754,25.8099401],[-80.2155488,25.8093265],[-80.2155068,25.8082214],[-80.2155013,25.808076],[-80.2154704,25.8073063],[-80.215421,25.8060776],[-80.2153993,25.8055369],[-80.2153712,25.8048373],[-80.2153386,25.8039988],[-80.215306,25.8031603],[-80.2152734,25.8023218],[-80.2152692,25.8019408],[-80.215282,25.8015095],[-80.215308,25.8010962],[-80.2153339,25.800683],[-80.2153598,25.8002698],[-80.2153743,25.7999771],[-80.2153807,25.7996149],[-80.2153761,25.7993371],[-80.2153631,25.7990248],[-80.2153407,25.7985061],[-80.2153182,25.7979873],[-80.2152958,25.7974686],[-80.2152733,25.7969498],[-80.2152508,25.796431],[-80.2152077,25.7953916],[-80.2151983,25.7951658],[-80.2151728,25.7941958],[-80.2151473,25.7932259],[-80.2151218,25.7922559],[-80.2150962,25.7912859],[-80.2150707,25.7903159],[-80.2150479,25.7892763],[-80.2150431,25.7890566],[-80.215033,25.788525],[-80.21501,25.788239],[-80.2149794,25.7880298],[-80.2149327,25.7878325],[-80.2148694,25.7876329],[-80.2147978,25.7874633],[-80.2147324,25.7873256],[-80.2146466,25.7871716],[-80.2145389,25.7870012],[-80.2144452,25.7868829],[-80.2143413,25.786763],[-80.214238,25.7866577],[-80.2141508,25.7865699],[-80.2140537,25.7864821],[-80.2138431,25.7863144],[-80.2134193,25.7859942],[-80.2129956,25.785674],[-80.2125718,25.7853539],[-80.212148,25.7850337],[-80.2119207,25.784867],[-80.2116413,25.7846805],[-80.2114359,25.7845645],[-80.2112272,25.784466],[-80.2109739,25.7843702],[-80.2107966,25.7843181],[-80.2105985,25.7842711],[-80.2104061,25.7842387],[-80.2101879,25.7842143],[-80.2100399,25.7842078],[-80.2098759,25.7842056],[-80.2096633,25.7842145],[-80.2094806,25.7842331],[-80.2092698,25.7842598],[-80.208864,25.7843181],[-80.2083734,25.7843892],[-80.2071581,25.7845632],[-80.2069668,25.7845928],[-80.2061683,25.7847078],[-80.2058705,25.784743],[-80.2056145,25.7847689],[-80.2054008,25.7847838],[-80.2051859,25.7847896],[-80.2042201,25.7848068],[-80.2039878,25.7848065],[-80.2037387,25.7847984],[-80.2030154,25.7847564]]}},{"type":"Feature","properties":{"way_id":38927289,"route_colors":["#f78f1e","#62bb46"],"route_refs":["Orange","Green"]},"geometry":{"type":"LineString","coordinates":[[-80.2030154,25.7847564],[-80.2019921,25.7847045],[-80.201675,25.7846961],[-80.2011673,25.7847008],[-80.2007873,25.7847136]]}},{"type":"Feature","properties":{"way_id":907885570,"route_colors":["#f78f1e","#62bb46"],"route_refs":["Orange","Green"]},"geometry":{"type":"LineString","coordinates":[[-80.2007873,25.7847136],[-80.2003834,25.7847272],[-80.2001711,25.7847343]]}},{"type":"Feature","properties":{"way_id":907885569,"route_colors":["#f78f1e","#62bb46"],"route_refs":["Orange","Green"]},"geometry":{"type":"LineString","coordinates":[[-80.2001711,25.7847343],[-80.1998766,25.7847442]]}},{"type":"Feature","properties":{"way_id":38927282,"route_colors":["#f78f1e","#62bb46"],"route_refs":["Orange","Green"]},"geometry":{"type":"LineString","coordinates":[[-80.1998766,25.7847442],[-80.1996894,25.7847498]]}},{"type":"Feature","properties":{"way_id":38927279,"route_colors":["#f78f1e","#62bb46"],"route_refs":["Orange","Green"]},"geometry":{"type":"LineString","coordinates":[[-80.1996894,25.7847498],[-80.199472,25.7847544],[-80.1992756,25.7847515]]}},{"type":"Feature","properties":{"way_id":38926594,"route_colors":["#f78f1e","#62bb46"],"route_refs":["Orange","Green"]},"geometry":{"type":"LineString","coordinates":[[-80.1992756,25.7847515],[-80.1990842,25.7847377],[-80.1988834,25.784711],[-80.1987114,25.7846779],[-80.1985628,25.7846421],[-80.198376,25.7845862],[-80.1981989,25.7845209],[-80.1980153,25.7844439],[-80.1978505,25.7843603],[-80.1976677,25.7842504],[-80.1975077,25.784141],[-80.1973463,25.7840142],[-80.1972006,25.7838805],[-80.1970402,25.7837096],[-80.1968973,25.7835292],[-80.196782,25.7833668],[-80.1966556,25.7831439],[-80.1965679,25.7829487],[-80.1964971,25.78275],[-80.1964395,25.7825237],[-80.1964024,25.7823101],[-80.1963813,25.7820874],[-80.196368,25.7818175],[-80.1963562,25.7815374],[-80.1963186,25.7805129],[-80.1963101,25.7802789],[-80.1962922,25.779742],[-80.1962549,25.7787716]]}},{"type":"Feature","properties":{"way_id":38923447,"route_colors":["#f78f1e","#62bb46"],"route_refs":["Orange","Green"]},"geometry":{"type":"LineString","coordinates":[[-80.1962549,25.7787716],[-80.1962303,25.7780898],[-80.1962024,25.777406],[-80.196184,25.7768738],[-80.1961293,25.7753538],[-80.1961232,25.7751862],[-80.1961111,25.7748969],[-80.1960728,25.7738073],[-80.1960587,25.7735991],[-80.1960385,25.7733804],[-80.1960155,25.7731877]]}},{"type":"Feature","properties":{"way_id":38923098,"route_colors":["#f78f1e","#62bb46"],"route_refs":["Orange","Green"]},"geometry":{"type":"LineString","coordinates":[[-80.1960155,25.7731877],[-80.1959777,25.7729171],[-80.1959248,25.772527]]}},{"type":"Feature","properties":{"way_id":38923027,"route_colors":["#f78f1e","#62bb46"],"route_refs":["Orange","Green"]},"geometry":{"type":"LineString","coordinates":[[-80.1959248,25.772527],[-80.1958515,25.772026],[-80.1958286,25.7718362]]}},{"type":"Feature","properties":{"way_id":38921982,"route_colors":["#f78f1e","#62bb46"],"route_refs":["Orange","Green"]},"geometry":{"type":"LineString","coordinates":[[-80.1958286,25.7718362],[-80.1958099,25.7716383],[-80.1957844,25.7712344],[-80.1957252,25.7697163],[-80.1957074,25.7691787],[-80.1956945,25.7688322],[-80.1956832,25.7683892],[-80.1956483,25.7674659],[-80.1956404,25.7672924],[-80.1956207,25.7668157],[-80.1955836,25.7661007],[-80.1955526,25.7654995],[-80.1955406,25.7651548],[-80.1955354,25.7647388],[-80.1955256,25.7643584],[-80.1955122,25.7636941],[-80.1955107,25.7636051],[-80.1955103,25.7633616],[-80.1955079,25.7631726],[-80.1955048,25.7628374],[-80.195504,25.7625183],[-80.1955087,25.7622648],[-80.1955214,25.7620785],[-80.1955364,25.7619213],[-80.1955693,25.7617041],[-80.1956338,25.7614072],[-80.1957006,25.7611807],[-80.1957753,25.7609654],[-80.1958593,25.7607644],[-80.1959528,25.7605686],[-80.1960627,25.760363],[-80.1961797,25.7601654],[-80.1962918,25.7600048],[-80.1964252,25.759829],[-80.1965876,25.7596356],[-80.1967953,25.7594129],[-80.1969891,25.7592289],[-80.197142,25.7591018],[-80.1972046,25.7590497]]}},{"type":"Feature","properties":{"way_id":38921753,"route_colors":["#f78f1e","#62bb46"],"route_refs":["Orange","Green"]},"geometry":{"type":"LineString","coordinates":[[-80.1972046,25.7590497],[-80.1974919,25.7588323],[-80.1977972,25.7586237],[-80.1983657,25.7582311],[-80.1988124,25.7579249],[-80.1993464,25.7575603]]}},{"type":"Feature","properties":{"way_id":907885574,"route_colors":["#f78f1e","#62bb46"],"route_refs":["Orange","Green"]},"geometry":{"type":"LineString","coordinates":[[-80.1993464,25.7575603],[-80.1999066,25.7571782],[-80.2003804,25.756852],[-80.2005217,25.756754],[-80.2020887,25.7556819]]}},{"type":"Feature","properties":{"way_id":907885575,"route_colors":["#f78f1e","#62bb46"],"route_refs":["Orange","Green"]},"geometry":{"type":"LineString","coordinates":[[-80.2020887,25.7556819],[-80.2027931,25.7551847],[-80.2034883,25.7546941],[-80.204287,25.7541056]]}},{"type":"Feature","properties":{"way_id":11158705,"route_colors":["#f78f1e","#62bb46"],"route_refs":["Orange","Green"]},"geometry":{"type":"LineString","coordinates":[[-80.204287,25.7541056],[-80.2050486,25.7535727],[-80.205269,25.7534188],[-80.2061392,25.7528244],[-80.2083604,25.7512989],[-80.2088249,25.7509942],[-80.2091795,25.7507955],[-80.2095387,25.7506176],[-80.2098836,25.7504641],[-80.2103427,25.750282],[-80.211237,25.7499542],[-80.2122722,25.749575],[-80.2130574,25.7492898],[-80.2135505,25.749098],[-80.2144323,25.748733],[-80.2148384,25.7485764],[-80.2160783,25.748123],[-80.2200791,25.7466628],[-80.2218857,25.746004],[-80.225926,25.744529],[-80.2273335,25.7440155],[-80.2293462,25.7432817],[-80.2304971,25.7428594],[-80.2338866,25.7416229]]}},{"type":"Feature","properties":{"way_id":174286980,"route_colors":["#f78f1e","#62bb46"],"route_refs":["Orange","Green"]},"geometry":{"type":"LineString","coordinates":[[-80.2338866,25.7416229],[-80.2359083,25.7408879],[-80.236269,25.740764],[-80.2372334,25.7404592],[-80.2377119,25.7402927],[-80.2383008,25.7400786],[-80.2393572,25.7396929],[-80.2396195,25.739595],[-80.2402718,25.7393553],[-80.2405109,25.7392667],[-80.2412646,25.738971],[-80.24156,25.7388561],[-80.243774,25.7380492],[-80.2444395,25.7378039],[-80.246048,25.7372173],[-80.2481851,25.73643],[-80.2491626,25.7360804],[-80.2507189,25.7355081],[-80.2510722,25.735378],[-80.2513186,25.7352801],[-80.2515863,25.7351661],[-80.2518326,25.7350532],[-80.252092,25.7349174],[-80.2523393,25.7347802],[-80.252676,25.7345667],[-80.2529364,25.7343871],[-80.2531576,25.7342214],[-80.2536233,25.7338517],[-80.2543884,25.7332247],[-80.2552921,25.732492],[-80.2554228,25.7323872],[-80.2558927,25.7319997],[-80.2568439,25.7312345]]}},{"type":"Feature","properties":{"way_id":174286981,"route_colors":["#f78f1e","#62bb46"],"route_refs":["Orange","Green"]},"geometry":{"type":"LineString","coordinates":[[-80.2568439,25.7312345],[-80.2584736,25.7299118],[-80.2591515,25.7293558],[-80.2593939,25.7291553]]}},{"type":"Feature","properties":{"way_id":11158793,"route_colors":["#f78f1e","#62bb46"],"route_refs":["Orange","Green"]},"geometry":{"type":"LineString","coordinates":[[-80.2593939,25.7291553],[-80.2598409,25.7287933],[-80.2600562,25.7286136],[-80.2608617,25.7279023],[-80.2611352,25.7276694]]}},{"type":"Feature","properties":{"way_id":11106837,"route_colors":["#f78f1e","#62bb46"],"route_refs":["Orange","Green"]},"geometry":{"type":"LineString","coordinates":[[-80.2611352,25.7276694],[-80.261759,25.7271614],[-80.263207,25.7259879]]}},{"type":"Feature","properties":{"way_id":11158654,"route_colors":["#f78f1e","#62bb46"],"route_refs":["Orange","Green"]},"geometry":{"type":"LineString","coordinates":[[-80.263207,25.7259879],[-80.2649157,25.7245992],[-80.2653722,25.7242285],[-80.2658111,25.7238711],[-80.2663746,25.7234138],[-80.2666997,25.7231491],[-80.2712351,25.7194653],[-80.2743089,25.7169723],[-80.2745072,25.716813],[-80.2747392,25.7166321],[-80.275164,25.7163078],[-80.2756381,25.7159583],[-80.2758995,25.7157569],[-80.2765026,25.7152673],[-80.2773547,25.7145746],[-80.2776296,25.7143549],[-80.278764,25.7134326],[-80.279622,25.7127326]]}},{"type":"Feature","properties":{"way_id":38910197,"route_colors":["#f78f1e","#62bb46"],"route_refs":["Orange","Green"]},"geometry":{"type":"LineString","coordinates":[[-80.279622,25.7127326],[-80.2798795,25.7125238],[-80.2803,25.7121802],[-80.2809529,25.7116535],[-80.282307,25.7105529],[-80.2854125,25.7080282],[-80.2860771,25.7074881],[-80.2867581,25.7069359],[-80.2869796,25.7067663],[-80.2877179,25.7062134],[-80.2880449,25.705955],[-80.2883222,25.7057309],[-80.288501,25.7055861],[-80.2894338,25.7048293],[-80.289536,25.7047452],[-80.2900718,25.704309],[-80.290308,25.7041152],[-80.2910145,25.7035007],[-80.2912765,25.7032723],[-80.2918801,25.7027753],[-80.2933749,25.7015609],[-80.2969752,25.6986352],[-80.2972708,25.6983955],[-80.2995696,25.6965246],[-80.3012198,25.6951837],[-80.3022764,25.6943228],[-80.3028616,25.6938469],[-80.3033154,25.6934767],[-80.3036967,25.6931692],[-80.3039985,25.6929235],[-80.3044851,25.6925275]]}},{"type":"Feature","properties":{"way_id":190854595,"route_colors":["#f78f1e","#62bb46"],"route_refs":["Orange","Green"]},"geometry":{"type":"LineString","coordinates":[[-80.3044851,25.6925275],[-80.3054939,25.69171],[-80.3057791,25.6914789]]}},{"type":"Feature","properties":{"way_id":190854598,"route_colors":["#f78f1e","#62bb46"],"route_refs":["Orange","Green"]},"geometry":{"type":"LineString","coordinates":[[-80.3057791,25.6914789],[-80.3062452,25.6911018],[-80.3066654,25.6907731],[-80.3071456,25.6904119]]}},{"type":"Feature","properties":{"way_id":11103463,"route_colors":["#f78f1e","#62bb46"],"route_refs":["Orange","Green"]},"geometry":{"type":"LineString","coordinates":[[-80.3071456,25.6904119],[-80.3074656,25.6901612],[-80.3079396,25.6897773],[-80.3088485,25.6890354],[-80.3091637,25.6887767],[-80.3099375,25.6881391],[-80.3116218,25.6867753]]}},{"type":"Feature","properties":{"way_id":907885579,"route_colors":["#f78f1e","#62bb46"],"route_refs":["Orange","Green"]},"geometry":{"type":"LineString","coordinates":[[-80.3116218,25.6867753],[-80.3125678,25.6860094]]}},{"type":"Feature","properties":{"way_id":907885541,"route_colors":["#f78f1e","#62bb46"],"route_refs":["Orange","Green"]},"geometry":{"type":"LineString","coordinates":[[-80.3125678,25.6860094],[-80.3132731,25.6854399],[-80.3140461,25.6848047]]}},{"type":"Feature","properties":{"way_id":360584210,"route_colors":["#62bb46"],"route_refs":["Green"]},"geometry":{"type":"LineString","coordinates":[[-80.3243152,25.8433207],[-80.3242345,25.8433223],[-80.3229135,25.8433549],[-80.3220785,25.8433745],[-80.3218876,25.8433751],[-80.3217171,25.8433715],[-80.3215669,25.843362],[-80.3213959,25.8433438],[-80.3212029,25.8433102],[-80.3209837,25.8432587],[-80.3206551,25.8431677],[-80.3203321,25.8430723]]}},{"type":"Feature","properties":{"way_id":239811193,"route_colors":["#62bb46"],"route_refs":["Green"]},"geometry":{"type":"LineString","coordinates":[[-80.3203321,25.8430723],[-80.319724,25.842893]]}},{"type":"Feature","properties":{"way_id":239811194,"route_colors":["#62bb46"],"route_refs":["Green"]},"geometry":{"type":"LineString","coordinates":[[-80.319724,25.842893],[-80.3190589,25.8426982],[-80.318809,25.8426323],[-80.3185536,25.8425784],[-80.3183019,25.8425438],[-80.318065,25.8425248],[-80.3177882,25.8425164],[-80.3174389,25.8425149]]}},{"type":"Feature","properties":{"way_id":907885550,"route_colors":["#62bb46"],"route_refs":["Green"]},"geometry":{"type":"LineString","coordinates":[[-80.3174389,25.8425149],[-80.3160996,25.8425116],[-80.3147602,25.8425082],[-80.3144157,25.8425037],[-80.3142312,25.8424948],[-80.3140696,25.8424813],[-80.3138901,25.8424581],[-80.3137136,25.8424261],[-80.3135573,25.8423879],[-80.3134111,25.8423444],[-80.3132474,25.8422874],[-80.313104,25.8422315],[-80.3129565,25.8421664],[-80.3127715,25.842073],[-80.3125916,25.8419727],[-80.3124642,25.8419039],[-80.3107966,25.8409477],[-80.3106925,25.8408897],[-80.3105769,25.8408249],[-80.3104719,25.8407694],[-80.3104089,25.8407352],[-80.3103302,25.8406944],[-80.3102486,25.8406524],[-80.310152,25.8406049],[-80.3100592,25.840559],[-80.3099724,25.8405192],[-80.3098428,25.8404592],[-80.3083334,25.8397995],[-80.3082274,25.8397543],[-80.3081399,25.839719],[-80.3080286,25.8396798],[-80.3079491,25.8396558],[-80.3078562,25.8396283],[-80.3077561,25.8396028],[-80.3076435,25.839576],[-80.3075467,25.8395563],[-80.3074342,25.8395375],[-80.3072998,25.8395184],[-80.3072481,25.8395133],[-80.3071649,25.8395073],[-80.307085,25.8395003],[-80.3070108,25.839496],[-80.306931,25.8394937],[-80.3068368,25.8394914],[-80.3067676,25.8394913],[-80.3066744,25.8394918],[-80.3065884,25.8394935],[-80.3064596,25.8394997],[-80.3063543,25.839506],[-80.3062586,25.8395147],[-80.3061496,25.8395254],[-80.3060209,25.8395399],[-80.3054846,25.8395971]]}},{"type":"Feature","properties":{"way_id":907885545,"route_colors":["#62bb46"],"route_refs":["Green"]},"geometry":{"type":"LineString","coordinates":[[-80.3054846,25.8395971],[-80.3048799,25.8396636]]}},{"type":"Feature","properties":{"way_id":907885546,"route_colors":["#62bb46"],"route_refs":["Green"]},"geometry":{"type":"LineString","coordinates":[[-80.3048799,25.8396636],[-80.3045708,25.8396972],[-80.3042617,25.8397307],[-80.3040581,25.8397496],[-80.3038367,25.8397636],[-80.3036216,25.8397732],[-80.3033944,25.8397774],[-80.302219,25.8397784],[-80.3010806,25.8397794],[-80.3008597,25.8397796],[-80.3003654,25.8397784]]}},{"type":"Feature","properties":{"way_id":907885549,"route_colors":["#62bb46"],"route_refs":["Green"]},"geometry":{"type":"LineString","coordinates":[[-80.3003654,25.8397784],[-80.2990971,25.8397802]]}},{"type":"Feature","properties":{"way_id":38933898,"route_colors":["#62bb46"],"route_refs":["Green"]},"geometry":{"type":"LineString","coordinates":[[-80.2990971,25.8397802],[-80.297684,25.8397774],[-80.2962708,25.8397745],[-80.2948576,25.8397717],[-80.2934444,25.8397688],[-80.2920312,25.839766],[-80.2917001,25.8397835],[-80.2914932,25.8398059],[-80.2912891,25.839841],[-80.2911055,25.8398841],[-80.2909234,25.83994],[-80.2907055,25.8400138],[-80.2897685,25.8403557],[-80.2894899,25.8404475],[-80.289213,25.8405214],[-80.2888947,25.8405797],[-80.2886106,25.8406078],[-80.2882921,25.8406259],[-80.288027,25.8406351],[-80.2859601,25.8406998],[-80.2838932,25.8407645],[-80.283582,25.8407792],[-80.2832925,25.8408006],[-80.2828571,25.8408525],[-80.2819308,25.8409809],[-80.2815797,25.8410187],[-80.2811883,25.841046],[-80.280716,25.8410661],[-80.2797399,25.8410956],[-80.2784991,25.8411338],[-80.278358,25.8411381],[-80.2769575,25.8411824],[-80.275557,25.8412267],[-80.2741564,25.841271],[-80.2739022,25.8412871],[-80.2736651,25.8413158],[-80.2734505,25.8413525],[-80.2732029,25.8414156],[-80.272978,25.8414906],[-80.2727936,25.8415663],[-80.2726436,25.8416408],[-80.2724825,25.8417306],[-80.2723023,25.8418424],[-80.272149,25.8419612]]}},{"type":"Feature","properties":{"way_id":38933783,"route_colors":["#62bb46"],"route_refs":["Green"]},"geometry":{"type":"LineString","coordinates":[[-80.272149,25.8419612],[-80.2719422,25.8421363],[-80.2717712,25.8422955],[-80.2712162,25.8428405],[-80.2706612,25.8433855],[-80.2701061,25.8439305],[-80.2699609,25.844062],[-80.2698465,25.8441626],[-80.2697179,25.8442601],[-80.2695905,25.8443509],[-80.2694578,25.844434],[-80.2693015,25.8445212],[-80.2691193,25.8446079],[-80.2689212,25.8446873],[-80.2687218,25.8447529],[-80.2685303,25.8448036],[-80.2683179,25.8448511],[-80.2681009,25.844892],[-80.2669281,25.8451013],[-80.2665585,25.8451591],[-80.2662061,25.8452037],[-80.2658142,25.8452377],[-80.2654548,25.8452578],[-80.264177,25.8452997],[-80.2628993,25.8453417],[-80.2616216,25.8453837],[-80.2603439,25.8454256],[-80.2591735,25.8454635],[-80.2589688,25.8454701],[-80.2577876,25.8455081],[-80.2566064,25.8455461],[-80.2554252,25.8455841],[-80.2542439,25.8456221],[-80.2530627,25.84566],[-80.2518815,25.845698],[-80.2507003,25.845736],[-80.249519,25.845774],[-80.2484256,25.8458097],[-80.2481396,25.845819],[-80.2476582,25.8458321]]}},{"type":"Feature","properties":{"way_id":907885553,"route_colors":["#62bb46"],"route_refs":["Green"]},"geometry":{"type":"LineString","coordinates":[[-80.2476582,25.8458321],[-80.2470479,25.845852]]}},{"type":"Feature","properties":{"way_id":907885557,"route_colors":["#62bb46"],"route_refs":["Green"]},"geometry":{"type":"LineString","coordinates":[[-80.2470479,25.845852],[-80.2456534,25.8458976],[-80.2454104,25.8459012],[-80.2451613,25.8458897],[-80.2449126,25.8458677],[-80.2446655,25.8458313],[-80.244421,25.8457776],[-80.2442289,25.8457253],[-80.2440287,25.8456567],[-80.2438225,25.8455751],[-80.2436183,25.8454756],[-80.2434389,25.8453784],[-80.2432538,25.8452643],[-80.2430564,25.8451253],[-80.2428806,25.8449825],[-80.2427044,25.8448203],[-80.2425506,25.8446579],[-80.2424056,25.844486],[-80.2422919,25.8443295],[-80.2421716,25.8441402],[-80.2420819,25.8439717],[-80.2419971,25.8437837],[-80.2419191,25.8435958],[-80.2418495,25.8433855],[-80.2417876,25.8431647],[-80.2417392,25.8429455],[-80.2416932,25.8426424],[-80.241662,25.8423909],[-80.2416412,25.8421365],[-80.241617,25.8416581],[-80.2415951,25.8410402],[-80.2415733,25.8404224],[-80.2415514,25.8398045],[-80.2415296,25.8391867],[-80.2415077,25.8385689],[-80.2414791,25.8379518],[-80.2414505,25.8373347],[-80.2414218,25.8367177],[-80.2413932,25.8361006],[-80.2413646,25.8354836],[-80.2413359,25.8348665],[-80.2413073,25.8342494],[-80.2412787,25.8336323],[-80.24125,25.8330153],[-80.2412027,25.8319898],[-80.2411923,25.8317655],[-80.2411677,25.8312458],[-80.241143,25.8307261],[-80.2411184,25.8302064]]}},{"type":"Feature","properties":{"way_id":907885555,"route_colors":["#62bb46"],"route_refs":["Green"]},"geometry":{"type":"LineString","coordinates":[[-80.2411184,25.8302064],[-80.2410873,25.8295928]]}},{"type":"Feature","properties":{"way_id":113695483,"route_colors":["#62bb46"],"route_refs":["Green"]},"geometry":{"type":"LineString","coordinates":[[-80.2410873,25.8295928],[-80.2410549,25.8288991],[-80.2410224,25.8282053],[-80.2409899,25.8275115],[-80.2409574,25.8268177],[-80.2409249,25.8261239],[-80.2408924,25.8254301],[-80.2408599,25.8247363],[-80.2408274,25.8240425],[-80.2408184,25.8238514],[-80.2407949,25.8233486],[-80.2407624,25.8226548],[-80.2407247,25.8216547],[-80.2407152,25.8214037],[-80.2406883,25.8206493],[-80.2406615,25.8198949],[-80.2406347,25.8191405],[-80.2406078,25.8183861],[-80.240581,25.8176317],[-80.2405541,25.8168773],[-80.2405273,25.8161228],[-80.2405004,25.8153684],[-80.240489,25.8151952],[-80.2404701,25.8150183],[-80.2404402,25.8148466],[-80.2403865,25.814641],[-80.2403121,25.8144189],[-80.2402216,25.8142142],[-80.2401123,25.8140134],[-80.2399946,25.8138317],[-80.2398493,25.8136452],[-80.2396946,25.8134682],[-80.239551,25.8133256],[-80.239403,25.813199],[-80.2392418,25.8130786],[-80.239025,25.8129392],[-80.2388127,25.8128236],[-80.2386255,25.8127353],[-80.2383902,25.8126467],[-80.238171,25.8125802],[-80.237929,25.812516],[-80.237636,25.8124584],[-80.2373238,25.8124152],[-80.237029,25.8123876],[-80.2361585,25.8123507]]}},{"type":"Feature","properties":{"way_id":1427602554,"route_colors":["#62bb46"],"route_refs":["Green"]},"geometry":{"type":"LineString","coordinates":[[-80.2593255,25.7290872],[-80.2588486,25.7295397]]}},{"type":"Feature","properties":{"way_id":174286983,"route_colors":["#62bb46"],"route_refs":["Green"]},"geometry":{"type":"LineString","coordinates":[[-80.2573218,25.7307775],[-80.2579784,25.7302446],[-80.2586908,25.7296724],[-80.2588486,25.7295397]]}},{"type":"Feature","properties":{"way_id":1427602555,"route_colors":["#62bb46"],"route_refs":["Green"]},"geometry":{"type":"LineString","coordinates":[[-80.2573218,25.7307775],[-80.2567705,25.731159]]}},{"type":"Feature","properties":{"way_id":907885563,"route_colors":["#62bb46"],"route_refs":["Green"]},"geometry":{"type":"LineString","coordinates":[[-80.2336674,25.8124427],[-80.2353881,25.8124476]]}},{"type":"Feature","properties":{"way_id":11105109,"route_colors":["#62bb46"],"route_refs":["Green"]},"geometry":{"type":"LineString","coordinates":[[-80.2353881,25.8124476],[-80.2363469,25.812447],[-80.2370274,25.8124528],[-80.237318,25.812474],[-80.2376173,25.8125124],[-80.2379138,25.8125634],[-80.2381566,25.8126249],[-80.2383697,25.8126888],[-80.2386023,25.8127768],[-80.2387875,25.8128663],[-80.2389949,25.8129799],[-80.2392059,25.8131201],[-80.2393606,25.8132362],[-80.2395061,25.8133636],[-80.2396528,25.8135047],[-80.2398054,25.8136751],[-80.2399475,25.8138582],[-80.2400636,25.8140351],[-80.2401728,25.8142382],[-80.2402604,25.8144363],[-80.2403322,25.8146512],[-80.2403894,25.8148597],[-80.2404203,25.8150278],[-80.2404403,25.8151984],[-80.2404529,25.8153722],[-80.2404807,25.8161265],[-80.2405085,25.8168808],[-80.2405363,25.8176351],[-80.240564,25.8183894],[-80.2405918,25.8191437],[-80.2406196,25.819898],[-80.2406474,25.8206523],[-80.2406752,25.8214065],[-80.2407097,25.8224044],[-80.2407185,25.8226558],[-80.2407508,25.8233496],[-80.2407832,25.8240434],[-80.2408156,25.8247372],[-80.240848,25.825431],[-80.2408803,25.8261248],[-80.2409127,25.8268186],[-80.2409451,25.8275124],[-80.2409775,25.8282062],[-80.2410098,25.8288999],[-80.2410422,25.8295937]]}},{"type":"Feature","properties":{"way_id":907885554,"route_colors":["#62bb46"],"route_refs":["Green"]},"geometry":{"type":"LineString","coordinates":[[-80.2410422,25.8295937],[-80.2410728,25.8302084]]}},{"type":"Feature","properties":{"way_id":907885556,"route_colors":["#62bb46"],"route_refs":["Green"]},"geometry":{"type":"LineString","coordinates":[[-80.2410728,25.8302084],[-80.241098,25.8307276],[-80.2411233,25.8312467]]}},{"type":"Feature","properties":{"way_id":11104758,"route_colors":["#62bb46"],"route_refs":["Green"]},"geometry":{"type":"LineString","coordinates":[[-80.2411233,25.8312467],[-80.2411485,25.8317659],[-80.2411953,25.832764],[-80.2412072,25.8330177],[-80.2412353,25.8336348],[-80.2412634,25.8342519],[-80.2412915,25.834869],[-80.2413196,25.835486],[-80.2413478,25.8361031],[-80.2413759,25.8367202],[-80.241404,25.8373373],[-80.2414321,25.8379544]]}},{"type":"Feature","properties":{"way_id":11110422,"route_colors":["#62bb46"],"route_refs":["Green"]},"geometry":{"type":"LineString","coordinates":[[-80.2414321,25.8379544],[-80.2414602,25.8385714],[-80.2414816,25.8391893],[-80.2415029,25.8398072],[-80.2415242,25.840425],[-80.2415456,25.8410429],[-80.2415669,25.8416608],[-80.2415919,25.8421349],[-80.2416158,25.8423941]]}},{"type":"Feature","properties":{"way_id":174286979,"route_colors":["#62bb46"],"route_refs":["Green"]},"geometry":{"type":"LineString","coordinates":[[-80.2416158,25.8423941],[-80.241644,25.8426459],[-80.2416796,25.8429486],[-80.2417165,25.8431757],[-80.241764,25.8434027],[-80.2418313,25.8436231],[-80.2419048,25.8438115],[-80.2419957,25.8440086],[-80.2420882,25.8441794],[-80.2422106,25.8443742],[-80.2423279,25.8445344],[-80.2424755,25.8447113],[-80.2426346,25.8448768],[-80.2428154,25.8450421],[-80.2429944,25.8451821],[-80.2432001,25.8453253],[-80.2433918,25.8454404],[-80.2435797,25.8455384],[-80.2437885,25.8456345],[-80.2440061,25.8457171],[-80.2442064,25.8457832],[-80.2444054,25.8458346],[-80.2446547,25.8458846],[-80.2449056,25.8459182],[-80.2451555,25.8459369],[-80.2454099,25.8459389],[-80.2456534,25.8459348],[-80.2470503,25.84589]]}},{"type":"Feature","properties":{"way_id":907885552,"route_colors":["#62bb46"],"route_refs":["Green"]},"geometry":{"type":"LineString","coordinates":[[-80.2470503,25.84589],[-80.2476591,25.8458704]]}},{"type":"Feature","properties":{"way_id":38933764,"route_colors":["#62bb46"],"route_refs":["Green"]},"geometry":{"type":"LineString","coordinates":[[-80.2476591,25.8458704],[-80.2481404,25.8458565],[-80.2492321,25.8458221],[-80.2495219,25.845813],[-80.2507029,25.8457748],[-80.2518839,25.8457367],[-80.2530649,25.8456986],[-80.2542459,25.8456604],[-80.2554269,25.8456223],[-80.2566079,25.8455842],[-80.2577889,25.845546],[-80.2589699,25.8455079],[-80.2600174,25.8454744],[-80.2603469,25.8454639],[-80.2616234,25.8454224],[-80.2628999,25.8453809],[-80.2641764,25.8453393],[-80.2654529,25.8452978],[-80.265817,25.8452801],[-80.2662134,25.8452454],[-80.2665661,25.845202],[-80.2669372,25.8451416],[-80.2681072,25.8449321],[-80.2683289,25.8448901],[-80.2685423,25.8448445],[-80.2687364,25.8447952],[-80.2689414,25.84473],[-80.2691456,25.8446477],[-80.2693263,25.8445594],[-80.2694842,25.8444704],[-80.2696218,25.8443863],[-80.2697498,25.8442953],[-80.2698771,25.8441941],[-80.2699963,25.8440924],[-80.2701395,25.84396],[-80.2706906,25.8434122],[-80.2712463,25.8428668],[-80.2718021,25.8423215],[-80.2719737,25.8421653],[-80.2721841,25.8419984],[-80.2723465,25.8418894]]}},{"type":"Feature","properties":{"way_id":11105264,"route_colors":["#62bb46"],"route_refs":["Green"]},"geometry":{"type":"LineString","coordinates":[[-80.2723465,25.8418894],[-80.2725269,25.8417844],[-80.2726845,25.8417035],[-80.2728152,25.8416407],[-80.273013,25.841563],[-80.2732315,25.8414953],[-80.2734516,25.8414445],[-80.2736799,25.8414082],[-80.2739109,25.8413845],[-80.2741658,25.841372],[-80.2755646,25.8413268],[-80.2769634,25.8412815],[-80.2783622,25.8412362],[-80.2794909,25.841201],[-80.279743,25.8411931],[-80.2807278,25.8411601],[-80.2811934,25.8411329],[-80.2815888,25.8410939],[-80.2819488,25.8410418],[-80.2828665,25.8408985],[-80.2832988,25.8408444],[-80.2835893,25.8408207],[-80.2838977,25.8408058],[-80.2859629,25.8407414],[-80.2880281,25.8406771],[-80.2883009,25.8406669],[-80.2886173,25.8406521]]}},{"type":"Feature","properties":{"way_id":907885551,"route_colors":["#62bb46"],"route_refs":["Green"]},"geometry":{"type":"LineString","coordinates":[[-80.2886173,25.8406521],[-80.2888995,25.8406267],[-80.2892277,25.840568],[-80.2895064,25.8404898],[-80.2897902,25.8403943],[-80.2905475,25.840116],[-80.2907406,25.8400498],[-80.2909321,25.8399926],[-80.2911065,25.8399519],[-80.2913052,25.8399174],[-80.2915726,25.8398913],[-80.2918953,25.8398796],[-80.2933358,25.8398795],[-80.2947763,25.8398795],[-80.2962168,25.8398794],[-80.2976574,25.8398793],[-80.2990979,25.8398792]]}},{"type":"Feature","properties":{"way_id":907885548,"route_colors":["#62bb46"],"route_refs":["Green"]},"geometry":{"type":"LineString","coordinates":[[-80.2990979,25.8398792],[-80.3003667,25.8398766]]}},{"type":"Feature","properties":{"way_id":907885547,"route_colors":["#62bb46"],"route_refs":["Green"]},"geometry":{"type":"LineString","coordinates":[[-80.3003667,25.8398766],[-80.3008544,25.8398761],[-80.3018913,25.8398752],[-80.302223,25.839875],[-80.3030314,25.8398723],[-80.3032876,25.8398636],[-80.3035189,25.8398486],[-80.3037622,25.8398258],[-80.3040193,25.8397976],[-80.3042645,25.8397707],[-80.3045745,25.8397369],[-80.3048845,25.8397031]]}},{"type":"Feature","properties":{"way_id":907885544,"route_colors":["#62bb46"],"route_refs":["Green"]},"geometry":{"type":"LineString","coordinates":[[-80.3048845,25.8397031],[-80.3054913,25.839636]]}},{"type":"Feature","properties":{"way_id":38934298,"route_colors":["#62bb46"],"route_refs":["Green"]},"geometry":{"type":"LineString","coordinates":[[-80.3054913,25.839636],[-80.30605,25.8395759],[-80.3062184,25.839559],[-80.3063495,25.839548],[-80.3064593,25.8395407],[-80.3065811,25.8395372],[-80.3067027,25.839536],[-80.3069895,25.8395438],[-80.307165,25.8395616],[-80.3072505,25.8395743],[-80.3073652,25.8395912],[-80.3074936,25.8396139],[-80.3075986,25.8396334],[-80.3077382,25.8396633],[-80.3079455,25.8397198],[-80.3081254,25.8397819],[-80.3083049,25.8398501],[-80.3096277,25.8404119],[-80.3097592,25.8404702],[-80.3099547,25.8405587],[-80.3100964,25.8406257],[-80.3102097,25.8406805],[-80.3103189,25.8407352],[-80.3104499,25.8408046],[-80.3105653,25.8408658],[-80.3106948,25.8409375],[-80.3107693,25.8409799],[-80.3109026,25.8410542],[-80.3124598,25.841943],[-80.3125712,25.8420068],[-80.3127513,25.8421066],[-80.3129355,25.8422015],[-80.3130861,25.8422711],[-80.3132305,25.8423294],[-80.3133946,25.842387],[-80.3135454,25.842431],[-80.3137024,25.8424689],[-80.3138779,25.8425008],[-80.3140646,25.8425257],[-80.3142288,25.8425386],[-80.3144166,25.8425473],[-80.3147612,25.8425514],[-80.3161001,25.8425545],[-80.3174389,25.8425577]]}},{"type":"Feature","properties":{"way_id":38934514,"route_colors":["#62bb46"],"route_refs":["Green"]},"geometry":{"type":"LineString","coordinates":[[-80.3174389,25.8425577],[-80.317788,25.8425592],[-80.3180617,25.8425675],[-80.318299,25.842585],[-80.318547,25.8426212],[-80.318797,25.8426728],[-80.3190458,25.8427384],[-80.3197082,25.8429332]]}},{"type":"Feature","properties":{"way_id":239811197,"route_colors":["#62bb46"],"route_refs":["Green"]},"geometry":{"type":"LineString","coordinates":[[-80.3197082,25.8429332],[-80.3203165,25.8431117]]}},{"type":"Feature","properties":{"way_id":239811196,"route_colors":["#62bb46"],"route_refs":["Green"]},"geometry":{"type":"LineString","coordinates":[[-80.3203165,25.8431117],[-80.3206396,25.8432078],[-80.32098,25.8433082],[-80.3211878,25.843366],[-80.3213818,25.8434087],[-80.3215498,25.8434385],[-80.3217096,25.8434565],[-80.3218818,25.8434693],[-80.3220812,25.8434713],[-80.3229178,25.8434536],[-80.3242401,25.8434197],[-80.3243268,25.8434176]]}},{"type":"Feature","properties":{"way_id":559255803,"route_colors":["#fdb924"],"route_refs":["3"]},"geometry":{"type":"LineString","coordinates":[[-80.1930113,25.7604751],[-80.1927336,25.7604162],[-80.1927471,25.7603645],[-80.1930248,25.7604234],[-80.1930113,25.7604751]]}},{"type":"Feature","properties":{"way_id":542612503,"route_colors":["#fdb924"],"route_refs":["3"]},"geometry":{"type":"LineString","coordinates":[[-80.195294,25.7628162],[-80.1952267,25.7628177],[-80.1952199,25.7625692],[-80.1952872,25.7625677],[-80.195294,25.7628162]]}},{"type":"Feature","properties":{"way_id":713482067,"route_colors":["#fdb924","#13b6ea","#005cab"],"route_refs":["3","2","1"]},"geometry":{"type":"LineString","coordinates":[[-80.1873619,25.7732072],[-80.1873545,25.7729553],[-80.1873139,25.7729563],[-80.187295,25.7729567],[-80.1873023,25.7732087],[-80.1873619,25.7732072]]}},{"type":"Feature","properties":{"way_id":713483161,"route_colors":["#fdb924","#13b6ea","#005cab"],"route_refs":["3","2","1"]},"geometry":{"type":"LineString","coordinates":[[-80.1898919,25.7758485],[-80.1898845,25.7756164],[-80.1898278,25.7756179],[-80.1898352,25.77585],[-80.1898919,25.7758485]]}},{"type":"Feature","properties":{"way_id":1063399439,"route_colors":["#fdb924","#13b6ea","#005cab"],"route_refs":["3","2","1"]},"geometry":{"type":"LineString","coordinates":[[-80.1899322,25.7774536],[-80.189937,25.77771]]}},{"type":"Feature","properties":{"way_id":534717892,"route_colors":["#fdb924","#13b6ea","#005cab"],"route_refs":["3","2","1"]},"geometry":{"type":"LineString","coordinates":[[-80.1954522,25.7788005],[-80.195454,25.7788561],[-80.1952029,25.7788628],[-80.1952011,25.7788073],[-80.1954522,25.7788005]]}},{"type":"Feature","properties":{"way_id":841406766,"route_colors":["#fdb924","#005cab"],"route_refs":["3","1"]},"geometry":{"type":"LineString","coordinates":[[-80.1961539,25.7753947],[-80.1961276,25.7753953],[-80.1961599,25.7767226],[-80.1961861,25.7767221],[-80.1961539,25.7753947]]}},{"type":"Feature","properties":{"way_id":713485551,"route_colors":["#fdb924","#005cab"],"route_refs":["3","1"]},"geometry":{"type":"LineString","coordinates":[[-80.1936374,25.7720664],[-80.1936472,25.7720115],[-80.1933973,25.7719754],[-80.1933875,25.7720303],[-80.1936374,25.7720664]]}},{"type":"Feature","properties":{"way_id":11112721,"route_colors":["#fdb924"],"route_refs":["3"]},"geometry":{"type":"LineString","coordinates":[[-80.192376,25.760354],[-80.1927894,25.7604399],[-80.1932973,25.7605457],[-80.1933627,25.7605574],[-80.1934301,25.7605652],[-80.193498,25.76057],[-80.193577,25.7605722],[-80.1936668,25.7605713],[-80.1939676,25.7605621]]}},{"type":"Feature","properties":{"way_id":907910045,"route_colors":["#fdb924"],"route_refs":["3"]},"geometry":{"type":"LineString","coordinates":[[-80.1939676,25.7605621],[-80.1940121,25.7605632],[-80.1940467,25.7605684],[-80.1941128,25.7605869],[-80.1941435,25.7605921],[-80.1941744,25.7605926],[-80.1948048,25.7605733],[-80.1948681,25.7605749],[-80.1949226,25.7605865],[-80.194976,25.76061],[-80.1950257,25.7606441],[-80.1950666,25.7606899],[-80.1950926,25.7607386],[-80.1951075,25.7607938],[-80.1951129,25.7608541],[-80.1951366,25.7615241],[-80.1951468,25.7617343],[-80.195154,25.7618348],[-80.1951724,25.7620178],[-80.1951917,25.7622305],[-80.195197,25.7623108],[-80.1952078,25.7625675]]}},{"type":"Feature","properties":{"way_id":907910042,"route_colors":["#fdb924"],"route_refs":["3"]},"geometry":{"type":"LineString","coordinates":[[-80.1952078,25.7625675],[-80.1952155,25.7627985],[-80.1952163,25.7628212]]}},{"type":"Feature","properties":{"way_id":907910040,"route_colors":["#fdb924"],"route_refs":["3"]},"geometry":{"type":"LineString","coordinates":[[-80.1952163,25.7628212],[-80.1952237,25.7630401],[-80.1952205,25.7630995],[-80.1952091,25.7631554],[-80.19519,25.7632049],[-80.1951636,25.7632521],[-80.1951288,25.7632951],[-80.195086,25.7633352],[-80.1950375,25.7633687],[-80.1949814,25.7633953],[-80.1949218,25.7634126],[-80.1948564,25.7634233],[-80.1947904,25.763428],[-80.1930299,25.7634807],[-80.1929609,25.7634841],[-80.1928976,25.7634904],[-80.1928373,25.7635032],[-80.1927832,25.7635226],[-80.1927394,25.7635467],[-80.1926975,25.7635787],[-80.1926582,25.7636168],[-80.1926291,25.7636569],[-80.1926033,25.7637074],[-80.1925862,25.7637551],[-80.1925735,25.7638015],[-80.1925467,25.7639101]]}},{"type":"Feature","properties":{"way_id":907910039,"route_colors":["#fdb924"],"route_refs":["3"]},"geometry":{"type":"LineString","coordinates":[[-80.1925467,25.7639101],[-80.1924875,25.7641359],[-80.1924829,25.7641535]]}},{"type":"Feature","properties":{"way_id":907910037,"route_colors":["#fdb924"],"route_refs":["3"]},"geometry":{"type":"LineString","coordinates":[[-80.1924829,25.7641535],[-80.1924425,25.7643043],[-80.1924303,25.7643593],[-80.1924218,25.7644195],[-80.1924035,25.7646108],[-80.1923967,25.7646688],[-80.192383,25.7647277],[-80.1920476,25.766017],[-80.1920337,25.7660746],[-80.1920264,25.7661371],[-80.192028,25.7661905],[-80.1920354,25.7662433],[-80.1920592,25.7663767],[-80.1920686,25.7664602],[-80.1920744,25.7665503],[-80.1920842,25.7667823]]}},{"type":"Feature","properties":{"way_id":907910036,"route_colors":["#fdb924"],"route_refs":["3"]},"geometry":{"type":"LineString","coordinates":[[-80.1920842,25.7667823],[-80.1920914,25.7670126],[-80.1920941,25.7671006]]}},{"type":"Feature","properties":{"way_id":907910033,"route_colors":["#fdb924"],"route_refs":["3"]},"geometry":{"type":"LineString","coordinates":[[-80.1920941,25.7671006],[-80.1921016,25.7672557],[-80.1921095,25.7673243],[-80.1921601,25.7676613],[-80.1921697,25.7677604],[-80.1921999,25.7685684],[-80.1922111,25.7687891],[-80.1922245,25.7690312]]}},{"type":"Feature","properties":{"way_id":907910031,"route_colors":["#fdb924"],"route_refs":["3"]},"geometry":{"type":"LineString","coordinates":[[-80.1922245,25.7690312],[-80.1922401,25.7692565],[-80.1922423,25.7692889]]}},{"type":"Feature","properties":{"way_id":38937026,"route_colors":["#fdb924"],"route_refs":["3"]},"geometry":{"type":"LineString","coordinates":[[-80.1922423,25.7692889],[-80.1922659,25.7696658],[-80.1922762,25.7697624],[-80.1922901,25.769847],[-80.1923132,25.7699396],[-80.1924598,25.7704043],[-80.1924901,25.7705145],[-80.1925057,25.770608],[-80.1925191,25.7707203],[-80.1925342,25.7709297]]}},{"type":"Feature","properties":{"way_id":907910029,"route_colors":["#fdb924"],"route_refs":["3"]},"geometry":{"type":"LineString","coordinates":[[-80.1925342,25.7709297],[-80.1925495,25.7711257],[-80.1925561,25.7712104]]}},{"type":"Feature","properties":{"way_id":11114288,"route_colors":["#fdb924"],"route_refs":["3"]},"geometry":{"type":"LineString","coordinates":[[-80.1925561,25.7712104],[-80.1925929,25.7716309],[-80.1925926,25.7716732],[-80.1925807,25.7717169],[-80.1925603,25.7717569],[-80.1925255,25.7717949],[-80.1924874,25.7718218],[-80.1924465,25.7718385],[-80.1923977,25.7718493],[-80.1923415,25.7718523]]}},{"type":"Feature","properties":{"way_id":113693125,"route_colors":["#fdb924","#005cab"],"route_refs":["3","1"]},"geometry":{"type":"LineString","coordinates":[[-80.1923415,25.7718523],[-80.1922953,25.7718471]]}},{"type":"Feature","properties":{"way_id":907891883,"route_colors":["#fdb924","#005cab"],"route_refs":["3","1"]},"geometry":{"type":"LineString","coordinates":[[-80.1922953,25.7718471],[-80.1922529,25.7718424]]}},{"type":"Feature","properties":{"way_id":11111067,"route_colors":["#fdb924","#005cab"],"route_refs":["3","1"]},"geometry":{"type":"LineString","coordinates":[[-80.1922529,25.7718424],[-80.1920284,25.771824],[-80.1918996,25.7718163],[-80.1917647,25.7718103],[-80.1913031,25.7718243],[-80.1907581,25.7718409],[-80.1906511,25.7718387],[-80.1905703,25.7718303],[-80.1904924,25.7718135],[-80.1904252,25.7717915],[-80.1903188,25.7717503],[-80.1902249,25.7717217],[-80.1901357,25.7717081],[-80.1900466,25.7717057],[-80.1894642,25.7717234],[-80.1888819,25.771741],[-80.1882996,25.7717587],[-80.1877173,25.7717763],[-80.1876444,25.7717821],[-80.1875747,25.7717956],[-80.1874972,25.7718247],[-80.1874318,25.7718635],[-80.1873804,25.77191],[-80.18734,25.7719611],[-80.187309,25.7720182],[-80.18729,25.7720796],[-80.1872815,25.772132],[-80.1872809,25.7721847],[-80.1872895,25.7724596],[-80.1872886,25.7725513],[-80.1872785,25.7727365],[-80.1872767,25.7728062],[-80.187291,25.7731931],[-80.1872989,25.773439],[-80.1873029,25.7735027],[-80.1873104,25.7735601],[-80.1873567,25.7737998],[-80.187371,25.7738841],[-80.1873769,25.773945],[-80.1874244,25.7748285],[-80.1874337,25.7749059],[-80.1874581,25.7749864],[-80.1874873,25.7750445],[-80.1875295,25.7751031],[-80.1875823,25.7751561],[-80.1876301,25.7751928],[-80.1876932,25.7752285],[-80.1877547,25.7752541],[-80.1878198,25.7752721],[-80.1878902,25.7752814],[-80.1879694,25.7752831],[-80.1887067,25.7752618],[-80.1894439,25.7752406],[-80.189497,25.7752412],[-80.1895497,25.7752455],[-80.1896087,25.7752606],[-80.189667,25.7752877],[-80.1897143,25.7753221],[-80.1897576,25.7753731],[-80.1897857,25.7754272],[-80.1898022,25.7754867],[-80.1898075,25.7755341],[-80.1898117,25.7756128]]}},{"type":"Feature","properties":{"way_id":907910017,"route_colors":["#fdb924","#005cab"],"route_refs":["3","1"]},"geometry":{"type":"LineString","coordinates":[[-80.1898117,25.7756128],[-80.1898198,25.7758324],[-80.1898211,25.7758675]]}},{"type":"Feature","properties":{"way_id":907910014,"route_colors":["#fdb924","#005cab"],"route_refs":["3","1"]},"geometry":{"type":"LineString","coordinates":[[-80.1898211,25.7758675],[-80.1898221,25.7758916]]}},{"type":"Feature","properties":{"way_id":907910019,"route_colors":["#fdb924","#005cab"],"route_refs":["3","1"]},"geometry":{"type":"LineString","coordinates":[[-80.1898221,25.7758916],[-80.1898303,25.7761157]]}},{"type":"Feature","properties":{"way_id":907910012,"route_colors":["#fdb924","#005cab"],"route_refs":["3","1"]},"geometry":{"type":"LineString","coordinates":[[-80.1898303,25.7761157],[-80.1898468,25.7765615],[-80.1898634,25.7770088],[-80.18988,25.7774561]]}},{"type":"Feature","properties":{"way_id":907910010,"route_colors":["#fdb924","#005cab"],"route_refs":["3","1"]},"geometry":{"type":"LineString","coordinates":[[-80.18988,25.7774561],[-80.189887,25.7776864],[-80.1898877,25.7777112]]}},{"type":"Feature","properties":{"way_id":907910020,"route_colors":["#fdb924","#005cab"],"route_refs":["3","1"]},"geometry":{"type":"LineString","coordinates":[[-80.1898877,25.7777112],[-80.1898936,25.7778476],[-80.1899592,25.7785476],[-80.1899655,25.7785983],[-80.1899787,25.7786533],[-80.1900038,25.7787087],[-80.1900435,25.7787633],[-80.1900804,25.7787999],[-80.190119,25.7788293],[-80.1901642,25.7788629]]}},{"type":"Feature","properties":{"way_id":38962054,"route_colors":["#fdb924"],"route_refs":["3"]},"geometry":{"type":"LineString","coordinates":[[-80.1901642,25.7788629],[-80.1902925,25.7789583],[-80.190357,25.778999],[-80.1904245,25.7790265],[-80.1904964,25.7790417],[-80.190571,25.7790443],[-80.1907516,25.7790346]]}},{"type":"Feature","properties":{"way_id":907910007,"route_colors":["#fdb924","#005cab"],"route_refs":["3","1"]},"geometry":{"type":"LineString","coordinates":[[-80.1907516,25.7790346],[-80.191323,25.7789983],[-80.1914252,25.7789929],[-80.1919653,25.7789748]]}},{"type":"Feature","properties":{"way_id":907910006,"route_colors":["#fdb924","#005cab"],"route_refs":["3","1"]},"geometry":{"type":"LineString","coordinates":[[-80.1919653,25.7789748],[-80.1922118,25.778966],[-80.1922485,25.7789647]]}},{"type":"Feature","properties":{"way_id":907910002,"route_colors":["#fdb924","#005cab"],"route_refs":["3","1"]},"geometry":{"type":"LineString","coordinates":[[-80.1922485,25.7789647],[-80.192748,25.7789521],[-80.1929898,25.7789542],[-80.1932799,25.7789641],[-80.1934024,25.778965],[-80.1935405,25.7789644],[-80.1936853,25.7789598],[-80.1937902,25.7789533],[-80.1944085,25.7789036],[-80.1945369,25.7788954],[-80.195189,25.7788738]]}},{"type":"Feature","properties":{"way_id":907910001,"route_colors":["#fdb924","#005cab"],"route_refs":["3","1"]},"geometry":{"type":"LineString","coordinates":[[-80.195189,25.7788738],[-80.1954343,25.7788675],[-80.1954602,25.7788668]]}},{"type":"Feature","properties":{"way_id":113693129,"route_colors":["#fdb924","#005cab"],"route_refs":["3","1"]},"geometry":{"type":"LineString","coordinates":[[-80.1954602,25.7788668],[-80.1956323,25.7788633],[-80.1957322,25.7788556],[-80.1958229,25.7788381],[-80.1958979,25.7788115],[-80.1959979,25.778756],[-80.1960709,25.7786929],[-80.196125,25.7786275],[-80.1961606,25.7785618],[-80.1961856,25.7784836],[-80.1961999,25.778409],[-80.1962065,25.7783274],[-80.1962038,25.7782481],[-80.1961733,25.7775614],[-80.1961427,25.7768747],[-80.1961129,25.776066],[-80.196105,25.7758514],[-80.1960773,25.7750993],[-80.1960213,25.7736257],[-80.1960205,25.7735534],[-80.1960249,25.773503],[-80.1960368,25.7734586],[-80.1960551,25.7734089],[-80.1960887,25.7733461],[-80.1962454,25.7730961],[-80.1962639,25.7730626],[-80.1962833,25.7730228],[-80.1962966,25.7729636],[-80.1963008,25.7729228],[-80.1962957,25.7728847],[-80.1962828,25.7728399],[-80.1962496,25.7727814],[-80.1961988,25.7727253],[-80.1961453,25.7726922],[-80.1960841,25.772664],[-80.1959059,25.7725906],[-80.1958537,25.7725688],[-80.1957954,25.7725398],[-80.1954842,25.7723584],[-80.195399,25.7723164],[-80.1953166,25.7722884],[-80.1952863,25.7722793],[-80.195001,25.772203],[-80.1948419,25.7721695],[-80.1945172,25.7721207],[-80.1937536,25.7720172],[-80.193651,25.7720024]]}},{"type":"Feature","properties":{"way_id":907910025,"route_colors":["#fdb924","#005cab"],"route_refs":["3","1"]},"geometry":{"type":"LineString","coordinates":[[-80.193651,25.7720024],[-80.1934062,25.7719672],[-80.1933737,25.7719624]]}},{"type":"Feature","properties":{"way_id":907910024,"route_colors":["#fdb924","#005cab"],"route_refs":["3","1"]},"geometry":{"type":"LineString","coordinates":[[-80.1933737,25.7719624],[-80.1932214,25.7719399]]}},{"type":"Feature","properties":{"way_id":907891882,"route_colors":["#fdb924","#005cab"],"route_refs":["3","1"]},"geometry":{"type":"LineString","coordinates":[[-80.1932214,25.7719399],[-80.193119,25.7719288],[-80.1929019,25.7719099]]}},{"type":"Feature","properties":{"way_id":38937031,"route_colors":["#fdb924"],"route_refs":["3"]},"geometry":{"type":"LineString","coordinates":[[-80.1929019,25.7719099],[-80.1928427,25.7718968],[-80.1927911,25.7718728],[-80.1927368,25.7718359],[-80.1927005,25.7717993],[-80.1926714,25.7717592],[-80.1926519,25.7717182],[-80.1926386,25.7716717],[-80.1926335,25.7716281],[-80.1925972,25.7712078]]}},{"type":"Feature","properties":{"way_id":907910028,"route_colors":["#fdb924"],"route_refs":["3"]},"geometry":{"type":"LineString","coordinates":[[-80.1925972,25.7712078],[-80.1925784,25.7709664],[-80.1925753,25.7709271]]}},{"type":"Feature","properties":{"way_id":907910041,"route_colors":["#fdb924"],"route_refs":["3"]},"geometry":{"type":"LineString","coordinates":[[-80.1925753,25.7709271],[-80.1925574,25.7707145],[-80.1925454,25.7706026],[-80.1925275,25.7705079],[-80.1924985,25.7703948],[-80.1923504,25.7699293],[-80.1923285,25.7698376],[-80.1923143,25.7697579],[-80.1923044,25.7696634],[-80.1922821,25.7692866]]}},{"type":"Feature","properties":{"way_id":907910030,"route_colors":["#fdb924"],"route_refs":["3"]},"geometry":{"type":"LineString","coordinates":[[-80.1922821,25.7692866],[-80.1922684,25.769088],[-80.1922643,25.769029]]}},{"type":"Feature","properties":{"way_id":907910032,"route_colors":["#fdb924"],"route_refs":["3"]},"geometry":{"type":"LineString","coordinates":[[-80.1922643,25.769029],[-80.1922503,25.768788],[-80.1922376,25.7685665],[-80.1922274,25.7683039],[-80.1921783,25.7670333]]}},{"type":"Feature","properties":{"way_id":907910034,"route_colors":["#fdb924"],"route_refs":["3"]},"geometry":{"type":"LineString","coordinates":[[-80.1921783,25.7670333],[-80.1921717,25.7668074],[-80.1921709,25.7667801]]}},{"type":"Feature","properties":{"way_id":907910035,"route_colors":["#fdb924"],"route_refs":["3"]},"geometry":{"type":"LineString","coordinates":[[-80.1921709,25.7667801],[-80.1921672,25.7666635],[-80.1921618,25.7665951],[-80.1921519,25.766532],[-80.1920813,25.766236],[-80.192074,25.7661912],[-80.1920704,25.7661369],[-80.1920757,25.7660784],[-80.1920868,25.7660243],[-80.1925675,25.7641715]]}},{"type":"Feature","properties":{"way_id":907910038,"route_colors":["#fdb924"],"route_refs":["3"]},"geometry":{"type":"LineString","coordinates":[[-80.1925675,25.7641715],[-80.1926253,25.7639511],[-80.1926313,25.7639281]]}},{"type":"Feature","properties":{"way_id":190659836,"route_colors":["#fdb924"],"route_refs":["3"]},"geometry":{"type":"LineString","coordinates":[[-80.1926313,25.7639281],[-80.1926712,25.7637785],[-80.1926912,25.7637188],[-80.19271,25.7636782],[-80.1927334,25.7636415],[-80.1927626,25.7636087],[-80.1928042,25.7635757],[-80.1928468,25.7635523],[-80.1928879,25.7635362],[-80.1929324,25.763526],[-80.1929832,25.7635189],[-80.1930338,25.7635157],[-80.1947948,25.7634648],[-80.1948622,25.7634607],[-80.1949286,25.7634538],[-80.194996,25.7634387],[-80.1950559,25.7634169],[-80.1951098,25.7633882],[-80.1951591,25.7633531],[-80.195203,25.7633151],[-80.1952386,25.7632683],[-80.1952687,25.7632196],[-80.1952926,25.7631637],[-80.1953062,25.7631113],[-80.1953122,25.7630577],[-80.1953121,25.7630044],[-80.1953062,25.7628188]]}},{"type":"Feature","properties":{"way_id":907910043,"route_colors":["#fdb924"],"route_refs":["3"]},"geometry":{"type":"LineString","coordinates":[[-80.1953062,25.7628188],[-80.1952987,25.7625951],[-80.1952977,25.7625651]]}},{"type":"Feature","properties":{"way_id":907910044,"route_colors":["#fdb924"],"route_refs":["3"]},"geometry":{"type":"LineString","coordinates":[[-80.1952977,25.7625651],[-80.1952857,25.7622753],[-80.1952789,25.7620897],[-80.1952734,25.7620179],[-80.1952606,25.761948],[-80.1951953,25.7616597],[-80.1951842,25.7615905],[-80.1951763,25.7615241],[-80.195152,25.7608523],[-80.195148,25.7607876],[-80.195134,25.760727],[-80.1951037,25.7606691],[-80.1950575,25.7606169],[-80.1949983,25.7605754],[-80.1949355,25.7605507],[-80.1948749,25.7605387],[-80.1948019,25.7605357],[-80.1939676,25.7605621]]}},{"type":"Feature","properties":{"way_id":841406765,"route_colors":["#13b6ea"],"route_refs":["2"]},"geometry":{"type":"LineString","coordinates":[[-80.196035,25.7754063],[-80.1960111,25.775407],[-80.196059,25.7767341],[-80.196083,25.7767334],[-80.196035,25.7754063]]}},{"type":"Feature","properties":{"way_id":713486796,"route_colors":["#13b6ea"],"route_refs":["2"]},"geometry":{"type":"LineString","coordinates":[[-80.1936527,25.7734335],[-80.193651,25.7733914],[-80.1935029,25.7733962],[-80.1935046,25.7734383],[-80.1936527,25.7734335]]}},{"type":"Feature","properties":{"way_id":907909992,"route_colors":["#13b6ea"],"route_refs":["2"]},"geometry":{"type":"LineString","coordinates":[[-80.1960762,25.7760648],[-80.1961062,25.7768739],[-80.1961379,25.7775611],[-80.1961697,25.7782483],[-80.1961686,25.7783257],[-80.1961564,25.7783995],[-80.1961316,25.7784705],[-80.1960979,25.7785282],[-80.1960625,25.7785785],[-80.1960083,25.778637],[-80.1959438,25.7786869],[-80.1958739,25.7787249],[-80.1958029,25.7787526],[-80.1957181,25.7787715],[-80.1956251,25.7787834],[-80.1954714,25.7787894]]}},{"type":"Feature","properties":{"way_id":907910000,"route_colors":["#13b6ea"],"route_refs":["2"]},"geometry":{"type":"LineString","coordinates":[[-80.1954714,25.7787894],[-80.1952309,25.7787955],[-80.1951866,25.7787967]]}},{"type":"Feature","properties":{"way_id":907910003,"route_colors":["#13b6ea"],"route_refs":["2"]},"geometry":{"type":"LineString","coordinates":[[-80.1951866,25.7787967],[-80.1949922,25.7788006],[-80.1948651,25.7788124],[-80.194538,25.7788572],[-80.1944053,25.7788723],[-80.1937895,25.7789224],[-80.1936856,25.7789285],[-80.1935411,25.7789324],[-80.193407,25.7789342],[-80.1932829,25.7789315],[-80.1927447,25.7789077],[-80.1925349,25.778887],[-80.1923702,25.7788812],[-80.1922448,25.7788846]]}},{"type":"Feature","properties":{"way_id":907910008,"route_colors":["#13b6ea"],"route_refs":["2"]},"geometry":{"type":"LineString","coordinates":[[-80.1922448,25.7788846],[-80.1919938,25.7788935],[-80.1919618,25.7788946]]}},{"type":"Feature","properties":{"way_id":907910009,"route_colors":["#13b6ea"],"route_refs":["2"]},"geometry":{"type":"LineString","coordinates":[[-80.1919618,25.7788946],[-80.1918132,25.7788989],[-80.1917518,25.778903],[-80.1916902,25.7789108],[-80.1914234,25.7789533],[-80.1913216,25.7789624],[-80.1905695,25.7790095],[-80.1905011,25.7790069],[-80.1904344,25.7789916],[-80.1903768,25.7789683],[-80.1903167,25.7789302],[-80.1901492,25.778807],[-80.1901103,25.7787749],[-80.1900757,25.778739],[-80.1900475,25.7786939],[-80.1900261,25.7786424],[-80.1900134,25.7785894],[-80.1900082,25.7785303],[-80.1899772,25.777709]]}},{"type":"Feature","properties":{"way_id":907910011,"route_colors":["#13b6ea"],"route_refs":["2"]},"geometry":{"type":"LineString","coordinates":[[-80.1899772,25.777709],[-80.1899705,25.7774885],[-80.1899694,25.7774527]]}},{"type":"Feature","properties":{"way_id":907910013,"route_colors":["#13b6ea"],"route_refs":["2"]},"geometry":{"type":"LineString","coordinates":[[-80.1899694,25.7774527],[-80.1899525,25.777006],[-80.1899357,25.7765593],[-80.1899188,25.7761133]]}},{"type":"Feature","properties":{"way_id":907910018,"route_colors":["#13b6ea"],"route_refs":["2"]},"geometry":{"type":"LineString","coordinates":[[-80.1899188,25.7761133],[-80.1899105,25.7758892]]}},{"type":"Feature","properties":{"way_id":907910015,"route_colors":["#13b6ea"],"route_refs":["2"]},"geometry":{"type":"LineString","coordinates":[[-80.1899105,25.7758892],[-80.1899096,25.7758649]]}},{"type":"Feature","properties":{"way_id":907910016,"route_colors":["#13b6ea"],"route_refs":["2"]},"geometry":{"type":"LineString","coordinates":[[-80.1899096,25.7758649],[-80.1899006,25.7756231],[-80.1899001,25.7756101]]}},{"type":"Feature","properties":{"way_id":907910021,"route_colors":["#13b6ea"],"route_refs":["2"]},"geometry":{"type":"LineString","coordinates":[[-80.1899001,25.7756101],[-80.189897,25.7755226],[-80.1898929,25.7754589],[-80.1898809,25.7754053],[-80.1898569,25.7753563],[-80.1898228,25.7753073],[-80.189779,25.7752667],[-80.1897293,25.7752358],[-80.1896746,25.7752151],[-80.1895966,25.7752034],[-80.1895187,25.7752022],[-80.1887432,25.7752256],[-80.1879676,25.775249],[-80.1878913,25.7752467],[-80.1878273,25.775238],[-80.1877678,25.7752207],[-80.1877069,25.7751962],[-80.1876546,25.7751647],[-80.1876099,25.7751308],[-80.1875599,25.77508],[-80.1875228,25.775027],[-80.1874957,25.7749737],[-80.1874709,25.7748981],[-80.1874616,25.7748261],[-80.1874311,25.7742133],[-80.1874156,25.7739434],[-80.18737,25.7729879],[-80.1873643,25.7728059],[-80.1873602,25.7727387],[-80.1873361,25.7725492],[-80.1873283,25.7724582],[-80.1873206,25.7721888],[-80.187321,25.7721374],[-80.1873284,25.7720878],[-80.1873437,25.7720327],[-80.187371,25.7719804],[-80.1874098,25.7719328],[-80.187457,25.7718912],[-80.1875172,25.7718557],[-80.1875873,25.7718293],[-80.1876484,25.771818],[-80.187719,25.7718129],[-80.1883014,25.7717951],[-80.1888838,25.7717774],[-80.1894662,25.7717596],[-80.1900486,25.7717419],[-80.1901323,25.771744],[-80.1902135,25.7717573],[-80.1903023,25.7717841],[-80.1904983,25.7718576],[-80.1905789,25.7718829],[-80.1906562,25.771897],[-80.1908396,25.7719188],[-80.1909367,25.7719254],[-80.1910214,25.7719244]]}},{"type":"Feature","properties":{"way_id":38962072,"route_colors":["#13b6ea"],"route_refs":["2"]},"geometry":{"type":"LineString","coordinates":[[-80.1910214,25.7719244],[-80.1915757,25.7719105],[-80.1916489,25.7719112],[-80.1917144,25.7719181],[-80.1917681,25.7719354]]}},{"type":"Feature","properties":{"way_id":995322726,"route_colors":["#13b6ea"],"route_refs":["2"]},"geometry":{"type":"LineString","coordinates":[[-80.1917681,25.7719354],[-80.1918144,25.7719595],[-80.1918549,25.771991],[-80.1918916,25.7720335],[-80.1919174,25.7720774],[-80.1919335,25.7721263],[-80.191941,25.7721751],[-80.191942,25.7722264],[-80.1919388,25.7724868],[-80.1919369,25.772612],[-80.1919291,25.7730575],[-80.1919308,25.7731189],[-80.19194,25.7731747],[-80.1919627,25.7732357],[-80.1919906,25.7732839],[-80.192037,25.7733312],[-80.1920936,25.7733687],[-80.1921524,25.7733948],[-80.1922078,25.7734075],[-80.1922658,25.7734129],[-80.1923181,25.7734145],[-80.193468,25.7733781]]}},{"type":"Feature","properties":{"way_id":995322727,"route_colors":["#13b6ea"],"route_refs":["2"]},"geometry":{"type":"LineString","coordinates":[[-80.193468,25.7733781],[-80.1936357,25.7733745],[-80.1936792,25.7733736]]}},{"type":"Feature","properties":{"way_id":11110601,"route_colors":["#13b6ea"],"route_refs":["2"]},"geometry":{"type":"LineString","coordinates":[[-80.1936792,25.7733736],[-80.1937192,25.7733725],[-80.1951407,25.7733288],[-80.1952453,25.7733285],[-80.195322,25.7733344],[-80.1954128,25.7733488],[-80.1955671,25.7733775],[-80.1957036,25.7734021],[-80.1957676,25.7734167],[-80.1958227,25.7734362],[-80.1958708,25.7734637],[-80.1959125,25.7734977],[-80.1959444,25.7735423],[-80.1959665,25.7735829],[-80.1959817,25.7736266],[-80.1959886,25.7736899],[-80.1960404,25.7751004],[-80.1960683,25.7758512],[-80.1960762,25.7760648]]}},{"type":"Feature","properties":{"way_id":484753270,"route_colors":["#005cab"],"route_refs":["1"]},"geometry":{"type":"LineString","coordinates":[[-80.1881477,25.7894588],[-80.187906,25.7894639]]}},{"type":"Feature","properties":{"way_id":484587323,"route_colors":["#005cab"],"route_refs":["1"]},"geometry":{"type":"LineString","coordinates":[[-80.1880809,25.7858659],[-80.1878266,25.7859756]]}},{"type":"Feature","properties":{"way_id":542292645,"route_colors":["#005cab"],"route_refs":["1"]},"geometry":{"type":"LineString","coordinates":[[-80.1906865,25.7823788],[-80.1906965,25.7826228],[-80.1906282,25.782625],[-80.1906182,25.7823811],[-80.1906865,25.7823788]]}},{"type":"Feature","properties":{"way_id":907910072,"route_colors":["#005cab"],"route_refs":["1"]},"geometry":{"type":"LineString","coordinates":[[-80.1932868,25.7893142],[-80.1930486,25.7893216],[-80.1930049,25.789323]]}},{"type":"Feature","properties":{"way_id":907910065,"route_colors":["#005cab"],"route_refs":["1"]},"geometry":{"type":"LineString","coordinates":[[-80.1930049,25.789323],[-80.1926679,25.7893326],[-80.1925907,25.7893351],[-80.1924313,25.7893403],[-80.1923737,25.7893442],[-80.1923156,25.7893525],[-80.192077,25.7893964],[-80.192025,25.7894032],[-80.1919731,25.7894069],[-80.1918802,25.7894104],[-80.1907946,25.7894444],[-80.190594,25.7894477],[-80.1902842,25.7894469],[-80.1896029,25.7894627],[-80.1889217,25.7894785],[-80.1888191,25.7894779],[-80.1887024,25.7894654],[-80.1884741,25.7894277],[-80.1883907,25.7894176],[-80.1883131,25.7894155],[-80.1879051,25.7894239],[-80.1870355,25.7894435],[-80.1869598,25.7894432],[-80.186884,25.7894325],[-80.1868101,25.7894045],[-80.1867486,25.7893638],[-80.1867006,25.7893077],[-80.1866684,25.7892459],[-80.1866552,25.7891833],[-80.1866515,25.789149],[-80.1866309,25.788568],[-80.1866103,25.787987],[-80.1865897,25.7874061],[-80.1865691,25.7868251],[-80.1865772,25.786733],[-80.1866018,25.7866476],[-80.1866466,25.7865781],[-80.1867013,25.7865238],[-80.1867686,25.7864793],[-80.1868557,25.7864376],[-80.1878503,25.7860168]]}},{"type":"Feature","properties":{"way_id":907910064,"route_colors":["#005cab"],"route_refs":["1"]},"geometry":{"type":"LineString","coordinates":[[-80.1878503,25.7860168],[-80.1880761,25.7859194],[-80.1881032,25.7859076]]}},{"type":"Feature","properties":{"way_id":907910059,"route_colors":["#005cab"],"route_refs":["1"]},"geometry":{"type":"LineString","coordinates":[[-80.1881032,25.7859076],[-80.1882117,25.7858621],[-80.1886734,25.7856655],[-80.1887305,25.7856424],[-80.1887953,25.7856216],[-80.1888672,25.785607],[-80.1889452,25.7856032],[-80.1890578,25.785608],[-80.1892574,25.7856211],[-80.1894046,25.785627],[-80.1895515,25.7856238],[-80.1896616,25.7856149],[-80.1905462,25.785529],[-80.1906094,25.7855217],[-80.1906728,25.7855089],[-80.1907211,25.7854936],[-80.1907667,25.7854732],[-80.1908039,25.7854504],[-80.1908417,25.7854191],[-80.1908783,25.7853716],[-80.1909022,25.7853241],[-80.1909163,25.7852678],[-80.1909192,25.7852063],[-80.1909129,25.7851392],[-80.1909021,25.7850869],[-80.1908782,25.7849854]]}},{"type":"Feature","properties":{"way_id":907910058,"route_colors":["#005cab"],"route_refs":["1"]},"geometry":{"type":"LineString","coordinates":[[-80.1908782,25.7849854],[-80.1908223,25.78476],[-80.190817,25.7847386]]}},{"type":"Feature","properties":{"way_id":907910053,"route_colors":["#005cab"],"route_refs":["1"]},"geometry":{"type":"LineString","coordinates":[[-80.190817,25.7847386],[-80.1907358,25.7844055],[-80.1907216,25.7843361],[-80.190715,25.7842615],[-80.1906948,25.7837041],[-80.1906747,25.7831466],[-80.190676,25.7831044],[-80.1906795,25.7830639],[-80.1907057,25.782855],[-80.1907094,25.7828034],[-80.1907105,25.782754],[-80.1907069,25.7826252]]}},{"type":"Feature","properties":{"way_id":907910052,"route_colors":["#005cab"],"route_refs":["1"]},"geometry":{"type":"LineString","coordinates":[[-80.1907069,25.7826252],[-80.1906979,25.7823894],[-80.1906972,25.7823705]]}},{"type":"Feature","properties":{"way_id":206004107,"route_colors":["#005cab"],"route_refs":["1"]},"geometry":{"type":"LineString","coordinates":[[-80.1906972,25.7823705],[-80.1906924,25.7822542],[-80.1906896,25.7822072],[-80.1906819,25.7821589],[-80.1906407,25.7819498],[-80.1906319,25.7818919],[-80.1906265,25.7818336],[-80.190602,25.7811248],[-80.1906024,25.7810696],[-80.1906069,25.7810167],[-80.1906302,25.780832],[-80.1906333,25.7807914],[-80.1906346,25.7807498],[-80.1906334,25.7806591]]}},{"type":"Feature","properties":{"way_id":907910048,"route_colors":["#005cab"],"route_refs":["1"]},"geometry":{"type":"LineString","coordinates":[[-80.1906334,25.7806591],[-80.1906258,25.7804328],[-80.1906248,25.7804051]]}},{"type":"Feature","properties":{"way_id":907910050,"route_colors":["#005cab"],"route_refs":["1"]},"geometry":{"type":"LineString","coordinates":[[-80.1906248,25.7804051],[-80.1906205,25.7802889],[-80.1906178,25.7802403],[-80.1906096,25.7801938],[-80.1905712,25.7799974],[-80.1905617,25.7799354],[-80.1905557,25.7798698],[-80.1905491,25.779706],[-80.1905437,25.7796195],[-80.1905313,25.7795368],[-80.1904947,25.7793688],[-80.190489,25.7793144],[-80.1904918,25.7792597],[-80.1905082,25.7792022],[-80.1905341,25.7791551],[-80.1905666,25.779115],[-80.1906158,25.779074],[-80.1906758,25.7790476],[-80.1907516,25.7790346]]}},{"type":"Feature","properties":{"way_id":113693130,"route_colors":["#005cab"],"route_refs":["1"]},"geometry":{"type":"LineString","coordinates":[[-80.1929019,25.7719099],[-80.1923415,25.7718523]]}},{"type":"Feature","properties":{"way_id":907910061,"route_colors":["#005cab"],"route_refs":["1"]},"geometry":{"type":"LineString","coordinates":[[-80.1901642,25.7788629],[-80.1901987,25.7788944],[-80.1902276,25.7789282],[-80.1902482,25.7789638],[-80.1904119,25.7793103],[-80.190439,25.779377],[-80.1904713,25.7794772],[-80.190489,25.779547],[-80.1905035,25.7796235],[-80.1905093,25.7797087],[-80.1905229,25.7800581],[-80.1905364,25.7804075]]}},{"type":"Feature","properties":{"way_id":907910049,"route_colors":["#005cab"],"route_refs":["1"]},"geometry":{"type":"LineString","coordinates":[[-80.1905364,25.7804075],[-80.1905436,25.7806227],[-80.1905449,25.7806605]]}},{"type":"Feature","properties":{"way_id":907910051,"route_colors":["#005cab"],"route_refs":["1"]},"geometry":{"type":"LineString","coordinates":[[-80.1905449,25.7806605],[-80.1905656,25.7812314],[-80.1905864,25.7818023],[-80.1906071,25.7823732]]}},{"type":"Feature","properties":{"way_id":907910054,"route_colors":["#005cab"],"route_refs":["1"]},"geometry":{"type":"LineString","coordinates":[[-80.1906071,25.7823732],[-80.1906158,25.7826039],[-80.1906167,25.7826278]]}},{"type":"Feature","properties":{"way_id":907910055,"route_colors":["#005cab"],"route_refs":["1"]},"geometry":{"type":"LineString","coordinates":[[-80.1906167,25.7826278],[-80.1906515,25.783579],[-80.1906863,25.7845301],[-80.1906912,25.7845828],[-80.1907004,25.7846343],[-80.19073,25.7847561]]}},{"type":"Feature","properties":{"way_id":907910060,"route_colors":["#005cab"],"route_refs":["1"]},"geometry":{"type":"LineString","coordinates":[[-80.19073,25.7847561],[-80.1907778,25.784949],[-80.1907911,25.7850028]]}},{"type":"Feature","properties":{"way_id":907910063,"route_colors":["#005cab"],"route_refs":["1"]},"geometry":{"type":"LineString","coordinates":[[-80.1907911,25.7850028],[-80.1908077,25.7850758],[-80.1908186,25.7851392],[-80.1908213,25.7851984],[-80.1908165,25.7852507],[-80.190802,25.7853038],[-80.1907814,25.7853436],[-80.1907527,25.7853816],[-80.1907145,25.7854165],[-80.1906681,25.7854459],[-80.1906184,25.7854684],[-80.1905652,25.7854848],[-80.1905132,25.7854954],[-80.1904649,25.7855012],[-80.1896577,25.7855797],[-80.1895502,25.785588],[-80.1894048,25.7855919],[-80.1892598,25.7855853],[-80.1889468,25.7855656],[-80.188864,25.7855621],[-80.1887834,25.7855618],[-80.1887218,25.7855698],[-80.1886575,25.7855875],[-80.1885925,25.7856099],[-80.1884276,25.7856791],[-80.1880642,25.7858345]]}},{"type":"Feature","properties":{"way_id":907910062,"route_colors":["#005cab"],"route_refs":["1"]},"geometry":{"type":"LineString","coordinates":[[-80.1880642,25.7858345],[-80.1878243,25.785938],[-80.1878113,25.7859436]]}},{"type":"Feature","properties":{"way_id":11105928,"route_colors":["#005cab"],"route_refs":["1"]},"geometry":{"type":"LineString","coordinates":[[-80.1878113,25.7859436],[-80.1876985,25.7859911],[-80.1876253,25.7860258],[-80.187558,25.7860634],[-80.187429,25.7861436],[-80.187355,25.7861842],[-80.1872839,25.7862162],[-80.1868402,25.7864048],[-80.1867469,25.7864494],[-80.1866726,25.7864985],[-80.1866155,25.7865565],[-80.1865679,25.7866306],[-80.1865375,25.7867271],[-80.1865299,25.7868267],[-80.1865502,25.7874079],[-80.1865704,25.7879891],[-80.1865907,25.7885703],[-80.1866109,25.7891515],[-80.1866138,25.7891888],[-80.1866234,25.7892643],[-80.1866482,25.7893462],[-80.1866955,25.7894149],[-80.186765,25.7894718],[-80.186848,25.7895053],[-80.1869392,25.7895221],[-80.1870283,25.7895245],[-80.1881352,25.7894997],[-80.1883123,25.7894966],[-80.1884725,25.789498],[-80.1887337,25.7895127],[-80.1888281,25.7895147],[-80.1889224,25.7895129],[-80.1896038,25.7894977],[-80.1902853,25.7894825],[-80.1905944,25.7894829],[-80.1907935,25.7894807],[-80.1918808,25.7894474],[-80.192133,25.7894319],[-80.1923151,25.7894268],[-80.1929506,25.7894055],[-80.193008,25.7894034]]}},{"type":"Feature","properties":{"way_id":907910071,"route_colors":["#005cab"],"route_refs":["1"]},"geometry":{"type":"LineString","coordinates":[[-80.193008,25.7894034],[-80.1932152,25.7893969],[-80.1932899,25.7893946]]}}]}