{"type":"FeatureCollection","metro_system":{"continent":"europe","country":"Denmark","city":"Aarhus","official_website":null,"official_map":"https://da.wikipedia.org/wiki/Midttrafik","wikipedia":"da:Midttrafik","line_count":3,"segment_count":6,"station_count":50,"modes":["tram"],"audit":{"strategies_tried":[],"passed":true,"checks":[{"id":"has_lines","ok":true,"detail":"3 lines","level":"error"},{"id":"has_stations","ok":true,"detail":"50 stations","level":"error"},{"id":"stations_have_lines","ok":true,"detail":"50/50 站皆有所屬路線","level":"error"},{"id":"line_geometry_stations","ok":true,"detail":"56 個折點/端點皆為車站","level":"error"},{"id":"route_stations_match_geometry","ok":true,"detail":"各線車站列表與圖面一致","level":"error"},{"id":"interchange_rule","ok":true,"detail":"所有車站紅/藍點符合骨架＋路線色規則（藍＝端點、紅＝交叉）","level":"error"},{"id":"stations_named","ok":true,"detail":"50/50 站皆有名稱","level":"error"},{"id":"station_order","ok":true,"detail":"所有線路站序合理","level":"warn"},{"id":"line_wiki_stations","ok":true,"detail":"各線站數與 wiki 線路條目相符（營運中站數）","level":"error"},{"id":"line_wiki_coverage","ok":false,"detail":"3 條線無 wiki 站數對照：Light rail L2、Light rail L2、Light rail L1","level":"warn"}],"reasons":[],"warnings":["3 條線無 wiki 站數對照：Light rail L2、Light rail L2、Light rail L1"],"audited_at":"2026-07-27T02:39:14.727Z"}},"features":[{"type":"Feature","properties":{"seg_id":"aarhus-0","routes":[{"route_id":"rm14973319","route_name":"Light rail L2","route_name_local":"Light rail L2","route_name_en":null,"route_ref":"L2","route_color":"#30556e","wikipedia":"da:Midttrafik","osm_route_ids":[7463675,8603279,14973318],"status":null,"order_suspect":0,"span_suspect":0,"stations":[{"station_id":"n5436525457","station_name":"Lystrup"},{"station_id":"n5024239487","station_name":"Nye"},{"station_id":"n5024239491","station_name":"Lisbjerg-Terp"},{"station_id":"n5024239502","station_name":"Lisbjerg Bygade"},{"station_id":"n5024239509","station_name":"Klokhøjen"},{"station_id":"n5024239512","station_name":"Humlehuse"},{"station_id":"n3897934661","station_name":"Gl. Skejby"},{"station_id":"n5021370122","station_name":"Universitetshospitalet"},{"station_id":"n4993785976","station_name":"Olof Palmes Allé"},{"station_id":"n4993785982","station_name":"Nehrus Allé"},{"station_id":"n4996011873","station_name":"Vandtårnet (Ringvejen)"},{"station_id":"n4993785988","station_name":"Stockholmsgade"},{"station_id":"n4993786002","station_name":"Stjernepladsen"},{"station_id":"n4993786011","station_name":"Aarhus Universitet (Ringgaden)"},{"station_id":"n4993786132","station_name":"Universitetsparken"},{"station_id":"n4993786148","station_name":"Nørreport"},{"station_id":"n4993786141","station_name":"Skolebakken"},{"station_id":"n5029098966","station_name":"Dokk1"},{"station_id":"n5026477716","station_name":"Aarhus H"},{"station_id":"n827958697","station_name":"Kongsvang"},{"station_id":"n509747896","station_name":"Viby J"},{"station_id":"n671925390","station_name":"Rosenhøj"},{"station_id":"n5033267073","station_name":"Øllegårdsvej"},{"station_id":"n5033266758","station_name":"G. Clausens Vej"},{"station_id":"n5033266638","station_name":"Tranbjerg"},{"station_id":"n5033266540","station_name":"Nørrevænget"},{"station_id":"n5033266492","station_name":"Mølleparken"},{"station_id":"n5033266431","station_name":"Mårslet"},{"station_id":"n5033266401","station_name":"Vilhelmsborg"},{"station_id":"n5033266364","station_name":"Beder"},{"station_id":"n5033266276","station_name":"Malling"},{"station_id":"n2194284135","station_name":"Assedrup"},{"station_id":"n5033265307","station_name":"Rude Havvej"},{"station_id":"n5033319205","station_name":"Odder"}]}],"route_count":1,"route_refs":["L2"],"route_colors":["#30556e"],"city":"Aarhus","country":"Denmark"},"geometry":{"type":"MultiLineString","coordinates":[[[10.234840625,56.230905275],[10.2006402,56.227246666666666],[10.174097966666666,56.21948113333334],[10.164639866666667,56.2167379]]]}},{"type":"Feature","properties":{"seg_id":"aarhus-1","routes":[{"route_id":"rm14973319","route_name":"Light rail L2","route_name_local":"Light rail L2","route_name_en":null,"route_ref":"L2","route_color":"#30556e","wikipedia":"da:Midttrafik","osm_route_ids":[7463675,8603279,14973318],"status":null,"order_suspect":0,"span_suspect":0,"stations":[{"station_id":"n5436525457","station_name":"Lystrup"},{"station_id":"n5024239487","station_name":"Nye"},{"station_id":"n5024239491","station_name":"Lisbjerg-Terp"},{"station_id":"n5024239502","station_name":"Lisbjerg Bygade"},{"station_id":"n5024239509","station_name":"Klokhøjen"},{"station_id":"n5024239512","station_name":"Humlehuse"},{"station_id":"n3897934661","station_name":"Gl. Skejby"},{"station_id":"n5021370122","station_name":"Universitetshospitalet"},{"station_id":"n4993785976","station_name":"Olof Palmes Allé"},{"station_id":"n4993785982","station_name":"Nehrus Allé"},{"station_id":"n4996011873","station_name":"Vandtårnet (Ringvejen)"},{"station_id":"n4993785988","station_name":"Stockholmsgade"},{"station_id":"n4993786002","station_name":"Stjernepladsen"},{"station_id":"n4993786011","station_name":"Aarhus Universitet (Ringgaden)"},{"station_id":"n4993786132","station_name":"Universitetsparken"},{"station_id":"n4993786148","station_name":"Nørreport"},{"station_id":"n4993786141","station_name":"Skolebakken"},{"station_id":"n5029098966","station_name":"Dokk1"},{"station_id":"n5026477716","station_name":"Aarhus H"},{"station_id":"n827958697","station_name":"Kongsvang"},{"station_id":"n509747896","station_name":"Viby J"},{"station_id":"n671925390","station_name":"Rosenhøj"},{"station_id":"n5033267073","station_name":"Øllegårdsvej"},{"station_id":"n5033266758","station_name":"G. Clausens Vej"},{"station_id":"n5033266638","station_name":"Tranbjerg"},{"station_id":"n5033266540","station_name":"Nørrevænget"},{"station_id":"n5033266492","station_name":"Mølleparken"},{"station_id":"n5033266431","station_name":"Mårslet"},{"station_id":"n5033266401","station_name":"Vilhelmsborg"},{"station_id":"n5033266364","station_name":"Beder"},{"station_id":"n5033266276","station_name":"Malling"},{"station_id":"n2194284135","station_name":"Assedrup"},{"station_id":"n5033265307","station_name":"Rude Havvej"},{"station_id":"n5033319205","station_name":"Odder"}]},{"route_id":"r14973317","route_name":"Light rail L2","route_name_local":"Light rail L2","route_name_en":null,"route_ref":"L2","route_color":"#30556e","wikipedia":"da:Midttrafik","osm_route_ids":[14973317],"status":null,"order_suspect":0,"span_suspect":0,"stations":[{"station_id":"n5033319205","station_name":"Odder"},{"station_id":"n5033265307","station_name":"Rude Havvej"},{"station_id":"n2194284135","station_name":"Assedrup"},{"station_id":"n5033266276","station_name":"Malling"},{"station_id":"n5033266364","station_name":"Beder"},{"station_id":"n5033266401","station_name":"Vilhelmsborg"},{"station_id":"n5033266431","station_name":"Mårslet"},{"station_id":"n5033266492","station_name":"Mølleparken"},{"station_id":"n5033266540","station_name":"Nørrevænget"},{"station_id":"n5033266638","station_name":"Tranbjerg"},{"station_id":"n5033266758","station_name":"G. Clausens Vej"},{"station_id":"n5033267073","station_name":"Øllegårdsvej"},{"station_id":"n671925390","station_name":"Rosenhøj"},{"station_id":"n509747896","station_name":"Viby J"},{"station_id":"n827958697","station_name":"Kongsvang"},{"station_id":"n5026477716","station_name":"Aarhus H"},{"station_id":"n5029098966","station_name":"Dokk1"},{"station_id":"n4993786141","station_name":"Skolebakken"},{"station_id":"n4993786148","station_name":"Nørreport"},{"station_id":"n4993786132","station_name":"Universitetsparken"},{"station_id":"n4993786011","station_name":"Aarhus Universitet (Ringgaden)"},{"station_id":"n4993786002","station_name":"Stjernepladsen"},{"station_id":"n4993785988","station_name":"Stockholmsgade"},{"station_id":"n4996011873","station_name":"Vandtårnet (Ringvejen)"},{"station_id":"n4993785982","station_name":"Nehrus Allé"},{"station_id":"n4993785976","station_name":"Olof Palmes Allé"},{"station_id":"n5021370122","station_name":"Universitetshospitalet"},{"station_id":"n3897934661","station_name":"Gl. Skejby"},{"station_id":"n5024239512","station_name":"Humlehuse"},{"station_id":"n5024239509","station_name":"Klokhøjen"},{"station_id":"n5024239502","station_name":"Lisbjerg Bygade"},{"station_id":"n5024239500","station_name":"Lisbjergskolen"}]}],"route_count":2,"route_refs":["L2","L2"],"route_colors":["#30556e","#30556e"],"city":"Aarhus","country":"Denmark"},"geometry":{"type":"MultiLineString","coordinates":[[[10.164639866666667,56.2167379],[10.163767700000001,56.21236046666667],[10.1662621,56.20341616666667],[10.1686503,56.197578899999996],[10.176368825,56.192486075000005],[10.1839403,56.18968655],[10.19340205,56.18649205],[10.1973305,56.182498100000004],[10.20021785,56.17837],[10.2031606,56.17390455],[10.204600200000002,56.17168305],[10.2076601,56.1670556],[10.21157015,56.161592],[10.21312085,56.1571461]]]}},{"type":"Feature","properties":{"seg_id":"aarhus-2","routes":[{"route_id":"rm14973319","route_name":"Light rail L2","route_name_local":"Light rail L2","route_name_en":null,"route_ref":"L2","route_color":"#30556e","wikipedia":"da:Midttrafik","osm_route_ids":[7463675,8603279,14973318],"status":null,"order_suspect":0,"span_suspect":0,"stations":[{"station_id":"n5436525457","station_name":"Lystrup"},{"station_id":"n5024239487","station_name":"Nye"},{"station_id":"n5024239491","station_name":"Lisbjerg-Terp"},{"station_id":"n5024239502","station_name":"Lisbjerg Bygade"},{"station_id":"n5024239509","station_name":"Klokhøjen"},{"station_id":"n5024239512","station_name":"Humlehuse"},{"station_id":"n3897934661","station_name":"Gl. Skejby"},{"station_id":"n5021370122","station_name":"Universitetshospitalet"},{"station_id":"n4993785976","station_name":"Olof Palmes Allé"},{"station_id":"n4993785982","station_name":"Nehrus Allé"},{"station_id":"n4996011873","station_name":"Vandtårnet (Ringvejen)"},{"station_id":"n4993785988","station_name":"Stockholmsgade"},{"station_id":"n4993786002","station_name":"Stjernepladsen"},{"station_id":"n4993786011","station_name":"Aarhus Universitet (Ringgaden)"},{"station_id":"n4993786132","station_name":"Universitetsparken"},{"station_id":"n4993786148","station_name":"Nørreport"},{"station_id":"n4993786141","station_name":"Skolebakken"},{"station_id":"n5029098966","station_name":"Dokk1"},{"station_id":"n5026477716","station_name":"Aarhus H"},{"station_id":"n827958697","station_name":"Kongsvang"},{"station_id":"n509747896","station_name":"Viby J"},{"station_id":"n671925390","station_name":"Rosenhøj"},{"station_id":"n5033267073","station_name":"Øllegårdsvej"},{"station_id":"n5033266758","station_name":"G. Clausens Vej"},{"station_id":"n5033266638","station_name":"Tranbjerg"},{"station_id":"n5033266540","station_name":"Nørrevænget"},{"station_id":"n5033266492","station_name":"Mølleparken"},{"station_id":"n5033266431","station_name":"Mårslet"},{"station_id":"n5033266401","station_name":"Vilhelmsborg"},{"station_id":"n5033266364","station_name":"Beder"},{"station_id":"n5033266276","station_name":"Malling"},{"station_id":"n2194284135","station_name":"Assedrup"},{"station_id":"n5033265307","station_name":"Rude Havvej"},{"station_id":"n5033319205","station_name":"Odder"}]},{"route_id":"r14973317","route_name":"Light rail L2","route_name_local":"Light rail L2","route_name_en":null,"route_ref":"L2","route_color":"#30556e","wikipedia":"da:Midttrafik","osm_route_ids":[14973317],"status":null,"order_suspect":0,"span_suspect":0,"stations":[{"station_id":"n5033319205","station_name":"Odder"},{"station_id":"n5033265307","station_name":"Rude Havvej"},{"station_id":"n2194284135","station_name":"Assedrup"},{"station_id":"n5033266276","station_name":"Malling"},{"station_id":"n5033266364","station_name":"Beder"},{"station_id":"n5033266401","station_name":"Vilhelmsborg"},{"station_id":"n5033266431","station_name":"Mårslet"},{"station_id":"n5033266492","station_name":"Mølleparken"},{"station_id":"n5033266540","station_name":"Nørrevænget"},{"station_id":"n5033266638","station_name":"Tranbjerg"},{"station_id":"n5033266758","station_name":"G. Clausens Vej"},{"station_id":"n5033267073","station_name":"Øllegårdsvej"},{"station_id":"n671925390","station_name":"Rosenhøj"},{"station_id":"n509747896","station_name":"Viby J"},{"station_id":"n827958697","station_name":"Kongsvang"},{"station_id":"n5026477716","station_name":"Aarhus H"},{"station_id":"n5029098966","station_name":"Dokk1"},{"station_id":"n4993786141","station_name":"Skolebakken"},{"station_id":"n4993786148","station_name":"Nørreport"},{"station_id":"n4993786132","station_name":"Universitetsparken"},{"station_id":"n4993786011","station_name":"Aarhus Universitet (Ringgaden)"},{"station_id":"n4993786002","station_name":"Stjernepladsen"},{"station_id":"n4993785988","station_name":"Stockholmsgade"},{"station_id":"n4996011873","station_name":"Vandtårnet (Ringvejen)"},{"station_id":"n4993785982","station_name":"Nehrus Allé"},{"station_id":"n4993785976","station_name":"Olof Palmes Allé"},{"station_id":"n5021370122","station_name":"Universitetshospitalet"},{"station_id":"n3897934661","station_name":"Gl. Skejby"},{"station_id":"n5024239512","station_name":"Humlehuse"},{"station_id":"n5024239509","station_name":"Klokhøjen"},{"station_id":"n5024239502","station_name":"Lisbjerg Bygade"},{"station_id":"n5024239500","station_name":"Lisbjergskolen"}]}],"route_count":2,"route_refs":["L2","L2"],"route_colors":["#30556e","#30556e"],"city":"Aarhus","country":"Denmark"},"geometry":{"type":"MultiLineString","coordinates":[[[10.203947566666667,56.150060499999995],[10.1742101,56.135376449999995],[10.1598843,56.121904],[10.14718205,56.11699075],[10.1338255,56.11460563333333],[10.125809400000001,56.11149016666667],[10.1358246,56.096576999999996],[10.1512014,56.0921794],[10.1544287,56.072554350000004],[10.1642908,56.068775566666666],[10.1789691,56.06403856666666],[10.1981712,56.05691335],[10.191244466666667,56.03766653333333],[10.182596233333333,56.00400033333333],[10.1541766,55.98344666666667],[10.150506166666666,55.97183326666667]]]}},{"type":"Feature","properties":{"seg_id":"aarhus-3","routes":[{"route_id":"rm14973319","route_name":"Light rail L2","route_name_local":"Light rail L2","route_name_en":null,"route_ref":"L2","route_color":"#30556e","wikipedia":"da:Midttrafik","osm_route_ids":[7463675,8603279,14973318],"status":null,"order_suspect":0,"span_suspect":0,"stations":[{"station_id":"n5436525457","station_name":"Lystrup"},{"station_id":"n5024239487","station_name":"Nye"},{"station_id":"n5024239491","station_name":"Lisbjerg-Terp"},{"station_id":"n5024239502","station_name":"Lisbjerg Bygade"},{"station_id":"n5024239509","station_name":"Klokhøjen"},{"station_id":"n5024239512","station_name":"Humlehuse"},{"station_id":"n3897934661","station_name":"Gl. Skejby"},{"station_id":"n5021370122","station_name":"Universitetshospitalet"},{"station_id":"n4993785976","station_name":"Olof Palmes Allé"},{"station_id":"n4993785982","station_name":"Nehrus Allé"},{"station_id":"n4996011873","station_name":"Vandtårnet (Ringvejen)"},{"station_id":"n4993785988","station_name":"Stockholmsgade"},{"station_id":"n4993786002","station_name":"Stjernepladsen"},{"station_id":"n4993786011","station_name":"Aarhus Universitet (Ringgaden)"},{"station_id":"n4993786132","station_name":"Universitetsparken"},{"station_id":"n4993786148","station_name":"Nørreport"},{"station_id":"n4993786141","station_name":"Skolebakken"},{"station_id":"n5029098966","station_name":"Dokk1"},{"station_id":"n5026477716","station_name":"Aarhus H"},{"station_id":"n827958697","station_name":"Kongsvang"},{"station_id":"n509747896","station_name":"Viby J"},{"station_id":"n671925390","station_name":"Rosenhøj"},{"station_id":"n5033267073","station_name":"Øllegårdsvej"},{"station_id":"n5033266758","station_name":"G. Clausens Vej"},{"station_id":"n5033266638","station_name":"Tranbjerg"},{"station_id":"n5033266540","station_name":"Nørrevænget"},{"station_id":"n5033266492","station_name":"Mølleparken"},{"station_id":"n5033266431","station_name":"Mårslet"},{"station_id":"n5033266401","station_name":"Vilhelmsborg"},{"station_id":"n5033266364","station_name":"Beder"},{"station_id":"n5033266276","station_name":"Malling"},{"station_id":"n2194284135","station_name":"Assedrup"},{"station_id":"n5033265307","station_name":"Rude Havvej"},{"station_id":"n5033319205","station_name":"Odder"}]},{"route_id":"r14973317","route_name":"Light rail L2","route_name_local":"Light rail L2","route_name_en":null,"route_ref":"L2","route_color":"#30556e","wikipedia":"da:Midttrafik","osm_route_ids":[14973317],"status":null,"order_suspect":0,"span_suspect":0,"stations":[{"station_id":"n5033319205","station_name":"Odder"},{"station_id":"n5033265307","station_name":"Rude Havvej"},{"station_id":"n2194284135","station_name":"Assedrup"},{"station_id":"n5033266276","station_name":"Malling"},{"station_id":"n5033266364","station_name":"Beder"},{"station_id":"n5033266401","station_name":"Vilhelmsborg"},{"station_id":"n5033266431","station_name":"Mårslet"},{"station_id":"n5033266492","station_name":"Mølleparken"},{"station_id":"n5033266540","station_name":"Nørrevænget"},{"station_id":"n5033266638","station_name":"Tranbjerg"},{"station_id":"n5033266758","station_name":"G. Clausens Vej"},{"station_id":"n5033267073","station_name":"Øllegårdsvej"},{"station_id":"n671925390","station_name":"Rosenhøj"},{"station_id":"n509747896","station_name":"Viby J"},{"station_id":"n827958697","station_name":"Kongsvang"},{"station_id":"n5026477716","station_name":"Aarhus H"},{"station_id":"n5029098966","station_name":"Dokk1"},{"station_id":"n4993786141","station_name":"Skolebakken"},{"station_id":"n4993786148","station_name":"Nørreport"},{"station_id":"n4993786132","station_name":"Universitetsparken"},{"station_id":"n4993786011","station_name":"Aarhus Universitet (Ringgaden)"},{"station_id":"n4993786002","station_name":"Stjernepladsen"},{"station_id":"n4993785988","station_name":"Stockholmsgade"},{"station_id":"n4996011873","station_name":"Vandtårnet (Ringvejen)"},{"station_id":"n4993785982","station_name":"Nehrus Allé"},{"station_id":"n4993785976","station_name":"Olof Palmes Allé"},{"station_id":"n5021370122","station_name":"Universitetshospitalet"},{"station_id":"n3897934661","station_name":"Gl. Skejby"},{"station_id":"n5024239512","station_name":"Humlehuse"},{"station_id":"n5024239509","station_name":"Klokhøjen"},{"station_id":"n5024239502","station_name":"Lisbjerg Bygade"},{"station_id":"n5024239500","station_name":"Lisbjergskolen"}]},{"route_id":"rm14942883","route_name":"Light rail L1","route_name_local":"Light rail L1","route_name_en":null,"route_ref":"L1","route_color":"#30556e","wikipedia":"da:Midttrafik","osm_route_ids":[9907095,9907096],"status":null,"order_suspect":0,"span_suspect":0,"stations":[{"station_id":"n2344240467","station_name":"Grenaa"},{"station_id":"n5987803691","station_name":"Hessel"},{"station_id":"n5987802727","station_name":"Trustrup"},{"station_id":"n5438628964","station_name":"Kolind"},{"station_id":"n5987803436","station_name":"Ryomgård"},{"station_id":"n370384055","station_name":"Thorsager"},{"station_id":"n5438482938","station_name":"Mørke"},{"station_id":"n5438483070","station_name":"Hornslet"},{"station_id":"n5438483215","station_name":"Løgten"},{"station_id":"n5438483255","station_name":"Skødstrup"},{"station_id":"n5438483299","station_name":"Hjortshøj"},{"station_id":"n5436525457","station_name":"Lystrup"},{"station_id":"n5051758670","station_name":"Torsøvej"},{"station_id":"n5051758822","station_name":"Vestre Strandalle"},{"station_id":"n7892844299","station_name":"Risskov Strandpark"},{"station_id":"n358175143","station_name":"Østbanetorvet"},{"station_id":"junc:10.21444:56.15980","station_name":""},{"station_id":"n4993786141","station_name":"Skolebakken"},{"station_id":"n5029098966","station_name":"Dokk1"},{"station_id":"n5026477716","station_name":"Aarhus H"}]}],"route_count":3,"route_refs":["L2","L2","L1"],"route_colors":["#30556e","#30556e","#30556e"],"city":"Aarhus","country":"Denmark"},"geometry":{"type":"MultiLineString","coordinates":[[[10.21312085,56.1571461],[10.212975766666666,56.154146266666665],[10.203947566666667,56.150060499999995]]]}},{"type":"Feature","properties":{"seg_id":"aarhus-4","routes":[{"route_id":"r14973317","route_name":"Light rail L2","route_name_local":"Light rail L2","route_name_en":null,"route_ref":"L2","route_color":"#30556e","wikipedia":"da:Midttrafik","osm_route_ids":[14973317],"status":null,"order_suspect":0,"span_suspect":0,"stations":[{"station_id":"n5033319205","station_name":"Odder"},{"station_id":"n5033265307","station_name":"Rude Havvej"},{"station_id":"n2194284135","station_name":"Assedrup"},{"station_id":"n5033266276","station_name":"Malling"},{"station_id":"n5033266364","station_name":"Beder"},{"station_id":"n5033266401","station_name":"Vilhelmsborg"},{"station_id":"n5033266431","station_name":"Mårslet"},{"station_id":"n5033266492","station_name":"Mølleparken"},{"station_id":"n5033266540","station_name":"Nørrevænget"},{"station_id":"n5033266638","station_name":"Tranbjerg"},{"station_id":"n5033266758","station_name":"G. Clausens Vej"},{"station_id":"n5033267073","station_name":"Øllegårdsvej"},{"station_id":"n671925390","station_name":"Rosenhøj"},{"station_id":"n509747896","station_name":"Viby J"},{"station_id":"n827958697","station_name":"Kongsvang"},{"station_id":"n5026477716","station_name":"Aarhus H"},{"station_id":"n5029098966","station_name":"Dokk1"},{"station_id":"n4993786141","station_name":"Skolebakken"},{"station_id":"n4993786148","station_name":"Nørreport"},{"station_id":"n4993786132","station_name":"Universitetsparken"},{"station_id":"n4993786011","station_name":"Aarhus Universitet (Ringgaden)"},{"station_id":"n4993786002","station_name":"Stjernepladsen"},{"station_id":"n4993785988","station_name":"Stockholmsgade"},{"station_id":"n4996011873","station_name":"Vandtårnet (Ringvejen)"},{"station_id":"n4993785982","station_name":"Nehrus Allé"},{"station_id":"n4993785976","station_name":"Olof Palmes Allé"},{"station_id":"n5021370122","station_name":"Universitetshospitalet"},{"station_id":"n3897934661","station_name":"Gl. Skejby"},{"station_id":"n5024239512","station_name":"Humlehuse"},{"station_id":"n5024239509","station_name":"Klokhøjen"},{"station_id":"n5024239502","station_name":"Lisbjerg Bygade"},{"station_id":"n5024239500","station_name":"Lisbjergskolen"}]}],"route_count":1,"route_refs":["L2"],"route_colors":["#30556e"],"city":"Aarhus","country":"Denmark"},"geometry":{"type":"MultiLineString","coordinates":[[[10.164639866666667,56.2167379],[10.156987,56.2180673]]]}},{"type":"Feature","properties":{"seg_id":"aarhus-5","routes":[{"route_id":"rm14942883","route_name":"Light rail L1","route_name_local":"Light rail L1","route_name_en":null,"route_ref":"L1","route_color":"#30556e","wikipedia":"da:Midttrafik","osm_route_ids":[9907095,9907096],"status":null,"order_suspect":0,"span_suspect":0,"stations":[{"station_id":"n2344240467","station_name":"Grenaa"},{"station_id":"n5987803691","station_name":"Hessel"},{"station_id":"n5987802727","station_name":"Trustrup"},{"station_id":"n5438628964","station_name":"Kolind"},{"station_id":"n5987803436","station_name":"Ryomgård"},{"station_id":"n370384055","station_name":"Thorsager"},{"station_id":"n5438482938","station_name":"Mørke"},{"station_id":"n5438483070","station_name":"Hornslet"},{"station_id":"n5438483215","station_name":"Løgten"},{"station_id":"n5438483255","station_name":"Skødstrup"},{"station_id":"n5438483299","station_name":"Hjortshøj"},{"station_id":"n5436525457","station_name":"Lystrup"},{"station_id":"n5051758670","station_name":"Torsøvej"},{"station_id":"n5051758822","station_name":"Vestre Strandalle"},{"station_id":"n7892844299","station_name":"Risskov Strandpark"},{"station_id":"n358175143","station_name":"Østbanetorvet"},{"station_id":"junc:10.21444:56.15980","station_name":""},{"station_id":"n4993786141","station_name":"Skolebakken"},{"station_id":"n5029098966","station_name":"Dokk1"},{"station_id":"n5026477716","station_name":"Aarhus H"}]}],"route_count":1,"route_refs":["L1"],"route_colors":["#30556e"],"city":"Aarhus","country":"Denmark"},"geometry":{"type":"MultiLineString","coordinates":[[[10.8804542,56.41273903333333],[10.8720873,56.3900084],[10.771596233333334,56.350725399999995],[10.5875252,56.3629002],[10.500555866666666,56.3800312],[10.447925399999999,56.356073800000004],[10.3760058,56.33934055],[10.313637633333334,56.320540333333334],[10.317475199999999,56.27589096666666],[10.303141666666667,56.2618625],[10.269034566666667,56.24481169999999],[10.234840625,56.230905275],[10.228489133333333,56.205480466666664],[10.2368262,56.1949777],[10.23706655,56.184368649999996],[10.2163979,56.16289810000001],[10.214444,56.1598029],[10.21312085,56.1571461]]]}},{"type":"Feature","properties":{"station_id":"n358175143","station_name":"Østbanetorvet","station_name_local":"Østbanetorvet","station_name_en":null,"city":"Aarhus","country":"Denmark","lines":["L1"],"wikipedia":null,"merged_from":2,"merged_names":null,"is_terminus":false,"codes":["860014801","860014802"],"routes":[{"ref":"L1","name":"Light rail L1","route_color":"#30556e"}],"pass_count":1,"station_degree":2,"is_interchange":false,"station_role":"normal"},"geometry":{"type":"Point","coordinates":[10.2163979,56.16289810000001]},"__memberLines":{}},{"type":"Feature","properties":{"station_id":"n370384055","station_name":"Thorsager","station_name_local":"Thorsager","station_name_en":null,"city":"Aarhus","country":"Denmark","lines":["L1"],"wikipedia":null,"merged_from":2,"merged_names":null,"is_terminus":false,"codes":["860015801"],"routes":[{"ref":"L1","name":"Light rail L1","route_color":"#30556e"}],"pass_count":1,"station_degree":2,"is_interchange":false,"station_role":"normal"},"geometry":{"type":"Point","coordinates":[10.447925399999999,56.356073800000004]},"__memberLines":{}},{"type":"Feature","properties":{"station_id":"n509747896","station_name":"Viby J","station_name_local":"Viby J","station_name_en":null,"city":"Aarhus","country":"Denmark","lines":["L2"],"wikipedia":null,"merged_from":3,"merged_names":null,"is_terminus":false,"codes":["860152501","860152502"],"routes":[{"ref":"L2","name":"Light rail L2","route_color":"#30556e"}],"pass_count":2,"station_degree":2,"is_interchange":false,"station_role":"normal"},"geometry":{"type":"Point","coordinates":[10.1598843,56.121904]},"__memberLines":{}},{"type":"Feature","properties":{"station_id":"n671925390","station_name":"Rosenhøj","station_name_local":"Rosenhøj","station_name_en":null,"city":"Aarhus","country":"Denmark","lines":["L2"],"wikipedia":null,"merged_from":2,"merged_names":null,"is_terminus":false,"codes":["860152101"],"routes":[{"ref":"L2","name":"Light rail L2","route_color":"#30556e"}],"pass_count":2,"station_degree":2,"is_interchange":false,"station_role":"normal"},"geometry":{"type":"Point","coordinates":[10.14718205,56.11699075]},"__memberLines":{}},{"type":"Feature","properties":{"station_id":"n827958697","station_name":"Kongsvang","station_name_local":"Kongsvang","station_name_en":null,"city":"Aarhus","country":"Denmark","lines":["L2"],"wikipedia":null,"merged_from":2,"merged_names":null,"is_terminus":false,"codes":["860151201"],"routes":[{"ref":"L2","name":"Light rail L2","route_color":"#30556e"}],"pass_count":2,"station_degree":2,"is_interchange":false,"station_role":"normal"},"geometry":{"type":"Point","coordinates":[10.1742101,56.135376449999995]},"__memberLines":{}},{"type":"Feature","properties":{"station_id":"n2194284135","station_name":"Assedrup","station_name_local":"Assedrup","station_name_en":null,"city":"Aarhus","country":"Denmark","lines":["L2"],"wikipedia":null,"merged_from":3,"merged_names":null,"is_terminus":false,"codes":["860150101","860150102"],"routes":[{"ref":"L2","name":"Light rail L2","route_color":"#30556e"}],"pass_count":2,"station_degree":2,"is_interchange":false,"station_role":"normal"},"geometry":{"type":"Point","coordinates":[10.182596233333333,56.00400033333333]},"__memberLines":{}},{"type":"Feature","properties":{"station_id":"n2344240467","station_name":"Grenaa","station_name_local":"Grenaa","station_name_en":null,"city":"Aarhus","country":"Denmark","lines":["L1"],"wikipedia":null,"merged_from":3,"merged_names":null,"is_terminus":true,"codes":["860016502","860016503"],"routes":[{"ref":"L1","name":"Light rail L1","route_color":"#30556e"}],"pass_count":1,"station_degree":1,"is_interchange":false,"station_role":"terminus"},"geometry":{"type":"Point","coordinates":[10.8804542,56.41273903333333]},"__memberLines":{}},{"type":"Feature","properties":{"station_id":"n3897934661","station_name":"Gl. Skejby","station_name_local":"Gl. Skejby","station_name_en":null,"city":"Aarhus","country":"Denmark","lines":["L2"],"wikipedia":null,"merged_from":3,"merged_names":null,"is_terminus":false,"codes":["860431201","860431202"],"routes":[{"ref":"L2","name":"Light rail L2","route_color":"#30556e"}],"pass_count":2,"station_degree":2,"is_interchange":false,"station_role":"normal"},"geometry":{"type":"Point","coordinates":[10.1686503,56.197578899999996]},"__memberLines":{}},{"type":"Feature","properties":{"station_id":"n5021370122","station_name":"Universitetshospitalet","station_name_local":"Universitetshospitalet","station_name_en":null,"city":"Aarhus","country":"Denmark","lines":["L2"],"wikipedia":null,"merged_from":4,"merged_names":null,"is_terminus":false,"codes":["860431101","860431102","860431103"],"routes":[{"ref":"L2","name":"Light rail L2","route_color":"#30556e"}],"pass_count":2,"station_degree":2,"is_interchange":false,"station_role":"normal"},"geometry":{"type":"Point","coordinates":[10.176368825,56.192486075000005]},"__memberLines":{}},{"type":"Feature","properties":{"station_id":"n4993785976","station_name":"Olof Palmes Allé","station_name_local":"Olof Palmes Allé","station_name_en":null,"city":"Aarhus","country":"Denmark","lines":["L2"],"wikipedia":null,"merged_from":2,"merged_names":null,"is_terminus":false,"codes":["860431001","860431002"],"routes":[{"ref":"L2","name":"Light rail L2","route_color":"#30556e"}],"pass_count":2,"station_degree":2,"is_interchange":false,"station_role":"normal"},"geometry":{"type":"Point","coordinates":[10.1839403,56.18968655]},"__memberLines":{}},{"type":"Feature","properties":{"station_id":"n4993785982","station_name":"Nehrus Allé","station_name_local":"Nehrus Allé","station_name_en":null,"city":"Aarhus","country":"Denmark","lines":["L2"],"wikipedia":null,"merged_from":2,"merged_names":null,"is_terminus":false,"codes":["860430901","860430902"],"routes":[{"ref":"L2","name":"Light rail L2","route_color":"#30556e"}],"pass_count":2,"station_degree":2,"is_interchange":false,"station_role":"normal"},"geometry":{"type":"Point","coordinates":[10.19340205,56.18649205]},"__memberLines":{}},{"type":"Feature","properties":{"station_id":"n4993785988","station_name":"Stockholmsgade","station_name_local":"Stockholmsgade","station_name_en":null,"city":"Aarhus","country":"Denmark","lines":["L2"],"wikipedia":null,"merged_from":2,"merged_names":null,"is_terminus":false,"codes":["860430701","860430702"],"routes":[{"ref":"L2","name":"Light rail L2","route_color":"#30556e"}],"pass_count":2,"station_degree":2,"is_interchange":false,"station_role":"normal"},"geometry":{"type":"Point","coordinates":[10.20021785,56.17837]},"__memberLines":{}},{"type":"Feature","properties":{"station_id":"n4993786002","station_name":"Stjernepladsen","station_name_local":"Stjernepladsen","station_name_en":null,"city":"Aarhus","country":"Denmark","lines":["L2"],"wikipedia":null,"merged_from":2,"merged_names":null,"is_terminus":false,"codes":["860430601","860430602"],"routes":[{"ref":"L2","name":"Light rail L2","route_color":"#30556e"}],"pass_count":2,"station_degree":2,"is_interchange":false,"station_role":"normal"},"geometry":{"type":"Point","coordinates":[10.2031606,56.17390455]},"__memberLines":{}},{"type":"Feature","properties":{"station_id":"n4993786011","station_name":"Aarhus Universitet (Ringgaden)","station_name_local":"Aarhus Universitet (Ringgaden)","station_name_en":null,"city":"Aarhus","country":"Denmark","lines":["L2"],"wikipedia":null,"merged_from":2,"merged_names":null,"is_terminus":false,"codes":["860430501","860430502"],"routes":[{"ref":"L2","name":"Light rail L2","route_color":"#30556e"}],"pass_count":2,"station_degree":2,"is_interchange":false,"station_role":"normal"},"geometry":{"type":"Point","coordinates":[10.204600200000002,56.17168305]},"__memberLines":{}},{"type":"Feature","properties":{"station_id":"n4993786132","station_name":"Universitetsparken","station_name_local":"Universitetsparken","station_name_en":null,"city":"Aarhus","country":"Denmark","lines":["L2"],"wikipedia":"da:Universitetsparken Station","merged_from":2,"merged_names":null,"is_terminus":false,"codes":["860430401","860430402"],"routes":[{"ref":"L2","name":"Light rail L2","route_color":"#30556e"}],"pass_count":2,"station_degree":2,"is_interchange":false,"station_role":"normal"},"geometry":{"type":"Point","coordinates":[10.2076601,56.1670556]},"__memberLines":{}},{"type":"Feature","properties":{"station_id":"n4993786141","station_name":"Skolebakken","station_name_local":"Skolebakken","station_name_en":null,"city":"Aarhus","country":"Denmark","lines":["L1","L2"],"wikipedia":null,"merged_from":2,"merged_names":null,"is_terminus":false,"codes":["860012901","860012902"],"routes":[{"ref":"L1","name":"Light rail L1","route_color":"#30556e"},{"ref":"L2","name":"Light rail L2","route_color":"#30556e"}],"pass_count":3,"station_degree":3,"is_interchange":true,"station_role":"interchange"},"geometry":{"type":"Point","coordinates":[10.21312085,56.1571461]},"__memberLines":{}},{"type":"Feature","properties":{"station_id":"n4993786148","station_name":"Nørreport","station_name_local":"Nørreport","station_name_en":null,"city":"Aarhus","country":"Denmark","lines":["L2"],"wikipedia":null,"merged_from":2,"merged_names":null,"is_terminus":false,"codes":["860430301","860430302"],"routes":[{"ref":"L2","name":"Light rail L2","route_color":"#30556e"}],"pass_count":2,"station_degree":2,"is_interchange":false,"station_role":"normal"},"geometry":{"type":"Point","coordinates":[10.21157015,56.161592]},"__memberLines":{}},{"type":"Feature","properties":{"station_id":"n4996011873","station_name":"Vandtårnet (Ringvejen)","station_name_local":"Vandtårnet (Ringvejen)","station_name_en":null,"city":"Aarhus","country":"Denmark","lines":["L2"],"wikipedia":null,"merged_from":2,"merged_names":null,"is_terminus":false,"codes":["860430801","860430802"],"routes":[{"ref":"L2","name":"Light rail L2","route_color":"#30556e"}],"pass_count":2,"station_degree":2,"is_interchange":false,"station_role":"normal"},"geometry":{"type":"Point","coordinates":[10.1973305,56.182498100000004]},"__memberLines":{}},{"type":"Feature","properties":{"station_id":"n5024239487","station_name":"Nye","station_name_local":"Nye","station_name_en":null,"city":"Aarhus","country":"Denmark","lines":["L2"],"wikipedia":null,"merged_from":3,"merged_names":null,"is_terminus":false,"codes":["860431801","860431802"],"routes":[{"ref":"L2","name":"Light rail L2","route_color":"#30556e"}],"pass_count":1,"station_degree":2,"is_interchange":false,"station_role":"normal"},"geometry":{"type":"Point","coordinates":[10.2006402,56.227246666666666]},"__memberLines":{}},{"type":"Feature","properties":{"station_id":"n5024239491","station_name":"Lisbjerg-Terp / Lisbjerg - Terp","station_name_local":"Lisbjerg-Terp / Lisbjerg - Terp","station_name_en":null,"city":"Aarhus","country":"Denmark","lines":["L2"],"wikipedia":null,"merged_from":3,"merged_names":[{"station_id":"n5024239491","station_name":"Lisbjerg-Terp","station_name_local":"Lisbjerg-Terp","lines":["L2"]},{"station_id":"n5024239490","station_name":"Lisbjerg - Terp","station_name_local":"Lisbjerg - Terp","lines":["L2"]}],"is_terminus":false,"codes":["860431701","860431702"],"routes":[{"ref":"L2","name":"Light rail L2","route_color":"#30556e"}],"pass_count":1,"station_degree":2,"is_interchange":false,"station_role":"normal"},"geometry":{"type":"Point","coordinates":[10.174097966666666,56.21948113333334]},"__memberLines":{}},{"type":"Feature","properties":{"station_id":"n5024239500","station_name":"Lisbjergskolen","station_name_local":"Lisbjergskolen","station_name_en":null,"city":"Aarhus","country":"Denmark","lines":["L2"],"wikipedia":null,"is_terminus":true,"codes":["860431601"],"routes":[{"ref":"L2","name":"Light rail L2","route_color":"#30556e"}],"pass_count":2,"station_degree":1,"merged_from":null,"merged_names":null,"is_interchange":false,"station_role":"terminus"},"geometry":{"type":"Point","coordinates":[10.156987,56.2180673]},"__memberLines":{}},{"type":"Feature","properties":{"station_id":"n5024239502","station_name":"Lisbjerg Bygade","station_name_local":"Lisbjerg Bygade","station_name_en":null,"city":"Aarhus","country":"Denmark","lines":["L2"],"wikipedia":null,"merged_from":3,"merged_names":null,"is_terminus":false,"codes":["860431501","860431502"],"routes":[{"ref":"L2","name":"Light rail L2","route_color":"#30556e"}],"pass_count":2,"station_degree":3,"is_interchange":true,"station_role":"interchange"},"geometry":{"type":"Point","coordinates":[10.164639866666667,56.2167379]},"__memberLines":{}},{"type":"Feature","properties":{"station_id":"n5024239509","station_name":"Klokhøjen","station_name_local":"Klokhøjen","station_name_en":null,"city":"Aarhus","country":"Denmark","lines":["L2"],"wikipedia":null,"merged_from":3,"merged_names":null,"is_terminus":false,"codes":["860431401","860431402"],"routes":[{"ref":"L2","name":"Light rail L2","route_color":"#30556e"}],"pass_count":2,"station_degree":2,"is_interchange":false,"station_role":"normal"},"geometry":{"type":"Point","coordinates":[10.163767700000001,56.21236046666667]},"__memberLines":{}},{"type":"Feature","properties":{"station_id":"n5024239512","station_name":"Humlehuse","station_name_local":"Humlehuse","station_name_en":null,"city":"Aarhus","country":"Denmark","lines":["L2"],"wikipedia":null,"merged_from":3,"merged_names":null,"is_terminus":false,"codes":["860431301","860431302"],"routes":[{"ref":"L2","name":"Light rail L2","route_color":"#30556e"}],"pass_count":2,"station_degree":2,"is_interchange":false,"station_role":"normal"},"geometry":{"type":"Point","coordinates":[10.1662621,56.20341616666667]},"__memberLines":{}},{"type":"Feature","properties":{"station_id":"n5026477716","station_name":"Aarhus H","station_name_local":"Aarhus H","station_name_en":null,"city":"Aarhus","country":"Denmark","lines":["L1","L2"],"wikipedia":null,"merged_from":3,"merged_names":null,"is_terminus":false,"codes":["860005300","860005301"],"routes":[{"ref":"L1","name":"Light rail L1","route_color":"#30556e"},{"ref":"L2","name":"Light rail L2","route_color":"#30556e"}],"pass_count":3,"station_degree":2,"is_interchange":false,"station_role":"normal"},"geometry":{"type":"Point","coordinates":[10.203947566666667,56.150060499999995]},"__memberLines":{}},{"type":"Feature","properties":{"station_id":"n5029098966","station_name":"Dokk1","station_name_local":"Dokk1","station_name_en":null,"city":"Aarhus","country":"Denmark","lines":["L1","L2"],"wikipedia":null,"merged_from":3,"merged_names":null,"is_terminus":false,"codes":["860430201","860430202"],"routes":[{"ref":"L1","name":"Light rail L1","route_color":"#30556e"},{"ref":"L2","name":"Light rail L2","route_color":"#30556e"}],"pass_count":3,"station_degree":2,"is_interchange":false,"station_role":"normal"},"geometry":{"type":"Point","coordinates":[10.212975766666666,56.154146266666665]},"__memberLines":{}},{"type":"Feature","properties":{"station_id":"n5033265307","station_name":"Rude Havvej","station_name_local":"Rude Havvej","station_name_en":null,"city":"Aarhus","country":"Denmark","lines":["L2"],"wikipedia":null,"merged_from":3,"merged_names":null,"is_terminus":false,"codes":["860152201","860152202"],"routes":[{"ref":"L2","name":"Light rail L2","route_color":"#30556e"}],"pass_count":2,"station_degree":2,"is_interchange":false,"station_role":"normal"},"geometry":{"type":"Point","coordinates":[10.1541766,55.98344666666667]},"__memberLines":{}},{"type":"Feature","properties":{"station_id":"n5033266276","station_name":"Malling","station_name_local":"Malling","station_name_en":null,"city":"Aarhus","country":"Denmark","lines":["L2"],"wikipedia":null,"merged_from":3,"merged_names":null,"is_terminus":false,"codes":["860151301","860151302"],"routes":[{"ref":"L2","name":"Light rail L2","route_color":"#30556e"}],"pass_count":2,"station_degree":2,"is_interchange":false,"station_role":"normal"},"geometry":{"type":"Point","coordinates":[10.191244466666667,56.03766653333333]},"__memberLines":{}},{"type":"Feature","properties":{"station_id":"n5033266364","station_name":"Beder","station_name_local":"Beder","station_name_en":null,"city":"Aarhus","country":"Denmark","lines":["L2"],"wikipedia":null,"merged_from":2,"merged_names":null,"is_terminus":false,"codes":["860150301"],"routes":[{"ref":"L2","name":"Light rail L2","route_color":"#30556e"}],"pass_count":2,"station_degree":2,"is_interchange":false,"station_role":"normal"},"geometry":{"type":"Point","coordinates":[10.1981712,56.05691335]},"__memberLines":{}},{"type":"Feature","properties":{"station_id":"n5033266401","station_name":"Vilhelmsborg","station_name_local":"Vilhelmsborg","station_name_en":null,"city":"Aarhus","country":"Denmark","lines":["L2"],"wikipedia":null,"merged_from":3,"merged_names":null,"is_terminus":false,"codes":["860152601","860152602"],"routes":[{"ref":"L2","name":"Light rail L2","route_color":"#30556e"}],"pass_count":2,"station_degree":2,"is_interchange":false,"station_role":"normal"},"geometry":{"type":"Point","coordinates":[10.1789691,56.06403856666666]},"__memberLines":{}},{"type":"Feature","properties":{"station_id":"n5033266431","station_name":"Mårslet","station_name_local":"Mårslet","station_name_en":null,"city":"Aarhus","country":"Denmark","lines":["L2"],"wikipedia":null,"merged_from":3,"merged_names":null,"is_terminus":false,"codes":["860151501","860151502"],"routes":[{"ref":"L2","name":"Light rail L2","route_color":"#30556e"}],"pass_count":2,"station_degree":2,"is_interchange":false,"station_role":"normal"},"geometry":{"type":"Point","coordinates":[10.1642908,56.068775566666666]},"__memberLines":{}},{"type":"Feature","properties":{"station_id":"n5033266492","station_name":"Mølleparken","station_name_local":"Mølleparken","station_name_en":null,"city":"Aarhus","country":"Denmark","lines":["L2"],"wikipedia":null,"merged_from":2,"merged_names":null,"is_terminus":false,"codes":["860151401"],"routes":[{"ref":"L2","name":"Light rail L2","route_color":"#30556e"}],"pass_count":2,"station_degree":2,"is_interchange":false,"station_role":"normal"},"geometry":{"type":"Point","coordinates":[10.1544287,56.072554350000004]},"__memberLines":{}},{"type":"Feature","properties":{"station_id":"n5033266540","station_name":"Nørrevænget","station_name_local":"Nørrevænget","station_name_en":null,"city":"Aarhus","country":"Denmark","lines":["L2"],"wikipedia":null,"merged_from":3,"merged_names":null,"is_terminus":false,"codes":["860151001","860151002"],"routes":[{"ref":"L2","name":"Light rail L2","route_color":"#30556e"}],"pass_count":2,"station_degree":2,"is_interchange":false,"station_role":"normal"},"geometry":{"type":"Point","coordinates":[10.1512014,56.0921794]},"__memberLines":{}},{"type":"Feature","properties":{"station_id":"n5033266638","station_name":"Tranbjerg","station_name_local":"Tranbjerg","station_name_en":null,"city":"Aarhus","country":"Denmark","lines":["L2"],"wikipedia":null,"merged_from":3,"merged_names":null,"is_terminus":false,"codes":["860152301","860152302"],"routes":[{"ref":"L2","name":"Light rail L2","route_color":"#30556e"}],"pass_count":2,"station_degree":2,"is_interchange":false,"station_role":"normal"},"geometry":{"type":"Point","coordinates":[10.1358246,56.096576999999996]},"__memberLines":{}},{"type":"Feature","properties":{"station_id":"n5033266758","station_name":"G. Clausens Vej / Gunnar Clausens Vej","station_name_local":"G. Clausens Vej / Gunnar Clausens Vej","station_name_en":null,"city":"Aarhus","country":"Denmark","lines":["L2"],"wikipedia":null,"merged_from":3,"merged_names":[{"station_id":"n5033266758","station_name":"G. Clausens Vej","station_name_local":"G. Clausens Vej","lines":["L2"]},{"station_id":"n5033266813","station_name":"Gunnar Clausens Vej","station_name_local":"Gunnar Clausens Vej","lines":["L2"]}],"is_terminus":false,"codes":["860150901","860150902"],"routes":[{"ref":"L2","name":"Light rail L2","route_color":"#30556e"}],"pass_count":2,"station_degree":2,"is_interchange":false,"station_role":"normal"},"geometry":{"type":"Point","coordinates":[10.125809400000001,56.11149016666667]},"__memberLines":{}},{"type":"Feature","properties":{"station_id":"n5033267073","station_name":"Øllegårdsvej","station_name_local":"Øllegårdsvej","station_name_en":null,"city":"Aarhus","country":"Denmark","lines":["L2"],"wikipedia":null,"merged_from":3,"merged_names":null,"is_terminus":false,"codes":["860152801","860152802"],"routes":[{"ref":"L2","name":"Light rail L2","route_color":"#30556e"}],"pass_count":2,"station_degree":2,"is_interchange":false,"station_role":"normal"},"geometry":{"type":"Point","coordinates":[10.1338255,56.11460563333333]},"__memberLines":{}},{"type":"Feature","properties":{"station_id":"n5033319205","station_name":"Odder","station_name_local":"Odder","station_name_en":null,"city":"Aarhus","country":"Denmark","lines":["L2"],"wikipedia":null,"merged_from":3,"merged_names":null,"is_terminus":true,"codes":["860151902","860151903"],"routes":[{"ref":"L2","name":"Light rail L2","route_color":"#30556e"}],"pass_count":2,"station_degree":1,"is_interchange":false,"station_role":"terminus"},"geometry":{"type":"Point","coordinates":[10.150506166666666,55.97183326666667]},"__memberLines":{}},{"type":"Feature","properties":{"station_id":"n5051758670","station_name":"Torsøvej","station_name_local":"Torsøvej","station_name_en":null,"city":"Aarhus","country":"Denmark","lines":["L1"],"wikipedia":null,"merged_from":3,"merged_names":null,"is_terminus":false,"codes":["860015101","860015102"],"routes":[{"ref":"L1","name":"Light rail L1","route_color":"#30556e"}],"pass_count":1,"station_degree":2,"is_interchange":false,"station_role":"normal"},"geometry":{"type":"Point","coordinates":[10.228489133333333,56.205480466666664]},"__memberLines":{}},{"type":"Feature","properties":{"station_id":"n5051758822","station_name":"Vestre Strandalle","station_name_local":"Vestre Strandalle","station_name_en":null,"city":"Aarhus","country":"Denmark","lines":["L1"],"wikipedia":null,"merged_from":3,"merged_names":null,"is_terminus":false,"codes":["860014901","860014902"],"routes":[{"ref":"L1","name":"Light rail L1","route_color":"#30556e"}],"pass_count":1,"station_degree":2,"is_interchange":false,"station_role":"normal"},"geometry":{"type":"Point","coordinates":[10.2368262,56.1949777]},"__memberLines":{}},{"type":"Feature","properties":{"station_id":"n5436525457","station_name":"Lystrup","station_name_local":"Lystrup","station_name_en":null,"city":"Aarhus","country":"Denmark","lines":["L1","L2"],"wikipedia":null,"merged_from":4,"merged_names":null,"is_terminus":false,"codes":["860015202","860015203","860015205"],"routes":[{"ref":"L1","name":"Light rail L1","route_color":"#30556e"},{"ref":"L2","name":"Light rail L2","route_color":"#30556e"}],"pass_count":2,"station_degree":3,"is_interchange":true,"station_role":"interchange"},"geometry":{"type":"Point","coordinates":[10.234840625,56.230905275]},"__memberLines":{}},{"type":"Feature","properties":{"station_id":"n5438482938","station_name":"Mørke","station_name_local":"Mørke","station_name_en":null,"city":"Aarhus","country":"Denmark","lines":["L1"],"wikipedia":null,"merged_from":2,"merged_names":null,"is_terminus":false,"codes":["860015701"],"routes":[{"ref":"L1","name":"Light rail L1","route_color":"#30556e"}],"pass_count":1,"station_degree":2,"is_interchange":false,"station_role":"normal"},"geometry":{"type":"Point","coordinates":[10.3760058,56.33934055]},"__memberLines":{}},{"type":"Feature","properties":{"station_id":"n5438483070","station_name":"Hornslet","station_name_local":"Hornslet","station_name_en":null,"city":"Aarhus","country":"Denmark","lines":["L1"],"wikipedia":null,"merged_from":3,"merged_names":null,"is_terminus":false,"codes":["860015602","860015603"],"routes":[{"ref":"L1","name":"Light rail L1","route_color":"#30556e"}],"pass_count":1,"station_degree":2,"is_interchange":false,"station_role":"normal"},"geometry":{"type":"Point","coordinates":[10.313637633333334,56.320540333333334]},"__memberLines":{}},{"type":"Feature","properties":{"station_id":"n5438483215","station_name":"Løgten","station_name_local":"Løgten","station_name_en":null,"city":"Aarhus","country":"Denmark","lines":["L1"],"wikipedia":null,"merged_from":3,"merged_names":null,"is_terminus":false,"codes":["860015501","860015502"],"routes":[{"ref":"L1","name":"Light rail L1","route_color":"#30556e"}],"pass_count":1,"station_degree":2,"is_interchange":false,"station_role":"normal"},"geometry":{"type":"Point","coordinates":[10.317475199999999,56.27589096666666]},"__memberLines":{}},{"type":"Feature","properties":{"station_id":"n5438483255","station_name":"Skødstrup","station_name_local":"Skødstrup","station_name_en":null,"city":"Aarhus","country":"Denmark","lines":["L1"],"wikipedia":null,"merged_from":3,"merged_names":null,"is_terminus":false,"codes":["860015401","860015402"],"routes":[{"ref":"L1","name":"Light rail L1","route_color":"#30556e"}],"pass_count":1,"station_degree":2,"is_interchange":false,"station_role":"normal"},"geometry":{"type":"Point","coordinates":[10.303141666666667,56.2618625]},"__memberLines":{}},{"type":"Feature","properties":{"station_id":"n5438483299","station_name":"Hjortshøj","station_name_local":"Hjortshøj","station_name_en":null,"city":"Aarhus","country":"Denmark","lines":["L1"],"wikipedia":null,"merged_from":3,"merged_names":null,"is_terminus":false,"codes":["860015301","860015302"],"routes":[{"ref":"L1","name":"Light rail L1","route_color":"#30556e"}],"pass_count":1,"station_degree":2,"is_interchange":false,"station_role":"normal"},"geometry":{"type":"Point","coordinates":[10.269034566666667,56.24481169999999]},"__memberLines":{}},{"type":"Feature","properties":{"station_id":"n5438628964","station_name":"Kolind","station_name_local":"Kolind","station_name_en":null,"city":"Aarhus","country":"Denmark","lines":["L1"],"wikipedia":null,"merged_from":2,"merged_names":null,"is_terminus":false,"codes":["860016001"],"routes":[{"ref":"L1","name":"Light rail L1","route_color":"#30556e"}],"pass_count":1,"station_degree":2,"is_interchange":false,"station_role":"normal"},"geometry":{"type":"Point","coordinates":[10.5875252,56.3629002]},"__memberLines":{}},{"type":"Feature","properties":{"station_id":"n5987802727","station_name":"Trustrup","station_name_local":"Trustrup","station_name_en":null,"city":"Aarhus","country":"Denmark","lines":["L1"],"wikipedia":null,"merged_from":3,"merged_names":null,"is_terminus":false,"routes":[{"ref":"L1","name":"Light rail L1","route_color":"#30556e"}],"pass_count":1,"station_degree":2,"codes":null,"is_interchange":false,"station_role":"normal"},"geometry":{"type":"Point","coordinates":[10.771596233333334,56.350725399999995]},"__memberLines":{}},{"type":"Feature","properties":{"station_id":"n5987803436","station_name":"Ryomgård","station_name_local":"Ryomgård","station_name_en":null,"city":"Aarhus","country":"Denmark","lines":["L1"],"wikipedia":null,"merged_from":3,"merged_names":null,"is_terminus":false,"codes":["860015902","860015903"],"routes":[{"ref":"L1","name":"Light rail L1","route_color":"#30556e"}],"pass_count":1,"station_degree":2,"is_interchange":false,"station_role":"normal"},"geometry":{"type":"Point","coordinates":[10.500555866666666,56.3800312]},"__memberLines":{}},{"type":"Feature","properties":{"station_id":"n5987803691","station_name":"Hessel","station_name_local":"Hessel","station_name_en":null,"city":"Aarhus","country":"Denmark","lines":["L1"],"wikipedia":null,"merged_from":2,"merged_names":null,"is_terminus":false,"codes":["860016301"],"routes":[{"ref":"L1","name":"Light rail L1","route_color":"#30556e"}],"pass_count":1,"station_degree":2,"is_interchange":false,"station_role":"normal"},"geometry":{"type":"Point","coordinates":[10.8720873,56.3900084]},"__memberLines":{}},{"type":"Feature","properties":{"station_id":"n7892844299","station_name":"Risskov Strandpark","station_name_local":"Risskov Strandpark","station_name_en":null,"city":"Aarhus","country":"Denmark","lines":["L1"],"wikipedia":null,"merged_from":2,"merged_names":null,"is_terminus":false,"codes":["860015001"],"routes":[{"ref":"L1","name":"Light rail L1","route_color":"#30556e"}],"pass_count":1,"station_degree":2,"is_interchange":false,"station_role":"normal"},"geometry":{"type":"Point","coordinates":[10.23706655,56.184368649999996]},"__memberLines":{}},{"type":"Feature","properties":{"station_id":"junc:10.21444:56.15980","station_name":"","station_name_local":null,"station_name_en":null,"city":"Aarhus","country":"Denmark","lines":null,"station_role":"junction","is_junction":true,"is_interchange":false,"is_terminus":false,"merged_from":null,"merged_names":null,"codes":null},"geometry":{"type":"Point","coordinates":[10.214444,56.1598029]}}]}