{"type":"FeatureCollection","features":[{"type":"Feature","properties":{"way_id":807127699,"route_colors":["#e6194b"],"route_refs":["1"]},"geometry":{"type":"LineString","coordinates":[[82.9124068,55.0594384],[82.9125873,55.0587696],[82.913539,55.0553602],[82.9141347,55.0531384],[82.9146637,55.0511427],[82.9153022,55.0486635],[82.9155,55.0479143],[82.9159587,55.0461763],[82.9160574,55.0457974],[82.9164338,55.0445149],[82.9170303,55.0423667],[82.9172688,55.041508],[82.9176021,55.0403301],[82.9177214,55.0398881],[82.9203997,55.0301005],[82.9207665,55.0288962],[82.9210453,55.0281675],[82.921357,55.0277359],[82.9217649,55.0273609],[82.9220849,55.0271302],[82.922481,55.0268845],[82.9228869,55.026631],[82.9235685,55.0262736],[82.9296328,55.0238133],[82.9307659,55.0233734],[82.9313999,55.0231343],[82.9317276,55.0229829],[82.9356841,55.0205412],[82.9363542,55.0201207],[82.9371545,55.0197099],[82.9391013,55.018911],[82.9399931,55.0185451],[82.9407956,55.0182158],[82.9412575,55.0180124],[82.9416945,55.0177953],[82.9419902,55.0175932],[82.9422943,55.0172841],[82.9426982,55.0167248],[82.9430458,55.016085],[82.9432985,55.0154204],[82.9433782,55.0149134],[82.9433774,55.0145708],[82.9432778,55.0141532],[82.943072,55.0136548],[82.9428273,55.0132924],[82.9408686,55.0108283],[82.9405359,55.0104688],[82.9402516,55.0102187],[82.9383627,55.0089585],[82.937182,55.0082127]]}},{"type":"Feature","properties":{"way_id":807109415,"route_colors":["#e6194b"],"route_refs":["1"]},"geometry":{"type":"LineString","coordinates":[[82.937182,55.0082127],[82.9357693,55.0072804],[82.9331801,55.0055664],[82.9304933,55.0037497],[82.9266728,55.0011349]]}},{"type":"Feature","properties":{"way_id":807109416,"route_colors":["#e6194b"],"route_refs":["1"]},"geometry":{"type":"LineString","coordinates":[[82.9266728,55.0011349],[82.9204105,54.9969453],[82.9177572,54.99517],[82.9171609,54.9948093],[82.9164707,54.9944902],[82.91506,54.9938933]]}},{"type":"Feature","properties":{"way_id":807109417,"route_colors":["#e6194b"],"route_refs":["1"]},"geometry":{"type":"LineString","coordinates":[[82.91506,54.9938933],[82.9144077,54.9936163],[82.9139612,54.9934338],[82.9136242,54.9933013],[82.9133976,54.9932096],[82.9131418,54.9931029],[82.9128637,54.9929757],[82.9124586,54.992791],[82.9120118,54.9925512],[82.9065685,54.989346],[82.9059976,54.9890098],[82.9053979,54.9886533],[82.8967645,54.9835209],[82.8964124,54.9833602],[82.8960538,54.9832806],[82.895696,54.9832272],[82.8952307,54.9831923],[82.8930257,54.9830951]]}},{"type":"Feature","properties":{"way_id":307537647,"route_colors":["#e6194b"],"route_refs":["1"]},"geometry":{"type":"LineString","coordinates":[[82.8930384,54.9829991],[82.8952446,54.9830937],[82.8957371,54.9831348],[82.8961419,54.9831975],[82.8963632,54.983252],[82.8964812,54.9832811],[82.8968998,54.9834526],[82.905529,54.9885825],[82.9067063,54.98927],[82.9126067,54.9927156],[82.9131664,54.9929926],[82.9136489,54.9932279],[82.9141575,54.9934617],[82.9150971,54.9938661]]}},{"type":"Feature","properties":{"way_id":25673079,"route_colors":["#e6194b"],"route_refs":["1"]},"geometry":{"type":"LineString","coordinates":[[82.9150971,54.9938661],[82.9165095,54.9944625],[82.9171997,54.9947803],[82.9178117,54.9951449],[82.9204649,54.9969232],[82.9267172,55.0011133]]}},{"type":"Feature","properties":{"way_id":25673074,"route_colors":["#e6194b"],"route_refs":["1"]},"geometry":{"type":"LineString","coordinates":[[82.9267172,55.0011133],[82.9305318,55.0037287],[82.9332197,55.0055492],[82.9349839,55.00672],[82.9358033,55.0072638],[82.9372261,55.008191]]}},{"type":"Feature","properties":{"way_id":27070583,"route_colors":["#e6194b"],"route_refs":["1"]},"geometry":{"type":"LineString","coordinates":[[82.9372261,55.008191],[82.9383965,55.008935],[82.9405258,55.0103525],[82.9408247,55.0106008],[82.9410735,55.0108659],[82.9430434,55.0132764],[82.9432978,55.0136573],[82.94351,55.0141446],[82.9436065,55.0145659],[82.943604,55.014927],[82.9435179,55.0154321],[82.9432652,55.0160985],[82.9428724,55.0167578],[82.9424491,55.0173236],[82.9421192,55.0176401],[82.9417896,55.0178477],[82.9413413,55.0180815],[82.940873,55.0182886],[82.9391982,55.0189917],[82.9372512,55.0197845],[82.9364929,55.0201278],[82.935709,55.0205622],[82.9317663,55.0230002],[82.9314636,55.0231577],[82.9311762,55.0233],[82.9308707,55.0234358],[82.9297086,55.0238944],[82.9236878,55.0263445],[82.9230095,55.026701],[82.922681,55.0269147],[82.9222849,55.027166],[82.9219423,55.0274318],[82.9215312,55.0277902],[82.9212356,55.028207],[82.9209318,55.0288954],[82.9205836,55.0301196],[82.9178808,55.0399046],[82.9178442,55.0400343],[82.9177603,55.0403421],[82.9174398,55.0415192],[82.9168796,55.0435858],[82.9166233,55.0445313],[82.9162743,55.0458142],[82.9161685,55.0461872],[82.9157198,55.0478784],[82.9155055,55.0486864],[82.9148384,55.0511534],[82.9143154,55.0531464],[82.9137165,55.0553738],[82.9127906,55.058774],[82.9126178,55.0594555]]}},{"type":"Feature","properties":{"way_id":904152819,"route_colors":["#3cb44b"],"route_refs":["2"]},"geometry":{"type":"LineString","coordinates":[[82.9767701,55.0377142],[82.9754981,55.0383525],[82.9740458,55.0388757],[82.971965,55.0395469],[82.9711728,55.0397428],[82.9681044,55.0403654]]}},{"type":"Feature","properties":{"way_id":37523193,"route_colors":["#3cb44b"],"route_refs":["2"]},"geometry":{"type":"LineString","coordinates":[[82.9681044,55.0403654],[82.9666036,55.0406698],[82.9621194,55.0415948],[82.9603875,55.0419381],[82.9543876,55.0431274],[82.9531454,55.0433791],[82.9519691,55.0436209],[82.9477365,55.0444782],[82.9468051,55.0446674],[82.9460975,55.0447061],[82.945471,55.0446913],[82.9396278,55.0441782],[82.9349881,55.0437495],[82.9210681,55.0425619],[82.9186959,55.0423682],[82.916883,55.0422098],[82.9146533,55.0420209],[82.9133524,55.0419123],[82.9131685,55.0418972],[82.9124333,55.0417995],[82.9121645,55.041758],[82.9119545,55.0417041],[82.9113602,55.0415165],[82.9024826,55.0384199],[82.9021711,55.0382996],[82.9017732,55.0381304],[82.9013891,55.0379571],[82.9009796,55.0377432],[82.9007028,55.0375519],[82.9003961,55.037254],[82.9002062,55.0370548],[82.8996013,55.0363802]]}},{"type":"Feature","properties":{"way_id":1428123009,"route_colors":["#3cb44b"],"route_refs":["2"]},"geometry":{"type":"LineString","coordinates":[[82.8996013,55.0363802],[82.8987445,55.0354165]]}},{"type":"Feature","properties":{"way_id":806953600,"route_colors":["#3cb44b"],"route_refs":["2"]},"geometry":{"type":"LineString","coordinates":[[82.9003455,55.0370247],[82.8996013,55.0363802]]}},{"type":"Feature","properties":{"way_id":806953603,"route_colors":["#3cb44b"],"route_refs":["2"]},"geometry":{"type":"LineString","coordinates":[[82.9003455,55.0370247],[82.9005067,55.0371928],[82.9007811,55.0374551],[82.9010755,55.0376735],[82.9014797,55.0378902],[82.901918,55.0380904],[82.9022571,55.0382324],[82.9025674,55.0383503],[82.9120272,55.0416233],[82.9122299,55.041673],[82.9124765,55.0417092],[82.9130121,55.0417736],[82.913196,55.0417994],[82.9133862,55.0418144],[82.914679,55.0419237],[82.9169137,55.0421122],[82.9187216,55.0422698],[82.9209866,55.0424541],[82.9350118,55.0436497],[82.9396793,55.0440969],[82.9453895,55.0445835],[82.946016,55.0445983],[82.9467236,55.0445596],[82.947655,55.0443704],[82.9500613,55.0438898],[82.953082,55.0432775],[82.9543169,55.0430267],[82.960306,55.0418303],[82.9620379,55.041487],[82.9653,55.0408366],[82.966049,55.040688]]}},{"type":"Feature","properties":{"way_id":806953598,"route_colors":["#3cb44b"],"route_refs":["2"]},"geometry":{"type":"LineString","coordinates":[[82.966049,55.040688],[82.9681044,55.0403654]]}},{"type":"Feature","properties":{"way_id":29200035,"route_colors":[],"route_refs":["13","14"]},"geometry":{"type":"LineString","coordinates":[[83.0199303,55.0397955],[83.0199063,55.0396804],[83.0198513,55.039558],[83.0197682,55.039436],[83.0196938,55.0393675],[83.0196213,55.0393238],[83.0195105,55.0392668]]}},{"type":"Feature","properties":{"way_id":975427878,"route_colors":[],"route_refs":["13","14"]},"geometry":{"type":"LineString","coordinates":[[83.0195105,55.0392668],[83.0193712,55.0392184],[83.0188687,55.0391165],[83.0179384,55.0389279]]}},{"type":"Feature","properties":{"way_id":29158011,"route_colors":[],"route_refs":["13","14"]},"geometry":{"type":"LineString","coordinates":[[83.0179384,55.0389279],[83.0178434,55.0389094],[83.0173543,55.0388144],[83.0159756,55.0385795],[83.0149326,55.0384261],[83.0140994,55.0383029],[83.0087014,55.0374536],[83.0035293,55.0366119],[83.002626,55.0363999],[83.0017151,55.0361621],[83.001358,55.036056],[83.0011519,55.0359851],[83.000161,55.0356079],[82.9992382,55.0352637],[82.9968077,55.0343337],[82.9949052,55.0335552],[82.994638,55.0334189],[82.988906,55.0304952],[82.9887495,55.0304143],[82.9883031,55.030171],[82.9882048,55.0301195],[82.9880163,55.0300198]]}},{"type":"Feature","properties":{"way_id":29157988,"route_colors":[],"route_refs":["13","14"]},"geometry":{"type":"LineString","coordinates":[[82.9880163,55.0300198],[82.9877652,55.0299012],[82.9876724,55.0298898],[82.9876004,55.029887],[82.9875281,55.0298904],[82.9874584,55.0299],[82.9873665,55.0299158],[82.9872827,55.0299392],[82.9871432,55.0299815],[82.9870561,55.0300153],[82.9868996,55.0301047],[82.9868068,55.0301657],[82.9867272,55.0302051],[82.9866351,55.0302286],[82.9865382,55.0302393],[82.9864391,55.0302343],[82.9863361,55.0302197],[82.9862385,55.0301923],[82.9861583,55.0301529],[82.9860689,55.0300965],[82.9860111,55.0300353],[82.9859827,55.0299807],[82.9859648,55.0299178],[82.9859824,55.0298605],[82.9860396,55.0297946],[82.9860756,55.0297632],[82.9861603,55.0297002],[82.9862323,55.0296371],[82.9863264,55.0295587]]}},{"type":"Feature","properties":{"way_id":652958313,"route_colors":[],"route_refs":["13"]},"geometry":{"type":"LineString","coordinates":[[82.9863264,55.0295587],[82.986371,55.0295054],[82.9863865,55.0294615],[82.9863906,55.0294251],[82.9863921,55.0293692],[82.9863596,55.0293072],[82.9862701,55.0292322],[82.9861454,55.029164]]}},{"type":"Feature","properties":{"way_id":962952595,"route_colors":[],"route_refs":["13"]},"geometry":{"type":"LineString","coordinates":[[82.9861454,55.029164],[82.9861093,55.0291459],[82.9857126,55.0289482],[82.9842172,55.0281896],[82.9831864,55.0276827],[82.9808654,55.0265116],[82.9776855,55.0249108],[82.9771866,55.0246546],[82.9762876,55.0242054],[82.9753553,55.0237122],[82.9753317,55.0237003],[82.9745926,55.0233287],[82.9737019,55.022842],[82.9728677,55.0223972],[82.9727776,55.0223435],[82.9726802,55.0222891],[82.9720991,55.021934],[82.9716891,55.0217045],[82.9716215,55.021678],[82.9714938,55.0216461],[82.9714243,55.0216316],[82.9713782,55.0216267],[82.9713367,55.0216259],[82.9712112,55.0216385],[82.9711203,55.0216601],[82.9710273,55.0216924],[82.9682755,55.0228324],[82.9662621,55.0236601],[82.9654733,55.0239818],[82.9653924,55.0240117],[82.9653301,55.0240249],[82.9652622,55.02403],[82.9652119,55.0240301],[82.9651521,55.024026],[82.9651051,55.0240184],[82.9650623,55.0240081],[82.9650193,55.0239947],[82.9649418,55.023958],[82.9648991,55.023933],[82.9641922,55.0233886],[82.9632276,55.0226097],[82.9623178,55.0219082],[82.9622511,55.0218562],[82.9613261,55.0211155],[82.9603502,55.0203409],[82.9594613,55.0196076],[82.9585431,55.0188464],[82.9575617,55.0180521],[82.9571593,55.0177271],[82.9566225,55.0172968],[82.9548916,55.0159093],[82.9546972,55.0157517],[82.9540382,55.0152331],[82.9537791,55.0150257],[82.9537123,55.0149703],[82.9532638,55.0146337],[82.9519679,55.0136264],[82.9519109,55.0135827],[82.9518476,55.0135358],[82.9517194,55.0134346],[82.9499869,55.0120539],[82.949942,55.0120181],[82.9475444,55.0100897],[82.9453359,55.008311],[82.9450295,55.0081064],[82.9449749,55.0080804],[82.944845,55.0080544],[82.9446745,55.008062],[82.9444601,55.0081302],[82.9393915,55.010255],[82.9392705,55.0103058],[82.9390438,55.0103967],[82.9389031,55.0104531],[82.9385959,55.0105763],[82.9385205,55.0106065],[82.9384314,55.0106426],[82.9357131,55.0117377],[82.9355372,55.0118059],[82.9354948,55.0118256],[82.9329972,55.0128319],[82.9314116,55.0135278],[82.930388,55.0141653],[82.9300728,55.0143532],[82.9299911,55.0143845],[82.9299817,55.014388],[82.9298635,55.0144184],[82.9297331,55.0144452],[82.9296524,55.0144685],[82.9295828,55.0145092]]}},{"type":"Feature","properties":{"way_id":1061946211,"route_colors":[],"route_refs":["13"]},"geometry":{"type":"LineString","coordinates":[[82.9295828,55.0145092],[82.9289458,55.0149164]]}},{"type":"Feature","properties":{"way_id":962952593,"route_colors":[],"route_refs":["13"]},"geometry":{"type":"LineString","coordinates":[[82.9289458,55.0149164],[82.9288877,55.0149587],[82.9288418,55.0150034],[82.9287068,55.0151481],[82.9286422,55.0152173],[82.92852,55.0153062],[82.9281346,55.0155382],[82.9280938,55.0155628]]}},{"type":"Feature","properties":{"way_id":962952590,"route_colors":[],"route_refs":["13"]},"geometry":{"type":"LineString","coordinates":[[82.9280938,55.0155628],[82.92767,55.0158746],[82.9276225,55.0159485],[82.9276082,55.0160426],[82.9276062,55.0160556],[82.9278629,55.01636]]}},{"type":"Feature","properties":{"way_id":1061219910,"route_colors":[],"route_refs":["13"]},"geometry":{"type":"LineString","coordinates":[[82.9278629,55.01636],[82.9279026,55.0164135],[82.9279439,55.0164691],[82.9280265,55.0165805],[82.928035,55.0166022],[82.9280737,55.0167232],[82.9280666,55.0168534],[82.9280092,55.01705]]}},{"type":"Feature","properties":{"way_id":962952599,"route_colors":[],"route_refs":["13"]},"geometry":{"type":"LineString","coordinates":[[82.9280092,55.01705],[82.927906,55.0174033],[82.9278734,55.0175206],[82.9277917,55.0178141],[82.9275619,55.0186404],[82.9274575,55.0190155],[82.9274099,55.0192026],[82.9273909,55.0192847],[82.9272716,55.0198687],[82.927238,55.0200156],[82.9272134,55.0201229],[82.9272015,55.0201749],[82.927059,55.0206518],[82.9268264,55.0214759],[82.9265406,55.0226249],[82.9264987,55.0227792],[82.9263364,55.0233971],[82.9262434,55.0237512],[82.926227,55.0238138],[82.9262061,55.0238994],[82.926,55.0247435],[82.9259728,55.0248547],[82.9259652,55.0248859]]}},{"type":"Feature","properties":{"way_id":1039891280,"route_colors":[],"route_refs":["13"]},"geometry":{"type":"LineString","coordinates":[[82.9259652,55.0248859],[82.9259624,55.0248974],[82.9259182,55.0250782],[82.9259113,55.0251074],[82.9258522,55.0253595],[82.9258482,55.0253765],[82.9257902,55.0256058],[82.9257883,55.0256131],[82.9257038,55.0259548],[82.9255934,55.0263663],[82.925532,55.0265873],[82.9254433,55.0269137],[82.9253792,55.0271499],[82.9252732,55.0275401],[82.9252564,55.0276019],[82.9252197,55.0276904],[82.9250249,55.0284419],[82.925003,55.0285271],[82.9248708,55.0290933]]}},{"type":"Feature","properties":{"way_id":1061219908,"route_colors":[],"route_refs":["13"]},"geometry":{"type":"LineString","coordinates":[[82.9248708,55.0290933],[82.9248176,55.0293209],[82.9248407,55.0294036],[82.9248957,55.0294464],[82.9249678,55.0294728],[82.925035,55.0294865],[82.9250818,55.0294953],[82.9251845,55.0295126],[82.9257666,55.0295554],[82.9264398,55.0296019],[82.9274562,55.0296878]]}},{"type":"Feature","properties":{"way_id":26264255,"route_colors":[],"route_refs":["13"]},"geometry":{"type":"LineString","coordinates":[[82.9274562,55.0296878],[82.9280932,55.0297435],[82.9281786,55.0297685],[82.9282623,55.0298026],[82.9283247,55.0298463],[82.9283517,55.0298726],[82.9283741,55.0299086],[82.928377,55.0299615],[82.9282344,55.03042],[82.9282103,55.0304815],[82.9282,55.0305134],[82.9281768,55.0305748],[82.9281401,55.030633],[82.9281166,55.0306527],[82.928085,55.0306709],[82.9280407,55.0306854],[82.9279897,55.0306983],[82.9279413,55.0307064],[82.927889,55.0307118],[82.9278186,55.0307134],[82.9277376,55.0307112],[82.9273834,55.0306834],[82.9271583,55.0306657],[82.9270819,55.0306632],[82.9270014,55.0306638],[82.9269228,55.0306764],[82.9268739,55.0306876],[82.9268236,55.0307019]]}},{"type":"Feature","properties":{"way_id":976270136,"route_colors":[],"route_refs":["13"]},"geometry":{"type":"LineString","coordinates":[[82.9268236,55.0307019],[82.926778,55.0307191],[82.9267377,55.0307393],[82.9266963,55.0307702],[82.926668,55.0308058],[82.9266598,55.0308792],[82.9266253,55.0309747],[82.9265338,55.0311017],[82.9263526,55.0312369],[82.9263387,55.0312473],[82.9262862,55.031281],[82.9261098,55.031379],[82.9259885,55.0314242],[82.9258347,55.0314627],[82.9257607,55.0314728],[82.9256373,55.0314829],[82.9255425,55.0314839],[82.9254978,55.0314829],[82.9254488,55.0314794],[82.9253336,55.031467],[82.9248852,55.0314195],[82.9246774,55.0313994],[82.9245408,55.0314035],[82.9244474,55.0314222],[82.9243867,55.031447],[82.924354,55.0314703],[82.9243293,55.0314935],[82.924318,55.0315205],[82.9242551,55.031749],[82.9241074,55.0324175],[82.9240667,55.0325972],[82.9239277,55.0331271],[82.9239141,55.0331857],[82.9239026,55.0332124],[82.9238831,55.0332418],[82.9237332,55.0334188],[82.9237144,55.0334367],[82.9236994,55.0334496],[82.9236578,55.0334767],[82.9236124,55.0335124],[82.9235867,55.0335377],[82.9235721,55.0335658],[82.9234224,55.034067],[82.9231596,55.0350284],[82.9231339,55.0351356],[82.92292,55.0359486],[82.9228789,55.0360843],[82.9226634,55.0368383],[82.9226576,55.036909],[82.9226378,55.0369904],[82.9221488,55.0387505],[82.9219018,55.0395984],[82.9216711,55.040473],[82.9216488,55.0405764],[82.9216245,55.0406849],[82.9215322,55.0410223],[82.9212438,55.0420183],[82.9211417,55.0424394],[82.9211225,55.0425182]]}},{"type":"Feature","properties":{"way_id":976270131,"route_colors":[],"route_refs":["13"]},"geometry":{"type":"LineString","coordinates":[[82.9211225,55.0425182],[82.921092,55.0426479],[82.9210102,55.0429518],[82.921001,55.042989],[82.9206762,55.0442633],[82.9204306,55.0452252],[82.920287,55.0458135],[82.9202312,55.0460344],[82.9194857,55.0486995],[82.9194867,55.0487118],[82.9194911,55.0487247],[82.9195387,55.0487815],[82.9195528,55.0487953],[82.9195735,55.0488097],[82.9195961,55.0488235],[82.919616,55.0488335],[82.9196419,55.0488438],[82.9197726,55.0488879],[82.9198007,55.0488945],[82.9198344,55.048899],[82.9206951,55.0489677]]}},{"type":"Feature","properties":{"way_id":66420256,"route_colors":[],"route_refs":["14"]},"geometry":{"type":"LineString","coordinates":[[83.0202974,55.0404854],[83.0203241,55.0404525],[83.0203308,55.040425],[83.0203239,55.0403821],[83.0202832,55.0402968],[83.0202288,55.0402203],[83.0201946,55.0401803],[83.0200813,55.0400782]]}},{"type":"Feature","properties":{"way_id":652958315,"route_colors":[],"route_refs":["14"]},"geometry":{"type":"LineString","coordinates":[[83.0200813,55.0400782],[83.0200023,55.0400202],[83.019942,55.0399258],[83.0199303,55.0397955]]}},{"type":"Feature","properties":{"way_id":29236462,"route_colors":[],"route_refs":["14"]},"geometry":{"type":"LineString","coordinates":[[82.9132233,55.0593408],[82.9132746,55.0595527],[82.9133263,55.0596534],[82.913357,55.0596763],[82.9134532,55.0597481],[82.9138376,55.0599372]]}},{"type":"Feature","properties":{"way_id":1061944200,"route_colors":[],"route_refs":["14"]},"geometry":{"type":"LineString","coordinates":[[82.9138376,55.0599372],[82.9141827,55.0600717],[82.9143318,55.0601299],[82.9178222,55.0614925],[82.9194251,55.0621274],[82.919627,55.0622095],[82.9232192,55.0636302],[82.9232628,55.0636481],[82.9234062,55.0637066],[82.9241846,55.0640215],[82.9269546,55.0651067],[82.9278863,55.0654803],[82.9280213,55.0655345],[82.9291638,55.0659668],[82.9292781,55.0660065]]}},{"type":"Feature","properties":{"way_id":1062236719,"route_colors":[],"route_refs":["14"]},"geometry":{"type":"LineString","coordinates":[[82.9292781,55.0660065],[82.9294247,55.0660557],[82.929564,55.0660822],[82.9296207,55.0660871],[82.9297818,55.0660925],[82.9298916,55.0660885],[82.9340712,55.0658558],[82.934181,55.0658572],[82.9342851,55.0658593],[82.9343681,55.0658645],[82.9345148,55.0658809],[82.9346431,55.0659025],[82.9347899,55.0659392]]}},{"type":"Feature","properties":{"way_id":1061539671,"route_colors":[],"route_refs":["14"]},"geometry":{"type":"LineString","coordinates":[[82.9347899,55.0659392],[82.9349575,55.06599],[82.9351181,55.0660459],[82.9353988,55.0661876],[82.9354925,55.0662349],[82.9384226,55.0677324],[82.94009,55.0685974],[82.9428034,55.0699855],[82.9432208,55.0702019],[82.9441345,55.0706756],[82.9465619,55.071918],[82.9470132,55.0721526],[82.9475446,55.0724314],[82.9482891,55.0728174],[82.9506026,55.0740193],[82.950735,55.0740882],[82.9508604,55.074151],[82.9519169,55.0747001],[82.9539108,55.0757363],[82.9540276,55.0757999],[82.9541336,55.0758556],[82.9565104,55.0770779],[82.9566366,55.0771442],[82.9577484,55.0777109],[82.9578766,55.0777754],[82.9582967,55.077988],[82.9584073,55.0780439],[82.9610722,55.0794052],[82.9612179,55.0794818],[82.9613304,55.0795393],[82.9643059,55.0811061],[82.9643293,55.0811184]]}},{"type":"Feature","properties":{"way_id":1061539672,"route_colors":[],"route_refs":["14"]},"geometry":{"type":"LineString","coordinates":[[82.9643293,55.0811184],[82.9644611,55.0811862],[82.964489,55.0811972],[82.9645165,55.0812076]]}},{"type":"Feature","properties":{"way_id":1061312108,"route_colors":[],"route_refs":["14"]},"geometry":{"type":"LineString","coordinates":[[82.9645165,55.0812076],[82.964613,55.0812317],[82.964746,55.0812528],[82.9648649,55.081258],[82.9649654,55.0812561],[82.9650599,55.0812456],[82.9650996,55.0812373],[82.9652254,55.0811956]]}},{"type":"Feature","properties":{"way_id":1061311607,"route_colors":[],"route_refs":["14","11"]},"geometry":{"type":"LineString","coordinates":[[82.9652254,55.0811956],[82.9654791,55.0810641],[82.9655177,55.0810417],[82.9664965,55.0804188],[82.9670818,55.0800483],[82.9671684,55.0799876],[82.967888,55.0794612],[82.9681346,55.0792905],[82.9685486,55.0789991],[82.9703638,55.0776734],[82.9705714,55.0775254],[82.9709205,55.0772725],[82.9721931,55.0763608],[82.9742912,55.0748461],[82.9753293,55.0740954],[82.9753672,55.0740611],[82.9754,55.0740233],[82.9754142,55.0739938],[82.9754245,55.0739635],[82.9754292,55.0739336],[82.9754317,55.0738924],[82.9754105,55.0738373],[82.97539,55.0738109],[82.9753617,55.073788],[82.9753271,55.0737651],[82.9752744,55.0737346],[82.9732501,55.0728175],[82.971926,55.0722178],[82.9708134,55.0717051],[82.9694575,55.0710859],[82.9689299,55.0708439],[82.9682906,55.0705506],[82.9681653,55.0704931],[82.9679915,55.0704136],[82.9637787,55.0684471],[82.9637294,55.068417],[82.9636811,55.0683774],[82.963648,55.0683343],[82.9636208,55.068277],[82.9636177,55.0682492],[82.9636273,55.0682046],[82.9636505,55.0681618],[82.9636815,55.0681307],[82.9642244,55.0677383],[82.9652186,55.0670109],[82.9667594,55.0659109],[82.9680283,55.0650097]]}},{"type":"Feature","properties":{"way_id":1061314236,"route_colors":[],"route_refs":["14","11"]},"geometry":{"type":"LineString","coordinates":[[82.9680283,55.0650097],[82.9685737,55.0646171]]}},{"type":"Feature","properties":{"way_id":1061314237,"route_colors":[],"route_refs":["14","11"]},"geometry":{"type":"LineString","coordinates":[[82.9685737,55.0646171],[82.9700792,55.0635123],[82.97302,55.061408],[82.9731257,55.0613332],[82.9758375,55.0593728],[82.9778083,55.0579474],[82.9780346,55.0577837],[82.978093,55.0577486],[82.9781132,55.0577379],[82.9781661,55.0577164],[82.9782195,55.0577011],[82.9782854,55.0576858],[82.9783345,55.0576775],[82.9783888,55.0576701],[82.9784774,55.0576648],[82.9785516,55.0576645],[82.9785864,55.0576655],[82.9786757,55.0576722],[82.9787582,55.0576825],[82.9788514,55.0576997],[82.9788978,55.0577137],[82.978943,55.0577308],[82.9805557,55.0584866],[82.9835054,55.0598746],[82.9837243,55.0599775]]}},{"type":"Feature","properties":{"way_id":1195807789,"route_colors":[],"route_refs":["14"]},"geometry":{"type":"LineString","coordinates":[[82.9837243,55.0599775],[82.983837,55.0600029],[82.9839254,55.0600102],[82.9840625,55.0599986],[82.9840925,55.0599929],[82.9841609,55.0599721],[82.9842132,55.0599483],[82.9842306,55.0599391],[82.984239,55.0599338]]}},{"type":"Feature","properties":{"way_id":1061220542,"route_colors":[],"route_refs":["14"]},"geometry":{"type":"LineString","coordinates":[[82.984239,55.0599338],[82.9847593,55.0595477],[82.9853083,55.0591424],[82.9864225,55.0583197]]}},{"type":"Feature","properties":{"way_id":1061220546,"route_colors":[],"route_refs":["14"]},"geometry":{"type":"LineString","coordinates":[[82.9864225,55.0583197],[82.9877065,55.0573599]]}},{"type":"Feature","properties":{"way_id":1061220547,"route_colors":[],"route_refs":["14"]},"geometry":{"type":"LineString","coordinates":[[82.9877065,55.0573599],[82.9883166,55.0568964],[82.9895139,55.0559911],[82.9897732,55.0558257],[82.9902579,55.0555953],[82.9920101,55.0548653],[82.9932684,55.0543786],[82.993677,55.054254],[82.9948354,55.0539447],[82.99601,55.0536311],[82.9975005,55.0532549],[82.9981002,55.0530849],[82.9986104,55.0529301],[82.9991247,55.0527566],[82.9996918,55.0525482],[83.0005517,55.052186],[83.0008958,55.0520199],[83.0015992,55.0516698],[83.0019098,55.0514984],[83.0025417,55.0511497],[83.0039467,55.0503042],[83.0046964,55.0498385],[83.0069357,55.0484936],[83.0070477,55.0484263],[83.0089959,55.0472485],[83.0109262,55.0461019],[83.012911,55.044916],[83.0131317,55.0447837],[83.0148504,55.0437532],[83.0167838,55.0425885],[83.0187541,55.0414349],[83.0202156,55.0405424],[83.0202549,55.040517],[83.0202974,55.0404854]]}},{"type":"Feature","properties":{"way_id":652957325,"route_colors":[],"route_refs":["14"]},"geometry":{"type":"LineString","coordinates":[[82.9869374,55.029519],[82.9870989,55.0296043]]}},{"type":"Feature","properties":{"way_id":99149112,"route_colors":[],"route_refs":["14"]},"geometry":{"type":"LineString","coordinates":[[83.0195447,55.0392279],[83.0198035,55.0393013],[83.0200169,55.0393754],[83.0202353,55.0394625],[83.0204429,55.0395669],[83.0205934,55.0396543]]}},{"type":"Feature","properties":{"way_id":652958317,"route_colors":[],"route_refs":["14"]},"geometry":{"type":"LineString","coordinates":[[83.0205934,55.0396543],[83.0206661,55.0396937],[83.0207584,55.0397582],[83.0207965,55.039841],[83.0207741,55.0399292],[83.0207119,55.0400142]]}},{"type":"Feature","properties":{"way_id":29236210,"route_colors":[],"route_refs":["14"]},"geometry":{"type":"LineString","coordinates":[[83.0207119,55.0400142],[83.0205637,55.0402202],[83.0204362,55.0403866],[83.0203997,55.0404368],[83.0203496,55.0404917],[83.0202658,55.0405532]]}},{"type":"Feature","properties":{"way_id":66420259,"route_colors":[],"route_refs":["14"]},"geometry":{"type":"LineString","coordinates":[[83.0202658,55.0405532],[83.0188015,55.0414641],[83.016831,55.042614],[83.0148993,55.0437782],[83.0133275,55.0447189],[83.0129577,55.0449402],[83.0109723,55.0461279],[83.0090372,55.0472714],[83.0072039,55.0483843],[83.0070924,55.048452],[83.0047081,55.049879],[83.0042421,55.0501697],[83.0039878,55.0503285],[83.0030146,55.0509193],[83.0025913,55.0511711],[83.0020961,55.0514409],[83.0020667,55.0514569],[83.0016433,55.0516935],[83.0009365,55.0520472],[83.0006011,55.0522083],[82.9997322,55.0525762],[82.9991486,55.0527872],[82.998642,55.0529563],[82.9981252,55.0531109],[82.9975228,55.0532785],[82.996863,55.053447],[82.9960246,55.0536556],[82.9950082,55.0539211],[82.9946455,55.0540206],[82.9936905,55.0542824],[82.9932881,55.0544087],[82.9920345,55.0548863],[82.9908761,55.0553677],[82.9902751,55.0556194],[82.9898068,55.0558407],[82.989731,55.0558888],[82.9895452,55.0560051],[82.9883445,55.0569102],[82.9877296,55.0573692],[82.9864527,55.0583341],[82.9852912,55.0591833],[82.9842587,55.0599412]]}},{"type":"Feature","properties":{"way_id":66420262,"route_colors":[],"route_refs":["14"]},"geometry":{"type":"LineString","coordinates":[[82.9842587,55.0599412],[82.984208,55.059969],[82.9841934,55.059976],[82.9841697,55.0599873],[82.9840925,55.0600107],[82.984038,55.0600167],[82.9839571,55.0600243],[82.9838359,55.0600173],[82.9838017,55.0600099],[82.9837162,55.0599912]]}},{"type":"Feature","properties":{"way_id":652958314,"route_colors":[],"route_refs":["14","11"]},"geometry":{"type":"LineString","coordinates":[[82.9837162,55.0599912],[82.9789199,55.0577567],[82.9788695,55.0577368]]}},{"type":"Feature","properties":{"way_id":464275874,"route_colors":[],"route_refs":["14","11"]},"geometry":{"type":"LineString","coordinates":[[82.9788695,55.0577368],[82.9788251,55.0577252],[82.9787397,55.0577103],[82.9786596,55.0577004],[82.9785649,55.0576955],[82.9784858,55.0576964],[82.9784024,55.0577028],[82.9783232,55.0577138],[82.9782747,55.0577235],[82.9782395,55.0577332],[82.9781926,55.0577473],[82.9781381,55.0577708],[82.9780813,55.0578095],[82.9778926,55.0579449],[82.9769553,55.0586174],[82.9760617,55.0592624],[82.9758716,55.0594],[82.9732695,55.0612836],[82.9731695,55.061356],[82.9701151,55.063532],[82.9686058,55.0646333]]}},{"type":"Feature","properties":{"way_id":29236378,"route_colors":[],"route_refs":["14","11"]},"geometry":{"type":"LineString","coordinates":[[82.9686058,55.0646333],[82.9680629,55.0650256]]}},{"type":"Feature","properties":{"way_id":29236405,"route_colors":[],"route_refs":["14","11"]},"geometry":{"type":"LineString","coordinates":[[82.9680629,55.0650256],[82.9667936,55.0659273],[82.96525,55.0670261],[82.9645017,55.0675795],[82.9637179,55.0681427],[82.9636896,55.068176],[82.9636709,55.0682139],[82.9636635,55.0682557],[82.9636748,55.068303],[82.9636927,55.068332],[82.9637186,55.0683626],[82.9637578,55.0683985],[82.9638093,55.0684288],[82.9680169,55.0703948],[82.9681924,55.0704733],[82.9683212,55.0705248],[82.9688158,55.0707508],[82.9707064,55.0716149],[82.9719645,55.0721935],[82.9732812,55.0727949],[82.9753074,55.0737216],[82.9753549,55.073749]]}},{"type":"Feature","properties":{"way_id":1061311608,"route_colors":[],"route_refs":["14","11"]},"geometry":{"type":"LineString","coordinates":[[82.9753549,55.073749],[82.9754239,55.0738028],[82.9754419,55.0738233],[82.9754538,55.0738445],[82.9754672,55.0738915],[82.9754703,55.0739037],[82.9754706,55.0739159],[82.9754684,55.0739669],[82.975457,55.0739994],[82.9754392,55.0740352],[82.9754083,55.0740745],[82.9753703,55.0741108],[82.9750542,55.0743282],[82.974451,55.0747676],[82.9722227,55.0763734],[82.9709514,55.0772846],[82.9705983,55.0775396],[82.970579,55.0775535],[82.9685781,55.0790123],[82.9681622,55.0793053],[82.9679209,55.0794767],[82.9672018,55.0800059],[82.9671132,55.0800662],[82.9665306,55.080437],[82.9656025,55.0810232],[82.9655627,55.0810487],[82.9655107,55.0810776],[82.9652443,55.0812169]]}},{"type":"Feature","properties":{"way_id":1061312109,"route_colors":[],"route_refs":["14"]},"geometry":{"type":"LineString","coordinates":[[82.9652443,55.0812169],[82.9651329,55.0812543],[82.9650679,55.0812694],[82.9649605,55.0812832],[82.9648238,55.0812878],[82.9647235,55.0812805],[82.964591,55.0812609]]}},{"type":"Feature","properties":{"way_id":1061539673,"route_colors":[],"route_refs":["14"]},"geometry":{"type":"LineString","coordinates":[[82.964591,55.0812609],[82.9644965,55.0812374],[82.9644292,55.0812108],[82.9644223,55.0812079],[82.9643803,55.0811879],[82.9643313,55.0811617],[82.9643166,55.0811539],[82.9612852,55.0795698],[82.9611702,55.0795109],[82.9610268,55.0794361],[82.9585229,55.0781617],[82.9583547,55.0780761],[82.9578253,55.0778092],[82.9576964,55.0777444],[82.9565867,55.0771755],[82.9564605,55.0771081],[82.9540878,55.0758875],[82.9539807,55.0758293],[82.9538602,55.0757653],[82.9516141,55.0746046],[82.9508093,55.0741887],[82.9506877,55.0741257],[82.9505472,55.074052],[82.9482402,55.0728511],[82.9474987,55.0724639],[82.9469683,55.0721823],[82.9465179,55.0719469],[82.9440829,55.0707045],[82.9427554,55.0700176],[82.9424537,55.0698634],[82.9400396,55.0686301],[82.9383712,55.0677666],[82.9355908,55.0663499],[82.935435,55.0662705],[82.9350901,55.0660897],[82.9347517,55.0659769]]}},{"type":"Feature","properties":{"way_id":1062236720,"route_colors":[],"route_refs":["14"]},"geometry":{"type":"LineString","coordinates":[[82.9347517,55.0659769],[82.9345823,55.0659363],[82.9345108,55.0659228],[82.9344234,55.0659117],[82.9343754,55.0659065],[82.9342851,55.0659024],[82.9341825,55.0658983],[82.9340747,55.0658983],[82.9298436,55.0661346],[82.929743,55.0661364],[82.9296322,55.0661323],[82.9295397,55.0661247],[82.9295402,55.0661281],[82.9293858,55.0660976],[82.9292354,55.066042]]}},{"type":"Feature","properties":{"way_id":1061944201,"route_colors":[],"route_refs":["14"]},"geometry":{"type":"LineString","coordinates":[[82.9292354,55.066042],[82.9291199,55.0660021],[82.9281733,55.0656448],[82.9280036,55.0655805],[82.9269144,55.0651386],[82.9241529,55.0640507],[82.9235317,55.0637985],[82.9233726,55.063734],[82.9231843,55.0636595],[82.919594,55.0622429],[82.9193903,55.0621594],[82.9177789,55.0615223],[82.9143986,55.0601978],[82.9138058,55.0599655]]}},{"type":"Feature","properties":{"way_id":66420264,"route_colors":[],"route_refs":["14"]},"geometry":{"type":"LineString","coordinates":[[82.9138058,55.0599655],[82.9135081,55.0598386],[82.913355,55.0597953],[82.9132477,55.0597696],[82.9131664,55.0597585],[82.9130684,55.0597492],[82.9129766,55.0597499],[82.9128807,55.0597622],[82.9126956,55.0598084]]}},{"type":"Feature","properties":{"way_id":252316051,"route_colors":[],"route_refs":["14"]},"geometry":{"type":"LineString","coordinates":[[82.9506509,55.0741548],[82.950505,55.074077],[82.949517,55.0735714],[82.9481963,55.0728814],[82.9474527,55.0724966],[82.9473084,55.0724207]]}},{"type":"Feature","properties":{"way_id":386249223,"route_colors":[],"route_refs":["14"]},"geometry":{"type":"LineString","coordinates":[[82.9399902,55.0686622],[82.9399294,55.0686323],[82.939869,55.0686026]]}},{"type":"Feature","properties":{"way_id":449700006,"route_colors":[],"route_refs":["8","2"]},"geometry":{"type":"LineString","coordinates":[[82.803149,54.9786017],[82.8022143,54.9785469],[82.8021383,54.9785501],[82.8020257,54.9785673],[82.8018629,54.9785864],[82.8017321,54.978581],[82.8015978,54.9785427],[82.8014795,54.9784788],[82.8014053,54.9783995],[82.8013726,54.9783286],[82.8013807,54.9782579],[82.8014405,54.9781731],[82.8015452,54.9780952],[82.8016796,54.9780455],[82.8018339,54.978026],[82.8019695,54.9780364],[82.8020884,54.9780748],[82.802181,54.9781143],[82.80225,54.9781564],[82.8024039,54.978254],[82.8025657,54.9783613],[82.8027517,54.9784796],[82.8028233,54.9785198],[82.8029377,54.9785484],[82.8030356,54.9785641],[82.803168,54.9785699]]}},{"type":"Feature","properties":{"way_id":126592078,"route_colors":[],"route_refs":["8","2"]},"geometry":{"type":"LineString","coordinates":[[82.803168,54.9785699],[82.8034644,54.9785898],[82.8041408,54.9786352],[82.8117031,54.9789708],[82.8117726,54.9789739],[82.8131261,54.9790328],[82.8171037,54.9792102],[82.8173277,54.9792265],[82.817796,54.979294],[82.8179243,54.9793332],[82.8180611,54.9793618],[82.8182603,54.9793875],[82.8184748,54.9794059],[82.8193468,54.9794484],[82.8198298,54.9794723],[82.823478,54.9796513],[82.8241498,54.979684],[82.8248156,54.9797165],[82.8260821,54.9797784],[82.827206,54.9798334],[82.8274131,54.9798436],[82.8287421,54.9799085],[82.8300314,54.9799715],[82.8308959,54.9800135],[82.8312953,54.9800333],[82.8327006,54.9801021],[82.8338985,54.9801607],[82.8344372,54.9801871],[82.8353907,54.9802338],[82.8356204,54.980245],[82.8356803,54.9802479],[82.8425724,54.9805817],[82.8433852,54.9806211],[82.849215,54.980895],[82.8519576,54.9810238],[82.8525942,54.9810541],[82.8581172,54.9813174]]}},{"type":"Feature","properties":{"way_id":126548356,"route_colors":[],"route_refs":["8"]},"geometry":{"type":"LineString","coordinates":[[82.8581172,54.9813174],[82.8582022,54.9813404],[82.8582842,54.9813626],[82.8583598,54.9813872],[82.8583978,54.981402],[82.8584152,54.9814088],[82.8585189,54.9814646],[82.8585795,54.9815092],[82.8586192,54.9815639],[82.8586294,54.9815865],[82.8586429,54.9816167],[82.8586562,54.9816871]]}},{"type":"Feature","properties":{"way_id":126592096,"route_colors":[],"route_refs":["8","15"]},"geometry":{"type":"LineString","coordinates":[[82.8586562,54.9816871],[82.858638,54.9818094],[82.858569,54.982274],[82.8584813,54.9828928],[82.858396,54.9834813],[82.8583159,54.9840334],[82.8582257,54.9846555],[82.8581532,54.9851557],[82.8581315,54.9852969],[82.8579864,54.9862994],[82.8578631,54.9871518],[82.8575772,54.9891273],[82.857559,54.9892531],[82.8573749,54.9905225],[82.8572319,54.9915081]]}},{"type":"Feature","properties":{"way_id":126592086,"route_colors":[],"route_refs":["8","15"]},"geometry":{"type":"LineString","coordinates":[[82.8572319,54.9915081],[82.8571265,54.9922123],[82.8570244,54.9929579]]}},{"type":"Feature","properties":{"way_id":1434861888,"route_colors":[],"route_refs":["8","15","18"]},"geometry":{"type":"LineString","coordinates":[[82.8570244,54.9929579],[82.8569875,54.9932128],[82.8569407,54.9935357],[82.8569182,54.9936794],[82.8569294,54.9937763],[82.8569607,54.9938377]]}},{"type":"Feature","properties":{"way_id":126592091,"route_colors":[],"route_refs":["8","15","18"]},"geometry":{"type":"LineString","coordinates":[[82.8775548,54.9941834],[82.878623,54.9935966],[82.879295,54.9932235],[82.8799647,54.9928516],[82.880082,54.9927865],[82.8802554,54.9927013],[82.8803024,54.9926815],[82.8803379,54.9926666],[82.8804252,54.9926335],[82.8806235,54.992569],[82.880808,54.9925139],[82.880963,54.9924737],[82.8811419,54.992434],[82.8813416,54.992418],[82.8815204,54.9924196],[82.882004,54.9924427],[82.8847052,54.992572],[82.8861546,54.9926426],[82.8865676,54.9926567],[82.8908576,54.9928667],[82.8932844,54.9929824],[82.8935204,54.9929824],[82.8937078,54.992972],[82.8939204,54.9929421],[82.8948398,54.9927027],[82.8949359,54.992684],[82.8950457,54.9926702],[82.8951729,54.9926612],[82.8953931,54.9926656],[82.895484,54.9926688]]}},{"type":"Feature","properties":{"way_id":1528756256,"route_colors":[],"route_refs":["8","15","18"]},"geometry":{"type":"LineString","coordinates":[[82.895484,54.9926688],[82.8976521,54.9927608],[82.8992619,54.9928291],[82.8994204,54.9928358],[82.899577,54.9928424],[82.9012401,54.992913],[82.9029708,54.9929864],[82.9039743,54.9930289],[82.9044002,54.993047]]}},{"type":"Feature","properties":{"way_id":1528756253,"route_colors":[],"route_refs":["8","15","18"]},"geometry":{"type":"LineString","coordinates":[[82.9044002,54.993047],[82.9045261,54.9930444],[82.9046548,54.9930247],[82.9047023,54.9930046],[82.9047673,54.9929825],[82.9048212,54.9929486],[82.904871,54.9929152],[82.9049165,54.9928596],[82.9049266,54.9928167],[82.9049201,54.9927235],[82.9048355,54.9926491],[82.9047047,54.9925656],[82.9023487,54.9911734],[82.9021447,54.9910542],[82.9020625,54.9910062],[82.9019496,54.9909396],[82.9004064,54.9900291],[82.8983949,54.9888422],[82.8982061,54.9887307],[82.8981066,54.988672],[82.8979986,54.9886082],[82.8930179,54.9856676],[82.8927404,54.9855053],[82.8925267,54.9853799],[82.8923781,54.9852929],[82.8903251,54.9840791],[82.8894546,54.9835647],[82.8894077,54.983537],[82.8893168,54.9834832],[82.8892113,54.9833893],[82.889029,54.9832191],[82.8888919,54.9830475]]}},{"type":"Feature","properties":{"way_id":1431655151,"route_colors":[],"route_refs":["8","15","18"]},"geometry":{"type":"LineString","coordinates":[[82.8569607,54.9938377],[82.8570382,54.9939662],[82.8570586,54.9939918],[82.8570935,54.9940356],[82.8571827,54.9941123],[82.8572591,54.9941761],[82.8573554,54.9942435],[82.8579223,54.9945366],[82.8580574,54.9945791],[82.858154,54.9946001],[82.8582851,54.994614],[82.858444,54.9946238],[82.8585986,54.9946293],[82.859105,54.9946142],[82.8596784,54.9946116],[82.8598627,54.9946133],[82.8601121,54.9946185],[82.8612516,54.9946555],[82.8664366,54.9948706]]}},{"type":"Feature","properties":{"way_id":1431655148,"route_colors":[],"route_refs":["8","15","18"]},"geometry":{"type":"LineString","coordinates":[[82.8664366,54.9948706],[82.8741722,54.995217],[82.8744279,54.9952191],[82.8746359,54.9952119],[82.8748432,54.9952002],[82.875027,54.995184],[82.8753844,54.995142],[82.8757112,54.9950812],[82.8758581,54.9950432],[82.8760001,54.9949977],[82.8761494,54.9949392],[82.8762839,54.9948721]]}},{"type":"Feature","properties":{"way_id":1434861884,"route_colors":[],"route_refs":["8","15","18"]},"geometry":{"type":"LineString","coordinates":[[82.8762839,54.9948721],[82.8775548,54.9941834]]}},{"type":"Feature","properties":{"way_id":307295687,"route_colors":[],"route_refs":["2"]},"geometry":{"type":"LineString","coordinates":[[82.8894423,54.9831527],[82.8892945,54.983166],[82.8891468,54.9831578],[82.8890017,54.9831153],[82.8888919,54.9830475]]}},{"type":"Feature","properties":{"way_id":307295682,"route_colors":[],"route_refs":["2","15","18"]},"geometry":{"type":"LineString","coordinates":[[82.8888919,54.9830475],[82.8888296,54.9829632],[82.8888177,54.9828945],[82.8888496,54.9828048],[82.888934,54.9827259],[82.889061,54.982668],[82.8892363,54.9826373]]}},{"type":"Feature","properties":{"way_id":307295683,"route_colors":[],"route_refs":["2","15","18","16","3"]},"geometry":{"type":"LineString","coordinates":[[82.8892363,54.9826373],[82.8894626,54.9825738],[82.8897316,54.9824921],[82.8899434,54.9823952],[82.8902625,54.9822491],[82.8913548,54.9817146],[82.8917045,54.9815438],[82.8921732,54.9813145],[82.8932672,54.9807805],[82.8938323,54.9805046],[82.8957554,54.9795658],[82.8963216,54.9792894],[82.8963535,54.9792726],[82.8964474,54.9792232],[82.8965438,54.9791718],[82.8966179,54.9791105],[82.896661,54.9790383],[82.8966937,54.9789513],[82.8967048,54.9788641],[82.8967199,54.9787629],[82.896789,54.9783061],[82.8970389,54.9766537],[82.8970527,54.9765619],[82.897054,54.9765536]]}},{"type":"Feature","properties":{"way_id":363538168,"route_colors":[],"route_refs":["2","16"]},"geometry":{"type":"LineString","coordinates":[[82.897054,54.9765536],[82.8970406,54.9764844],[82.896972,54.9764271],[82.8969289,54.9764049],[82.8968696,54.976385],[82.8967202,54.9763761],[82.8967153,54.9763759]]}},{"type":"Feature","properties":{"way_id":126548328,"route_colors":[],"route_refs":["2","16","10"]},"geometry":{"type":"LineString","coordinates":[[82.8967153,54.9763759],[82.8966339,54.9763728],[82.8964099,54.9763633],[82.8962943,54.9763579],[82.8907405,54.9760988],[82.889382,54.9760343],[82.8877545,54.9759586],[82.8862226,54.9758873],[82.8856197,54.9758549],[82.8824973,54.9757281],[82.8823088,54.9757204],[82.8816077,54.9756898],[82.8814389,54.9756697],[82.8813263,54.9756468],[82.881198,54.9756047],[82.8810086,54.9755279],[82.8808274,54.9754476],[82.8805947,54.9753188],[82.8804444,54.9752479],[82.8803127,54.9751994],[82.88015,54.9751486],[82.8799421,54.9751084],[82.8797259,54.9750919],[82.8779639,54.975008],[82.8771385,54.9749669],[82.8745229,54.9748365],[82.8744124,54.974831],[82.8735551,54.9747868],[82.8728454,54.9747534],[82.8708867,54.9746564],[82.8696745,54.9745964],[82.8683421,54.9745304],[82.8639442,54.9743142],[82.8639017,54.9743121],[82.8602434,54.9741324]]}},{"type":"Feature","properties":{"way_id":126548339,"route_colors":[],"route_refs":["2"]},"geometry":{"type":"LineString","coordinates":[[82.8602434,54.9741324],[82.8601301,54.9741302],[82.860117,54.9741299],[82.8600057,54.9741464],[82.8599026,54.9741784],[82.8598285,54.9742035],[82.8598067,54.9742199],[82.8597854,54.9742359],[82.8597542,54.9742872],[82.8597155,54.9743704]]}},{"type":"Feature","properties":{"way_id":126592092,"route_colors":[],"route_refs":["2","15"]},"geometry":{"type":"LineString","coordinates":[[82.8597155,54.9743704],[82.8596914,54.9745308],[82.8596047,54.9751342],[82.8592612,54.9775242],[82.8592324,54.9776827],[82.8590507,54.9789612],[82.8587384,54.9811201]]}},{"type":"Feature","properties":{"way_id":126548352,"route_colors":[],"route_refs":["2"]},"geometry":{"type":"LineString","coordinates":[[82.8587384,54.9811201],[82.8586725,54.9811949],[82.8586392,54.9812268],[82.858565,54.9812776],[82.8584925,54.9813124],[82.8583988,54.9813389],[82.8582842,54.9813626],[82.8581648,54.981361],[82.8581161,54.9813603]]}},{"type":"Feature","properties":{"way_id":126548330,"route_colors":[],"route_refs":["2"]},"geometry":{"type":"LineString","coordinates":[[82.8581161,54.9813603],[82.8577962,54.9813449],[82.852412,54.9810858],[82.8519515,54.9810636],[82.8492102,54.9809317],[82.8429984,54.9806329],[82.8425663,54.9806118],[82.8356763,54.9802806],[82.8356166,54.9802777],[82.8353854,54.9802663],[82.8340709,54.9802012],[82.8338945,54.9801925],[82.8326978,54.9801333],[82.8312902,54.9800637],[82.8308918,54.9800435],[82.8300311,54.9800006],[82.8287414,54.979936],[82.8274108,54.9798693],[82.8272026,54.9798588],[82.8260791,54.9798059],[82.8248114,54.9797432],[82.8241488,54.9797104],[82.8234766,54.9796805],[82.8198278,54.9794967],[82.8193409,54.9794723],[82.8184696,54.9794295],[82.818248,54.9794107],[82.8180369,54.9793883],[82.8179071,54.9793635],[82.8177453,54.9793172],[82.8173187,54.9792576],[82.8170982,54.9792426],[82.8165998,54.9792069],[82.8131217,54.9790545],[82.8117048,54.978994],[82.8044273,54.9786775],[82.8034597,54.9786201],[82.803149,54.9786017]]}},{"type":"Feature","properties":{"way_id":126548341,"route_colors":[],"route_refs":["2"]},"geometry":{"type":"LineString","coordinates":[[82.8581172,54.9813174],[82.8582319,54.9813224],[82.8582595,54.9813236],[82.8583839,54.9813045],[82.8584703,54.9812738],[82.8585392,54.9812432],[82.8586093,54.981197],[82.8586839,54.9811164]]}},{"type":"Feature","properties":{"way_id":127161812,"route_colors":[],"route_refs":["2","15","10"]},"geometry":{"type":"LineString","coordinates":[[82.8586839,54.9811164],[82.8586946,54.9810421],[82.8589958,54.9789577],[82.8591514,54.977878],[82.8591691,54.9776953],[82.8595481,54.9751315],[82.859659,54.9743712]]}},{"type":"Feature","properties":{"way_id":126548353,"route_colors":[],"route_refs":["2","10"]},"geometry":{"type":"LineString","coordinates":[[82.859659,54.9743712],[82.8596924,54.9742766],[82.859721,54.9742206],[82.8597335,54.9742074],[82.8597668,54.9741886],[82.8598369,54.9741444],[82.8598975,54.9741255],[82.8599851,54.9741074],[82.8600061,54.9741039],[82.860119,54.9740956],[82.8601374,54.9740959],[82.8602507,54.974098]]}},{"type":"Feature","properties":{"way_id":126405827,"route_colors":[],"route_refs":["2","16","10"]},"geometry":{"type":"LineString","coordinates":[[82.8602507,54.974098],[82.8603126,54.9741011],[82.8639087,54.9742821],[82.8639489,54.9742841],[82.8683459,54.9745054],[82.8696764,54.9745708],[82.8708915,54.9746299],[82.8723329,54.9747029],[82.8728491,54.9747273],[82.8744178,54.9748044],[82.8744798,54.9748074],[82.8771505,54.97493],[82.8779426,54.9749664],[82.87973,54.9750588],[82.8799544,54.9750718],[82.8801718,54.9751134],[82.8803382,54.9751711],[82.8804782,54.9752259],[82.8806264,54.9752958],[82.880857,54.9754216],[82.8810382,54.9755085],[82.8812194,54.9755785],[82.881327,54.9756162],[82.8814442,54.9756409],[82.8816234,54.9756628],[82.8825011,54.9756982],[82.8854408,54.9758167],[82.8856241,54.9758221],[82.8861434,54.9758482],[82.8877879,54.9759253],[82.8893876,54.9760002],[82.890339,54.9760447],[82.8961349,54.976316],[82.8964135,54.9763302],[82.8966362,54.97634],[82.8967123,54.9763429]]}},{"type":"Feature","properties":{"way_id":363538167,"route_colors":[],"route_refs":["2","16"]},"geometry":{"type":"LineString","coordinates":[[82.8967123,54.9763429],[82.8968434,54.9763476],[82.8968813,54.9763489],[82.8969298,54.9763624],[82.8970211,54.9764051],[82.8970669,54.9764552],[82.8970832,54.9765068],[82.8970972,54.9765512]]}},{"type":"Feature","properties":{"way_id":126548344,"route_colors":[],"route_refs":["2","15","18","16","3"]},"geometry":{"type":"LineString","coordinates":[[82.8970972,54.9765512],[82.8970954,54.9765632],[82.8970817,54.9766553],[82.896836,54.9783083],[82.8967682,54.9787645],[82.8967571,54.9788574],[82.8967437,54.9789493],[82.8967144,54.9790492],[82.8967004,54.9790701],[82.8966662,54.9791213],[82.8965869,54.9791876],[82.8964836,54.9792449],[82.8963879,54.9792936],[82.8963457,54.9793151],[82.8961153,54.979428],[82.8938672,54.9805281],[82.8933042,54.9808036],[82.8922106,54.9813388],[82.8917446,54.9815668],[82.8913912,54.9817397],[82.8905622,54.9821454],[82.8899791,54.9824182],[82.889737,54.9825315],[82.8896536,54.9826299],[82.8896598,54.9827478]]}},{"type":"Feature","properties":{"way_id":1195548795,"route_colors":[],"route_refs":["2","15","18","16","3"]},"geometry":{"type":"LineString","coordinates":[[82.8896598,54.9827478],[82.8897288,54.9828309],[82.8897458,54.9829102],[82.8897137,54.9830004],[82.8896294,54.9830794],[82.889503,54.9831369],[82.8894423,54.9831527]]}},{"type":"Feature","properties":{"way_id":127174858,"route_colors":[],"route_refs":["15","10"]},"geometry":{"type":"LineString","coordinates":[[82.9591475,54.96661],[82.9590451,54.9665993],[82.9589279,54.9665746],[82.9586817,54.966458],[82.9584921,54.9663447],[82.9583045,54.9662078],[82.958154,54.9661214],[82.9579431,54.9659987],[82.955639,54.9646578],[82.9528158,54.9630148],[82.9526955,54.9629448],[82.9482819,54.9603201],[82.948211,54.9602779],[82.9480019,54.960154],[82.9451281,54.9584512],[82.9447538,54.9582294],[82.9438497,54.9576936],[82.9436964,54.9576236],[82.9435479,54.9575778],[82.9434119,54.9575437],[82.943254,54.9575221],[82.9430477,54.9575051],[82.9428538,54.9575069],[82.942649,54.9575221],[82.9424708,54.9575437],[82.9423129,54.9575841],[82.9421722,54.957629],[82.942044,54.9576882],[82.9419545,54.9577383],[82.9417001,54.9578713],[82.9409364,54.9583043],[82.940844,54.9583567],[82.9401472,54.9587518],[82.9389968,54.9594041],[82.9386749,54.9595846],[82.9385287,54.9596665],[82.93578,54.9612119],[82.9356988,54.9612575],[82.9335945,54.9624401],[82.933362,54.9625578],[82.9331778,54.9626288],[82.9330757,54.9626502],[82.933002,54.9626571],[82.9328938,54.9626692],[82.9288791,54.9629184],[82.9269228,54.9630399],[82.9264506,54.9630692],[82.9263342,54.9630764],[82.922438,54.9633182],[82.9218779,54.963353],[82.9209672,54.9634095],[82.9166826,54.9636754],[82.9131388,54.9638954],[82.912373,54.9639429],[82.912275,54.963949],[82.9119596,54.9639686],[82.9100062,54.9640898],[82.9072166,54.964263],[82.9035869,54.9644883],[82.9029,54.9645309],[82.902689,54.964544],[82.902578,54.9645509],[82.9024526,54.9645553]]}},{"type":"Feature","properties":{"way_id":126482081,"route_colors":[],"route_refs":["15","10"]},"geometry":{"type":"LineString","coordinates":[[82.9024526,54.9645553],[82.9016055,54.9645932],[82.9014977,54.96461],[82.9014526,54.964623],[82.901389,54.9646568]]}},{"type":"Feature","properties":{"way_id":126482082,"route_colors":[],"route_refs":["15","18","3","10"]},"geometry":{"type":"LineString","coordinates":[[82.901389,54.9646568],[82.9013123,54.9647146],[82.9012403,54.9647628],[82.9011732,54.964833],[82.9011313,54.9648914],[82.9011061,54.9649266],[82.8997292,54.9681325]]}},{"type":"Feature","properties":{"way_id":126482079,"route_colors":[],"route_refs":["15","18","3","10"]},"geometry":{"type":"LineString","coordinates":[[82.8997292,54.9681325],[82.8991587,54.9693684]]}},{"type":"Feature","properties":{"way_id":126482077,"route_colors":[],"route_refs":["15","18","3","10"]},"geometry":{"type":"LineString","coordinates":[[82.8991587,54.9693684],[82.8981707,54.9713958],[82.8979341,54.9718213],[82.8978971,54.9719118],[82.8978352,54.9720633],[82.8977545,54.9722704],[82.8977466,54.972308],[82.8977051,54.9725058],[82.8976993,54.9725353],[82.8976612,54.97273],[82.8976524,54.9727752],[82.8975195,54.9736345],[82.8974298,54.9742148],[82.8973951,54.9744395],[82.8973193,54.9749294],[82.8973096,54.9749924],[82.8971754,54.9759212],[82.8971691,54.9759649],[82.8971577,54.9761336]]}},{"type":"Feature","properties":{"way_id":652926846,"route_colors":[],"route_refs":["15","18","3"]},"geometry":{"type":"LineString","coordinates":[[82.8971577,54.9761336],[82.8970972,54.9765512]]}},{"type":"Feature","properties":{"way_id":307295685,"route_colors":[],"route_refs":["15","18"]},"geometry":{"type":"LineString","coordinates":[[82.8894423,54.9831527],[82.8893109,54.983256],[82.8893074,54.9833366],[82.8893703,54.9834618],[82.8894571,54.9835147],[82.8895081,54.9835458],[82.8895284,54.9835578],[82.8903682,54.9840549],[82.8923123,54.9852014],[82.8924212,54.985266],[82.8925714,54.9853551],[82.8927811,54.9854798],[82.8979367,54.9885187],[82.8980415,54.9885836],[82.898153,54.9886484],[82.898265,54.9887154],[82.9004501,54.9900045],[82.9016485,54.9907115],[82.9019938,54.9909166],[82.9021119,54.9909804],[82.9021924,54.9910279],[82.9047576,54.9925409],[82.9048886,54.9926314],[82.9049676,54.9927091],[82.9049869,54.9927923],[82.9049783,54.9928578],[82.9049547,54.992922],[82.9048615,54.9929867],[82.9048021,54.9930152],[82.904747,54.9930372],[82.9046678,54.9930571],[82.9045286,54.9930733],[82.9043935,54.993081]]}},{"type":"Feature","properties":{"way_id":1528756251,"route_colors":[],"route_refs":["15","18"]},"geometry":{"type":"LineString","coordinates":[[82.9043935,54.993081],[82.9039633,54.9930626],[82.9029655,54.9930199],[82.9012317,54.9929456],[82.8995814,54.992875],[82.8994169,54.9928679],[82.8992439,54.9928605],[82.8976492,54.9927923],[82.8958072,54.9927134],[82.8954793,54.9926994]]}},{"type":"Feature","properties":{"way_id":1528756249,"route_colors":[],"route_refs":["15","18"]},"geometry":{"type":"LineString","coordinates":[[82.8954793,54.9926994],[82.8953903,54.9926955],[82.8952405,54.9926931],[82.8951679,54.9926952],[82.8950581,54.9927017],[82.8949747,54.9927128],[82.8948784,54.9927322],[82.894714,54.9927734],[82.894394,54.9928567],[82.8940526,54.9929493],[82.8938863,54.9929862],[82.893714,54.9930121],[82.8935226,54.9930186],[82.8932703,54.9930173],[82.8908518,54.9929021],[82.8865621,54.9926923],[82.8863139,54.9926852],[82.8847002,54.9926077],[82.882005,54.9924789],[82.8815156,54.9924555],[82.8813445,54.9924529],[82.8811531,54.992471],[82.8809864,54.9925033],[82.8808333,54.9925446],[82.8806486,54.9926014],[82.8804527,54.9926583],[82.8803315,54.9927066],[82.8802905,54.9927229],[82.8801126,54.9928082],[82.8799983,54.9928722],[82.879331,54.9932458],[82.8786633,54.9936197],[82.877598,54.9942055]]}},{"type":"Feature","properties":{"way_id":1434861887,"route_colors":[],"route_refs":["15","18"]},"geometry":{"type":"LineString","coordinates":[[82.8569119,54.9938456],[82.8568749,54.993778],[82.8568723,54.9937376],[82.8568681,54.9936708],[82.8568933,54.9935065]]}},{"type":"Feature","properties":{"way_id":127158892,"route_colors":[],"route_refs":["15"]},"geometry":{"type":"LineString","coordinates":[[82.8568933,54.9935065],[82.8569342,54.9932161],[82.8569845,54.992868]]}},{"type":"Feature","properties":{"way_id":126592081,"route_colors":[],"route_refs":["15"]},"geometry":{"type":"LineString","coordinates":[[82.8569845,54.992868],[82.8570721,54.9922117],[82.8571655,54.9916167]]}},{"type":"Feature","properties":{"way_id":126592095,"route_colors":[],"route_refs":["15","10"]},"geometry":{"type":"LineString","coordinates":[[82.8571655,54.9916167],[82.8573239,54.9905213],[82.8575181,54.9891787],[82.8575259,54.9891244],[82.8578111,54.9871497],[82.8579341,54.9862963],[82.8580785,54.9852945],[82.8581192,54.9850217],[82.8581726,54.9846525],[82.8582624,54.9840314],[82.8583422,54.9834794],[82.8584273,54.9828909],[82.8585155,54.9822712],[82.8586015,54.9816862]]}},{"type":"Feature","properties":{"way_id":126592094,"route_colors":[],"route_refs":["15","10"]},"geometry":{"type":"LineString","coordinates":[[82.8586015,54.9816862],[82.858616,54.9815859],[82.8586192,54.9815639],[82.8586346,54.9814584],[82.8586491,54.9813576],[82.8586725,54.9811949],[82.8586839,54.9811164]]}},{"type":"Feature","properties":{"way_id":126548323,"route_colors":[],"route_refs":["15"]},"geometry":{"type":"LineString","coordinates":[[82.859659,54.9743712],[82.8596813,54.974221],[82.8597003,54.974093],[82.8597312,54.9738851]]}},{"type":"Feature","properties":{"way_id":126548334,"route_colors":[],"route_refs":["15","16","10"]},"geometry":{"type":"LineString","coordinates":[[82.8597312,54.9738851],[82.8597443,54.9737965],[82.8597625,54.9736737],[82.859777,54.973576],[82.8599923,54.9721304],[82.8600372,54.9718287],[82.8600414,54.9718005],[82.8600651,54.9716409],[82.8601174,54.9712893],[82.8601214,54.9712679],[82.8601229,54.9712036],[82.8601211,54.9711296],[82.86011,54.9710714],[82.8600713,54.9710037],[82.8600142,54.9709286],[82.859946,54.9708694],[82.859783,54.9707399],[82.8596845,54.9706721],[82.8596695,54.9706617],[82.8596142,54.9705655],[82.8595992,54.9703458],[82.8595905,54.9700972],[82.8595638,54.9694469],[82.8595591,54.9693126],[82.859538,54.9690215],[82.8595265,54.9688632],[82.8595207,54.9687838],[82.859425,54.9684998],[82.8591744,54.9681609],[82.8584423,54.9674208],[82.8582576,54.967274],[82.858068,54.9671472],[82.8578107,54.9670194],[82.8574711,54.9668897],[82.8554584,54.9660118],[82.8541924,54.9654596],[82.8540407,54.9654058],[82.8538881,54.9653744],[82.8537408,54.9653662],[82.8536213,54.965374],[82.8535092,54.965393],[82.8534098,54.9654209],[82.8533809,54.965429],[82.8532248,54.9654969],[82.8531576,54.9655409],[82.8529115,54.9656995],[82.8527911,54.9657846],[82.8510343,54.9670434],[82.8489426,54.9685201],[82.848199,54.9690461],[82.847776,54.969375],[82.8464477,54.9703046],[82.8455577,54.9709095],[82.8454511,54.9709454],[82.845437,54.9709502],[82.8452749,54.9709768],[82.8450165,54.9709856],[82.8448451,54.9709671],[82.8446839,54.9709211],[82.8445176,54.9708513],[82.8436187,54.9704396],[82.8435164,54.9704048],[82.8434076,54.9703677],[82.8432216,54.9703192],[82.8429789,54.97027],[82.8427138,54.9702322],[82.8414731,54.9701736],[82.8383804,54.9700275]]}},{"type":"Feature","properties":{"way_id":126548357,"route_colors":[],"route_refs":["15","16"]},"geometry":{"type":"LineString","coordinates":[[82.8383804,54.9700275],[82.8382449,54.9700169],[82.8381223,54.9700119],[82.8380003,54.9699987],[82.8378849,54.9699694],[82.8377431,54.9699107],[82.8376548,54.9698469],[82.8376145,54.9697564],[82.837611,54.969691]]}},{"type":"Feature","properties":{"way_id":126548331,"route_colors":[],"route_refs":["15","18","16"]},"geometry":{"type":"LineString","coordinates":[[82.837611,54.969691],[82.8377588,54.9686623],[82.8378372,54.9681164],[82.8380444,54.9666894],[82.8383418,54.96464],[82.8383699,54.9644462],[82.8384276,54.9641374],[82.8385121,54.9638581],[82.8386564,54.9635611],[82.8387934,54.9633349],[82.8388295,54.9632736],[82.8389116,54.9631592],[82.8390088,54.9630239],[82.8393077,54.9626772],[82.8395705,54.9624088],[82.839654,54.9623234],[82.8397797,54.9621956],[82.8398152,54.9621034],[82.8397926,54.9620182],[82.8397204,54.961933],[82.83957,54.9618442],[82.839403,54.9617945],[82.8392134,54.9617815],[82.8390691,54.9617981],[82.8389331,54.9618466],[82.838797,54.9619259],[82.8386527,54.9620128]]}},{"type":"Feature","properties":{"way_id":1195656616,"route_colors":[],"route_refs":["15","18","16"]},"geometry":{"type":"LineString","coordinates":[[82.8386527,54.9620128],[82.8382529,54.9622537],[82.8381622,54.962314],[82.8380674,54.9623554],[82.8379623,54.9623838],[82.8378633,54.9623921],[82.8377376,54.9623708],[82.8373625,54.9621815],[82.837179,54.9620608],[82.8371523,54.9619993],[82.8371358,54.9619247],[82.8371378,54.9618573],[82.8371564,54.9618016],[82.8372079,54.9617531],[82.838088,54.9612443],[82.8382323,54.9611934],[82.8383539,54.9611827],[82.8384734,54.9611922],[82.8385786,54.9612336],[82.8389021,54.9613958],[82.8390114,54.9614963]]}},{"type":"Feature","properties":{"way_id":1195656617,"route_colors":[],"route_refs":["15","18","16"]},"geometry":{"type":"LineString","coordinates":[[82.8390114,54.9614963],[82.8390877,54.961546],[82.8394483,54.9617188],[82.8396215,54.961804],[82.8397843,54.9619022],[82.8398503,54.9619638],[82.8398729,54.9620135],[82.8398709,54.9620975],[82.8398358,54.9621933],[82.8396957,54.9623353],[82.8396057,54.9624284],[82.8393515,54.9626915],[82.8390464,54.9630382],[82.8390348,54.9630554],[82.8389573,54.9631699],[82.8388815,54.963282],[82.8388582,54.9633222]]}},{"type":"Feature","properties":{"way_id":1434861885,"route_colors":[],"route_refs":["15","18"]},"geometry":{"type":"LineString","coordinates":[[82.877598,54.9942055],[82.8763327,54.9949026]]}},{"type":"Feature","properties":{"way_id":1431655149,"route_colors":[],"route_refs":["15","18"]},"geometry":{"type":"LineString","coordinates":[[82.8763327,54.9949026],[82.8761938,54.9949745],[82.8760425,54.995035],[82.8758964,54.9950834],[82.8757385,54.9951238],[82.8754039,54.9951884],[82.8750417,54.9952306],[82.8748528,54.9952472],[82.8746347,54.9952588],[82.8744266,54.9952651],[82.8741599,54.9952648],[82.8702079,54.9950861],[82.8664321,54.9949153]]}},{"type":"Feature","properties":{"way_id":1431655150,"route_colors":[],"route_refs":["15","18"]},"geometry":{"type":"LineString","coordinates":[[82.8664321,54.9949153],[82.8612443,54.9946878],[82.8601022,54.9946514],[82.8598507,54.9946458],[82.859672,54.9946446],[82.8590989,54.9946489],[82.8585957,54.9946625],[82.8584348,54.9946588],[82.8582781,54.9946502],[82.8581409,54.9946348],[82.8580335,54.9946157],[82.8578834,54.9945683],[82.8573036,54.994272]]}},{"type":"Feature","properties":{"way_id":1432455184,"route_colors":[],"route_refs":["15","18"]},"geometry":{"type":"LineString","coordinates":[[82.8573036,54.994272],[82.857189,54.9941867],[82.8571053,54.9941124],[82.8570641,54.9940765],[82.8570239,54.9940411],[82.8569693,54.9939657],[82.8569119,54.9938456]]}},{"type":"Feature","properties":{"way_id":127158894,"route_colors":[],"route_refs":["15","18","16"]},"geometry":{"type":"LineString","coordinates":[[82.8388582,54.9633222],[82.8387228,54.9635695],[82.8385812,54.9638668],[82.8385049,54.9641413],[82.8384493,54.9644502],[82.8384211,54.964643],[82.838121,54.9666932],[82.8379316,54.967988],[82.8378322,54.9686547],[82.8376776,54.9696914]]}},{"type":"Feature","properties":{"way_id":126548355,"route_colors":[],"route_refs":["15","16"]},"geometry":{"type":"LineString","coordinates":[[82.8376776,54.9696914],[82.8376804,54.9697621],[82.8377002,54.9698103],[82.8377893,54.9698842],[82.8379096,54.9699391],[82.8380053,54.9699665],[82.8381273,54.9699836],[82.8382444,54.9699902],[82.8383813,54.9699946]]}},{"type":"Feature","properties":{"way_id":126548329,"route_colors":[],"route_refs":["15","16"]},"geometry":{"type":"LineString","coordinates":[[82.8383813,54.9699946],[82.8414784,54.97014],[82.8424496,54.9701855],[82.8427153,54.970198],[82.842993,54.9702298],[82.8432476,54.9702768],[82.8434362,54.9703252],[82.8435273,54.9703586],[82.8436631,54.9704085],[82.8443745,54.9707402],[82.844552,54.970827],[82.844707,54.9708904],[82.8448637,54.9709311],[82.8450203,54.9709491],[82.8452627,54.9709453],[82.8454104,54.9709274],[82.8455157,54.9708925],[82.8464041,54.9702845],[82.8477263,54.9693525],[82.8481506,54.9690302],[82.8489001,54.9685004],[82.8509901,54.9670231],[82.8526823,54.9658099],[82.8528589,54.9656865],[82.8531052,54.9655182],[82.8531675,54.9654753],[82.8533364,54.9653988],[82.8533521,54.9653951],[82.8534815,54.9653647],[82.8536094,54.9653473],[82.8537387,54.9653405],[82.8538917,54.9653427],[82.8540659,54.9653723],[82.8542323,54.9654313],[82.8555004,54.9659823],[82.8575084,54.9668547],[82.8578423,54.9669872],[82.8581061,54.9671233],[82.8582999,54.9672511],[82.8584916,54.9673954],[82.859233,54.96815],[82.8594906,54.9684827],[82.8596073,54.9687716],[82.8596112,54.968875],[82.859616,54.9690039],[82.8596277,54.9693141],[82.8596562,54.9702771],[82.859659,54.9703728],[82.8596627,54.9704775],[82.859689,54.9705514],[82.8597539,54.9706157],[82.8598305,54.9706765],[82.860031,54.9708357],[82.8600929,54.9709026],[82.8601386,54.9709795],[82.8601622,54.9710735],[82.860174,54.9711344],[82.8601769,54.9712054],[82.8601696,54.9712917],[82.8601297,54.971562],[82.8600936,54.9718123],[82.8598252,54.9736734],[82.8597938,54.9738912]]}},{"type":"Feature","properties":{"way_id":126548321,"route_colors":[],"route_refs":["15"]},"geometry":{"type":"LineString","coordinates":[[82.8597938,54.9738912],[82.8597742,54.974003],[82.8597604,54.9740957],[82.8597335,54.9742074],[82.8597326,54.9742205],[82.8597155,54.9743704]]}},{"type":"Feature","properties":{"way_id":127161810,"route_colors":[],"route_refs":["15"]},"geometry":{"type":"LineString","coordinates":[[82.8587384,54.9811201],[82.8587069,54.9813523],[82.8586932,54.9814576],[82.8586722,54.9815879],[82.8586562,54.9816871]]}},{"type":"Feature","properties":{"way_id":652926847,"route_colors":[],"route_refs":["15","18","3"]},"geometry":{"type":"LineString","coordinates":[[82.897054,54.9765536],[82.8970669,54.9764552],[82.8971056,54.9762094],[82.8971225,54.9761251]]}},{"type":"Feature","properties":{"way_id":126548336,"route_colors":[],"route_refs":["15","18","3","10"]},"geometry":{"type":"LineString","coordinates":[[82.8971225,54.9761251],[82.8971525,54.9759203],[82.8972886,54.9749914],[82.8972978,54.9749283],[82.8974025,54.9742135],[82.8974995,54.9735516],[82.8976131,54.972776],[82.8976211,54.9727294],[82.8976546,54.9725339],[82.8976939,54.9723052],[82.8977004,54.9722673],[82.8977861,54.9720584],[82.8978915,54.9718202],[82.8979057,54.9717937],[82.8981218,54.9713888],[82.8990987,54.9693593]]}},{"type":"Feature","properties":{"way_id":126482078,"route_colors":[],"route_refs":["15","18","3","10"]},"geometry":{"type":"LineString","coordinates":[[82.8990987,54.9693593],[82.8996818,54.9681253]]}},{"type":"Feature","properties":{"way_id":126482080,"route_colors":[],"route_refs":["15","18","3","10"]},"geometry":{"type":"LineString","coordinates":[[82.8996818,54.9681253],[82.9010605,54.9649183],[82.9010886,54.9648805],[82.9011301,54.9648247],[82.9012068,54.9647504],[82.9013222,54.9646582]]}},{"type":"Feature","properties":{"way_id":126482083,"route_colors":[],"route_refs":["15","10"]},"geometry":{"type":"LineString","coordinates":[[82.9013415,54.964643],[82.9014426,54.9645958],[82.9014936,54.9645808],[82.9016573,54.9645565],[82.9022259,54.9645311],[82.9024535,54.9645214]]}},{"type":"Feature","properties":{"way_id":126405828,"route_colors":[],"route_refs":["15","10"]},"geometry":{"type":"LineString","coordinates":[[82.9024535,54.9645214],[82.9025781,54.9645151],[82.9026813,54.9645089],[82.9028932,54.9644961],[82.9035075,54.964459],[82.9072087,54.96423],[82.9100012,54.9640573],[82.9118417,54.9639435],[82.9122673,54.9639172],[82.9123677,54.963911],[82.9131352,54.9638635],[82.9166784,54.963645],[82.9209608,54.9633808],[82.9217279,54.9633319],[82.9224349,54.9632882],[82.9263751,54.9630445],[82.9264453,54.9630402],[82.9288744,54.9628899],[82.9328912,54.9626414],[82.933012,54.9626272],[82.9331616,54.9625996],[82.9333223,54.9625373],[82.9335686,54.9624245],[82.9355248,54.9613192],[82.9357462,54.961194],[82.9384887,54.959644],[82.9386375,54.9595601],[82.9389556,54.9593807],[82.9401126,54.9587337],[82.9408167,54.9583399],[82.9408625,54.9583143],[82.9416746,54.9578602],[82.9419248,54.9577186],[82.9420068,54.9576672],[82.9421475,54.957601],[82.9422902,54.9575527],[82.9424563,54.9575124],[82.9426458,54.9574877],[82.9428588,54.9574731],[82.9430601,54.9574764],[82.9432712,54.9574922],[82.9434373,54.9575146],[82.943578,54.9575494],[82.9437363,54.9575987],[82.9438867,54.9576739],[82.9444221,54.957991],[82.9451628,54.9584296],[82.9478959,54.9600481],[82.9480414,54.9601342],[82.9482487,54.960257],[82.9483162,54.9602968],[82.9525475,54.9627888],[82.9528807,54.9629844],[82.9556842,54.9646304],[82.9579244,54.9659456],[82.9579859,54.9659818],[82.9581853,54.966099],[82.9584452,54.9662022],[82.9585918,54.9662314],[82.9587207,54.9662246],[82.9588575,54.966191],[82.9589597,54.9661624]]}},{"type":"Feature","properties":{"way_id":1195548794,"route_colors":[],"route_refs":["15","10"]},"geometry":{"type":"LineString","coordinates":[[82.9589597,54.9661624],[82.9590139,54.9661472],[82.9591311,54.9661158],[82.9592718,54.9661023],[82.9593988,54.9661124],[82.9595063,54.9661405],[82.9596216,54.966191],[82.9596881,54.9662482],[82.9597271,54.966311],[82.9597252,54.9663985],[82.9596881,54.9664759],[82.9596197,54.9665421],[82.9595454,54.9665802],[82.9594047,54.9666161],[82.9592386,54.9666195],[82.9591475,54.96661]]}},{"type":"Feature","properties":{"way_id":127158893,"route_colors":[],"route_refs":["18"]},"geometry":{"type":"LineString","coordinates":[[82.9327898,54.9397764],[82.9326856,54.9398328],[82.9326307,54.9398498],[82.9325432,54.9398768],[82.932423,54.9398851],[82.9318216,54.9399269]]}},{"type":"Feature","properties":{"way_id":297431472,"route_colors":[],"route_refs":["18"]},"geometry":{"type":"LineString","coordinates":[[82.9318216,54.9399269],[82.9302121,54.9400422],[82.9274074,54.9402099],[82.9272032,54.9402213],[82.9266046,54.940254],[82.9259426,54.9402901],[82.9202597,54.9406261],[82.9198859,54.9406482],[82.9152562,54.9409335],[82.9147668,54.9409636],[82.9096227,54.941277],[82.9065643,54.9414627],[82.9062008,54.9414848],[82.9058912,54.9415033],[82.9003938,54.9418315],[82.9002207,54.9418418],[82.9001101,54.9418484],[82.899877,54.9418623],[82.8993489,54.9418938],[82.8990647,54.9419108],[82.8988843,54.9419268],[82.8987845,54.9419554],[82.8986763,54.9419832],[82.898601,54.9420091],[82.8985497,54.942046],[82.8985339,54.9420845],[82.8985168,54.942126],[82.8984985,54.9422299]]}},{"type":"Feature","properties":{"way_id":46331078,"route_colors":[],"route_refs":["18","3"]},"geometry":{"type":"LineString","coordinates":[[82.8984985,54.9422299],[82.8984907,54.9423288],[82.8984533,54.9424301],[82.8983849,54.9424957],[82.8982666,54.9425537]]}},{"type":"Feature","properties":{"way_id":126405835,"route_colors":[],"route_refs":["18","3"]},"geometry":{"type":"LineString","coordinates":[[82.8982666,54.9425537],[82.8982025,54.9426268],[82.8981533,54.9426866],[82.8980999,54.9427717],[82.8980793,54.9428492],[82.8980843,54.9429192],[82.8980881,54.9429714],[82.8982787,54.9439881],[82.8983665,54.944456],[82.8984353,54.9448236],[82.8984435,54.9448675],[82.898467,54.9449927],[82.8985293,54.9453247],[82.8987216,54.946351],[82.8987946,54.94674],[82.8990364,54.9480276],[82.8990825,54.948276],[82.8992215,54.9490173],[82.8993859,54.9499122],[82.8994339,54.9501683],[82.8994562,54.9502812],[82.8995068,54.9505326],[82.8995155,54.9505749],[82.8995275,54.9506618],[82.8995355,54.9506924],[82.899564,54.9508416],[82.8995759,54.9509088],[82.8996329,54.9512134],[82.8998002,54.9521379],[82.899942,54.9529216],[82.9000444,54.9535058],[82.900301,54.9547904]]}},{"type":"Feature","properties":{"way_id":126405832,"route_colors":[],"route_refs":["18","3"]},"geometry":{"type":"LineString","coordinates":[[82.900301,54.9547904],[82.9006327,54.9566104]]}},{"type":"Feature","properties":{"way_id":126405829,"route_colors":[],"route_refs":["18","3"]},"geometry":{"type":"LineString","coordinates":[[82.9006327,54.9566104],[82.9014238,54.9611401],[82.9017596,54.9630576],[82.9017852,54.9631991],[82.9017886,54.9632721],[82.901797,54.9634441],[82.901753,54.9636392],[82.901712,54.9637471],[82.9016975,54.9638318],[82.9017012,54.9639027],[82.9017729,54.964249]]}},{"type":"Feature","properties":{"way_id":126405845,"route_colors":[],"route_refs":["18","3"]},"geometry":{"type":"LineString","coordinates":[[82.9017729,54.964249],[82.9017701,54.9642908],[82.9017612,54.9643158],[82.9017376,54.9643826],[82.9016638,54.9644546],[82.9014936,54.9645808],[82.901389,54.9646568]]}},{"type":"Feature","properties":{"way_id":126548335,"route_colors":[],"route_refs":["18"]},"geometry":{"type":"LineString","coordinates":[[82.8568933,54.9935065],[82.8568648,54.9933813],[82.8568698,54.9932693],[82.8568418,54.9932116],[82.8568149,54.9931509],[82.8568317,54.9929455],[82.8568358,54.9928166],[82.8567946,54.9927196],[82.8566586,54.9925683],[82.8564751,54.9924748],[82.8560753,54.9923684],[82.8560132,54.9923602],[82.8557414,54.9923247],[82.8547946,54.9922975],[82.8532206,54.992249],[82.8527017,54.9922514],[82.8524709,54.992262],[82.8522915,54.9923046],[82.8521019,54.9923814],[82.8508694,54.9929927],[82.8506365,54.9931204],[82.8505004,54.9932304],[82.8504221,54.993338],[82.8502634,54.9936691],[82.8502529,54.9936793],[82.8502258,54.9937056],[82.8501636,54.993766],[82.8501006,54.9938027],[82.8499996,54.9938287],[82.8498285,54.993837],[82.8497938,54.9938347],[82.8495935,54.9938216],[82.84828,54.9937045],[82.8478086,54.9936608],[82.8475521,54.9936407],[82.8469347,54.9935922],[82.8454916,54.9935243],[82.8437766,54.9934437],[82.8434228,54.9934265],[82.841399,54.9933278],[82.8405797,54.9932881],[82.8394503,54.9932362],[82.838269,54.9931815],[82.8368414,54.9931147],[82.8352148,54.9930387],[82.8350843,54.9930134],[82.8349777,54.9929928],[82.8348386,54.9929367],[82.8347149,54.9928436],[82.8346909,54.9928116],[82.8346196,54.9927165],[82.8345835,54.9925849],[82.8345823,54.9924823],[82.8345861,54.9923647],[82.8348209,54.9906447],[82.834886,54.9901678],[82.8349257,54.9898771],[82.8349378,54.9897887],[82.835039,54.9890629],[82.8350622,54.9889159],[82.8351099,54.9885539],[82.8351303,54.988235],[82.835138,54.9881151],[82.8351342,54.9877043],[82.8351279,54.9872233],[82.8351272,54.9871702],[82.83511,54.9870173],[82.8350469,54.9867821],[82.8350357,54.9867118],[82.8350139,54.9865028],[82.835006,54.9863166],[82.8350058,54.986254],[82.835005,54.986014],[82.8350051,54.9859043],[82.8350177,54.9856934],[82.835034,54.9854209],[82.8350501,54.9850383],[82.8350726,54.9845172],[82.8351306,54.9839481],[82.8351865,54.9835079],[82.8352208,54.9832384],[82.8352658,54.9829469],[82.8353573,54.9823533],[82.8354417,54.981782],[82.8355272,54.9811715],[82.8355753,54.9808472],[82.8356025,54.9804727],[82.8356103,54.980365],[82.8356166,54.9802777],[82.8356204,54.980245],[82.835666,54.9800656],[82.8357281,54.9796381],[82.8358162,54.9790312],[82.8359076,54.9784012],[82.8359935,54.9778097],[82.8360779,54.9772284],[82.8361773,54.9765436],[82.8362312,54.9761721],[82.8362768,54.9758485],[82.8362965,54.9757188],[82.8363279,54.9755608],[82.8364087,54.9754169],[82.8365027,54.97531],[82.8366049,54.9752418],[82.836717,54.9751633],[82.8367731,54.9750866],[82.8368258,54.9749551],[82.8368529,54.9747903],[82.8369449,54.9741709],[82.8370914,54.9732101],[82.8373497,54.9715172],[82.8373808,54.971313],[82.8375061,54.9704914]]}},{"type":"Feature","properties":{"way_id":126548322,"route_colors":[],"route_refs":["18"]},"geometry":{"type":"LineString","coordinates":[[82.8375061,54.9704914],[82.837611,54.969691]]}},{"type":"Feature","properties":{"way_id":126548326,"route_colors":[],"route_refs":["18"]},"geometry":{"type":"LineString","coordinates":[[82.8376776,54.9696914],[82.8376548,54.9698469],[82.8375876,54.9703062],[82.8375616,54.9704944]]}},{"type":"Feature","properties":{"way_id":126548333,"route_colors":[],"route_refs":["18","10"]},"geometry":{"type":"LineString","coordinates":[[82.8375616,54.9704944],[82.837436,54.9713461],[82.8374075,54.9715391],[82.8371633,54.9731938],[82.8370606,54.9738903],[82.8370502,54.9739605],[82.8369353,54.9747819],[82.836902,54.9749571],[82.8368559,54.9750877],[82.8367718,54.9751767],[82.8366382,54.97526],[82.8365393,54.97533],[82.8364667,54.9754227],[82.8363909,54.9755647],[82.8363612,54.9757142],[82.836343,54.9758476],[82.8362862,54.9762524],[82.8362426,54.9765498],[82.836143,54.97723],[82.8360576,54.9778128],[82.8359709,54.9784043],[82.8358787,54.9790339],[82.8357898,54.9796407],[82.8357268,54.9800706],[82.8356803,54.9802479],[82.8356763,54.9802806],[82.8356694,54.9803681],[82.8356612,54.980472],[82.8356314,54.9808524],[82.8355864,54.981174],[82.8355019,54.9817775],[82.8354209,54.9823565],[82.8353379,54.9829496],[82.8352964,54.983246],[82.8352612,54.9835112],[82.8352037,54.9839438],[82.8351444,54.9845159],[82.8351187,54.9850378],[82.8350955,54.9854221],[82.8350907,54.9855475],[82.8350778,54.9856997],[82.8350697,54.9860179],[82.8350736,54.9862435],[82.8350749,54.986315],[82.8350826,54.9865013],[82.8351111,54.9867052],[82.835129,54.9867881],[82.8351831,54.9870202],[82.835196,54.9871665],[82.8351954,54.9872267],[82.8351903,54.9877074],[82.8351898,54.9881108],[82.8351857,54.9882364],[82.8351754,54.9885554],[82.8351411,54.988863],[82.835105,54.9890657],[82.8350053,54.9897878],[82.8349928,54.9898805],[82.8348894,54.990648],[82.8346576,54.9923677],[82.8346538,54.9924387],[82.8346494,54.9925818],[82.8346782,54.9927071],[82.8347576,54.9928178],[82.8347689,54.9928336],[82.834874,54.9929176],[82.8350018,54.9929661],[82.8350971,54.9929821],[82.8352257,54.9930037],[82.8368564,54.993082],[82.8382677,54.9931498],[82.8394522,54.9932063],[82.8405915,54.9932607],[82.8413974,54.9933002],[82.8422488,54.9933405],[82.8434266,54.9933956],[82.845495,54.9934925],[82.8469385,54.9935601],[82.8475564,54.9936116],[82.8478186,54.9936334],[82.8482869,54.9936734],[82.8496118,54.9937895],[82.8498333,54.9938058],[82.8499894,54.9937949],[82.8500791,54.993775],[82.8501177,54.993752],[82.8501786,54.9936923],[82.8502111,54.9936605],[82.8502572,54.9935599],[82.8503623,54.9933303],[82.8504425,54.9932195],[82.850587,54.9931003],[82.8508424,54.9929683],[82.8520687,54.9923535],[82.8522732,54.9922732],[82.8524526,54.9922354],[82.8527085,54.9922195],[82.8532216,54.9922074],[82.8548031,54.9922578],[82.855749,54.9922899],[82.8558588,54.9923026]]}},{"type":"Feature","properties":{"way_id":652940859,"route_colors":[],"route_refs":["18"]},"geometry":{"type":"LineString","coordinates":[[82.8558588,54.9923026],[82.8560146,54.9923259],[82.8561079,54.9923383],[82.8565049,54.9924306],[82.8567146,54.9925449],[82.8568175,54.9926251],[82.8568927,54.9927159],[82.8569442,54.9928068],[82.8569845,54.992868],[82.8570244,54.9929579]]}},{"type":"Feature","properties":{"way_id":126405844,"route_colors":[],"route_refs":["18","3"]},"geometry":{"type":"LineString","coordinates":[[82.9013222,54.9646582],[82.9013415,54.964643],[82.9014683,54.9645535],[82.9016263,54.9644353],[82.901679,54.9643761],[82.9017126,54.9643086],[82.9017155,54.9642704]]}},{"type":"Feature","properties":{"way_id":126482084,"route_colors":[],"route_refs":["18","3"]},"geometry":{"type":"LineString","coordinates":[[82.9017155,54.9642704],[82.9016433,54.9639037],[82.9016426,54.9638063],[82.9016611,54.9637282],[82.9016915,54.9636291],[82.9017413,54.9634407],[82.9017291,54.9632751],[82.9017237,54.9632018],[82.901699,54.9630615],[82.901362,54.9611434],[82.9005679,54.9566142]]}},{"type":"Feature","properties":{"way_id":126405831,"route_colors":[],"route_refs":["18","3"]},"geometry":{"type":"LineString","coordinates":[[82.9005679,54.9566142],[82.9002275,54.9547948]]}},{"type":"Feature","properties":{"way_id":126405834,"route_colors":[],"route_refs":["18","3"]},"geometry":{"type":"LineString","coordinates":[[82.9002275,54.9547948],[82.8999849,54.9535082],[82.8998797,54.9529257],[82.8997357,54.9521421],[82.8995636,54.951205],[82.8995096,54.9509135],[82.8994975,54.9508444],[82.899466,54.9506857],[82.8994467,54.9505399],[82.8993657,54.9501651],[82.8993291,54.9499213],[82.8991618,54.9490212],[82.8990236,54.9482781],[82.8989782,54.9480312],[82.8987382,54.9467423],[82.898666,54.9463539],[82.8984754,54.9453283],[82.8984135,54.9449953],[82.8983898,54.9448676],[82.8983821,54.9448261],[82.8983146,54.9444607],[82.8982267,54.9439905],[82.8980369,54.942969],[82.8980184,54.9429233],[82.8979874,54.9428468],[82.8979434,54.9427667],[82.8978822,54.9427058],[82.8977748,54.9426123]]}},{"type":"Feature","properties":{"way_id":46331077,"route_colors":[],"route_refs":["18","3"]},"geometry":{"type":"LineString","coordinates":[[82.8977748,54.9426123],[82.8976301,54.9425662],[82.8975125,54.9425159],[82.8974251,54.9424755]]}},{"type":"Feature","properties":{"way_id":46331070,"route_colors":[],"route_refs":["18"]},"geometry":{"type":"LineString","coordinates":[[82.8974251,54.9424755],[82.8973633,54.942412],[82.8973405,54.9423333],[82.8973498,54.9422368],[82.8974117,54.9421306]]}},{"type":"Feature","properties":{"way_id":46331073,"route_colors":[],"route_refs":["18","3"]},"geometry":{"type":"LineString","coordinates":[[82.8974117,54.9421306],[82.897583,54.9420054],[82.8977126,54.9419662],[82.897853,54.9419442],[82.8980084,54.9419453]]}},{"type":"Feature","properties":{"way_id":126405840,"route_colors":[],"route_refs":["18"]},"geometry":{"type":"LineString","coordinates":[[82.8980084,54.9419453],[82.8983349,54.94192],[82.8990484,54.9418663],[82.8993415,54.9418489],[82.8998721,54.9418174],[82.9000978,54.941804],[82.9002469,54.9417951],[82.9003896,54.9417866],[82.9058842,54.9414604],[82.9063372,54.9414335],[82.9066504,54.9414149],[82.9096081,54.9412357],[82.9148614,54.9409178],[82.9151763,54.9408984],[82.91995,54.9406044],[82.9201954,54.94059],[82.9259435,54.940252],[82.9265974,54.9402136],[82.9271983,54.9401827],[82.9273548,54.9401686],[82.9302034,54.9399955],[82.9314801,54.9399064],[82.9316518,54.9398944],[82.9317375,54.939879],[82.931802,54.9398475]]}},{"type":"Feature","properties":{"way_id":297431474,"route_colors":[],"route_refs":["18"]},"geometry":{"type":"LineString","coordinates":[[82.931802,54.9398475],[82.931899,54.9397739],[82.9319828,54.9396112],[82.9320335,54.9394259],[82.9321059,54.9393568],[82.9322263,54.939305],[82.9323514,54.9392725],[82.9324853,54.9392501],[82.932671,54.939259],[82.9327975,54.9392818],[82.9329055,54.9393323],[82.9329885,54.9393914],[82.9330318,54.9394654],[82.9330465,54.9395306],[82.933024,54.9395961],[82.9329756,54.9396464],[82.9328973,54.9397119],[82.9327898,54.9397764]]}},{"type":"Feature","properties":{"way_id":126548337,"route_colors":[],"route_refs":["16","10"]},"geometry":{"type":"LineString","coordinates":[[82.8602434,54.9741324],[82.8601319,54.9741217],[82.8600844,54.9741171],[82.8600061,54.9741039],[82.8599314,54.9740913],[82.8598802,54.9740765],[82.8598484,54.9740633],[82.8598244,54.9740461],[82.8597977,54.9740244],[82.8597742,54.974003],[82.8597546,54.9739638],[82.8597312,54.9738851]]}},{"type":"Feature","properties":{"way_id":126548351,"route_colors":[],"route_refs":["16"]},"geometry":{"type":"LineString","coordinates":[[82.8597938,54.9738912],[82.859814,54.9739544],[82.8598557,54.9740066],[82.8598777,54.9740244],[82.8599139,54.9740401],[82.8599687,54.9740599],[82.8600128,54.9740692],[82.8600771,54.9740805],[82.8601393,54.9740868],[82.8602507,54.974098]]}},{"type":"Feature","properties":{"way_id":126340830,"route_colors":[],"route_refs":["3"]},"geometry":{"type":"LineString","coordinates":[[82.844527,54.9451525],[82.8446269,54.9451802],[82.8448843,54.9452426],[82.8450189,54.9452796],[82.845185,54.9453254],[82.8452836,54.9453492],[82.8456038,54.945355],[82.846723,54.9452877],[82.8501989,54.9450832],[82.8505121,54.9450647],[82.855797,54.9447352],[82.8566011,54.9446857],[82.8568575,54.9446665],[82.8605874,54.9444398],[82.8650295,54.9441732],[82.8663992,54.9440931],[82.8672725,54.9440411],[82.875536,54.9435406],[82.8763849,54.9434914],[82.8784971,54.943361],[82.878728,54.9433469],[82.8827183,54.9431033],[82.8842367,54.9430173],[82.8848438,54.9429829],[82.8852238,54.9429614],[82.885539,54.942942],[82.8864581,54.9428853],[82.8882273,54.9427761],[82.8896964,54.9426855],[82.8926252,54.9425048],[82.8955451,54.9423247],[82.8960241,54.9423025],[82.8965925,54.9422764],[82.8966469,54.9422729],[82.8968433,54.9422588],[82.8970399,54.9422435],[82.897162,54.9422266],[82.8971915,54.9422122],[82.8973025,54.9421749],[82.8974117,54.9421306]]}},{"type":"Feature","properties":{"way_id":46331075,"route_colors":[],"route_refs":["3"]},"geometry":{"type":"LineString","coordinates":[[82.8980084,54.9419453],[82.8981461,54.9419653],[82.8982891,54.9420126],[82.8983919,54.9420722],[82.8984579,54.9421465],[82.8984985,54.9422299]]}},{"type":"Feature","properties":{"way_id":127161811,"route_colors":[],"route_refs":["3"]},"geometry":{"type":"LineString","coordinates":[[82.8974251,54.9424755],[82.8972098,54.9423893],[82.8971747,54.9423718],[82.8970132,54.942329],[82.8968433,54.9423064],[82.8966552,54.9423127],[82.8966035,54.9423163],[82.8960352,54.942344],[82.8957995,54.9423557],[82.8926339,54.9425471],[82.889701,54.9427276],[82.8882348,54.9428178],[82.8864609,54.942927],[82.8855467,54.9429832],[82.8853763,54.9429937],[82.8848512,54.9430245],[82.8842446,54.94306],[82.8827276,54.9431497],[82.8787335,54.9433957],[82.8786555,54.9434005],[82.8763935,54.9435344],[82.8755442,54.943587],[82.8672808,54.9440818],[82.866408,54.9441339],[82.8648683,54.9442253],[82.8605931,54.9444796],[82.8569908,54.9447031],[82.8566073,54.9447267],[82.8558075,54.9447761],[82.8505116,54.9451017],[82.8502066,54.9451195],[82.8467298,54.945323],[82.8456064,54.9453883],[82.8452843,54.9453794],[82.8451154,54.9453427],[82.8450014,54.9453128],[82.8448642,54.9452772],[82.8447409,54.9452485],[82.8446055,54.9452147],[82.8443793,54.9451571],[82.8442584,54.9451297]]}},{"type":"Feature","properties":{"way_id":1195548790,"route_colors":[],"route_refs":["3"]},"geometry":{"type":"LineString","coordinates":[[82.8442584,54.9451297],[82.8441759,54.945111],[82.8439378,54.9450856],[82.8437411,54.9450649],[82.8434761,54.9450403],[82.84325,54.9450011],[82.8431028,54.9449519],[82.8429917,54.9448989],[82.8428807,54.9448305],[82.8428084,54.944769],[82.8427843,54.9447121],[82.8427964,54.9446514],[82.8428378,54.9445861],[82.8429074,54.9445208],[82.8429717,54.94448],[82.8430506,54.9444439],[82.843155,54.9444216],[82.8432593,54.9444178],[82.8433584,54.9444293],[82.8434654,54.9444593],[82.8435537,54.9445108],[82.8436742,54.9446114],[82.8438093,54.9447496]]}},{"type":"Feature","properties":{"way_id":1195548791,"route_colors":[],"route_refs":["3"]},"geometry":{"type":"LineString","coordinates":[[82.8438093,54.9447496],[82.8438628,54.9448043],[82.8440087,54.9449427],[82.8441518,54.9450265],[82.8442857,54.945081],[82.8444074,54.9451194],[82.844527,54.9451525]]}},{"type":"Feature","properties":{"way_id":652926848,"route_colors":[],"route_refs":["10"]},"geometry":{"type":"LineString","coordinates":[[82.8971577,54.9761336],[82.8971316,54.9761735],[82.8971132,54.9762017],[82.8971056,54.9762094],[82.8970489,54.9762669],[82.8969435,54.9763255],[82.8968434,54.9763476],[82.8967202,54.9763761]]}},{"type":"Feature","properties":{"way_id":126548350,"route_colors":[],"route_refs":["10"]},"geometry":{"type":"LineString","coordinates":[[82.8383804,54.9700275],[82.8381982,54.9700564],[82.8380646,54.9700896],[82.8378717,54.9701587],[82.8377365,54.9702315],[82.837631,54.9703139],[82.8375947,54.9703678],[82.8375616,54.9704944]]}},{"type":"Feature","properties":{"way_id":126548315,"route_colors":[],"route_refs":["10"]},"geometry":{"type":"LineString","coordinates":[[82.8558588,54.9923026],[82.8560158,54.9923097],[82.8562292,54.9923247],[82.8565009,54.9923217],[82.8566869,54.9922952],[82.8567656,54.9922585],[82.856807,54.9922392],[82.8568429,54.9922132],[82.8569204,54.9920848],[82.8570682,54.9918093],[82.8571655,54.9916167]]}},{"type":"Feature","properties":{"way_id":652926849,"route_colors":[],"route_refs":["10"]},"geometry":{"type":"LineString","coordinates":[[82.8967123,54.9763429],[82.8968549,54.9763175],[82.8969155,54.9763014],[82.8970117,54.9762523],[82.8970763,54.9761971],[82.8971225,54.9761251]]}},{"type":"Feature","properties":{"way_id":652959714,"route_colors":[],"route_refs":["11"]},"geometry":{"type":"LineString","coordinates":[[83.009615,55.0715452],[83.0092005,55.0715226],[83.0089432,55.0715086],[83.008121,55.0714638],[83.0079072,55.0714464]]}},{"type":"Feature","properties":{"way_id":464280533,"route_colors":[],"route_refs":["11"]},"geometry":{"type":"LineString","coordinates":[[83.0079072,55.0714464],[83.0077315,55.0714279],[83.0076358,55.0714064],[83.0075402,55.0713796],[83.007259,55.0712564],[83.0068869,55.071077],[83.0014425,55.0684211],[83.0007878,55.068097],[83.0002547,55.067842],[82.9986969,55.0670967],[82.9969419,55.0662682],[82.9953577,55.0655257],[82.9950693,55.0653885],[82.994531,55.0651284],[82.9939022,55.0648246],[82.9916096,55.0637332],[82.9904877,55.063193],[82.9895603,55.0627359],[82.9884229,55.0621975],[82.9882862,55.0621327],[82.9881117,55.0620492],[82.9879052,55.0619552],[82.985537,55.0608524],[82.9842954,55.0602743],[82.984214,55.0602346],[82.9841526,55.0602045]]}},{"type":"Feature","properties":{"way_id":464275875,"route_colors":[],"route_refs":["11"]},"geometry":{"type":"LineString","coordinates":[[82.9841526,55.0602045],[82.9840682,55.0601676],[82.9839236,55.0600955],[82.9837162,55.0599912]]}},{"type":"Feature","properties":{"way_id":1061314239,"route_colors":[],"route_refs":["11"]},"geometry":{"type":"LineString","coordinates":[[82.9652443,55.0812169],[82.9651513,55.0812628],[82.9650533,55.081309],[82.9650201,55.081324],[82.9648501,55.081401],[82.96457,55.0815285]]}},{"type":"Feature","properties":{"way_id":975951431,"route_colors":[],"route_refs":["11"]},"geometry":{"type":"LineString","coordinates":[[82.96457,55.0815285],[82.9641773,55.0817158],[82.9638634,55.0818712]]}},{"type":"Feature","properties":{"way_id":652959712,"route_colors":[],"route_refs":["11"]},"geometry":{"type":"LineString","coordinates":[[82.9638634,55.0818712],[82.9625254,55.0827114],[82.961864,55.0831292],[82.9604832,55.0840103],[82.9603187,55.0841269],[82.9602777,55.0841811],[82.9602733,55.084237],[82.9602946,55.0843246],[82.9603336,55.0844072],[82.960365,55.084464],[82.9605625,55.0847836],[82.9606423,55.084908],[82.9608377,55.0852483],[82.9608597,55.0852984],[82.9608868,55.0853861],[82.960887,55.0854534],[82.9608806,55.0855554],[82.9608581,55.0856463],[82.9608135,55.0857391],[82.9607672,55.0858013],[82.9606717,55.0859105],[82.9605576,55.0860059],[82.9594458,55.0867386],[82.9565287,55.0886383],[82.9555177,55.0892937]]}},{"type":"Feature","properties":{"way_id":975951429,"route_colors":[],"route_refs":["11"]},"geometry":{"type":"LineString","coordinates":[[82.9548072,55.0897061],[82.9549803,55.0895967],[82.955429,55.0893132],[82.9564982,55.0886237],[82.9594106,55.0867236],[82.9605167,55.0859907],[82.9606308,55.0858936],[82.9607204,55.0857936],[82.960762,55.0857269],[82.9608044,55.0856425],[82.9608263,55.0855505],[82.960831,55.0854515],[82.9608311,55.0853875],[82.9608068,55.0853085],[82.9607816,55.0852539],[82.9605949,55.0849149],[82.9605475,55.0848375],[82.9603084,55.0844723],[82.9602786,55.0844158],[82.9602434,55.0843327],[82.960222,55.0842506],[82.960226,55.0841815],[82.960268,55.0841191],[82.9604483,55.0839896],[82.9618181,55.083106],[82.9624809,55.0826883],[82.9638176,55.0818458],[82.9641474,55.08169],[82.9643236,55.0816049],[82.9645285,55.0815128]]}},{"type":"Feature","properties":{"way_id":1061314240,"route_colors":[],"route_refs":["11"]},"geometry":{"type":"LineString","coordinates":[[82.9645285,55.0815128],[82.9648109,55.0813842],[82.9649156,55.0813372],[82.9649236,55.0813336],[82.9650679,55.0812694],[82.9651185,55.0812471],[82.9652254,55.0811956]]}},{"type":"Feature","properties":{"way_id":1061220544,"route_colors":[],"route_refs":["11"]},"geometry":{"type":"LineString","coordinates":[[82.9837243,55.0599775],[82.9838017,55.0600099],[82.9839436,55.0600831],[82.9840866,55.0601541],[82.9841644,55.0601902],[82.9841714,55.0601933],[82.9842342,55.0602236]]}},{"type":"Feature","properties":{"way_id":1061324215,"route_colors":[],"route_refs":["11"]},"geometry":{"type":"LineString","coordinates":[[82.9842342,55.0602236],[82.9854168,55.0607649],[82.9861811,55.0611132],[82.9878715,55.0619059],[82.9881396,55.0620316],[82.9895844,55.0627185],[82.9905133,55.0631758],[82.9916354,55.0637166],[82.9939319,55.0648034],[82.9944638,55.065061],[82.9950988,55.0653686],[82.9953254,55.065479],[82.9987389,55.0670763],[82.9999807,55.0676673],[83.0008356,55.0680741],[83.0015023,55.0684022],[83.0066076,55.0708967],[83.0072918,55.0712229],[83.0075556,55.0713245],[83.0076623,55.0713531]]}},{"type":"Feature","properties":{"way_id":652959715,"route_colors":[],"route_refs":["11"]},"geometry":{"type":"LineString","coordinates":[[83.0076623,55.0713531],[83.0077665,55.0713774],[83.0078383,55.0713902],[83.0079217,55.0713916],[83.0080123,55.0713833],[83.0080869,55.0713745],[83.0083557,55.0713237],[83.0089566,55.0712102],[83.0091344,55.0711766],[83.0094629,55.0711172]]}},{"type":"Feature","properties":{"way_id":1195807790,"route_colors":[],"route_refs":["11"]},"geometry":{"type":"LineString","coordinates":[[83.0094629,55.0711172],[83.0096236,55.0710882],[83.0098725,55.0710784],[83.0100442,55.071157],[83.0101386,55.0713044],[83.0100442,55.0714322],[83.0098296,55.0715305],[83.009615,55.0715452]]}}]}