{"type":"FeatureCollection","metro_system":{"continent":"asia","country":"Turkey","city":"Antalya","official_website":"https://antalyaulasim.com.tr/","official_map":"https://tr.wikipedia.org/wiki/T1_(Antalya_tramvayı)","wikipedia":"tr:T1 (Antalya tramvayı)","line_count":4,"segment_count":5,"station_count":68,"modes":["tram"],"audit":{"strategies_tried":[],"passed":true,"checks":[{"id":"has_lines","ok":true,"detail":"4 lines","level":"error"},{"id":"has_stations","ok":true,"detail":"68 stations","level":"error"},{"id":"stations_have_lines","ok":true,"detail":"68/68 站皆有所屬路線","level":"error"},{"id":"line_geometry_stations","ok":true,"detail":"72 個折點/端點皆為車站","level":"error"},{"id":"route_stations_match_geometry","ok":true,"detail":"各線車站列表與圖面一致","level":"error"},{"id":"interchange_rule","ok":true,"detail":"所有車站紅/藍點符合骨架＋路線色規則（藍＝端點、紅＝交叉）","level":"error"},{"id":"stations_named","ok":true,"detail":"68/68 站皆有名稱","level":"error"},{"id":"station_order","ok":false,"detail":"1 條線站序可疑（路徑長 > 1.6× MST）：T2 Müze - Zerdailik tramvay Hattı 2.34×，需以 Wikipedia 線路條目與 urbanrail.net 人工確認","level":"warn"},{"id":"station_span","ok":true,"detail":"各線相鄰站距與系統站群跨度正常","level":"error"},{"id":"line_wiki_stations","ok":true,"detail":"各線站數與 wiki 線路條目相符（營運中站數）","level":"error"},{"id":"line_wiki_coverage","ok":false,"detail":"4 條線無 wiki 站數對照：T3 Varsak - Müze Tramvay Hattı、T1B Fatih - EXPO Tramvay Hattı、T1A Fatih - Havalimanı Tramvay Hattı","level":"warn"}],"reasons":[],"warnings":["1 條線站序可疑（路徑長 > 1.6× MST）：T2 Müze - Zerdailik tramvay Hattı 2.34×，需以 Wikipedia 線路條目與 urbanrail.net 人工確認","4 條線無 wiki 站數對照：T3 Varsak - Müze Tramvay Hattı、T1B Fatih - EXPO Tramvay Hattı、T1A Fatih - Havalimanı Tramvay Hattı"],"audited_at":"2026-07-27T05:42:56.891Z"}},"features":[{"type":"Feature","properties":{"seg_id":"antalya-0","routes":[{"route_id":"rm11813038","route_name":"T3 Varsak - Müze Tramvay Hattı","route_name_local":"T3 Varsak - Müze Tramvay Hattı","route_name_en":null,"route_ref":"T3","route_color":null,"wikipedia":"tr:T3 (Antalya tramvayı)","osm_route_ids":[10651839,10651840],"status":null,"order_suspect":0,"span_suspect":0,"stations":[{"station_id":"n1655942352","station_name":"Müze"},{"station_id":"n9203048662","station_name":"Eğitim Araştırma Hastanesi"},{"station_id":"n9203048639","station_name":"Meltem"},{"station_id":"n9203048637","station_name":"Akdeniz Üniversitesi"},{"station_id":"n9203048635","station_name":"Üniversite Hastanesi"},{"station_id":"n9203048632","station_name":"Kültür"},{"station_id":"n9203048660","station_name":"Yenidoğan"},{"station_id":"n9203048630","station_name":"Batıgar"},{"station_id":"n9203015695","station_name":"Sakarya"},{"station_id":"n7170489756","station_name":"Atatürk"},{"station_id":"n7170489757","station_name":"Zafer"},{"station_id":"n7170489758","station_name":"Yıldırım Beyazıt"},{"station_id":"n7170489759","station_name":"Erdem Beyazıt K.M."},{"station_id":"n7170489760","station_name":"Şehitler Parkı"},{"station_id":"n7170489761","station_name":"Kepez Belediyesi"},{"station_id":"n7170489762","station_name":"Yeşilırmak"},{"station_id":"n7170489763","station_name":"Gündoğdu"},{"station_id":"n7170489764","station_name":"Sütçüler"},{"station_id":"n7170489765","station_name":"Gazi"},{"station_id":"n7170489766","station_name":"Kuzeykaya"},{"station_id":"n7170489767","station_name":"Fevzi Çakmak"},{"station_id":"n7170489768","station_name":"Ulubatlı Hasan"},{"station_id":"n7170489769","station_name":"Süleyman Demirel"},{"station_id":"n9105332829","station_name":"Şelale"},{"station_id":"n7170489771","station_name":"Karşıyaka"},{"station_id":"n7170489772","station_name":"Aydoğmuş"},{"station_id":"n7170489773","station_name":"Aktoprak"},{"station_id":"n7170489774","station_name":"Kepezpark"},{"station_id":"n7170489775","station_name":"Varsak"}]}],"route_count":1,"route_refs":["T3"],"route_colors":["#e11d48"],"city":"Antalya","country":"Turkey"},"geometry":{"type":"MultiLineString","coordinates":[[[30.681061666666665,36.88471453333333],[30.676182349999998,36.89078025],[30.66992715,36.892601049999996],[30.6648858,36.89370025],[30.665489,36.8987279],[30.66322115,36.907968749999995],[30.665789699999998,36.9152999],[30.6679314,36.921143900000004],[30.67606765,36.92112205],[30.6830944,36.919272500000005],[30.68896915,36.91883665],[30.6948231,36.9186015],[30.699842150000002,36.9186296],[30.707664,36.918962300000004],[30.7138688,36.917792649999996],[30.7145223,36.921947700000004],[30.7132132,36.9277691],[30.711833499999997,36.93396115],[30.7104204,36.9399842],[30.7092686,36.94423245],[30.7080375,36.9484209],[30.70839445,36.95437325],[30.709814,36.9581275],[30.712008949999998,36.96350135],[30.713901800000002,36.9694074],[30.7140895,36.975189900000004],[30.71476915,36.98058995],[30.7153974,36.9849801],[30.716462550000003,36.988901299999995]]]}},{"type":"Feature","properties":{"seg_id":"antalya-1","routes":[{"route_id":"rm11813043","route_name":"T1B Fatih - EXPO Tramvay Hattı","route_name_local":"T1B Fatih - EXPO Tramvay Hattı","route_name_en":null,"route_ref":"T1B","route_color":null,"wikipedia":"tr:T1 (Antalya tramvayı)","osm_route_ids":[11813036,11813039],"status":null,"order_suspect":0,"span_suspect":0,"stations":[{"station_id":"n5180015915","station_name":"Fatih"},{"station_id":"n1740333412","station_name":"Kepezaltı"},{"station_id":"n1740333338","station_name":"Ferrokrom"},{"station_id":"n5179999384","station_name":"Vakıf Çiftliği"},{"station_id":"n5179992577","station_name":"Otogar"},{"station_id":"n5179985306","station_name":"Pil Fabrikası"},{"station_id":"n1740333241","station_name":"Dokuma"},{"station_id":"n5179983980","station_name":"Çallı"},{"station_id":"n1740333344","station_name":"Emniyet"},{"station_id":"n1740333236","station_name":"Sigorta"},{"station_id":"n5178282329","station_name":"Şarampol"},{"station_id":"n5178272133","station_name":"Muratpaşa"},{"station_id":"n2307526731","station_name":"Ismetpaşa"},{"station_id":"n5178254543","station_name":"Doğu Garajı"},{"station_id":"n5178249560","station_name":"Burhanettin Onat"},{"station_id":"n5178237220","station_name":"Meydan"},{"station_id":"n4399627169","station_name":"Barracks"},{"station_id":"n4399627168","station_name":"Gunners"},{"station_id":"n4399627167","station_name":"Democracy"},{"station_id":"n4399627166","station_name":"Spillway"},{"station_id":"n4399627089","station_name":"Altınova"},{"station_id":"n4399627161","station_name":"Yenigol"},{"station_id":"n5177077552","station_name":"Sinan"},{"station_id":"n4399627095","station_name":"Yonca Kavşak"},{"station_id":"n5177071948","station_name":"Pınarlı ANFAŞ"},{"station_id":"n4399627144","station_name":"Leaded"},{"station_id":"n5177042630","station_name":"Aksu"},{"station_id":"n4399627143","station_name":"EXPO"}]},{"route_id":"rm11813042","route_name":"T1A Fatih - Havalimanı Tramvay Hattı","route_name_local":"T1A Fatih - Havalimanı Tramvay Hattı","route_name_en":null,"route_ref":"T1A","route_color":null,"wikipedia":"tr:T1 (Antalya tramvayı)","osm_route_ids":[11813037,11813040],"status":null,"order_suspect":0,"span_suspect":0,"stations":[{"station_id":"n5180015915","station_name":"Fatih"},{"station_id":"n1740333412","station_name":"Kepezaltı"},{"station_id":"n1740333338","station_name":"Ferrokrom"},{"station_id":"n5179999384","station_name":"Vakıf Çiftliği"},{"station_id":"n5179992577","station_name":"Otogar"},{"station_id":"n5179985306","station_name":"Pil Fabrikası"},{"station_id":"n1740333241","station_name":"Dokuma"},{"station_id":"n5179983980","station_name":"Çallı"},{"station_id":"n1740333344","station_name":"Emniyet"},{"station_id":"n1740333236","station_name":"Sigorta"},{"station_id":"n5178282329","station_name":"Şarampol"},{"station_id":"n5178272133","station_name":"Muratpaşa"},{"station_id":"n2307526731","station_name":"Ismetpaşa"},{"station_id":"n5178254543","station_name":"Doğu Garajı"},{"station_id":"n5178249560","station_name":"Burhanettin Onat"},{"station_id":"n5178237220","station_name":"Meydan"},{"station_id":"n4399627169","station_name":"Barracks"},{"station_id":"n4399627168","station_name":"Gunners"},{"station_id":"n4399627167","station_name":"Democracy"},{"station_id":"n4399627166","station_name":"Spillway"},{"station_id":"n4399627089","station_name":"Altınova"},{"station_id":"n4399627161","station_name":"Yenigol"},{"station_id":"n5177077552","station_name":"Sinan"},{"station_id":"n4399627095","station_name":"Yonca Kavşak"},{"station_id":"n4399627117","station_name":"Havalimanı (Giden Yolcu)"}]}],"route_count":2,"route_refs":["T1B","T1A"],"route_colors":["#e11d48","#e11d48"],"city":"Antalya","country":"Turkey"},"geometry":{"type":"MultiLineString","coordinates":[[[30.644925,36.94357085],[30.652177799999997,36.9386651],[30.658632949999998,36.9330703],[30.663889400000002,36.92848405],[30.667544200000002,36.924369549999994],[30.67335205,36.91804125],[30.676956699999998,36.91322085],[30.682217549999997,36.90649115],[30.687057199999998,36.901914250000004],[30.6936764,36.8991715],[30.6985238,36.896284699999995],[30.70276255,36.89256090000001],[30.7069798,36.888321950000005],[30.7124398,36.88883205],[30.7216007,36.88866195],[30.73128655,36.88681785],[30.748150000000003,36.890803500000004],[30.7547372,36.89324245],[30.7592791,36.8959791],[30.765806050000002,36.9031693],[30.7703585,36.9087599],[30.77942005,36.9155069],[30.7867504,36.9197283],[30.79761655,36.9259645]]]}},{"type":"Feature","properties":{"seg_id":"antalya-2","routes":[{"route_id":"rm11813043","route_name":"T1B Fatih - EXPO Tramvay Hattı","route_name_local":"T1B Fatih - EXPO Tramvay Hattı","route_name_en":null,"route_ref":"T1B","route_color":null,"wikipedia":"tr:T1 (Antalya tramvayı)","osm_route_ids":[11813036,11813039],"status":null,"order_suspect":0,"span_suspect":0,"stations":[{"station_id":"n5180015915","station_name":"Fatih"},{"station_id":"n1740333412","station_name":"Kepezaltı"},{"station_id":"n1740333338","station_name":"Ferrokrom"},{"station_id":"n5179999384","station_name":"Vakıf Çiftliği"},{"station_id":"n5179992577","station_name":"Otogar"},{"station_id":"n5179985306","station_name":"Pil Fabrikası"},{"station_id":"n1740333241","station_name":"Dokuma"},{"station_id":"n5179983980","station_name":"Çallı"},{"station_id":"n1740333344","station_name":"Emniyet"},{"station_id":"n1740333236","station_name":"Sigorta"},{"station_id":"n5178282329","station_name":"Şarampol"},{"station_id":"n5178272133","station_name":"Muratpaşa"},{"station_id":"n2307526731","station_name":"Ismetpaşa"},{"station_id":"n5178254543","station_name":"Doğu Garajı"},{"station_id":"n5178249560","station_name":"Burhanettin Onat"},{"station_id":"n5178237220","station_name":"Meydan"},{"station_id":"n4399627169","station_name":"Barracks"},{"station_id":"n4399627168","station_name":"Gunners"},{"station_id":"n4399627167","station_name":"Democracy"},{"station_id":"n4399627166","station_name":"Spillway"},{"station_id":"n4399627089","station_name":"Altınova"},{"station_id":"n4399627161","station_name":"Yenigol"},{"station_id":"n5177077552","station_name":"Sinan"},{"station_id":"n4399627095","station_name":"Yonca Kavşak"},{"station_id":"n5177071948","station_name":"Pınarlı ANFAŞ"},{"station_id":"n4399627144","station_name":"Leaded"},{"station_id":"n5177042630","station_name":"Aksu"},{"station_id":"n4399627143","station_name":"EXPO"}]}],"route_count":1,"route_refs":["T1B"],"route_colors":["#e11d48"],"city":"Antalya","country":"Turkey"},"geometry":{"type":"MultiLineString","coordinates":[[[30.79761655,36.9259645],[30.81599305,36.9365072],[30.8281958,36.94349605],[30.845423099999998,36.947922399999996],[30.876097,36.94531145]]]}},{"type":"Feature","properties":{"seg_id":"antalya-3","routes":[{"route_id":"rm11813042","route_name":"T1A Fatih - Havalimanı Tramvay Hattı","route_name_local":"T1A Fatih - Havalimanı Tramvay Hattı","route_name_en":null,"route_ref":"T1A","route_color":null,"wikipedia":"tr:T1 (Antalya tramvayı)","osm_route_ids":[11813037,11813040],"status":null,"order_suspect":0,"span_suspect":0,"stations":[{"station_id":"n5180015915","station_name":"Fatih"},{"station_id":"n1740333412","station_name":"Kepezaltı"},{"station_id":"n1740333338","station_name":"Ferrokrom"},{"station_id":"n5179999384","station_name":"Vakıf Çiftliği"},{"station_id":"n5179992577","station_name":"Otogar"},{"station_id":"n5179985306","station_name":"Pil Fabrikası"},{"station_id":"n1740333241","station_name":"Dokuma"},{"station_id":"n5179983980","station_name":"Çallı"},{"station_id":"n1740333344","station_name":"Emniyet"},{"station_id":"n1740333236","station_name":"Sigorta"},{"station_id":"n5178282329","station_name":"Şarampol"},{"station_id":"n5178272133","station_name":"Muratpaşa"},{"station_id":"n2307526731","station_name":"Ismetpaşa"},{"station_id":"n5178254543","station_name":"Doğu Garajı"},{"station_id":"n5178249560","station_name":"Burhanettin Onat"},{"station_id":"n5178237220","station_name":"Meydan"},{"station_id":"n4399627169","station_name":"Barracks"},{"station_id":"n4399627168","station_name":"Gunners"},{"station_id":"n4399627167","station_name":"Democracy"},{"station_id":"n4399627166","station_name":"Spillway"},{"station_id":"n4399627089","station_name":"Altınova"},{"station_id":"n4399627161","station_name":"Yenigol"},{"station_id":"n5177077552","station_name":"Sinan"},{"station_id":"n4399627095","station_name":"Yonca Kavşak"},{"station_id":"n4399627117","station_name":"Havalimanı (Giden Yolcu)"}]}],"route_count":1,"route_refs":["T1A"],"route_colors":["#e11d48"],"city":"Antalya","country":"Turkey"},"geometry":{"type":"MultiLineString","coordinates":[[[30.79761655,36.9259645],[30.803323375,36.91252002499999]]]}},{"type":"Feature","properties":{"seg_id":"antalya-4","routes":[{"route_id":"r11813041","route_name":"T2 Müze - Zerdailik tramvay Hattı","route_name_local":"T2 Müze - Zerdailik tramvay Hattı","route_name_en":null,"route_ref":"T2","route_color":null,"wikipedia":"tr:T2 (Antalya tramvayı)","osm_route_ids":[11813041],"status":null,"order_suspect":1.73,"span_suspect":0,"stations":[{"station_id":"n1350301195","station_name":"Işıklar-1"},{"station_id":"n1740310344","station_name":"Işıklar-2"},{"station_id":"n311774727","station_name":"Belediye"},{"station_id":"n1656005397","station_name":"Üç Kapılar"},{"station_id":"n1740310345","station_name":"Kale Kapısı"},{"station_id":"n1656005401","station_name":"Cumhuriyet - KL08, TC16,"},{"station_id":"n1655942267","station_name":"Selekler"},{"station_id":"n1655942297","station_name":"Meslek Lisesi"},{"station_id":"n1711063740","station_name":"Barbaros"},{"station_id":"n1655942352","station_name":"Müze"},{"station_id":"n1350300983","station_name":"Zerdalilik"}]}],"route_count":1,"route_refs":["T2"],"route_colors":["#e11d48"],"city":"Antalya","country":"Turkey"},"geometry":{"type":"MultiLineString","coordinates":[[[30.7129683,36.8750711],[30.7104017,36.8780789],[30.7083399,36.8808238],[30.7089193,36.8853103],[30.7055514,36.8870454],[30.7026397,36.8867212],[30.6977307,36.8856076],[30.69128395,36.88499804999999],[30.6862433,36.8847557],[30.681061666666665,36.88471453333333],[30.7167956,36.8746335]]]}},{"type":"Feature","properties":{"station_id":"n311774727","station_name":"Belediye","station_name_local":"Belediye","station_name_en":null,"city":"Antalya","country":"Turkey","lines":["T2"],"wikipedia":null,"is_terminus":false,"routes":[{"ref":"T2","name":"T2 Müze - Zerdailik tramvay Hattı","route_color":null}],"pass_count":1,"station_degree":2,"codes":null,"merged_from":null,"merged_names":null,"is_interchange":false,"station_role":"normal"},"geometry":{"type":"Point","coordinates":[30.7083399,36.8808238]},"__memberLines":{}},{"type":"Feature","properties":{"station_id":"n1350300983","station_name":"Zerdalilik","station_name_local":"Zerdalilik","station_name_en":null,"city":"Antalya","country":"Turkey","lines":["T2"],"wikipedia":"tr:Zerdalilik (Antalya tramvayı)","is_terminus":true,"routes":[{"ref":"T2","name":"T2 Müze - Zerdailik tramvay Hattı","route_color":null}],"pass_count":1,"station_degree":1,"codes":null,"merged_from":null,"merged_names":null,"is_interchange":false,"station_role":"terminus"},"geometry":{"type":"Point","coordinates":[30.7167956,36.8746335]},"__memberLines":{}},{"type":"Feature","properties":{"station_id":"n1350301195","station_name":"Işıklar-1","station_name_local":"Işıklar-1","station_name_en":null,"city":"Antalya","country":"Turkey","lines":["T2"],"wikipedia":null,"is_terminus":true,"routes":[{"ref":"T2","name":"T2 Müze - Zerdailik tramvay Hattı","route_color":null}],"pass_count":1,"station_degree":1,"codes":null,"merged_from":null,"merged_names":null,"is_interchange":false,"station_role":"terminus"},"geometry":{"type":"Point","coordinates":[30.7129683,36.8750711]},"__memberLines":{}},{"type":"Feature","properties":{"station_id":"n1655942267","station_name":"Selekler","station_name_local":"Selekler","station_name_en":null,"city":"Antalya","country":"Turkey","lines":["T2"],"wikipedia":null,"is_terminus":false,"routes":[{"ref":"T2","name":"T2 Müze - Zerdailik tramvay Hattı","route_color":null}],"pass_count":1,"station_degree":2,"codes":null,"merged_from":null,"merged_names":null,"is_interchange":false,"station_role":"normal"},"geometry":{"type":"Point","coordinates":[30.6977307,36.8856076]},"__memberLines":{}},{"type":"Feature","properties":{"station_id":"n1655942297","station_name":"Meslek Lisesi","station_name_local":"Meslek Lisesi","station_name_en":null,"city":"Antalya","country":"Turkey","lines":["T2"],"wikipedia":null,"merged_from":2,"merged_names":null,"is_terminus":false,"routes":[{"ref":"T2","name":"T2 Müze - Zerdailik tramvay Hattı","route_color":null}],"pass_count":1,"station_degree":2,"codes":null,"is_interchange":false,"station_role":"normal"},"geometry":{"type":"Point","coordinates":[30.69128395,36.88499804999999]},"__memberLines":{}},{"type":"Feature","properties":{"station_id":"n1655942352","station_name":"Müze","station_name_local":"Müze","station_name_en":null,"city":"Antalya","country":"Turkey","lines":["T2","T3"],"wikipedia":null,"merged_from":3,"merged_names":null,"is_terminus":false,"routes":[{"ref":"T2","name":"T2 Müze - Zerdailik tramvay Hattı","route_color":null},{"ref":"T3","name":"T3 Varsak - Müze Tramvay Hattı","route_color":null}],"pass_count":2,"station_degree":3,"codes":null,"is_interchange":true,"station_role":"interchange"},"geometry":{"type":"Point","coordinates":[30.681061666666665,36.88471453333333]},"__memberLines":{}},{"type":"Feature","properties":{"station_id":"n1656005397","station_name":"Üç Kapılar","station_name_local":"Üç Kapılar","station_name_en":null,"city":"Antalya","country":"Turkey","lines":["T2"],"wikipedia":null,"is_terminus":false,"routes":[{"ref":"T2","name":"T2 Müze - Zerdailik tramvay Hattı","route_color":null}],"pass_count":1,"station_degree":2,"codes":null,"merged_from":null,"merged_names":null,"is_interchange":false,"station_role":"normal"},"geometry":{"type":"Point","coordinates":[30.7089193,36.8853103]},"__memberLines":{}},{"type":"Feature","properties":{"station_id":"n1656005401","station_name":"Cumhuriyet - KL08, TC16,","station_name_local":"Cumhuriyet Meydani","station_name_en":"Cumhuriyet - KL08, TC16,","city":"Antalya","country":"Turkey","lines":["T2"],"wikipedia":null,"is_terminus":false,"routes":[{"ref":"T2","name":"T2 Müze - Zerdailik tramvay Hattı","route_color":null}],"pass_count":1,"station_degree":2,"codes":null,"merged_from":null,"merged_names":null,"is_interchange":false,"station_role":"normal"},"geometry":{"type":"Point","coordinates":[30.7026397,36.8867212]},"__memberLines":{}},{"type":"Feature","properties":{"station_id":"n1711063740","station_name":"Barbaros","station_name_local":"Barbaros","station_name_en":null,"city":"Antalya","country":"Turkey","lines":["T2"],"wikipedia":null,"is_terminus":false,"routes":[{"ref":"T2","name":"T2 Müze - Zerdailik tramvay Hattı","route_color":null}],"pass_count":1,"station_degree":2,"codes":null,"merged_from":null,"merged_names":null,"is_interchange":false,"station_role":"normal"},"geometry":{"type":"Point","coordinates":[30.6862433,36.8847557]},"__memberLines":{}},{"type":"Feature","properties":{"station_id":"n1740310344","station_name":"Işıklar-2","station_name_local":"Işıklar-2","station_name_en":null,"city":"Antalya","country":"Turkey","lines":["T2"],"wikipedia":null,"is_terminus":false,"routes":[{"ref":"T2","name":"T2 Müze - Zerdailik tramvay Hattı","route_color":null}],"pass_count":1,"station_degree":2,"codes":null,"merged_from":null,"merged_names":null,"is_interchange":false,"station_role":"normal"},"geometry":{"type":"Point","coordinates":[30.7104017,36.8780789]},"__memberLines":{}},{"type":"Feature","properties":{"station_id":"n1740310345","station_name":"Kale Kapısı","station_name_local":"Kale Kapısı","station_name_en":null,"city":"Antalya","country":"Turkey","lines":["T2"],"wikipedia":null,"is_terminus":false,"routes":[{"ref":"T2","name":"T2 Müze - Zerdailik tramvay Hattı","route_color":null}],"pass_count":1,"station_degree":2,"codes":null,"merged_from":null,"merged_names":null,"is_interchange":false,"station_role":"normal"},"geometry":{"type":"Point","coordinates":[30.7055514,36.8870454]},"__memberLines":{}},{"type":"Feature","properties":{"station_id":"n1740333236","station_name":"Sigorta","station_name_local":"Sigorta","station_name_en":null,"city":"Antalya","country":"Turkey","lines":["T1A","T1B"],"wikipedia":null,"merged_from":2,"merged_names":null,"is_terminus":false,"routes":[{"ref":"T1A","name":"T1A Fatih - Havalimanı Tramvay Hattı","route_color":null},{"ref":"T1B","name":"T1B Fatih - EXPO Tramvay Hattı","route_color":null}],"pass_count":2,"station_degree":2,"codes":null,"is_interchange":false,"station_role":"normal"},"geometry":{"type":"Point","coordinates":[30.6936764,36.8991715]},"__memberLines":{}},{"type":"Feature","properties":{"station_id":"n1740333241","station_name":"Dokuma","station_name_local":"Dokuma","station_name_en":null,"city":"Antalya","country":"Turkey","lines":["T1A","T1B"],"wikipedia":null,"merged_from":2,"merged_names":null,"is_terminus":false,"routes":[{"ref":"T1A","name":"T1A Fatih - Havalimanı Tramvay Hattı","route_color":null},{"ref":"T1B","name":"T1B Fatih - EXPO Tramvay Hattı","route_color":null}],"pass_count":2,"station_degree":2,"codes":null,"is_interchange":false,"station_role":"normal"},"geometry":{"type":"Point","coordinates":[30.676956699999998,36.91322085]},"__memberLines":{}},{"type":"Feature","properties":{"station_id":"n1740333338","station_name":"Ferrokrom","station_name_local":"Ferrokrom","station_name_en":null,"city":"Antalya","country":"Turkey","lines":["T1A","T1B"],"wikipedia":null,"merged_from":2,"merged_names":null,"is_terminus":false,"routes":[{"ref":"T1A","name":"T1A Fatih - Havalimanı Tramvay Hattı","route_color":null},{"ref":"T1B","name":"T1B Fatih - EXPO Tramvay Hattı","route_color":null}],"pass_count":2,"station_degree":2,"codes":null,"is_interchange":false,"station_role":"normal"},"geometry":{"type":"Point","coordinates":[30.658632949999998,36.9330703]},"__memberLines":{}},{"type":"Feature","properties":{"station_id":"n1740333344","station_name":"Emniyet","station_name_local":"Emniyet","station_name_en":null,"city":"Antalya","country":"Turkey","lines":["T1A","T1B"],"wikipedia":null,"merged_from":2,"merged_names":null,"is_terminus":false,"routes":[{"ref":"T1A","name":"T1A Fatih - Havalimanı Tramvay Hattı","route_color":null},{"ref":"T1B","name":"T1B Fatih - EXPO Tramvay Hattı","route_color":null}],"pass_count":2,"station_degree":2,"codes":null,"is_interchange":false,"station_role":"normal"},"geometry":{"type":"Point","coordinates":[30.687057199999998,36.901914250000004]},"__memberLines":{}},{"type":"Feature","properties":{"station_id":"n1740333412","station_name":"Kepezaltı","station_name_local":"Kepezaltı","station_name_en":null,"city":"Antalya","country":"Turkey","lines":["T1A","T1B"],"wikipedia":null,"merged_from":2,"merged_names":null,"is_terminus":false,"routes":[{"ref":"T1A","name":"T1A Fatih - Havalimanı Tramvay Hattı","route_color":null},{"ref":"T1B","name":"T1B Fatih - EXPO Tramvay Hattı","route_color":null}],"pass_count":2,"station_degree":2,"codes":null,"is_interchange":false,"station_role":"normal"},"geometry":{"type":"Point","coordinates":[30.652177799999997,36.9386651]},"__memberLines":{}},{"type":"Feature","properties":{"station_id":"n2307526731","station_name":"Ismetpaşa","station_name_local":"Ismetpaşa","station_name_en":null,"city":"Antalya","country":"Turkey","lines":["T1A","T1B"],"wikipedia":null,"merged_from":2,"merged_names":null,"is_terminus":false,"routes":[{"ref":"T1A","name":"T1A Fatih - Havalimanı Tramvay Hattı","route_color":null},{"ref":"T1B","name":"T1B Fatih - EXPO Tramvay Hattı","route_color":null}],"pass_count":2,"station_degree":2,"codes":null,"is_interchange":false,"station_role":"normal"},"geometry":{"type":"Point","coordinates":[30.7069798,36.888321950000005]},"__memberLines":{}},{"type":"Feature","properties":{"station_id":"n4399627089","station_name":"Altınova","station_name_local":"Altınova","station_name_en":null,"city":"Antalya","country":"Turkey","lines":["T1A","T1B"],"wikipedia":null,"merged_from":2,"merged_names":null,"is_terminus":false,"routes":[{"ref":"T1A","name":"T1A Fatih - Havalimanı Tramvay Hattı","route_color":null},{"ref":"T1B","name":"T1B Fatih - EXPO Tramvay Hattı","route_color":null}],"pass_count":2,"station_degree":2,"codes":null,"is_interchange":false,"station_role":"normal"},"geometry":{"type":"Point","coordinates":[30.7703585,36.9087599]},"__memberLines":{}},{"type":"Feature","properties":{"station_id":"n4399627095","station_name":"Yonca Kavşak","station_name_local":"Yonca Kavşak","station_name_en":null,"city":"Antalya","country":"Turkey","lines":["T1A","T1B"],"wikipedia":null,"merged_from":2,"merged_names":null,"is_terminus":false,"routes":[{"ref":"T1A","name":"T1A Fatih - Havalimanı Tramvay Hattı","route_color":null},{"ref":"T1B","name":"T1B Fatih - EXPO Tramvay Hattı","route_color":null}],"pass_count":2,"station_degree":3,"codes":null,"is_interchange":true,"station_role":"interchange"},"geometry":{"type":"Point","coordinates":[30.79761655,36.9259645]},"__memberLines":{}},{"type":"Feature","properties":{"station_id":"n4399627117","station_name":"Havalimanı (Giden Yolcu)","station_name_local":"Havalimanı (Giden Yolcu)","station_name_en":null,"city":"Antalya","country":"Turkey","lines":["T1A"],"wikipedia":null,"merged_from":4,"merged_names":null,"is_terminus":true,"routes":[{"ref":"T1A","name":"T1A Fatih - Havalimanı Tramvay Hattı","route_color":null}],"pass_count":1,"station_degree":1,"codes":null,"is_interchange":false,"station_role":"terminus"},"geometry":{"type":"Point","coordinates":[30.803323375,36.91252002499999]},"__memberLines":{}},{"type":"Feature","properties":{"station_id":"n4399627143","station_name":"EXPO","station_name_local":"EXPO","station_name_en":null,"city":"Antalya","country":"Turkey","lines":["T1B"],"wikipedia":null,"merged_from":2,"merged_names":null,"is_terminus":true,"routes":[{"ref":"T1B","name":"T1B Fatih - EXPO Tramvay Hattı","route_color":null}],"pass_count":1,"station_degree":1,"codes":null,"is_interchange":false,"station_role":"terminus"},"geometry":{"type":"Point","coordinates":[30.876097,36.94531145]},"__memberLines":{}},{"type":"Feature","properties":{"station_id":"n4399627144","station_name":"Leaded","station_name_local":"Kurşunlu","station_name_en":"Leaded","city":"Antalya","country":"Turkey","lines":["T1B"],"wikipedia":null,"merged_from":2,"merged_names":null,"is_terminus":false,"routes":[{"ref":"T1B","name":"T1B Fatih - EXPO Tramvay Hattı","route_color":null}],"pass_count":1,"station_degree":2,"codes":null,"is_interchange":false,"station_role":"normal"},"geometry":{"type":"Point","coordinates":[30.8281958,36.94349605]},"__memberLines":{}},{"type":"Feature","properties":{"station_id":"n4399627161","station_name":"Yenigol","station_name_local":"Yenigöl","station_name_en":"Yenigol","city":"Antalya","country":"Turkey","lines":["T1A","T1B"],"wikipedia":null,"merged_from":2,"merged_names":null,"is_terminus":false,"routes":[{"ref":"T1A","name":"T1A Fatih - Havalimanı Tramvay Hattı","route_color":null},{"ref":"T1B","name":"T1B Fatih - EXPO Tramvay Hattı","route_color":null}],"pass_count":2,"station_degree":2,"codes":null,"is_interchange":false,"station_role":"normal"},"geometry":{"type":"Point","coordinates":[30.77942005,36.9155069]},"__memberLines":{}},{"type":"Feature","properties":{"station_id":"n4399627166","station_name":"Spillway","station_name_local":"Cırnık","station_name_en":"Spillway","city":"Antalya","country":"Turkey","lines":["T1A","T1B"],"wikipedia":null,"merged_from":2,"merged_names":null,"is_terminus":false,"routes":[{"ref":"T1A","name":"T1A Fatih - Havalimanı Tramvay Hattı","route_color":null},{"ref":"T1B","name":"T1B Fatih - EXPO Tramvay Hattı","route_color":null}],"pass_count":2,"station_degree":2,"codes":null,"is_interchange":false,"station_role":"normal"},"geometry":{"type":"Point","coordinates":[30.765806050000002,36.9031693]},"__memberLines":{}},{"type":"Feature","properties":{"station_id":"n4399627167","station_name":"Democracy","station_name_local":"Demokrasi","station_name_en":"Democracy","city":"Antalya","country":"Turkey","lines":["T1A","T1B"],"wikipedia":null,"merged_from":2,"merged_names":null,"is_terminus":false,"routes":[{"ref":"T1A","name":"T1A Fatih - Havalimanı Tramvay Hattı","route_color":null},{"ref":"T1B","name":"T1B Fatih - EXPO Tramvay Hattı","route_color":null}],"pass_count":2,"station_degree":2,"codes":null,"is_interchange":false,"station_role":"normal"},"geometry":{"type":"Point","coordinates":[30.7592791,36.8959791]},"__memberLines":{}},{"type":"Feature","properties":{"station_id":"n4399627168","station_name":"Gunners","station_name_local":"Topçular","station_name_en":"Gunners","city":"Antalya","country":"Turkey","lines":["T1A","T1B"],"wikipedia":null,"merged_from":2,"merged_names":null,"is_terminus":false,"routes":[{"ref":"T1A","name":"T1A Fatih - Havalimanı Tramvay Hattı","route_color":null},{"ref":"T1B","name":"T1B Fatih - EXPO Tramvay Hattı","route_color":null}],"pass_count":2,"station_degree":2,"codes":null,"is_interchange":false,"station_role":"normal"},"geometry":{"type":"Point","coordinates":[30.7547372,36.89324245]},"__memberLines":{}},{"type":"Feature","properties":{"station_id":"n4399627169","station_name":"Barracks","station_name_local":"Kışla","station_name_en":"Barracks","city":"Antalya","country":"Turkey","lines":["T1A","T1B"],"wikipedia":null,"merged_from":2,"merged_names":null,"is_terminus":false,"routes":[{"ref":"T1A","name":"T1A Fatih - Havalimanı Tramvay Hattı","route_color":null},{"ref":"T1B","name":"T1B Fatih - EXPO Tramvay Hattı","route_color":null}],"pass_count":2,"station_degree":2,"codes":null,"is_interchange":false,"station_role":"normal"},"geometry":{"type":"Point","coordinates":[30.748150000000003,36.890803500000004]},"__memberLines":{}},{"type":"Feature","properties":{"station_id":"n5177042630","station_name":"Aksu","station_name_local":"Aksu","station_name_en":null,"city":"Antalya","country":"Turkey","lines":["T1B"],"wikipedia":null,"merged_from":2,"merged_names":null,"is_terminus":false,"routes":[{"ref":"T1B","name":"T1B Fatih - EXPO Tramvay Hattı","route_color":null}],"pass_count":1,"station_degree":2,"codes":null,"is_interchange":false,"station_role":"normal"},"geometry":{"type":"Point","coordinates":[30.845423099999998,36.947922399999996]},"__memberLines":{}},{"type":"Feature","properties":{"station_id":"n5177071948","station_name":"Pınarlı ANFAŞ","station_name_local":"Pınarlı ANFAŞ","station_name_en":null,"city":"Antalya","country":"Turkey","lines":["T1B"],"wikipedia":null,"merged_from":2,"merged_names":null,"is_terminus":false,"routes":[{"ref":"T1B","name":"T1B Fatih - EXPO Tramvay Hattı","route_color":null}],"pass_count":1,"station_degree":2,"codes":null,"is_interchange":false,"station_role":"normal"},"geometry":{"type":"Point","coordinates":[30.81599305,36.9365072]},"__memberLines":{}},{"type":"Feature","properties":{"station_id":"n5177077552","station_name":"Sinan","station_name_local":"Sinan","station_name_en":null,"city":"Antalya","country":"Turkey","lines":["T1A","T1B"],"wikipedia":null,"merged_from":2,"merged_names":null,"is_terminus":false,"routes":[{"ref":"T1A","name":"T1A Fatih - Havalimanı Tramvay Hattı","route_color":null},{"ref":"T1B","name":"T1B Fatih - EXPO Tramvay Hattı","route_color":null}],"pass_count":2,"station_degree":2,"codes":null,"is_interchange":false,"station_role":"normal"},"geometry":{"type":"Point","coordinates":[30.7867504,36.9197283]},"__memberLines":{}},{"type":"Feature","properties":{"station_id":"n5178237220","station_name":"Meydan","station_name_local":"Meydan","station_name_en":null,"city":"Antalya","country":"Turkey","lines":["T1A","T1B"],"wikipedia":null,"merged_from":2,"merged_names":null,"is_terminus":false,"routes":[{"ref":"T1A","name":"T1A Fatih - Havalimanı Tramvay Hattı","route_color":null},{"ref":"T1B","name":"T1B Fatih - EXPO Tramvay Hattı","route_color":null}],"pass_count":2,"station_degree":2,"codes":null,"is_interchange":false,"station_role":"normal"},"geometry":{"type":"Point","coordinates":[30.73128655,36.88681785]},"__memberLines":{}},{"type":"Feature","properties":{"station_id":"n5178249560","station_name":"Burhanettin Onat","station_name_local":"Burhanettin Onat","station_name_en":null,"city":"Antalya","country":"Turkey","lines":["T1A","T1B"],"wikipedia":null,"merged_from":2,"merged_names":null,"is_terminus":false,"routes":[{"ref":"T1A","name":"T1A Fatih - Havalimanı Tramvay Hattı","route_color":null},{"ref":"T1B","name":"T1B Fatih - EXPO Tramvay Hattı","route_color":null}],"pass_count":2,"station_degree":2,"codes":null,"is_interchange":false,"station_role":"normal"},"geometry":{"type":"Point","coordinates":[30.7216007,36.88866195]},"__memberLines":{}},{"type":"Feature","properties":{"station_id":"n5178254543","station_name":"Doğu Garajı","station_name_local":"Doğu Garajı","station_name_en":null,"city":"Antalya","country":"Turkey","lines":["T1A","T1B"],"wikipedia":null,"merged_from":2,"merged_names":null,"is_terminus":false,"routes":[{"ref":"T1A","name":"T1A Fatih - Havalimanı Tramvay Hattı","route_color":null},{"ref":"T1B","name":"T1B Fatih - EXPO Tramvay Hattı","route_color":null}],"pass_count":2,"station_degree":2,"codes":null,"is_interchange":false,"station_role":"normal"},"geometry":{"type":"Point","coordinates":[30.7124398,36.88883205]},"__memberLines":{}},{"type":"Feature","properties":{"station_id":"n5178272133","station_name":"Muratpaşa","station_name_local":"Muratpaşa","station_name_en":null,"city":"Antalya","country":"Turkey","lines":["T1A","T1B"],"wikipedia":null,"merged_from":2,"merged_names":null,"is_terminus":false,"routes":[{"ref":"T1A","name":"T1A Fatih - Havalimanı Tramvay Hattı","route_color":null},{"ref":"T1B","name":"T1B Fatih - EXPO Tramvay Hattı","route_color":null}],"pass_count":2,"station_degree":2,"codes":null,"is_interchange":false,"station_role":"normal"},"geometry":{"type":"Point","coordinates":[30.70276255,36.89256090000001]},"__memberLines":{}},{"type":"Feature","properties":{"station_id":"n5178282329","station_name":"Şarampol","station_name_local":"Şarampol","station_name_en":null,"city":"Antalya","country":"Turkey","lines":["T1A","T1B"],"wikipedia":null,"merged_from":2,"merged_names":null,"is_terminus":false,"routes":[{"ref":"T1A","name":"T1A Fatih - Havalimanı Tramvay Hattı","route_color":null},{"ref":"T1B","name":"T1B Fatih - EXPO Tramvay Hattı","route_color":null}],"pass_count":2,"station_degree":2,"codes":null,"is_interchange":false,"station_role":"normal"},"geometry":{"type":"Point","coordinates":[30.6985238,36.896284699999995]},"__memberLines":{}},{"type":"Feature","properties":{"station_id":"n5179983980","station_name":"Çallı","station_name_local":"Çallı","station_name_en":null,"city":"Antalya","country":"Turkey","lines":["T1A","T1B"],"wikipedia":null,"merged_from":2,"merged_names":null,"is_terminus":false,"routes":[{"ref":"T1A","name":"T1A Fatih - Havalimanı Tramvay Hattı","route_color":null},{"ref":"T1B","name":"T1B Fatih - EXPO Tramvay Hattı","route_color":null}],"pass_count":2,"station_degree":2,"codes":null,"is_interchange":false,"station_role":"normal"},"geometry":{"type":"Point","coordinates":[30.682217549999997,36.90649115]},"__memberLines":{}},{"type":"Feature","properties":{"station_id":"n5179985306","station_name":"Pil Fabrikası","station_name_local":"Pil Fabrikası","station_name_en":null,"city":"Antalya","country":"Turkey","lines":["T1A","T1B"],"wikipedia":null,"merged_from":2,"merged_names":null,"is_terminus":false,"routes":[{"ref":"T1A","name":"T1A Fatih - Havalimanı Tramvay Hattı","route_color":null},{"ref":"T1B","name":"T1B Fatih - EXPO Tramvay Hattı","route_color":null}],"pass_count":2,"station_degree":2,"codes":null,"is_interchange":false,"station_role":"normal"},"geometry":{"type":"Point","coordinates":[30.67335205,36.91804125]},"__memberLines":{}},{"type":"Feature","properties":{"station_id":"n5179992577","station_name":"Otogar","station_name_local":"Otogar","station_name_en":null,"city":"Antalya","country":"Turkey","lines":["T1A","T1B"],"wikipedia":null,"merged_from":2,"merged_names":null,"is_terminus":false,"routes":[{"ref":"T1A","name":"T1A Fatih - Havalimanı Tramvay Hattı","route_color":null},{"ref":"T1B","name":"T1B Fatih - EXPO Tramvay Hattı","route_color":null}],"pass_count":2,"station_degree":2,"codes":null,"is_interchange":false,"station_role":"normal"},"geometry":{"type":"Point","coordinates":[30.667544200000002,36.924369549999994]},"__memberLines":{}},{"type":"Feature","properties":{"station_id":"n5179999384","station_name":"Vakıf Çiftliği","station_name_local":"Vakıf Çiftliği","station_name_en":null,"city":"Antalya","country":"Turkey","lines":["T1A","T1B"],"wikipedia":null,"merged_from":2,"merged_names":null,"is_terminus":false,"routes":[{"ref":"T1A","name":"T1A Fatih - Havalimanı Tramvay Hattı","route_color":null},{"ref":"T1B","name":"T1B Fatih - EXPO Tramvay Hattı","route_color":null}],"pass_count":2,"station_degree":2,"codes":null,"is_interchange":false,"station_role":"normal"},"geometry":{"type":"Point","coordinates":[30.663889400000002,36.92848405]},"__memberLines":{}},{"type":"Feature","properties":{"station_id":"n5180015915","station_name":"Fatih","station_name_local":"Fatih","station_name_en":null,"city":"Antalya","country":"Turkey","lines":["T1A","T1B"],"wikipedia":null,"merged_from":2,"merged_names":null,"is_terminus":true,"routes":[{"ref":"T1A","name":"T1A Fatih - Havalimanı Tramvay Hattı","route_color":null},{"ref":"T1B","name":"T1B Fatih - EXPO Tramvay Hattı","route_color":null}],"pass_count":2,"station_degree":1,"codes":null,"is_interchange":false,"station_role":"terminus"},"geometry":{"type":"Point","coordinates":[30.644925,36.94357085]},"__memberLines":{}},{"type":"Feature","properties":{"station_id":"n7170489756","station_name":"Atatürk","station_name_local":"Atatürk","station_name_en":null,"city":"Antalya","country":"Turkey","lines":["T3"],"wikipedia":null,"merged_from":2,"merged_names":null,"is_terminus":false,"routes":[{"ref":"T3","name":"T3 Varsak - Müze Tramvay Hattı","route_color":null}],"pass_count":1,"station_degree":2,"codes":null,"is_interchange":false,"station_role":"normal"},"geometry":{"type":"Point","coordinates":[30.6830944,36.919272500000005]},"__memberLines":{}},{"type":"Feature","properties":{"station_id":"n7170489757","station_name":"Zafer","station_name_local":"Zafer","station_name_en":null,"city":"Antalya","country":"Turkey","lines":["T3"],"wikipedia":null,"merged_from":2,"merged_names":null,"is_terminus":false,"routes":[{"ref":"T3","name":"T3 Varsak - Müze Tramvay Hattı","route_color":null}],"pass_count":1,"station_degree":2,"codes":null,"is_interchange":false,"station_role":"normal"},"geometry":{"type":"Point","coordinates":[30.68896915,36.91883665]},"__memberLines":{}},{"type":"Feature","properties":{"station_id":"n7170489758","station_name":"Yıldırım Beyazıt","station_name_local":"Yıldırım Beyazıt","station_name_en":null,"city":"Antalya","country":"Turkey","lines":["T3"],"wikipedia":null,"merged_from":2,"merged_names":null,"is_terminus":false,"routes":[{"ref":"T3","name":"T3 Varsak - Müze Tramvay Hattı","route_color":null}],"pass_count":1,"station_degree":2,"codes":null,"is_interchange":false,"station_role":"normal"},"geometry":{"type":"Point","coordinates":[30.6948231,36.9186015]},"__memberLines":{}},{"type":"Feature","properties":{"station_id":"n7170489759","station_name":"Erdem Beyazıt K.M.","station_name_local":"Erdem Beyazıt K.M.","station_name_en":null,"city":"Antalya","country":"Turkey","lines":["T3"],"wikipedia":null,"merged_from":2,"merged_names":null,"is_terminus":false,"routes":[{"ref":"T3","name":"T3 Varsak - Müze Tramvay Hattı","route_color":null}],"pass_count":1,"station_degree":2,"codes":null,"is_interchange":false,"station_role":"normal"},"geometry":{"type":"Point","coordinates":[30.699842150000002,36.9186296]},"__memberLines":{}},{"type":"Feature","properties":{"station_id":"n7170489760","station_name":"Şehitler Parkı","station_name_local":"Şehitler Parkı","station_name_en":null,"city":"Antalya","country":"Turkey","lines":["T3"],"wikipedia":null,"merged_from":2,"merged_names":null,"is_terminus":false,"routes":[{"ref":"T3","name":"T3 Varsak - Müze Tramvay Hattı","route_color":null}],"pass_count":1,"station_degree":2,"codes":null,"is_interchange":false,"station_role":"normal"},"geometry":{"type":"Point","coordinates":[30.707664,36.918962300000004]},"__memberLines":{}},{"type":"Feature","properties":{"station_id":"n7170489761","station_name":"Kepez Belediyesi","station_name_local":"Kepez Belediyesi","station_name_en":null,"city":"Antalya","country":"Turkey","lines":["T3"],"wikipedia":null,"merged_from":2,"merged_names":null,"is_terminus":false,"routes":[{"ref":"T3","name":"T3 Varsak - Müze Tramvay Hattı","route_color":null}],"pass_count":1,"station_degree":2,"codes":null,"is_interchange":false,"station_role":"normal"},"geometry":{"type":"Point","coordinates":[30.7138688,36.917792649999996]},"__memberLines":{}},{"type":"Feature","properties":{"station_id":"n7170489762","station_name":"Yeşilırmak","station_name_local":"Yeşilırmak","station_name_en":null,"city":"Antalya","country":"Turkey","lines":["T3"],"wikipedia":null,"merged_from":2,"merged_names":null,"is_terminus":false,"routes":[{"ref":"T3","name":"T3 Varsak - Müze Tramvay Hattı","route_color":null}],"pass_count":1,"station_degree":2,"codes":null,"is_interchange":false,"station_role":"normal"},"geometry":{"type":"Point","coordinates":[30.7145223,36.921947700000004]},"__memberLines":{}},{"type":"Feature","properties":{"station_id":"n7170489763","station_name":"Gündoğdu","station_name_local":"Gündoğdu","station_name_en":null,"city":"Antalya","country":"Turkey","lines":["T3"],"wikipedia":null,"merged_from":2,"merged_names":null,"is_terminus":false,"routes":[{"ref":"T3","name":"T3 Varsak - Müze Tramvay Hattı","route_color":null}],"pass_count":1,"station_degree":2,"codes":null,"is_interchange":false,"station_role":"normal"},"geometry":{"type":"Point","coordinates":[30.7132132,36.9277691]},"__memberLines":{}},{"type":"Feature","properties":{"station_id":"n7170489764","station_name":"Sütçüler","station_name_local":"Sütçüler","station_name_en":null,"city":"Antalya","country":"Turkey","lines":["T3"],"wikipedia":null,"merged_from":2,"merged_names":null,"is_terminus":false,"routes":[{"ref":"T3","name":"T3 Varsak - Müze Tramvay Hattı","route_color":null}],"pass_count":1,"station_degree":2,"codes":null,"is_interchange":false,"station_role":"normal"},"geometry":{"type":"Point","coordinates":[30.711833499999997,36.93396115]},"__memberLines":{}},{"type":"Feature","properties":{"station_id":"n7170489765","station_name":"Gazi","station_name_local":"Gazi","station_name_en":null,"city":"Antalya","country":"Turkey","lines":["T3"],"wikipedia":null,"merged_from":2,"merged_names":null,"is_terminus":false,"routes":[{"ref":"T3","name":"T3 Varsak - Müze Tramvay Hattı","route_color":null}],"pass_count":1,"station_degree":2,"codes":null,"is_interchange":false,"station_role":"normal"},"geometry":{"type":"Point","coordinates":[30.7104204,36.9399842]},"__memberLines":{}},{"type":"Feature","properties":{"station_id":"n7170489766","station_name":"Kuzeykaya","station_name_local":"Kuzeykaya","station_name_en":null,"city":"Antalya","country":"Turkey","lines":["T3"],"wikipedia":null,"merged_from":2,"merged_names":null,"is_terminus":false,"routes":[{"ref":"T3","name":"T3 Varsak - Müze Tramvay Hattı","route_color":null}],"pass_count":1,"station_degree":2,"codes":null,"is_interchange":false,"station_role":"normal"},"geometry":{"type":"Point","coordinates":[30.7092686,36.94423245]},"__memberLines":{}},{"type":"Feature","properties":{"station_id":"n7170489767","station_name":"Fevzi Çakmak","station_name_local":"Fevzi Çakmak","station_name_en":null,"city":"Antalya","country":"Turkey","lines":["T3"],"wikipedia":null,"merged_from":2,"merged_names":null,"is_terminus":false,"routes":[{"ref":"T3","name":"T3 Varsak - Müze Tramvay Hattı","route_color":null}],"pass_count":1,"station_degree":2,"codes":null,"is_interchange":false,"station_role":"normal"},"geometry":{"type":"Point","coordinates":[30.7080375,36.9484209]},"__memberLines":{}},{"type":"Feature","properties":{"station_id":"n7170489768","station_name":"Ulubatlı Hasan","station_name_local":"Ulubatlı Hasan","station_name_en":null,"city":"Antalya","country":"Turkey","lines":["T3"],"wikipedia":null,"merged_from":2,"merged_names":null,"is_terminus":false,"routes":[{"ref":"T3","name":"T3 Varsak - Müze Tramvay Hattı","route_color":null}],"pass_count":1,"station_degree":2,"codes":null,"is_interchange":false,"station_role":"normal"},"geometry":{"type":"Point","coordinates":[30.70839445,36.95437325]},"__memberLines":{}},{"type":"Feature","properties":{"station_id":"n7170489769","station_name":"Süleyman Demirel","station_name_local":"Süleyman Demirel","station_name_en":null,"city":"Antalya","country":"Turkey","lines":["T3"],"wikipedia":null,"merged_from":2,"merged_names":null,"is_terminus":false,"routes":[{"ref":"T3","name":"T3 Varsak - Müze Tramvay Hattı","route_color":null}],"pass_count":1,"station_degree":2,"codes":null,"is_interchange":false,"station_role":"normal"},"geometry":{"type":"Point","coordinates":[30.709814,36.9581275]},"__memberLines":{}},{"type":"Feature","properties":{"station_id":"n7170489771","station_name":"Karşıyaka","station_name_local":"Karşıyaka","station_name_en":null,"city":"Antalya","country":"Turkey","lines":["T3"],"wikipedia":null,"merged_from":2,"merged_names":null,"is_terminus":false,"routes":[{"ref":"T3","name":"T3 Varsak - Müze Tramvay Hattı","route_color":null}],"pass_count":1,"station_degree":2,"codes":null,"is_interchange":false,"station_role":"normal"},"geometry":{"type":"Point","coordinates":[30.713901800000002,36.9694074]},"__memberLines":{}},{"type":"Feature","properties":{"station_id":"n7170489772","station_name":"Aydoğmuş","station_name_local":"Aydoğmuş","station_name_en":null,"city":"Antalya","country":"Turkey","lines":["T3"],"wikipedia":null,"merged_from":2,"merged_names":null,"is_terminus":false,"routes":[{"ref":"T3","name":"T3 Varsak - Müze Tramvay Hattı","route_color":null}],"pass_count":1,"station_degree":2,"codes":null,"is_interchange":false,"station_role":"normal"},"geometry":{"type":"Point","coordinates":[30.7140895,36.975189900000004]},"__memberLines":{}},{"type":"Feature","properties":{"station_id":"n7170489773","station_name":"Aktoprak","station_name_local":"Aktoprak","station_name_en":null,"city":"Antalya","country":"Turkey","lines":["T3"],"wikipedia":null,"merged_from":2,"merged_names":null,"is_terminus":false,"routes":[{"ref":"T3","name":"T3 Varsak - Müze Tramvay Hattı","route_color":null}],"pass_count":1,"station_degree":2,"codes":null,"is_interchange":false,"station_role":"normal"},"geometry":{"type":"Point","coordinates":[30.71476915,36.98058995]},"__memberLines":{}},{"type":"Feature","properties":{"station_id":"n7170489774","station_name":"Kepezpark","station_name_local":"Kepezpark","station_name_en":null,"city":"Antalya","country":"Turkey","lines":["T3"],"wikipedia":null,"merged_from":2,"merged_names":null,"is_terminus":false,"routes":[{"ref":"T3","name":"T3 Varsak - Müze Tramvay Hattı","route_color":null}],"pass_count":1,"station_degree":2,"codes":null,"is_interchange":false,"station_role":"normal"},"geometry":{"type":"Point","coordinates":[30.7153974,36.9849801]},"__memberLines":{}},{"type":"Feature","properties":{"station_id":"n7170489775","station_name":"Varsak","station_name_local":"Varsak","station_name_en":null,"city":"Antalya","country":"Turkey","lines":["T3"],"wikipedia":null,"merged_from":2,"merged_names":null,"is_terminus":true,"routes":[{"ref":"T3","name":"T3 Varsak - Müze Tramvay Hattı","route_color":null}],"pass_count":1,"station_degree":1,"codes":null,"is_interchange":false,"station_role":"terminus"},"geometry":{"type":"Point","coordinates":[30.716462550000003,36.988901299999995]},"__memberLines":{}},{"type":"Feature","properties":{"station_id":"n9105332829","station_name":"Şelale","station_name_local":"Şelale","station_name_en":null,"city":"Antalya","country":"Turkey","lines":["T3"],"wikipedia":null,"merged_from":2,"merged_names":null,"is_terminus":false,"routes":[{"ref":"T3","name":"T3 Varsak - Müze Tramvay Hattı","route_color":null}],"pass_count":1,"station_degree":2,"codes":null,"is_interchange":false,"station_role":"normal"},"geometry":{"type":"Point","coordinates":[30.712008949999998,36.96350135]},"__memberLines":{}},{"type":"Feature","properties":{"station_id":"n9203015695","station_name":"Sakarya","station_name_local":"Sakarya","station_name_en":null,"city":"Antalya","country":"Turkey","lines":["T3"],"wikipedia":null,"merged_from":2,"merged_names":null,"is_terminus":false,"routes":[{"ref":"T3","name":"T3 Varsak - Müze Tramvay Hattı","route_color":null}],"pass_count":1,"station_degree":2,"codes":null,"is_interchange":false,"station_role":"normal"},"geometry":{"type":"Point","coordinates":[30.67606765,36.92112205]},"__memberLines":{}},{"type":"Feature","properties":{"station_id":"n9203048630","station_name":"Batıgar","station_name_local":"Batıgar","station_name_en":null,"city":"Antalya","country":"Turkey","lines":["T3"],"wikipedia":null,"merged_from":2,"merged_names":null,"is_terminus":false,"routes":[{"ref":"T3","name":"T3 Varsak - Müze Tramvay Hattı","route_color":null}],"pass_count":1,"station_degree":2,"codes":null,"is_interchange":false,"station_role":"normal"},"geometry":{"type":"Point","coordinates":[30.6679314,36.921143900000004]},"__memberLines":{}},{"type":"Feature","properties":{"station_id":"n9203048632","station_name":"Kültür","station_name_local":"Kültür","station_name_en":null,"city":"Antalya","country":"Turkey","lines":["T3"],"wikipedia":null,"merged_from":2,"merged_names":null,"is_terminus":false,"routes":[{"ref":"T3","name":"T3 Varsak - Müze Tramvay Hattı","route_color":null}],"pass_count":1,"station_degree":2,"codes":null,"is_interchange":false,"station_role":"normal"},"geometry":{"type":"Point","coordinates":[30.66322115,36.907968749999995]},"__memberLines":{}},{"type":"Feature","properties":{"station_id":"n9203048635","station_name":"Üniversite Hastanesi","station_name_local":"Üniversite Hastanesi","station_name_en":null,"city":"Antalya","country":"Turkey","lines":["T3"],"wikipedia":null,"merged_from":2,"merged_names":null,"is_terminus":false,"routes":[{"ref":"T3","name":"T3 Varsak - Müze Tramvay Hattı","route_color":null}],"pass_count":1,"station_degree":2,"codes":null,"is_interchange":false,"station_role":"normal"},"geometry":{"type":"Point","coordinates":[30.665489,36.8987279]},"__memberLines":{}},{"type":"Feature","properties":{"station_id":"n9203048637","station_name":"Akdeniz Üniversitesi","station_name_local":"Akdeniz Üniversitesi","station_name_en":null,"city":"Antalya","country":"Turkey","lines":["T3"],"wikipedia":null,"merged_from":2,"merged_names":null,"is_terminus":false,"routes":[{"ref":"T3","name":"T3 Varsak - Müze Tramvay Hattı","route_color":null}],"pass_count":1,"station_degree":2,"codes":null,"is_interchange":false,"station_role":"normal"},"geometry":{"type":"Point","coordinates":[30.6648858,36.89370025]},"__memberLines":{}},{"type":"Feature","properties":{"station_id":"n9203048639","station_name":"Meltem","station_name_local":"Meltem","station_name_en":null,"city":"Antalya","country":"Turkey","lines":["T3"],"wikipedia":null,"merged_from":2,"merged_names":null,"is_terminus":false,"routes":[{"ref":"T3","name":"T3 Varsak - Müze Tramvay Hattı","route_color":null}],"pass_count":1,"station_degree":2,"codes":null,"is_interchange":false,"station_role":"normal"},"geometry":{"type":"Point","coordinates":[30.66992715,36.892601049999996]},"__memberLines":{}},{"type":"Feature","properties":{"station_id":"n9203048660","station_name":"Yenidoğan","station_name_local":"Yenidoğan","station_name_en":null,"city":"Antalya","country":"Turkey","lines":["T3"],"wikipedia":null,"merged_from":2,"merged_names":null,"is_terminus":false,"routes":[{"ref":"T3","name":"T3 Varsak - Müze Tramvay Hattı","route_color":null}],"pass_count":1,"station_degree":2,"codes":null,"is_interchange":false,"station_role":"normal"},"geometry":{"type":"Point","coordinates":[30.665789699999998,36.9152999]},"__memberLines":{}},{"type":"Feature","properties":{"station_id":"n9203048662","station_name":"Eğitim Araştırma Hastanesi","station_name_local":"Eğitim Araştırma Hastanesi","station_name_en":null,"city":"Antalya","country":"Turkey","lines":["T3"],"wikipedia":null,"merged_from":2,"merged_names":null,"is_terminus":false,"routes":[{"ref":"T3","name":"T3 Varsak - Müze Tramvay Hattı","route_color":null}],"pass_count":1,"station_degree":2,"codes":null,"is_interchange":false,"station_role":"normal"},"geometry":{"type":"Point","coordinates":[30.676182349999998,36.89078025]},"__memberLines":{}}]}