{"type":"FeatureCollection","metro_system":{"continent":"europe","country":"Italy","city":"Sassari","official_website":null,"official_map":"https://it.wikipedia.org/wiki/Metrotranvia_di_Sassari","wikipedia":"it:Metrotranvia di Sassari","line_count":1,"segment_count":1,"station_count":8,"modes":["tram"],"audit":{"strategies_tried":[],"passed":true,"checks":[{"id":"has_lines","ok":true,"detail":"1 lines","level":"error"},{"id":"has_stations","ok":true,"detail":"8 stations","level":"error"},{"id":"stations_have_lines","ok":true,"detail":"8/8 站皆有所屬路線","level":"error"},{"id":"line_geometry_stations","ok":true,"detail":"8 個折點/端點皆為車站","level":"error"},{"id":"route_stations_match_geometry","ok":true,"detail":"各線車站列表與圖面一致","level":"error"},{"id":"interchange_rule","ok":true,"detail":"所有車站紅/藍點符合骨架＋路線色規則（藍＝端點、紅＝交叉）","level":"error"},{"id":"stations_named","ok":true,"detail":"8/8 站皆有名稱","level":"error"},{"id":"station_order","ok":true,"detail":"所有線路站序合理","level":"warn"},{"id":"line_wiki_stations","ok":true,"detail":"各線站數與 wiki 線路條目相符（營運中站數）","level":"error"},{"id":"line_wiki_coverage","ok":false,"detail":"1 條線無 wiki 站數對照：Santa Maria di Pisa","level":"warn"}],"reasons":[],"warnings":["1 條線無 wiki 站數對照：Santa Maria di Pisa"],"audited_at":"2026-07-27T02:39:34.690Z"}},"features":[{"type":"Feature","properties":{"seg_id":"sassari-0","routes":[{"route_id":"rm16274456","route_name":"Santa Maria di Pisa","route_name_local":"Santa Maria di Pisa","route_name_en":null,"route_ref":"1","route_color":null,"wikipedia":"it:Metrotranvia di Sassari","osm_route_ids":[1809012,2160531],"status":null,"order_suspect":0,"span_suspect":0,"stations":[{"station_id":"n7128866126","station_name":"Santa Maria di Pisa"},{"station_id":"n1478015648","station_name":"Stazione FS"},{"station_id":"n1478012105","station_name":"Porta Utzeri"},{"station_id":"n1478013704","station_name":"Sant'Anna"},{"station_id":"n1478012047","station_name":"Cliniche Universitarie"},{"station_id":"n1478012032","station_name":"Viale Italia"},{"station_id":"n1478012835","station_name":"Piazza Marconi"},{"station_id":"n1478012012","station_name":"Emiciclo Garibaldi"}]}],"route_count":1,"route_refs":["1"],"route_colors":["#e11d48"],"city":"Sassari","country":"Italy"},"geometry":{"type":"MultiLineString","coordinates":[[[8.545877566666666,40.74182613333333],[8.554801000000001,40.72932945],[8.5550478,40.72524],[8.554012,40.7230661],[8.55295705,40.719266000000005],[8.5551361,40.7177676],[8.5580873,40.720646],[8.5615952,40.72288055]]]}},{"type":"Feature","properties":{"station_id":"n1478012012","station_name":"Emiciclo Garibaldi","station_name_local":"Emiciclo Garibaldi","station_name_en":null,"city":"Sassari","country":"Italy","lines":["1"],"wikipedia":null,"merged_from":2,"merged_names":null,"is_terminus":true,"routes":[{"ref":"1","name":"Santa Maria di Pisa","route_color":null}],"pass_count":1,"station_degree":1,"codes":null,"is_interchange":false,"station_role":"terminus"},"geometry":{"type":"Point","coordinates":[8.5615952,40.72288055]},"__memberLines":{}},{"type":"Feature","properties":{"station_id":"n1478012032","station_name":"Viale Italia","station_name_local":"Viale Italia","station_name_en":null,"city":"Sassari","country":"Italy","lines":["1"],"wikipedia":null,"is_terminus":false,"routes":[{"ref":"1","name":"Santa Maria di Pisa","route_color":null}],"pass_count":1,"station_degree":2,"codes":null,"merged_from":null,"merged_names":null,"is_interchange":false,"station_role":"normal"},"geometry":{"type":"Point","coordinates":[8.5551361,40.7177676]},"__memberLines":{}},{"type":"Feature","properties":{"station_id":"n1478012047","station_name":"Cliniche Universitarie","station_name_local":"Cliniche Universitarie","station_name_en":null,"city":"Sassari","country":"Italy","lines":["1"],"wikipedia":null,"merged_from":2,"merged_names":null,"is_terminus":false,"routes":[{"ref":"1","name":"Santa Maria di Pisa","route_color":null}],"pass_count":1,"station_degree":2,"codes":null,"is_interchange":false,"station_role":"normal"},"geometry":{"type":"Point","coordinates":[8.55295705,40.719266000000005]},"__memberLines":{}},{"type":"Feature","properties":{"station_id":"n1478012105","station_name":"Porta Utzeri","station_name_local":"Porta Utzeri","station_name_en":null,"city":"Sassari","country":"Italy","lines":["1"],"wikipedia":null,"is_terminus":false,"routes":[{"ref":"1","name":"Santa Maria di Pisa","route_color":null}],"pass_count":1,"station_degree":2,"codes":null,"merged_from":null,"merged_names":null,"is_interchange":false,"station_role":"normal"},"geometry":{"type":"Point","coordinates":[8.5550478,40.72524]},"__memberLines":{}},{"type":"Feature","properties":{"station_id":"n1478012835","station_name":"Piazza Marconi","station_name_local":"Piazza Marconi","station_name_en":null,"city":"Sassari","country":"Italy","lines":["1"],"wikipedia":null,"is_terminus":false,"routes":[{"ref":"1","name":"Santa Maria di Pisa","route_color":null}],"pass_count":1,"station_degree":2,"codes":null,"merged_from":null,"merged_names":null,"is_interchange":false,"station_role":"normal"},"geometry":{"type":"Point","coordinates":[8.5580873,40.720646]},"__memberLines":{}},{"type":"Feature","properties":{"station_id":"n1478013704","station_name":"Sant'Anna","station_name_local":"Sant'Anna","station_name_en":null,"city":"Sassari","country":"Italy","lines":["1"],"wikipedia":null,"is_terminus":false,"routes":[{"ref":"1","name":"Santa Maria di Pisa","route_color":null}],"pass_count":1,"station_degree":2,"codes":null,"merged_from":null,"merged_names":null,"is_interchange":false,"station_role":"normal"},"geometry":{"type":"Point","coordinates":[8.554012,40.7230661]},"__memberLines":{}},{"type":"Feature","properties":{"station_id":"n1478015648","station_name":"Stazione FS","station_name_local":"Stazione FS","station_name_en":null,"city":"Sassari","country":"Italy","lines":["1"],"wikipedia":null,"merged_from":2,"merged_names":null,"is_terminus":false,"routes":[{"ref":"1","name":"Santa Maria di Pisa","route_color":null}],"pass_count":1,"station_degree":2,"codes":null,"is_interchange":false,"station_role":"normal"},"geometry":{"type":"Point","coordinates":[8.554801000000001,40.72932945]},"__memberLines":{}},{"type":"Feature","properties":{"station_id":"n7128866126","station_name":"Santa Maria di Pisa","station_name_local":"Santa Maria di Pisa","station_name_en":null,"city":"Sassari","country":"Italy","lines":["1"],"wikipedia":null,"merged_from":3,"merged_names":null,"is_terminus":true,"routes":[{"ref":"1","name":"Santa Maria di Pisa","route_color":null}],"pass_count":1,"station_degree":1,"codes":null,"is_interchange":false,"station_role":"terminus"},"geometry":{"type":"Point","coordinates":[8.545877566666666,40.74182613333333]},"__memberLines":{}}]}