{"type":"FeatureCollection","metro_system":{"continent":"africa","country":"Tunisia","city":"Tunis","official_website":null,"official_map":null,"wikipedia":null,"line_count":6,"segment_count":11,"station_count":78,"modes":["tram"],"audit":{"strategies_tried":[],"passed":true,"checks":[{"id":"has_lines","ok":true,"detail":"6 lines","level":"error"},{"id":"has_stations","ok":true,"detail":"79 stations","level":"error"},{"id":"stations_have_lines","ok":true,"detail":"79/79 站皆有所屬路線","level":"error"},{"id":"line_geometry_stations","ok":true,"detail":"89 個折點/端點皆為車站","level":"error"},{"id":"route_stations_match_geometry","ok":true,"detail":"各線車站列表與圖面一致","level":"error"},{"id":"interchange_rule","ok":true,"detail":"所有車站紅/藍點符合骨架＋路線色規則（藍＝端點、紅＝交叉）","level":"error"},{"id":"stations_named","ok":true,"detail":"79/79 站皆有名稱","level":"error"},{"id":"station_order","ok":true,"detail":"所有線路站序合理","level":"warn"},{"id":"station_span","ok":true,"detail":"各線相鄰站距與系統站群跨度正常","level":"error"},{"id":"line_wiki_stations","ok":true,"detail":"各線站數與 wiki 線路條目相符（營運中站數）","level":"error"},{"id":"line_wiki_coverage","ok":false,"detail":"5 條線無 wiki 站數對照：Line 1 - Ben Arous <> Place de Barcelone、Line 6 - Tunis Marine <> El Mourouj 4、Line 2: Place de la République <> Ariana","level":"warn"}],"reasons":[],"warnings":["5 條線無 wiki 站數對照：Line 1 - Ben Arous <> Place de Barcelone、Line 6 - Tunis Marine <> El Mourouj 4、Line 2: Place de la République <> Ariana"],"audited_at":"2026-07-27T05:42:56.719Z"}},"features":[{"type":"Feature","properties":{"seg_id":"tunis-0","routes":[{"route_id":"rm8510421","route_name":"TGM: Tunis Marine-La Goulette-La Marsa","route_name_local":"تونس - حلق الوادي - المرسى","route_name_en":"TGM: Tunis Marine-La Goulette-La Marsa","route_ref":"TGM","route_color":"#0000ff","wikipedia":null,"osm_route_ids":[1355997,1420736],"status":null,"order_suspect":0,"span_suspect":0,"stations":[{"station_id":"n283636759","station_name":"Tunis Marine"},{"station_id":"n1080014206","station_name":"Le Bac"},{"station_id":"n283644112","station_name":"La Goulette"},{"station_id":"n283642912","station_name":"La Goulette Neuve"},{"station_id":"n1080014618","station_name":"La Goulette Casino"},{"station_id":"n283642900","station_name":"Khereddine"},{"station_id":"n283642897","station_name":"L'Aéroport"},{"station_id":"n283642890","station_name":"Le Kram"},{"station_id":"n288341876","station_name":"Carthage Salammbô"},{"station_id":"n283642873","station_name":"Carthage Byrsa"},{"station_id":"n288345246","station_name":"Carthage Dermech"},{"station_id":"n288345501","station_name":"Carthage Hannibal"},{"station_id":"n1081030979","station_name":"Carthage Présidence"},{"station_id":"n288550478","station_name":"Carthage Amilcar"},{"station_id":"n283657391","station_name":"Sidi Bou Saïd"},{"station_id":"n283644053","station_name":"Sidi Dhrif"},{"station_id":"n5814603903","station_name":"La Corniche"},{"station_id":"n283643998","station_name":"La Marsa Plage"}]}],"route_count":1,"route_refs":["TGM"],"route_colors":["#0000ff"],"city":"Tunis","country":"Tunisia"},"geometry":{"type":"MultiLineString","coordinates":[[[10.19256785,36.800356162499995],[10.292375900000001,36.8142255],[10.3019727,36.81803643333333],[10.305635633333333,36.81993776666667],[10.308713266666667,36.824238799999996],[10.311604366666666,36.82893536666666],[10.313869466666667,36.832041366666665],[10.316657000000001,36.83634263333333],[10.319140200000001,36.84169566666666],[10.321840233333333,36.846230600000005],[10.325696566666666,36.85019756666666],[10.328995666666666,36.853546566666665],[10.3350249,36.861665],[10.337513600000001,36.86661436666666],[10.342086433333334,36.8706146],[10.339743766666667,36.87575893333334],[10.339304166666667,36.87970103333333],[10.3336649,36.882850700000006]]]}},{"type":"Feature","properties":{"seg_id":"tunis-1","routes":[{"route_id":"rm9525005","route_name":"Line 1 - Ben Arous <> Place de Barcelone","route_name_local":"خط ١ - ساحة برشلونة<>بن عروس","route_name_en":"Line 1 - Ben Arous <> Place de Barcelone","route_ref":"1","route_color":"#a6dfe6","wikipedia":null,"osm_route_ids":[1365361,9525004],"status":null,"order_suspect":0,"span_suspect":0,"stations":[{"station_id":"n621885811","station_name":"بن عروس"},{"station_id":"n1094498822","station_name":"أبو القاسم الشابي"},{"station_id":"n621885709","station_name":"حي النور"},{"station_id":"n6416450569","station_name":"الوردية"},{"station_id":"n1094508140","station_name":"ابن سينا"},{"station_id":"n1668047217","station_name":"الكبارية"},{"station_id":"n1094503260","station_name":"محمد علي"},{"station_id":"n621885652","station_name":"13 أوت"},{"station_id":"n1094912328","station_name":"محمد مناشو"},{"station_id":"n1094507510","station_name":"باب عليوة"},{"station_id":"n1094483039","station_name":"Place de Barcelone"}]}],"route_count":1,"route_refs":["1"],"route_colors":["#a6dfe6"],"city":"Tunis","country":"Tunisia"},"geometry":{"type":"MultiLineString","coordinates":[[[10.2203122,36.7553954],[10.2147489,36.7524518],[10.20473785,36.751481749999996],[10.199072000000001,36.75421076666667],[10.193960749999999,36.75426075],[10.19054465,36.75988215],[10.184004733333333,36.7677377]]]}},{"type":"Feature","properties":{"seg_id":"tunis-2","routes":[{"route_id":"rm9525005","route_name":"Line 1 - Ben Arous <> Place de Barcelone","route_name_local":"خط ١ - ساحة برشلونة<>بن عروس","route_name_en":"Line 1 - Ben Arous <> Place de Barcelone","route_ref":"1","route_color":"#a6dfe6","wikipedia":null,"osm_route_ids":[1365361,9525004],"status":null,"order_suspect":0,"span_suspect":0,"stations":[{"station_id":"n621885811","station_name":"بن عروس"},{"station_id":"n1094498822","station_name":"أبو القاسم الشابي"},{"station_id":"n621885709","station_name":"حي النور"},{"station_id":"n6416450569","station_name":"الوردية"},{"station_id":"n1094508140","station_name":"ابن سينا"},{"station_id":"n1668047217","station_name":"الكبارية"},{"station_id":"n1094503260","station_name":"محمد علي"},{"station_id":"n621885652","station_name":"13 أوت"},{"station_id":"n1094912328","station_name":"محمد مناشو"},{"station_id":"n1094507510","station_name":"باب عليوة"},{"station_id":"n1094483039","station_name":"Place de Barcelone"}]},{"route_id":"rm9530554","route_name":"Line 6 - Tunis Marine <> El Mourouj 4","route_name_local":"خط ٦ - المروج ٤-تونس البحرية","route_name_en":"Line 6 - Tunis Marine <> El Mourouj 4","route_ref":"6","route_color":"#652c90","wikipedia":null,"osm_route_ids":[1368621,9530553],"status":null,"order_suspect":0,"span_suspect":0,"stations":[{"station_id":"n1095697614","station_name":"المروج 4"},{"station_id":"n1095698182","station_name":"الشهداء"},{"station_id":"n1095698228","station_name":"المروج 3"},{"station_id":"n1095697169","station_name":"البيئة"},{"station_id":"n1095698921","station_name":"المروج 1"},{"station_id":"n634993918","station_name":"المروج 2"},{"station_id":"n1095697116","station_name":"المنتزه"},{"station_id":"n1095698025","station_name":"النسري"},{"station_id":"n1095697593","station_name":"الحي البلدي"},{"station_id":"n634993937","station_name":"الغزالي"},{"station_id":"n1095698207","station_name":"الطاهر حداد"},{"station_id":"n1094503260","station_name":"محمد علي"},{"station_id":"n621885652","station_name":"13 أوت"},{"station_id":"n1094912328","station_name":"محمد مناشو"},{"station_id":"n1094507510","station_name":"باب عليوة"},{"station_id":"n1094483039","station_name":"Place de Barcelone"},{"station_id":"junc:10.18206:36.79748","station_name":""},{"station_id":"n1094476124","station_name":"فرحات حشاد"},{"station_id":"n283636759","station_name":"Tunis Marine"}]}],"route_count":2,"route_refs":["1","6"],"route_colors":["#a6dfe6","#652c90"],"city":"Tunis","country":"Tunisia"},"geometry":{"type":"MultiLineString","coordinates":[[[10.184004733333333,36.7677377],[10.179204666666667,36.77509963333333],[10.1798591,36.78209656666667],[10.179812166666666,36.78573966666667],[10.180210866666668,36.796234116666675]]]}},{"type":"Feature","properties":{"seg_id":"tunis-3","routes":[{"route_id":"rm8511768","route_name":"Line 2: Place de la République <> Ariana","route_name_local":"خط 2 - ساحة الجمهورية","route_name_en":"Line 2: Place de la République <> Ariana","route_ref":"2","route_color":"#008000","wikipedia":null,"osm_route_ids":[1366793,9530552],"status":null,"order_suspect":0,"span_suspect":0,"stations":[{"station_id":"n974490565","station_name":"Ariana"},{"station_id":"n974490535","station_name":"الاستقلال"},{"station_id":"n974490536","station_name":"مدينة العلوم"},{"station_id":"n974490567","station_name":"10 ديسمبر 1984"},{"station_id":"n633618318","station_name":"الحي الرياضي"},{"station_id":"n1094916324","station_name":"الشباب"},{"station_id":"n661316493","station_name":"حي الخضراء"},{"station_id":"n1094915522","station_name":"الحدائق"},{"station_id":"n1094902351","station_name":"فلسطين"},{"station_id":"n1089665035","station_name":"Muhammad Al Khamis"},{"station_id":"n1094907123","station_name":"نيلسون مانديلا"},{"station_id":"n318594461","station_name":"ساحة الجمهورية"}]}],"route_count":1,"route_refs":["2"],"route_colors":["#008000"],"city":"Tunis","country":"Tunisia"},"geometry":{"type":"MultiLineString","coordinates":[[[10.197476533333333,36.859765933333335],[10.195915333333334,36.85439316666666],[10.19236545,36.8469859],[10.184038000000001,36.84425146666667],[10.181960600000002,36.838506233333334],[10.182786533333333,36.83329096666666],[10.1903688,36.8291875],[10.1855858,36.8235202],[10.18158935,36.81965995],[10.183188933333334,36.81592426666666],[10.182544633333334,36.81110303333333],[10.18081392,36.806490079999996]]]}},{"type":"Feature","properties":{"seg_id":"tunis-4","routes":[{"route_id":"rm8510789","route_name":"Line 3: Ibn Khaldoun <> Place Barcelone","route_name_local":"خط 3 - ابن خلدون-ساحة برشلونة","route_name_en":"Line 3: Ibn Khaldoun <> Place Barcelone","route_ref":"3","route_color":"#006b83","wikipedia":null,"osm_route_ids":[1368272,8510787],"status":null,"order_suspect":0,"span_suspect":0,"stations":[{"station_id":"n1095146383","station_name":"Ibn Khaldoun"},{"station_id":"n1095146413","station_name":"الياسمين"},{"station_id":"n402094607","station_name":"14 يناير 2011"},{"station_id":"n402089990","station_name":"حرم الجامعة"},{"station_id":"n402090002","station_name":"Rommana"},{"station_id":"n1095146616","station_name":"Mefteh Saadallah"},{"station_id":"n1095145544","station_name":"باب سعدون"},{"station_id":"n1095146798","station_name":"باب العسل"},{"station_id":"n1095144771","station_name":"باب الخضراء"},{"station_id":"n318594461","station_name":"ساحة الجمهورية"},{"station_id":"n1094476493","station_name":"ابن رشيق"},{"station_id":"n1094483039","station_name":"Place de Barcelone"}]}],"route_count":1,"route_refs":["3"],"route_colors":["#006b83"],"city":"Tunis","country":"Tunisia"},"geometry":{"type":"MultiLineString","coordinates":[[[10.134164333333333,36.8307346],[10.134590433333333,36.825825233333326],[10.139973066666668,36.82285616666666],[10.1439928,36.82601523333333],[10.1508865,36.8235296],[10.156268233333334,36.81306326666667],[10.161980633333334,36.80979476666667]]]}},{"type":"Feature","properties":{"seg_id":"tunis-5","routes":[{"route_id":"rm8510789","route_name":"Line 3: Ibn Khaldoun <> Place Barcelone","route_name_local":"خط 3 - ابن خلدون-ساحة برشلونة","route_name_en":"Line 3: Ibn Khaldoun <> Place Barcelone","route_ref":"3","route_color":"#006b83","wikipedia":null,"osm_route_ids":[1368272,8510787],"status":null,"order_suspect":0,"span_suspect":0,"stations":[{"station_id":"n1095146383","station_name":"Ibn Khaldoun"},{"station_id":"n1095146413","station_name":"الياسمين"},{"station_id":"n402094607","station_name":"14 يناير 2011"},{"station_id":"n402089990","station_name":"حرم الجامعة"},{"station_id":"n402090002","station_name":"Rommana"},{"station_id":"n1095146616","station_name":"Mefteh Saadallah"},{"station_id":"n1095145544","station_name":"باب سعدون"},{"station_id":"n1095146798","station_name":"باب العسل"},{"station_id":"n1095144771","station_name":"باب الخضراء"},{"station_id":"n318594461","station_name":"ساحة الجمهورية"},{"station_id":"n1094476493","station_name":"ابن رشيق"},{"station_id":"n1094483039","station_name":"Place de Barcelone"}]}],"route_count":1,"route_refs":["3"],"route_colors":["#006b83"],"city":"Tunis","country":"Tunisia"},"geometry":{"type":"MultiLineString","coordinates":[[[10.18081392,36.806490079999996],[10.1811981,36.8007997],[10.180210866666668,36.796234116666675]]]}},{"type":"Feature","properties":{"seg_id":"tunis-6","routes":[{"route_id":"rm8510789","route_name":"Line 3: Ibn Khaldoun <> Place Barcelone","route_name_local":"خط 3 - ابن خلدون-ساحة برشلونة","route_name_en":"Line 3: Ibn Khaldoun <> Place Barcelone","route_ref":"3","route_color":"#006b83","wikipedia":null,"osm_route_ids":[1368272,8510787],"status":null,"order_suspect":0,"span_suspect":0,"stations":[{"station_id":"n1095146383","station_name":"Ibn Khaldoun"},{"station_id":"n1095146413","station_name":"الياسمين"},{"station_id":"n402094607","station_name":"14 يناير 2011"},{"station_id":"n402089990","station_name":"حرم الجامعة"},{"station_id":"n402090002","station_name":"Rommana"},{"station_id":"n1095146616","station_name":"Mefteh Saadallah"},{"station_id":"n1095145544","station_name":"باب سعدون"},{"station_id":"n1095146798","station_name":"باب العسل"},{"station_id":"n1095144771","station_name":"باب الخضراء"},{"station_id":"n318594461","station_name":"ساحة الجمهورية"},{"station_id":"n1094476493","station_name":"ابن رشيق"},{"station_id":"n1094483039","station_name":"Place de Barcelone"}]},{"route_id":"rm8499866","route_name":"Line 4: Kheireddine <> Tunis Marine","route_name_local":"خط 4 - خير الدين-تونس البحرية","route_name_en":"Line 4: Kheireddine <> Tunis Marine","route_ref":"4","route_color":"#ffb733","wikipedia":null,"osm_route_ids":[1368401,8501148],"status":null,"order_suspect":0,"span_suspect":0,"stations":[{"station_id":"n283636759","station_name":"Tunis Marine"},{"station_id":"n1094476124","station_name":"فرحات حشاد"},{"station_id":"junc:10.18206:36.79748","station_name":""},{"station_id":"n1094483039","station_name":"Place de Barcelone"},{"station_id":"n1095145955","station_name":"حبيب ثامر"},{"station_id":"n318594461","station_name":"ساحة الجمهورية"},{"station_id":"n1095144771","station_name":"باب الخضراء"},{"station_id":"n1095146798","station_name":"باب العسل"},{"station_id":"n1095145544","station_name":"باب سعدون"},{"station_id":"n1095327902","station_name":"بوشوشة"},{"station_id":"n708687557","station_name":"شارع 20 مارس"},{"station_id":"n1095327585","station_name":"Le Bardo"},{"station_id":"n1095328526","station_name":"Essaida"},{"station_id":"n1095328908","station_name":"خزندار"},{"station_id":"n1095328814","station_name":"صناعات تقليدية"},{"station_id":"n1095326890","station_name":"Den Den"},{"station_id":"n1827051883","station_name":"Manouba"},{"station_id":"n5625845879","station_name":"Moncef Bey"},{"station_id":"n5625845881","station_name":"Aboubaker Errazi"},{"station_id":"n5625845872","station_name":"Technopole"},{"station_id":"n5625819235","station_name":"Palais Al-Warda"},{"station_id":"n5625819236","station_name":"المركب الجامعي"},{"station_id":"n5806301476","station_name":"Kheireddine"}]}],"route_count":2,"route_refs":["3","4"],"route_colors":["#006b83","#ffb733"],"city":"Tunis","country":"Tunisia"},"geometry":{"type":"MultiLineString","coordinates":[[[10.161980633333334,36.80979476666667],[10.1687854,36.81315395],[10.172475466666667,36.810239599999996],[10.18081392,36.806490079999996]]]}},{"type":"Feature","properties":{"seg_id":"tunis-7","routes":[{"route_id":"rm8499866","route_name":"Line 4: Kheireddine <> Tunis Marine","route_name_local":"خط 4 - خير الدين-تونس البحرية","route_name_en":"Line 4: Kheireddine <> Tunis Marine","route_ref":"4","route_color":"#ffb733","wikipedia":null,"osm_route_ids":[1368401,8501148],"status":null,"order_suspect":0,"span_suspect":0,"stations":[{"station_id":"n283636759","station_name":"Tunis Marine"},{"station_id":"n1094476124","station_name":"فرحات حشاد"},{"station_id":"junc:10.18206:36.79748","station_name":""},{"station_id":"n1094483039","station_name":"Place de Barcelone"},{"station_id":"n1095145955","station_name":"حبيب ثامر"},{"station_id":"n318594461","station_name":"ساحة الجمهورية"},{"station_id":"n1095144771","station_name":"باب الخضراء"},{"station_id":"n1095146798","station_name":"باب العسل"},{"station_id":"n1095145544","station_name":"باب سعدون"},{"station_id":"n1095327902","station_name":"بوشوشة"},{"station_id":"n708687557","station_name":"شارع 20 مارس"},{"station_id":"n1095327585","station_name":"Le Bardo"},{"station_id":"n1095328526","station_name":"Essaida"},{"station_id":"n1095328908","station_name":"خزندار"},{"station_id":"n1095328814","station_name":"صناعات تقليدية"},{"station_id":"n1095326890","station_name":"Den Den"},{"station_id":"n1827051883","station_name":"Manouba"},{"station_id":"n5625845879","station_name":"Moncef Bey"},{"station_id":"n5625845881","station_name":"Aboubaker Errazi"},{"station_id":"n5625845872","station_name":"Technopole"},{"station_id":"n5625819235","station_name":"Palais Al-Warda"},{"station_id":"n5625819236","station_name":"المركب الجامعي"},{"station_id":"n5806301476","station_name":"Kheireddine"}]},{"route_id":"rm9530554","route_name":"Line 6 - Tunis Marine <> El Mourouj 4","route_name_local":"خط ٦ - المروج ٤-تونس البحرية","route_name_en":"Line 6 - Tunis Marine <> El Mourouj 4","route_ref":"6","route_color":"#652c90","wikipedia":null,"osm_route_ids":[1368621,9530553],"status":null,"order_suspect":0,"span_suspect":0,"stations":[{"station_id":"n1095697614","station_name":"المروج 4"},{"station_id":"n1095698182","station_name":"الشهداء"},{"station_id":"n1095698228","station_name":"المروج 3"},{"station_id":"n1095697169","station_name":"البيئة"},{"station_id":"n1095698921","station_name":"المروج 1"},{"station_id":"n634993918","station_name":"المروج 2"},{"station_id":"n1095697116","station_name":"المنتزه"},{"station_id":"n1095698025","station_name":"النسري"},{"station_id":"n1095697593","station_name":"الحي البلدي"},{"station_id":"n634993937","station_name":"الغزالي"},{"station_id":"n1095698207","station_name":"الطاهر حداد"},{"station_id":"n1094503260","station_name":"محمد علي"},{"station_id":"n621885652","station_name":"13 أوت"},{"station_id":"n1094912328","station_name":"محمد مناشو"},{"station_id":"n1094507510","station_name":"باب عليوة"},{"station_id":"n1094483039","station_name":"Place de Barcelone"},{"station_id":"junc:10.18206:36.79748","station_name":""},{"station_id":"n1094476124","station_name":"فرحات حشاد"},{"station_id":"n283636759","station_name":"Tunis Marine"}]}],"route_count":2,"route_refs":["4","6"],"route_colors":["#ffb733","#652c90"],"city":"Tunis","country":"Tunisia"},"geometry":{"type":"MultiLineString","coordinates":[[[10.19256785,36.800356162499995],[10.186097733333334,36.79789136666667],[10.1820589,36.7974847],[10.180210866666668,36.796234116666675]]]}},{"type":"Feature","properties":{"seg_id":"tunis-8","routes":[{"route_id":"rm8499866","route_name":"Line 4: Kheireddine <> Tunis Marine","route_name_local":"خط 4 - خير الدين-تونس البحرية","route_name_en":"Line 4: Kheireddine <> Tunis Marine","route_ref":"4","route_color":"#ffb733","wikipedia":null,"osm_route_ids":[1368401,8501148],"status":null,"order_suspect":0,"span_suspect":0,"stations":[{"station_id":"n283636759","station_name":"Tunis Marine"},{"station_id":"n1094476124","station_name":"فرحات حشاد"},{"station_id":"junc:10.18206:36.79748","station_name":""},{"station_id":"n1094483039","station_name":"Place de Barcelone"},{"station_id":"n1095145955","station_name":"حبيب ثامر"},{"station_id":"n318594461","station_name":"ساحة الجمهورية"},{"station_id":"n1095144771","station_name":"باب الخضراء"},{"station_id":"n1095146798","station_name":"باب العسل"},{"station_id":"n1095145544","station_name":"باب سعدون"},{"station_id":"n1095327902","station_name":"بوشوشة"},{"station_id":"n708687557","station_name":"شارع 20 مارس"},{"station_id":"n1095327585","station_name":"Le Bardo"},{"station_id":"n1095328526","station_name":"Essaida"},{"station_id":"n1095328908","station_name":"خزندار"},{"station_id":"n1095328814","station_name":"صناعات تقليدية"},{"station_id":"n1095326890","station_name":"Den Den"},{"station_id":"n1827051883","station_name":"Manouba"},{"station_id":"n5625845879","station_name":"Moncef Bey"},{"station_id":"n5625845881","station_name":"Aboubaker Errazi"},{"station_id":"n5625845872","station_name":"Technopole"},{"station_id":"n5625819235","station_name":"Palais Al-Warda"},{"station_id":"n5625819236","station_name":"المركب الجامعي"},{"station_id":"n5806301476","station_name":"Kheireddine"}]}],"route_count":1,"route_refs":["4"],"route_colors":["#ffb733"],"city":"Tunis","country":"Tunisia"},"geometry":{"type":"MultiLineString","coordinates":[[[10.180210866666668,36.796234116666675],[10.1789112,36.8019689],[10.18081392,36.806490079999996]]]}},{"type":"Feature","properties":{"seg_id":"tunis-9","routes":[{"route_id":"rm8499866","route_name":"Line 4: Kheireddine <> Tunis Marine","route_name_local":"خط 4 - خير الدين-تونس البحرية","route_name_en":"Line 4: Kheireddine <> Tunis Marine","route_ref":"4","route_color":"#ffb733","wikipedia":null,"osm_route_ids":[1368401,8501148],"status":null,"order_suspect":0,"span_suspect":0,"stations":[{"station_id":"n283636759","station_name":"Tunis Marine"},{"station_id":"n1094476124","station_name":"فرحات حشاد"},{"station_id":"junc:10.18206:36.79748","station_name":""},{"station_id":"n1094483039","station_name":"Place de Barcelone"},{"station_id":"n1095145955","station_name":"حبيب ثامر"},{"station_id":"n318594461","station_name":"ساحة الجمهورية"},{"station_id":"n1095144771","station_name":"باب الخضراء"},{"station_id":"n1095146798","station_name":"باب العسل"},{"station_id":"n1095145544","station_name":"باب سعدون"},{"station_id":"n1095327902","station_name":"بوشوشة"},{"station_id":"n708687557","station_name":"شارع 20 مارس"},{"station_id":"n1095327585","station_name":"Le Bardo"},{"station_id":"n1095328526","station_name":"Essaida"},{"station_id":"n1095328908","station_name":"خزندار"},{"station_id":"n1095328814","station_name":"صناعات تقليدية"},{"station_id":"n1095326890","station_name":"Den Den"},{"station_id":"n1827051883","station_name":"Manouba"},{"station_id":"n5625845879","station_name":"Moncef Bey"},{"station_id":"n5625845881","station_name":"Aboubaker Errazi"},{"station_id":"n5625845872","station_name":"Technopole"},{"station_id":"n5625819235","station_name":"Palais Al-Warda"},{"station_id":"n5625819236","station_name":"المركب الجامعي"},{"station_id":"n5806301476","station_name":"Kheireddine"}]}],"route_count":1,"route_refs":["4"],"route_colors":["#ffb733"],"city":"Tunis","country":"Tunisia"},"geometry":{"type":"MultiLineString","coordinates":[[[10.161980633333334,36.80979476666667],[10.149144766666668,36.80925166666667],[10.142869733333333,36.80829716666667],[10.135229266666668,36.807210766666664],[10.126705066666666,36.80541106666667],[10.1217338,36.80418133333333],[10.116019233333333,36.8028975],[10.110769266666665,36.80221136666666],[10.102631833333334,36.8020789],[10.0906552,36.805245899999996],[10.082449733333332,36.80740496666667],[10.0754288,36.8090525],[10.0679477,36.810289600000004],[10.0618999,36.812938133333326],[10.0567773,36.81528853333334]]]}},{"type":"Feature","properties":{"seg_id":"tunis-10","routes":[{"route_id":"rm9530554","route_name":"Line 6 - Tunis Marine <> El Mourouj 4","route_name_local":"خط ٦ - المروج ٤-تونس البحرية","route_name_en":"Line 6 - Tunis Marine <> El Mourouj 4","route_ref":"6","route_color":"#652c90","wikipedia":null,"osm_route_ids":[1368621,9530553],"status":null,"order_suspect":0,"span_suspect":0,"stations":[{"station_id":"n1095697614","station_name":"المروج 4"},{"station_id":"n1095698182","station_name":"الشهداء"},{"station_id":"n1095698228","station_name":"المروج 3"},{"station_id":"n1095697169","station_name":"البيئة"},{"station_id":"n1095698921","station_name":"المروج 1"},{"station_id":"n634993918","station_name":"المروج 2"},{"station_id":"n1095697116","station_name":"المنتزه"},{"station_id":"n1095698025","station_name":"النسري"},{"station_id":"n1095697593","station_name":"الحي البلدي"},{"station_id":"n634993937","station_name":"الغزالي"},{"station_id":"n1095698207","station_name":"الطاهر حداد"},{"station_id":"n1094503260","station_name":"محمد علي"},{"station_id":"n621885652","station_name":"13 أوت"},{"station_id":"n1094912328","station_name":"محمد مناشو"},{"station_id":"n1094507510","station_name":"باب عليوة"},{"station_id":"n1094483039","station_name":"Place de Barcelone"},{"station_id":"junc:10.18206:36.79748","station_name":""},{"station_id":"n1094476124","station_name":"فرحات حشاد"},{"station_id":"n283636759","station_name":"Tunis Marine"}]}],"route_count":1,"route_refs":["6"],"route_colors":["#652c90"],"city":"Tunis","country":"Tunisia"},"geometry":{"type":"MultiLineString","coordinates":[[[10.216415733333335,36.71979343333333],[10.212136,36.723567800000005],[10.210735699999999,36.72872443333333],[10.210357933333333,36.73314323333333],[10.206564433333332,36.738483566666666],[10.1977464,36.742108433333335],[10.193514875,36.742892049999995],[10.190430166666667,36.74504463333333],[10.188709466666666,36.74843719999999],[10.187626833333333,36.75463183333333],[10.1869998,36.7607445],[10.184004733333333,36.7677377]]]}},{"type":"Feature","properties":{"station_id":"n283636759","station_name":"Tunis Marine","station_name_local":"تونس البحرية","station_name_en":"Tunis Marine","city":"Tunis","country":"Tunisia","lines":["4","6","TGM"],"wikipedia":null,"merged_from":8,"merged_names":null,"is_terminus":false,"routes":[{"ref":"4","name":"Line 4: Kheireddine <> Tunis Marine","route_color":"#ffb733"},{"ref":"6","name":"Line 6 - Tunis Marine <> El Mourouj 4","route_color":"#652c90"},{"ref":"TGM","name":"TGM: Tunis Marine-La Goulette-La Marsa","route_color":"#0000ff"}],"pass_count":3,"station_degree":2,"codes":null,"is_interchange":true,"station_role":"interchange"},"geometry":{"type":"Point","coordinates":[10.19256785,36.800356162499995]},"__memberLines":{}},{"type":"Feature","properties":{"station_id":"n283642873","station_name":"Carthage Byrsa","station_name_local":"قرطاج بيرصة","station_name_en":"Carthage Byrsa","city":"Tunis","country":"Tunisia","lines":["TGM"],"wikipedia":null,"merged_from":3,"merged_names":null,"is_terminus":false,"routes":[{"ref":"TGM","name":"TGM: Tunis Marine-La Goulette-La Marsa","route_color":"#0000ff"}],"pass_count":1,"station_degree":2,"codes":null,"is_interchange":false,"station_role":"normal"},"geometry":{"type":"Point","coordinates":[10.321840233333333,36.846230600000005]},"__memberLines":{}},{"type":"Feature","properties":{"station_id":"n283642890","station_name":"Le Kram","station_name_local":"الكرم","station_name_en":"Le Kram","city":"Tunis","country":"Tunisia","lines":["TGM"],"wikipedia":null,"merged_from":3,"merged_names":null,"is_terminus":false,"routes":[{"ref":"TGM","name":"TGM: Tunis Marine-La Goulette-La Marsa","route_color":"#0000ff"}],"pass_count":1,"station_degree":2,"codes":null,"is_interchange":false,"station_role":"normal"},"geometry":{"type":"Point","coordinates":[10.316657000000001,36.83634263333333]},"__memberLines":{}},{"type":"Feature","properties":{"station_id":"n283642897","station_name":"L'Aéroport","station_name_local":"المرسى الجوية","station_name_en":"L'Aéroport","city":"Tunis","country":"Tunisia","lines":["TGM"],"wikipedia":null,"merged_from":3,"merged_names":null,"is_terminus":false,"routes":[{"ref":"TGM","name":"TGM: Tunis Marine-La Goulette-La Marsa","route_color":"#0000ff"}],"pass_count":1,"station_degree":2,"codes":null,"is_interchange":false,"station_role":"normal"},"geometry":{"type":"Point","coordinates":[10.313869466666667,36.832041366666665]},"__memberLines":{}},{"type":"Feature","properties":{"station_id":"n283642900","station_name":"Khereddine","station_name_local":"خير الدين","station_name_en":"Khereddine","city":"Tunis","country":"Tunisia","lines":["TGM"],"wikipedia":null,"merged_from":3,"merged_names":null,"is_terminus":false,"routes":[{"ref":"TGM","name":"TGM: Tunis Marine-La Goulette-La Marsa","route_color":"#0000ff"}],"pass_count":1,"station_degree":2,"codes":null,"is_interchange":false,"station_role":"normal"},"geometry":{"type":"Point","coordinates":[10.311604366666666,36.82893536666666]},"__memberLines":{}},{"type":"Feature","properties":{"station_id":"n283642912","station_name":"La Goulette Neuve","station_name_local":"حلق الوادي الجديد","station_name_en":"La Goulette Neuve","city":"Tunis","country":"Tunisia","lines":["TGM"],"wikipedia":null,"merged_from":3,"merged_names":null,"is_terminus":false,"routes":[{"ref":"TGM","name":"TGM: Tunis Marine-La Goulette-La Marsa","route_color":"#0000ff"}],"pass_count":1,"station_degree":2,"codes":null,"is_interchange":false,"station_role":"normal"},"geometry":{"type":"Point","coordinates":[10.305635633333333,36.81993776666667]},"__memberLines":{}},{"type":"Feature","properties":{"station_id":"n283643998","station_name":"La Marsa Plage","station_name_local":"شاطئ المرسى","station_name_en":"La Marsa Plage","city":"Tunis","country":"Tunisia","lines":["TGM"],"wikipedia":null,"merged_from":3,"merged_names":null,"is_terminus":true,"routes":[{"ref":"TGM","name":"TGM: Tunis Marine-La Goulette-La Marsa","route_color":"#0000ff"}],"pass_count":1,"station_degree":1,"codes":null,"is_interchange":false,"station_role":"terminus"},"geometry":{"type":"Point","coordinates":[10.3336649,36.882850700000006]},"__memberLines":{}},{"type":"Feature","properties":{"station_id":"n5814603903","station_name":"La Corniche","station_name_local":"الكورنيش","station_name_en":"La Corniche","city":"Tunis","country":"Tunisia","lines":["TGM"],"wikipedia":null,"merged_from":3,"merged_names":null,"is_terminus":false,"routes":[{"ref":"TGM","name":"TGM: Tunis Marine-La Goulette-La Marsa","route_color":"#0000ff"}],"pass_count":1,"station_degree":2,"codes":null,"is_interchange":false,"station_role":"normal"},"geometry":{"type":"Point","coordinates":[10.339304166666667,36.87970103333333]},"__memberLines":{}},{"type":"Feature","properties":{"station_id":"n283644053","station_name":"Sidi Dhrif","station_name_local":"سيدي الظريف","station_name_en":"Sidi Dhrif","city":"Tunis","country":"Tunisia","lines":["TGM"],"wikipedia":null,"merged_from":3,"merged_names":null,"is_terminus":false,"routes":[{"ref":"TGM","name":"TGM: Tunis Marine-La Goulette-La Marsa","route_color":"#0000ff"}],"pass_count":1,"station_degree":2,"codes":null,"is_interchange":false,"station_role":"normal"},"geometry":{"type":"Point","coordinates":[10.339743766666667,36.87575893333334]},"__memberLines":{}},{"type":"Feature","properties":{"station_id":"n283644112","station_name":"La Goulette","station_name_local":"حلق الوادي","station_name_en":"La Goulette","city":"Tunis","country":"Tunisia","lines":["TGM"],"wikipedia":null,"merged_from":3,"merged_names":null,"is_terminus":false,"routes":[{"ref":"TGM","name":"TGM: Tunis Marine-La Goulette-La Marsa","route_color":"#0000ff"}],"pass_count":1,"station_degree":2,"codes":null,"is_interchange":false,"station_role":"normal"},"geometry":{"type":"Point","coordinates":[10.3019727,36.81803643333333]},"__memberLines":{}},{"type":"Feature","properties":{"station_id":"n283657391","station_name":"Sidi Bou Saïd","station_name_local":"سيدي بوسعيد","station_name_en":"Sidi Bou Saïd","city":"Tunis","country":"Tunisia","lines":["TGM"],"wikipedia":null,"merged_from":3,"merged_names":null,"is_terminus":false,"routes":[{"ref":"TGM","name":"TGM: Tunis Marine-La Goulette-La Marsa","route_color":"#0000ff"}],"pass_count":1,"station_degree":2,"codes":null,"is_interchange":false,"station_role":"normal"},"geometry":{"type":"Point","coordinates":[10.342086433333334,36.8706146]},"__memberLines":{}},{"type":"Feature","properties":{"station_id":"n288341876","station_name":"Carthage Salammbô","station_name_local":"قرطاج صلامبو","station_name_en":"Carthage Salammbô","city":"Tunis","country":"Tunisia","lines":["TGM"],"wikipedia":null,"merged_from":3,"merged_names":null,"is_terminus":false,"routes":[{"ref":"TGM","name":"TGM: Tunis Marine-La Goulette-La Marsa","route_color":"#0000ff"}],"pass_count":1,"station_degree":2,"codes":null,"is_interchange":false,"station_role":"normal"},"geometry":{"type":"Point","coordinates":[10.319140200000001,36.84169566666666]},"__memberLines":{}},{"type":"Feature","properties":{"station_id":"n288345246","station_name":"Carthage Dermech","station_name_local":"قرطاج درمش","station_name_en":"Carthage Dermech","city":"Tunis","country":"Tunisia","lines":["TGM"],"wikipedia":null,"merged_from":3,"merged_names":null,"is_terminus":false,"routes":[{"ref":"TGM","name":"TGM: Tunis Marine-La Goulette-La Marsa","route_color":"#0000ff"}],"pass_count":1,"station_degree":2,"codes":null,"is_interchange":false,"station_role":"normal"},"geometry":{"type":"Point","coordinates":[10.325696566666666,36.85019756666666]},"__memberLines":{}},{"type":"Feature","properties":{"station_id":"n288345501","station_name":"Carthage Hannibal","station_name_local":"قرطاج حنبعل","station_name_en":"Carthage Hannibal","city":"Tunis","country":"Tunisia","lines":["TGM"],"wikipedia":null,"merged_from":3,"merged_names":null,"is_terminus":false,"routes":[{"ref":"TGM","name":"TGM: Tunis Marine-La Goulette-La Marsa","route_color":"#0000ff"}],"pass_count":1,"station_degree":2,"codes":null,"is_interchange":false,"station_role":"normal"},"geometry":{"type":"Point","coordinates":[10.328995666666666,36.853546566666665]},"__memberLines":{}},{"type":"Feature","properties":{"station_id":"n288550478","station_name":"Carthage Amilcar","station_name_local":"قرطاج أميلكار","station_name_en":"Carthage Amilcar","city":"Tunis","country":"Tunisia","lines":["TGM"],"wikipedia":null,"merged_from":3,"merged_names":null,"is_terminus":false,"routes":[{"ref":"TGM","name":"TGM: Tunis Marine-La Goulette-La Marsa","route_color":"#0000ff"}],"pass_count":1,"station_degree":2,"codes":null,"is_interchange":false,"station_role":"normal"},"geometry":{"type":"Point","coordinates":[10.337513600000001,36.86661436666666]},"__memberLines":{}},{"type":"Feature","properties":{"station_id":"n318594461","station_name":"ساحة الجمهورية","station_name_local":"ساحة الجمهورية","station_name_en":null,"city":"Tunis","country":"Tunisia","lines":["2","3","4"],"wikipedia":null,"merged_from":5,"merged_names":null,"is_terminus":false,"routes":[{"ref":"2","name":"Line 2: Place de la République <> Ariana","route_color":"#008000"},{"ref":"3","name":"Line 3: Ibn Khaldoun <> Place Barcelone","route_color":"#006b83"},{"ref":"4","name":"Line 4: Kheireddine <> Tunis Marine","route_color":"#ffb733"}],"pass_count":3,"station_degree":4,"codes":null,"is_interchange":true,"station_role":"interchange"},"geometry":{"type":"Point","coordinates":[10.18081392,36.806490079999996]},"__memberLines":{}},{"type":"Feature","properties":{"station_id":"n402089990","station_name":"حرم الجامعة","station_name_local":"حرم الجامعة","station_name_en":null,"city":"Tunis","country":"Tunisia","lines":["3"],"wikipedia":null,"merged_from":3,"merged_names":null,"is_terminus":false,"routes":[{"ref":"3","name":"Line 3: Ibn Khaldoun <> Place Barcelone","route_color":"#006b83"}],"pass_count":1,"station_degree":2,"codes":null,"is_interchange":false,"station_role":"normal"},"geometry":{"type":"Point","coordinates":[10.1439928,36.82601523333333]},"__memberLines":{}},{"type":"Feature","properties":{"station_id":"n402090002","station_name":"Rommana","station_name_local":"الرمانة","station_name_en":"Rommana","city":"Tunis","country":"Tunisia","lines":["3"],"wikipedia":null,"merged_from":3,"merged_names":null,"is_terminus":false,"routes":[{"ref":"3","name":"Line 3: Ibn Khaldoun <> Place Barcelone","route_color":"#006b83"}],"pass_count":1,"station_degree":2,"codes":null,"is_interchange":false,"station_role":"normal"},"geometry":{"type":"Point","coordinates":[10.1508865,36.8235296]},"__memberLines":{}},{"type":"Feature","properties":{"station_id":"n402094607","station_name":"14 يناير 2011","station_name_local":"14 يناير 2011","station_name_en":null,"city":"Tunis","country":"Tunisia","lines":["3"],"wikipedia":null,"merged_from":3,"merged_names":null,"is_terminus":false,"routes":[{"ref":"3","name":"Line 3: Ibn Khaldoun <> Place Barcelone","route_color":"#006b83"}],"pass_count":1,"station_degree":2,"codes":null,"is_interchange":false,"station_role":"normal"},"geometry":{"type":"Point","coordinates":[10.139973066666668,36.82285616666666]},"__memberLines":{}},{"type":"Feature","properties":{"station_id":"n621885652","station_name":"13 أوت","station_name_local":"13 أوت","station_name_en":null,"city":"Tunis","country":"Tunisia","lines":["1","6"],"wikipedia":null,"merged_from":3,"merged_names":null,"is_terminus":false,"routes":[{"ref":"1","name":"Line 1 - Ben Arous <> Place de Barcelone","route_color":"#a6dfe6"},{"ref":"6","name":"Line 6 - Tunis Marine <> El Mourouj 4","route_color":"#652c90"}],"pass_count":2,"station_degree":2,"codes":null,"is_interchange":false,"station_role":"normal"},"geometry":{"type":"Point","coordinates":[10.179204666666667,36.77509963333333]},"__memberLines":{}},{"type":"Feature","properties":{"station_id":"n6416450569","station_name":"الوردية","station_name_local":"الوردية","station_name_en":null,"city":"Tunis","country":"Tunisia","lines":["1"],"wikipedia":null,"merged_from":3,"merged_names":null,"is_terminus":false,"routes":[{"ref":"1","name":"Line 1 - Ben Arous <> Place de Barcelone","route_color":"#a6dfe6"}],"pass_count":1,"station_degree":2,"codes":null,"is_interchange":false,"station_role":"normal"},"geometry":{"type":"Point","coordinates":[10.199072000000001,36.75421076666667]},"__memberLines":{}},{"type":"Feature","properties":{"station_id":"n621885709","station_name":"حي النور","station_name_local":"حي النور","station_name_en":null,"city":"Tunis","country":"Tunisia","lines":["1"],"wikipedia":null,"merged_from":2,"merged_names":null,"is_terminus":false,"routes":[{"ref":"1","name":"Line 1 - Ben Arous <> Place de Barcelone","route_color":"#a6dfe6"}],"pass_count":1,"station_degree":2,"codes":null,"is_interchange":false,"station_role":"normal"},"geometry":{"type":"Point","coordinates":[10.20473785,36.751481749999996]},"__memberLines":{}},{"type":"Feature","properties":{"station_id":"n621885811","station_name":"بن عروس","station_name_local":"بن عروس","station_name_en":null,"city":"Tunis","country":"Tunisia","lines":["1"],"wikipedia":null,"merged_from":2,"merged_names":null,"is_terminus":true,"routes":[{"ref":"1","name":"Line 1 - Ben Arous <> Place de Barcelone","route_color":"#a6dfe6"}],"pass_count":1,"station_degree":1,"codes":null,"is_interchange":false,"station_role":"terminus"},"geometry":{"type":"Point","coordinates":[10.2203122,36.7553954]},"__memberLines":{}},{"type":"Feature","properties":{"station_id":"n633618318","station_name":"الحي الرياضي","station_name_local":"الحي الرياضي","station_name_en":null,"city":"Tunis","country":"Tunisia","lines":["2"],"wikipedia":null,"merged_from":3,"merged_names":null,"is_terminus":false,"routes":[{"ref":"2","name":"Line 2: Place de la République <> Ariana","route_color":"#008000"}],"pass_count":1,"station_degree":2,"codes":null,"is_interchange":false,"station_role":"normal"},"geometry":{"type":"Point","coordinates":[10.181960600000002,36.838506233333334]},"__memberLines":{}},{"type":"Feature","properties":{"station_id":"n634993918","station_name":"المروج 2","station_name_local":"المروج 2","station_name_en":null,"city":"Tunis","country":"Tunisia","lines":["6"],"wikipedia":null,"merged_from":3,"merged_names":null,"is_terminus":false,"routes":[{"ref":"6","name":"Line 6 - Tunis Marine <> El Mourouj 4","route_color":"#652c90"}],"pass_count":1,"station_degree":2,"codes":null,"is_interchange":false,"station_role":"normal"},"geometry":{"type":"Point","coordinates":[10.1977464,36.742108433333335]},"__memberLines":{}},{"type":"Feature","properties":{"station_id":"n634993937","station_name":"الغزالي","station_name_local":"الغزالي","station_name_en":null,"city":"Tunis","country":"Tunisia","lines":["6"],"wikipedia":null,"merged_from":3,"merged_names":null,"is_terminus":false,"routes":[{"ref":"6","name":"Line 6 - Tunis Marine <> El Mourouj 4","route_color":"#652c90"}],"pass_count":1,"station_degree":2,"codes":null,"is_interchange":false,"station_role":"normal"},"geometry":{"type":"Point","coordinates":[10.187626833333333,36.75463183333333]},"__memberLines":{}},{"type":"Feature","properties":{"station_id":"n661316493","station_name":"حي الخضراء","station_name_local":"حي الخضراء","station_name_en":null,"city":"Tunis","country":"Tunisia","lines":["2"],"wikipedia":null,"is_terminus":false,"routes":[{"ref":"2","name":"Line 2: Place de la République <> Ariana","route_color":"#008000"}],"pass_count":1,"station_degree":2,"codes":null,"merged_from":null,"merged_names":null,"is_interchange":false,"station_role":"normal"},"geometry":{"type":"Point","coordinates":[10.1903688,36.8291875]},"__memberLines":{}},{"type":"Feature","properties":{"station_id":"n708687557","station_name":"شارع 20 مارس","station_name_local":"شارع 20 مارس","station_name_en":null,"city":"Tunis","country":"Tunisia","lines":["4"],"wikipedia":null,"merged_from":3,"merged_names":null,"is_terminus":false,"routes":[{"ref":"4","name":"Line 4: Kheireddine <> Tunis Marine","route_color":"#ffb733"}],"pass_count":1,"station_degree":2,"codes":null,"is_interchange":false,"station_role":"normal"},"geometry":{"type":"Point","coordinates":[10.142869733333333,36.80829716666667]},"__memberLines":{}},{"type":"Feature","properties":{"station_id":"n974490535","station_name":"الاستقلال","station_name_local":"الاستقلال","station_name_en":null,"city":"Tunis","country":"Tunisia","lines":["2"],"wikipedia":null,"merged_from":3,"merged_names":null,"is_terminus":false,"routes":[{"ref":"2","name":"Line 2: Place de la République <> Ariana","route_color":"#008000"}],"pass_count":1,"station_degree":2,"codes":null,"is_interchange":false,"station_role":"normal"},"geometry":{"type":"Point","coordinates":[10.195915333333334,36.85439316666666]},"__memberLines":{}},{"type":"Feature","properties":{"station_id":"n974490536","station_name":"مدينة العلوم","station_name_local":"مدينة العلوم","station_name_en":null,"city":"Tunis","country":"Tunisia","lines":["2"],"wikipedia":null,"merged_from":2,"merged_names":null,"is_terminus":false,"routes":[{"ref":"2","name":"Line 2: Place de la République <> Ariana","route_color":"#008000"}],"pass_count":1,"station_degree":2,"codes":null,"is_interchange":false,"station_role":"normal"},"geometry":{"type":"Point","coordinates":[10.19236545,36.8469859]},"__memberLines":{}},{"type":"Feature","properties":{"station_id":"n974490565","station_name":"Ariana","station_name_local":"أريانة","station_name_en":"Ariana","city":"Tunis","country":"Tunisia","lines":["2"],"wikipedia":null,"merged_from":3,"merged_names":null,"is_terminus":true,"routes":[{"ref":"2","name":"Line 2: Place de la République <> Ariana","route_color":"#008000"}],"pass_count":1,"station_degree":1,"codes":null,"is_interchange":false,"station_role":"terminus"},"geometry":{"type":"Point","coordinates":[10.197476533333333,36.859765933333335]},"__memberLines":{}},{"type":"Feature","properties":{"station_id":"n974490567","station_name":"10 ديسمبر 1984","station_name_local":"10 ديسمبر 1984","station_name_en":null,"city":"Tunis","country":"Tunisia","lines":["2"],"wikipedia":null,"merged_from":3,"merged_names":null,"is_terminus":false,"routes":[{"ref":"2","name":"Line 2: Place de la République <> Ariana","route_color":"#008000"}],"pass_count":1,"station_degree":2,"codes":null,"is_interchange":false,"station_role":"normal"},"geometry":{"type":"Point","coordinates":[10.184038000000001,36.84425146666667]},"__memberLines":{}},{"type":"Feature","properties":{"station_id":"n1080014206","station_name":"Le Bac","station_name_local":"البكالوريا","station_name_en":"Le Bac","city":"Tunis","country":"Tunisia","lines":["TGM"],"wikipedia":null,"merged_from":3,"merged_names":null,"is_terminus":false,"routes":[{"ref":"TGM","name":"TGM: Tunis Marine-La Goulette-La Marsa","route_color":"#0000ff"}],"pass_count":1,"station_degree":2,"codes":null,"is_interchange":false,"station_role":"normal"},"geometry":{"type":"Point","coordinates":[10.292375900000001,36.8142255]},"__memberLines":{}},{"type":"Feature","properties":{"station_id":"n1080014618","station_name":"La Goulette Casino","station_name_local":"حلق الوادي الكازينو","station_name_en":"La Goulette Casino","city":"Tunis","country":"Tunisia","lines":["TGM"],"wikipedia":null,"merged_from":3,"merged_names":null,"is_terminus":false,"routes":[{"ref":"TGM","name":"TGM: Tunis Marine-La Goulette-La Marsa","route_color":"#0000ff"}],"pass_count":1,"station_degree":2,"codes":null,"is_interchange":false,"station_role":"normal"},"geometry":{"type":"Point","coordinates":[10.308713266666667,36.824238799999996]},"__memberLines":{}},{"type":"Feature","properties":{"station_id":"n1081030979","station_name":"Carthage Présidence","station_name_local":"قرطاج الرئاسة","station_name_en":"Carthage Présidence","city":"Tunis","country":"Tunisia","lines":["TGM"],"wikipedia":null,"merged_from":3,"merged_names":null,"is_terminus":false,"routes":[{"ref":"TGM","name":"TGM: Tunis Marine-La Goulette-La Marsa","route_color":"#0000ff"}],"pass_count":1,"station_degree":2,"codes":null,"is_interchange":false,"station_role":"normal"},"geometry":{"type":"Point","coordinates":[10.3350249,36.861665]},"__memberLines":{}},{"type":"Feature","properties":{"station_id":"n1089665035","station_name":"Muhammad Al Khamis","station_name_local":"محمد الخامس","station_name_en":"Muhammad Al Khamis","city":"Tunis","country":"Tunisia","lines":["2"],"wikipedia":null,"merged_from":3,"merged_names":null,"is_terminus":false,"routes":[{"ref":"2","name":"Line 2: Place de la République <> Ariana","route_color":"#008000"}],"pass_count":1,"station_degree":2,"codes":null,"is_interchange":false,"station_role":"normal"},"geometry":{"type":"Point","coordinates":[10.183188933333334,36.81592426666666]},"__memberLines":{}},{"type":"Feature","properties":{"station_id":"n1094476124","station_name":"فرحات حشاد","station_name_local":"فرحات حشاد","station_name_en":null,"city":"Tunis","country":"Tunisia","lines":["4","6"],"wikipedia":null,"merged_from":3,"merged_names":null,"is_terminus":false,"routes":[{"ref":"4","name":"Line 4: Kheireddine <> Tunis Marine","route_color":"#ffb733"},{"ref":"6","name":"Line 6 - Tunis Marine <> El Mourouj 4","route_color":"#652c90"}],"pass_count":2,"station_degree":2,"codes":null,"is_interchange":false,"station_role":"normal"},"geometry":{"type":"Point","coordinates":[10.186097733333334,36.79789136666667]},"__memberLines":{}},{"type":"Feature","properties":{"station_id":"n1094476493","station_name":"ابن رشيق","station_name_local":"ابن رشيق","station_name_en":null,"city":"Tunis","country":"Tunisia","lines":["3"],"wikipedia":null,"is_terminus":false,"codes":["2","3","4","5"],"routes":[{"ref":"3","name":"Line 3: Ibn Khaldoun <> Place Barcelone","route_color":"#006b83"}],"pass_count":1,"station_degree":2,"merged_from":null,"merged_names":null,"is_interchange":false,"station_role":"normal"},"geometry":{"type":"Point","coordinates":[10.1811981,36.8007997]},"__memberLines":{}},{"type":"Feature","properties":{"station_id":"n1094483039","station_name":"Place de Barcelone","station_name_local":"ساحة برشلونة","station_name_en":"Place de Barcelone","city":"Tunis","country":"Tunisia","lines":["1","3","4","6"],"wikipedia":null,"merged_from":6,"merged_names":null,"is_terminus":false,"routes":[{"ref":"1","name":"Line 1 - Ben Arous <> Place de Barcelone","route_color":"#a6dfe6"},{"ref":"3","name":"Line 3: Ibn Khaldoun <> Place Barcelone","route_color":"#006b83"},{"ref":"4","name":"Line 4: Kheireddine <> Tunis Marine","route_color":"#ffb733"},{"ref":"6","name":"Line 6 - Tunis Marine <> El Mourouj 4","route_color":"#652c90"}],"pass_count":4,"station_degree":4,"codes":null,"is_interchange":true,"station_role":"interchange"},"geometry":{"type":"Point","coordinates":[10.180210866666668,36.796234116666675]},"__memberLines":{}},{"type":"Feature","properties":{"station_id":"n1094498822","station_name":"أبو القاسم الشابي","station_name_local":"أبو القاسم الشابي","station_name_en":null,"city":"Tunis","country":"Tunisia","lines":["1"],"wikipedia":null,"merged_from":2,"merged_names":null,"is_terminus":false,"routes":[{"ref":"1","name":"Line 1 - Ben Arous <> Place de Barcelone","route_color":"#a6dfe6"}],"pass_count":1,"station_degree":2,"codes":null,"is_interchange":false,"station_role":"normal"},"geometry":{"type":"Point","coordinates":[10.2147489,36.7524518]},"__memberLines":{}},{"type":"Feature","properties":{"station_id":"n1094503260","station_name":"محمد علي","station_name_local":"محمد علي","station_name_en":null,"city":"Tunis","country":"Tunisia","lines":["1","6"],"wikipedia":null,"merged_from":3,"merged_names":null,"is_terminus":false,"routes":[{"ref":"1","name":"Line 1 - Ben Arous <> Place de Barcelone","route_color":"#a6dfe6"},{"ref":"6","name":"Line 6 - Tunis Marine <> El Mourouj 4","route_color":"#652c90"}],"pass_count":2,"station_degree":3,"codes":null,"is_interchange":true,"station_role":"interchange"},"geometry":{"type":"Point","coordinates":[10.184004733333333,36.7677377]},"__memberLines":{}},{"type":"Feature","properties":{"station_id":"n1094507510","station_name":"باب عليوة","station_name_local":"باب عليوة","station_name_en":null,"city":"Tunis","country":"Tunisia","lines":["1","6"],"wikipedia":null,"merged_from":3,"merged_names":null,"is_terminus":false,"routes":[{"ref":"1","name":"Line 1 - Ben Arous <> Place de Barcelone","route_color":"#a6dfe6"},{"ref":"6","name":"Line 6 - Tunis Marine <> El Mourouj 4","route_color":"#652c90"}],"pass_count":2,"station_degree":2,"codes":null,"is_interchange":false,"station_role":"normal"},"geometry":{"type":"Point","coordinates":[10.179812166666666,36.78573966666667]},"__memberLines":{}},{"type":"Feature","properties":{"station_id":"n1094508140","station_name":"ابن سينا","station_name_local":"ابن سينا","station_name_en":null,"city":"Tunis","country":"Tunisia","lines":["1"],"wikipedia":null,"merged_from":2,"merged_names":null,"is_terminus":false,"routes":[{"ref":"1","name":"Line 1 - Ben Arous <> Place de Barcelone","route_color":"#a6dfe6"}],"pass_count":1,"station_degree":2,"codes":null,"is_interchange":false,"station_role":"normal"},"geometry":{"type":"Point","coordinates":[10.193960749999999,36.75426075]},"__memberLines":{}},{"type":"Feature","properties":{"station_id":"n1094902351","station_name":"فلسطين","station_name_local":"فلسطين","station_name_en":null,"city":"Tunis","country":"Tunisia","lines":["2"],"wikipedia":null,"merged_from":2,"merged_names":null,"is_terminus":false,"routes":[{"ref":"2","name":"Line 2: Place de la République <> Ariana","route_color":"#008000"}],"pass_count":1,"station_degree":2,"codes":null,"is_interchange":false,"station_role":"normal"},"geometry":{"type":"Point","coordinates":[10.18158935,36.81965995]},"__memberLines":{}},{"type":"Feature","properties":{"station_id":"n1094907123","station_name":"نيلسون مانديلا","station_name_local":"نيلسون مانديلا","station_name_en":null,"city":"Tunis","country":"Tunisia","lines":["2"],"wikipedia":null,"merged_from":3,"merged_names":null,"is_terminus":false,"routes":[{"ref":"2","name":"Line 2: Place de la République <> Ariana","route_color":"#008000"}],"pass_count":1,"station_degree":2,"codes":null,"is_interchange":false,"station_role":"normal"},"geometry":{"type":"Point","coordinates":[10.182544633333334,36.81110303333333]},"__memberLines":{}},{"type":"Feature","properties":{"station_id":"n1094912328","station_name":"محمد مناشو","station_name_local":"محمد مناشو","station_name_en":null,"city":"Tunis","country":"Tunisia","lines":["1","6"],"wikipedia":null,"merged_from":3,"merged_names":null,"is_terminus":false,"routes":[{"ref":"1","name":"Line 1 - Ben Arous <> Place de Barcelone","route_color":"#a6dfe6"},{"ref":"6","name":"Line 6 - Tunis Marine <> El Mourouj 4","route_color":"#652c90"}],"pass_count":2,"station_degree":2,"codes":null,"is_interchange":false,"station_role":"normal"},"geometry":{"type":"Point","coordinates":[10.1798591,36.78209656666667]},"__memberLines":{}},{"type":"Feature","properties":{"station_id":"n1094915522","station_name":"الحدائق","station_name_local":"الحدائق","station_name_en":null,"city":"Tunis","country":"Tunisia","lines":["2"],"wikipedia":null,"is_terminus":false,"routes":[{"ref":"2","name":"Line 2: Place de la République <> Ariana","route_color":"#008000"}],"pass_count":1,"station_degree":2,"codes":null,"merged_from":null,"merged_names":null,"is_interchange":false,"station_role":"normal"},"geometry":{"type":"Point","coordinates":[10.1855858,36.8235202]},"__memberLines":{}},{"type":"Feature","properties":{"station_id":"n1094916324","station_name":"الشباب","station_name_local":"الشباب","station_name_en":null,"city":"Tunis","country":"Tunisia","lines":["2"],"wikipedia":null,"merged_from":3,"merged_names":null,"is_terminus":false,"routes":[{"ref":"2","name":"Line 2: Place de la République <> Ariana","route_color":"#008000"}],"pass_count":1,"station_degree":2,"codes":null,"is_interchange":false,"station_role":"normal"},"geometry":{"type":"Point","coordinates":[10.182786533333333,36.83329096666666]},"__memberLines":{}},{"type":"Feature","properties":{"station_id":"n1095144771","station_name":"باب الخضراء","station_name_local":"باب الخضراء","station_name_en":null,"city":"Tunis","country":"Tunisia","lines":["3","4"],"wikipedia":null,"merged_from":3,"merged_names":null,"is_terminus":false,"routes":[{"ref":"3","name":"Line 3: Ibn Khaldoun <> Place Barcelone","route_color":"#006b83"},{"ref":"4","name":"Line 4: Kheireddine <> Tunis Marine","route_color":"#ffb733"}],"pass_count":2,"station_degree":2,"codes":null,"is_interchange":false,"station_role":"normal"},"geometry":{"type":"Point","coordinates":[10.172475466666667,36.810239599999996]},"__memberLines":{}},{"type":"Feature","properties":{"station_id":"n1095145544","station_name":"باب سعدون","station_name_local":"باب سعدون","station_name_en":null,"city":"Tunis","country":"Tunisia","lines":["3","4"],"wikipedia":null,"merged_from":3,"merged_names":null,"is_terminus":false,"routes":[{"ref":"3","name":"Line 3: Ibn Khaldoun <> Place Barcelone","route_color":"#006b83"},{"ref":"4","name":"Line 4: Kheireddine <> Tunis Marine","route_color":"#ffb733"}],"pass_count":2,"station_degree":3,"codes":null,"is_interchange":true,"station_role":"interchange"},"geometry":{"type":"Point","coordinates":[10.161980633333334,36.80979476666667]},"__memberLines":{}},{"type":"Feature","properties":{"station_id":"n1095145955","station_name":"حبيب ثامر","station_name_local":"حبيب ثامر","station_name_en":null,"city":"Tunis","country":"Tunisia","lines":["4"],"wikipedia":null,"is_terminus":false,"routes":[{"ref":"4","name":"Line 4: Kheireddine <> Tunis Marine","route_color":"#ffb733"}],"pass_count":1,"station_degree":2,"codes":null,"merged_from":null,"merged_names":null,"is_interchange":false,"station_role":"normal"},"geometry":{"type":"Point","coordinates":[10.1789112,36.8019689]},"__memberLines":{}},{"type":"Feature","properties":{"station_id":"n1095146383","station_name":"Ibn Khaldoun","station_name_local":"ابن خلدون","station_name_en":"Ibn Khaldoun","city":"Tunis","country":"Tunisia","lines":["3"],"wikipedia":null,"merged_from":3,"merged_names":null,"is_terminus":true,"routes":[{"ref":"3","name":"Line 3: Ibn Khaldoun <> Place Barcelone","route_color":"#006b83"}],"pass_count":1,"station_degree":1,"codes":null,"is_interchange":false,"station_role":"terminus"},"geometry":{"type":"Point","coordinates":[10.134164333333333,36.8307346]},"__memberLines":{}},{"type":"Feature","properties":{"station_id":"n1095146413","station_name":"الياسمين","station_name_local":"الياسمين","station_name_en":null,"city":"Tunis","country":"Tunisia","lines":["3"],"wikipedia":null,"merged_from":3,"merged_names":null,"is_terminus":false,"routes":[{"ref":"3","name":"Line 3: Ibn Khaldoun <> Place Barcelone","route_color":"#006b83"}],"pass_count":1,"station_degree":2,"codes":null,"is_interchange":false,"station_role":"normal"},"geometry":{"type":"Point","coordinates":[10.134590433333333,36.825825233333326]},"__memberLines":{}},{"type":"Feature","properties":{"station_id":"n1095146616","station_name":"Mefteh Saadallah","station_name_local":"مفتاح سعد الله","station_name_en":"Mefteh Saadallah","city":"Tunis","country":"Tunisia","lines":["3"],"wikipedia":null,"merged_from":3,"merged_names":null,"is_terminus":false,"routes":[{"ref":"3","name":"Line 3: Ibn Khaldoun <> Place Barcelone","route_color":"#006b83"}],"pass_count":1,"station_degree":2,"codes":null,"is_interchange":false,"station_role":"normal"},"geometry":{"type":"Point","coordinates":[10.156268233333334,36.81306326666667]},"__memberLines":{}},{"type":"Feature","properties":{"station_id":"n1095146798","station_name":"باب العسل","station_name_local":"باب العسل","station_name_en":null,"city":"Tunis","country":"Tunisia","lines":["3","4"],"wikipedia":null,"merged_from":2,"merged_names":null,"is_terminus":false,"routes":[{"ref":"3","name":"Line 3: Ibn Khaldoun <> Place Barcelone","route_color":"#006b83"},{"ref":"4","name":"Line 4: Kheireddine <> Tunis Marine","route_color":"#ffb733"}],"pass_count":2,"station_degree":2,"codes":null,"is_interchange":false,"station_role":"normal"},"geometry":{"type":"Point","coordinates":[10.1687854,36.81315395]},"__memberLines":{}},{"type":"Feature","properties":{"station_id":"n1095326890","station_name":"Den Den","station_name_local":"الدندان","station_name_en":"Den Den","city":"Tunis","country":"Tunisia","lines":["4"],"wikipedia":null,"merged_from":3,"merged_names":null,"is_terminus":false,"routes":[{"ref":"4","name":"Line 4: Kheireddine <> Tunis Marine","route_color":"#ffb733"}],"pass_count":1,"station_degree":2,"codes":null,"is_interchange":false,"station_role":"normal"},"geometry":{"type":"Point","coordinates":[10.110769266666665,36.80221136666666]},"__memberLines":{}},{"type":"Feature","properties":{"station_id":"n1095327585","station_name":"Le Bardo","station_name_local":"باردو","station_name_en":"Le Bardo","city":"Tunis","country":"Tunisia","lines":["4"],"wikipedia":null,"merged_from":3,"merged_names":null,"is_terminus":false,"routes":[{"ref":"4","name":"Line 4: Kheireddine <> Tunis Marine","route_color":"#ffb733"}],"pass_count":1,"station_degree":2,"codes":null,"is_interchange":false,"station_role":"normal"},"geometry":{"type":"Point","coordinates":[10.135229266666668,36.807210766666664]},"__memberLines":{}},{"type":"Feature","properties":{"station_id":"n1095327902","station_name":"بوشوشة","station_name_local":"بوشوشة","station_name_en":null,"city":"Tunis","country":"Tunisia","lines":["4"],"wikipedia":null,"merged_from":3,"merged_names":null,"is_terminus":false,"routes":[{"ref":"4","name":"Line 4: Kheireddine <> Tunis Marine","route_color":"#ffb733"}],"pass_count":1,"station_degree":2,"codes":null,"is_interchange":false,"station_role":"normal"},"geometry":{"type":"Point","coordinates":[10.149144766666668,36.80925166666667]},"__memberLines":{}},{"type":"Feature","properties":{"station_id":"n1095328526","station_name":"Essaida","station_name_local":"السعيدية","station_name_en":"Essaida","city":"Tunis","country":"Tunisia","lines":["4"],"wikipedia":null,"merged_from":3,"merged_names":null,"is_terminus":false,"routes":[{"ref":"4","name":"Line 4: Kheireddine <> Tunis Marine","route_color":"#ffb733"}],"pass_count":1,"station_degree":2,"codes":null,"is_interchange":false,"station_role":"normal"},"geometry":{"type":"Point","coordinates":[10.126705066666666,36.80541106666667]},"__memberLines":{}},{"type":"Feature","properties":{"station_id":"n1095328814","station_name":"صناعات تقليدية","station_name_local":"صناعات تقليدية","station_name_en":null,"city":"Tunis","country":"Tunisia","lines":["4"],"wikipedia":null,"merged_from":3,"merged_names":null,"is_terminus":false,"routes":[{"ref":"4","name":"Line 4: Kheireddine <> Tunis Marine","route_color":"#ffb733"}],"pass_count":1,"station_degree":2,"codes":null,"is_interchange":false,"station_role":"normal"},"geometry":{"type":"Point","coordinates":[10.116019233333333,36.8028975]},"__memberLines":{}},{"type":"Feature","properties":{"station_id":"n1095328908","station_name":"خزندار","station_name_local":"خزندار","station_name_en":null,"city":"Tunis","country":"Tunisia","lines":["4"],"wikipedia":null,"merged_from":3,"merged_names":null,"is_terminus":false,"routes":[{"ref":"4","name":"Line 4: Kheireddine <> Tunis Marine","route_color":"#ffb733"}],"pass_count":1,"station_degree":2,"codes":null,"is_interchange":false,"station_role":"normal"},"geometry":{"type":"Point","coordinates":[10.1217338,36.80418133333333]},"__memberLines":{}},{"type":"Feature","properties":{"station_id":"n1095697116","station_name":"المنتزه","station_name_local":"المنتزه","station_name_en":null,"city":"Tunis","country":"Tunisia","lines":["6"],"wikipedia":null,"merged_from":4,"merged_names":null,"is_terminus":false,"routes":[{"ref":"6","name":"Line 6 - Tunis Marine <> El Mourouj 4","route_color":"#652c90"}],"pass_count":1,"station_degree":2,"codes":null,"is_interchange":false,"station_role":"normal"},"geometry":{"type":"Point","coordinates":[10.193514875,36.742892049999995]},"__memberLines":{}},{"type":"Feature","properties":{"station_id":"n1095697169","station_name":"البيئة","station_name_local":"البيئة","station_name_en":null,"city":"Tunis","country":"Tunisia","lines":["6"],"wikipedia":null,"merged_from":3,"merged_names":null,"is_terminus":false,"routes":[{"ref":"6","name":"Line 6 - Tunis Marine <> El Mourouj 4","route_color":"#652c90"}],"pass_count":1,"station_degree":2,"codes":null,"is_interchange":false,"station_role":"normal"},"geometry":{"type":"Point","coordinates":[10.210357933333333,36.73314323333333]},"__memberLines":{}},{"type":"Feature","properties":{"station_id":"n1095697593","station_name":"الحي البلدي","station_name_local":"الحي البلدي","station_name_en":null,"city":"Tunis","country":"Tunisia","lines":["6"],"wikipedia":null,"merged_from":3,"merged_names":null,"is_terminus":false,"routes":[{"ref":"6","name":"Line 6 - Tunis Marine <> El Mourouj 4","route_color":"#652c90"}],"pass_count":1,"station_degree":2,"codes":null,"is_interchange":false,"station_role":"normal"},"geometry":{"type":"Point","coordinates":[10.188709466666666,36.74843719999999]},"__memberLines":{}},{"type":"Feature","properties":{"station_id":"n1095697614","station_name":"المروج 4","station_name_local":"المروج 4","station_name_en":null,"city":"Tunis","country":"Tunisia","lines":["6"],"wikipedia":null,"merged_from":3,"merged_names":null,"is_terminus":true,"routes":[{"ref":"6","name":"Line 6 - Tunis Marine <> El Mourouj 4","route_color":"#652c90"}],"pass_count":1,"station_degree":1,"codes":null,"is_interchange":false,"station_role":"terminus"},"geometry":{"type":"Point","coordinates":[10.216415733333335,36.71979343333333]},"__memberLines":{}},{"type":"Feature","properties":{"station_id":"n1095698025","station_name":"النسري","station_name_local":"النسري","station_name_en":null,"city":"Tunis","country":"Tunisia","lines":["6"],"wikipedia":null,"merged_from":3,"merged_names":null,"is_terminus":false,"routes":[{"ref":"6","name":"Line 6 - Tunis Marine <> El Mourouj 4","route_color":"#652c90"}],"pass_count":1,"station_degree":2,"codes":null,"is_interchange":false,"station_role":"normal"},"geometry":{"type":"Point","coordinates":[10.190430166666667,36.74504463333333]},"__memberLines":{}},{"type":"Feature","properties":{"station_id":"n1095698182","station_name":"الشهداء","station_name_local":"الشهداء","station_name_en":null,"city":"Tunis","country":"Tunisia","lines":["6"],"wikipedia":null,"merged_from":3,"merged_names":null,"is_terminus":false,"routes":[{"ref":"6","name":"Line 6 - Tunis Marine <> El Mourouj 4","route_color":"#652c90"}],"pass_count":1,"station_degree":2,"codes":null,"is_interchange":false,"station_role":"normal"},"geometry":{"type":"Point","coordinates":[10.212136,36.723567800000005]},"__memberLines":{}},{"type":"Feature","properties":{"station_id":"n1095698207","station_name":"الطاهر حداد","station_name_local":"الطاهر حداد","station_name_en":null,"city":"Tunis","country":"Tunisia","lines":["6"],"wikipedia":null,"is_terminus":false,"routes":[{"ref":"6","name":"Line 6 - Tunis Marine <> El Mourouj 4","route_color":"#652c90"}],"pass_count":1,"station_degree":2,"codes":null,"merged_from":null,"merged_names":null,"is_interchange":false,"station_role":"normal"},"geometry":{"type":"Point","coordinates":[10.1869998,36.7607445]},"__memberLines":{}},{"type":"Feature","properties":{"station_id":"n1095698228","station_name":"المروج 3","station_name_local":"المروج 3","station_name_en":null,"city":"Tunis","country":"Tunisia","lines":["6"],"wikipedia":null,"merged_from":3,"merged_names":null,"is_terminus":false,"routes":[{"ref":"6","name":"Line 6 - Tunis Marine <> El Mourouj 4","route_color":"#652c90"}],"pass_count":1,"station_degree":2,"codes":null,"is_interchange":false,"station_role":"normal"},"geometry":{"type":"Point","coordinates":[10.210735699999999,36.72872443333333]},"__memberLines":{}},{"type":"Feature","properties":{"station_id":"n1095698921","station_name":"المروج 1","station_name_local":"المروج 1","station_name_en":null,"city":"Tunis","country":"Tunisia","lines":["6"],"wikipedia":null,"merged_from":3,"merged_names":null,"is_terminus":false,"routes":[{"ref":"6","name":"Line 6 - Tunis Marine <> El Mourouj 4","route_color":"#652c90"}],"pass_count":1,"station_degree":2,"codes":null,"is_interchange":false,"station_role":"normal"},"geometry":{"type":"Point","coordinates":[10.206564433333332,36.738483566666666]},"__memberLines":{}},{"type":"Feature","properties":{"station_id":"n1668047217","station_name":"الكبارية","station_name_local":"الكبارية","station_name_en":null,"city":"Tunis","country":"Tunisia","lines":["1"],"wikipedia":null,"merged_from":2,"merged_names":null,"is_terminus":false,"codes":["1"],"routes":[{"ref":"1","name":"Line 1 - Ben Arous <> Place de Barcelone","route_color":"#a6dfe6"}],"pass_count":1,"station_degree":2,"is_interchange":false,"station_role":"normal"},"geometry":{"type":"Point","coordinates":[10.19054465,36.75988215]},"__memberLines":{}},{"type":"Feature","properties":{"station_id":"n1827051883","station_name":"Manouba","station_name_local":"منوبة","station_name_en":"Manouba","city":"Tunis","country":"Tunisia","lines":["4"],"wikipedia":null,"merged_from":3,"merged_names":null,"is_terminus":false,"routes":[{"ref":"4","name":"Line 4: Kheireddine <> Tunis Marine","route_color":"#ffb733"}],"pass_count":1,"station_degree":2,"codes":null,"is_interchange":false,"station_role":"normal"},"geometry":{"type":"Point","coordinates":[10.102631833333334,36.8020789]},"__memberLines":{}},{"type":"Feature","properties":{"station_id":"n5625819235","station_name":"Palais Al-Warda","station_name_local":"قصر الوردة","station_name_en":"Palais Al-Warda","city":"Tunis","country":"Tunisia","lines":["4"],"wikipedia":null,"merged_from":3,"merged_names":null,"is_terminus":false,"routes":[{"ref":"4","name":"Line 4: Kheireddine <> Tunis Marine","route_color":"#ffb733"}],"pass_count":1,"station_degree":2,"codes":null,"is_interchange":false,"station_role":"normal"},"geometry":{"type":"Point","coordinates":[10.0679477,36.810289600000004]},"__memberLines":{}},{"type":"Feature","properties":{"station_id":"n5625819236","station_name":"المركب الجامعي","station_name_local":"المركب الجامعي","station_name_en":null,"city":"Tunis","country":"Tunisia","lines":["4"],"wikipedia":null,"merged_from":3,"merged_names":null,"is_terminus":false,"routes":[{"ref":"4","name":"Line 4: Kheireddine <> Tunis Marine","route_color":"#ffb733"}],"pass_count":1,"station_degree":2,"codes":null,"is_interchange":false,"station_role":"normal"},"geometry":{"type":"Point","coordinates":[10.0618999,36.812938133333326]},"__memberLines":{}},{"type":"Feature","properties":{"station_id":"n5625845872","station_name":"Technopole","station_name_local":"القطب التكنولوجي","station_name_en":"Technopole","city":"Tunis","country":"Tunisia","lines":["4"],"wikipedia":null,"merged_from":3,"merged_names":null,"is_terminus":false,"routes":[{"ref":"4","name":"Line 4: Kheireddine <> Tunis Marine","route_color":"#ffb733"}],"pass_count":1,"station_degree":2,"codes":null,"is_interchange":false,"station_role":"normal"},"geometry":{"type":"Point","coordinates":[10.0754288,36.8090525]},"__memberLines":{}},{"type":"Feature","properties":{"station_id":"n5625845879","station_name":"Moncef Bey","station_name_local":"المنصف باي","station_name_en":"Moncef Bey","city":"Tunis","country":"Tunisia","lines":["4"],"wikipedia":null,"merged_from":3,"merged_names":null,"is_terminus":false,"routes":[{"ref":"4","name":"Line 4: Kheireddine <> Tunis Marine","route_color":"#ffb733"}],"pass_count":1,"station_degree":2,"codes":null,"is_interchange":false,"station_role":"normal"},"geometry":{"type":"Point","coordinates":[10.0906552,36.805245899999996]},"__memberLines":{}},{"type":"Feature","properties":{"station_id":"n5625845881","station_name":"Aboubaker Errazi","station_name_local":"أبو بكر الرازي","station_name_en":"Aboubaker Errazi","city":"Tunis","country":"Tunisia","lines":["4"],"wikipedia":null,"merged_from":3,"merged_names":null,"is_terminus":false,"routes":[{"ref":"4","name":"Line 4: Kheireddine <> Tunis Marine","route_color":"#ffb733"}],"pass_count":1,"station_degree":2,"codes":null,"is_interchange":false,"station_role":"normal"},"geometry":{"type":"Point","coordinates":[10.082449733333332,36.80740496666667]},"__memberLines":{}},{"type":"Feature","properties":{"station_id":"n5806301476","station_name":"Kheireddine","station_name_local":"خير الدين","station_name_en":"Kheireddine","city":"Tunis","country":"Tunisia","lines":["4"],"wikipedia":null,"merged_from":3,"merged_names":null,"is_terminus":true,"routes":[{"ref":"4","name":"Line 4: Kheireddine <> Tunis Marine","route_color":"#ffb733"}],"pass_count":1,"station_degree":1,"codes":null,"is_interchange":false,"station_role":"terminus"},"geometry":{"type":"Point","coordinates":[10.0567773,36.81528853333334]},"__memberLines":{}},{"type":"Feature","properties":{"station_id":"junc:10.18206:36.79748","station_name":"","station_name_local":null,"station_name_en":null,"city":"Tunis","country":"Tunisia","lines":null,"station_role":"junction","is_junction":true,"is_interchange":false,"is_terminus":false,"merged_from":null,"merged_names":null,"codes":null},"geometry":{"type":"Point","coordinates":[10.1820589,36.7974847]}}]}