{"type":"FeatureCollection","metro_system":{"continent":"europe","country":"Italy","city":"Padova","official_website":null,"official_map":null,"wikipedia":null,"line_count":1,"segment_count":1,"station_count":16,"modes":["tram"],"audit":{"strategies_tried":[],"passed":true,"checks":[{"id":"has_lines","ok":true,"detail":"1 lines","level":"error"},{"id":"has_stations","ok":true,"detail":"17 stations","level":"error"},{"id":"stations_have_lines","ok":true,"detail":"17/17 站皆有所屬路線","level":"error"},{"id":"line_geometry_stations","ok":true,"detail":"17 個折點/端點皆為車站","level":"error"},{"id":"route_stations_match_geometry","ok":true,"detail":"各線車站列表與圖面一致","level":"error"},{"id":"interchange_rule","ok":true,"detail":"所有車站紅/藍點符合骨架＋路線色規則（藍＝端點、紅＝交叉）","level":"error"},{"id":"stations_named","ok":true,"detail":"17/17 站皆有名稱","level":"error"},{"id":"station_order","ok":true,"detail":"所有線路站序合理","level":"warn"},{"id":"line_wiki_stations","ok":true,"detail":"各線站數與 wiki 線路條目相符（營運中站數）","level":"error"},{"id":"line_wiki_coverage","ok":false,"detail":"1 條線無 wiki 站數對照：Tram SIR1","level":"warn"}],"reasons":[],"warnings":["1 條線無 wiki 站數對照：Tram SIR1"],"audited_at":"2026-07-27T02:39:34.922Z"}},"features":[{"type":"Feature","properties":{"seg_id":"padova-0","routes":[{"route_id":"rm19319040","route_name":"Tram SIR1","route_name_local":"Tram SIR1","route_name_en":null,"route_ref":"SIR1","route_color":"#f5a6ad","wikipedia":null,"osm_route_ids":[365296,1783009],"status":null,"order_suspect":0,"span_suspect":0,"stations":[{"station_id":"n611037116","station_name":"Capolinea Sud"},{"station_id":"n611037118","station_name":"Guizza"},{"station_id":"n3457100629","station_name":"Cuoco"},{"station_id":"n611037124","station_name":"Cavallotti"},{"station_id":"n613273835","station_name":"Diaz"},{"station_id":"n11957041180","station_name":"Cavaletto"},{"station_id":"n611037132","station_name":"Prato Della Valle"},{"station_id":"n611915602","station_name":"Santo"},{"station_id":"n606284716","station_name":"Tito Livio"},{"station_id":"n606268578","station_name":"Ponti Romani"},{"station_id":"n606268599","station_name":"Eremitani"},{"station_id":"n606268742","station_name":"Trieste"},{"station_id":"n605053044","station_name":"Stazione FS"},{"station_id":"n187136834","station_name":"Borgomagno"},{"station_id":"n610974737","station_name":"Fornace Morandi"},{"station_id":"n610974778","station_name":"Pontevigodarzere"}]}],"route_count":1,"route_refs":["SIR1"],"route_colors":["#f5a6ad"],"city":"Padova","country":"Italy"},"geometry":{"type":"MultiLineString","coordinates":[[[11.8739187,45.36797285],[11.87054975,45.37427445],[11.86981715,45.380005049999994],[11.8701832,45.389889866666664],[11.872715,45.39510413333333],[11.87434485,45.39765145],[11.8768531,45.39970925],[11.8774943,45.40082835],[11.87709775,45.4050422],[11.878502966666668,45.4076018],[11.87855085,45.412096950000006],[11.8790006,45.4142115],[11.8789242,45.4173669],[11.879524,45.4202672],[11.88909215,45.4389072],[11.89060385,45.44198315]]]}},{"type":"Feature","properties":{"station_id":"n187136834","station_name":"Borgomagno","station_name_local":"Borgomagno","station_name_en":null,"city":"Padova","country":"Italy","lines":["SIR1"],"wikipedia":null,"is_terminus":false,"routes":[{"ref":"SIR1","name":"Tram SIR1","route_color":"#f5a6ad"}],"pass_count":1,"station_degree":2,"codes":null,"merged_from":null,"merged_names":null,"is_interchange":false,"station_role":"normal"},"geometry":{"type":"Point","coordinates":[11.879524,45.4202672]},"__memberLines":{}},{"type":"Feature","properties":{"station_id":"n605053044","station_name":"Stazione FS","station_name_local":"Stazione FS","station_name_en":null,"city":"Padova","country":"Italy","lines":["SIR1"],"wikipedia":null,"is_terminus":false,"routes":[{"ref":"SIR1","name":"Tram SIR1","route_color":"#f5a6ad"}],"pass_count":1,"station_degree":2,"codes":null,"merged_from":null,"merged_names":null,"is_interchange":false,"station_role":"normal"},"geometry":{"type":"Point","coordinates":[11.8789242,45.4173669]},"__memberLines":{}},{"type":"Feature","properties":{"station_id":"n606268578","station_name":"Ponti Romani","station_name_local":"Ponti Romani","station_name_en":null,"city":"Padova","country":"Italy","lines":["SIR1"],"wikipedia":null,"merged_from":3,"merged_names":null,"is_terminus":false,"routes":[{"ref":"SIR1","name":"Tram SIR1","route_color":"#f5a6ad"}],"pass_count":1,"station_degree":2,"codes":null,"is_interchange":false,"station_role":"normal"},"geometry":{"type":"Point","coordinates":[11.878502966666668,45.4076018]},"__memberLines":{}},{"type":"Feature","properties":{"station_id":"n606268599","station_name":"Eremitani","station_name_local":"Eremitani","station_name_en":null,"city":"Padova","country":"Italy","lines":["SIR1"],"wikipedia":null,"merged_from":2,"merged_names":null,"is_terminus":false,"routes":[{"ref":"SIR1","name":"Tram SIR1","route_color":"#f5a6ad"}],"pass_count":1,"station_degree":2,"codes":null,"is_interchange":false,"station_role":"normal"},"geometry":{"type":"Point","coordinates":[11.87855085,45.412096950000006]},"__memberLines":{}},{"type":"Feature","properties":{"station_id":"n606268742","station_name":"Trieste","station_name_local":"Trieste","station_name_en":null,"city":"Padova","country":"Italy","lines":["SIR1"],"wikipedia":null,"is_terminus":false,"routes":[{"ref":"SIR1","name":"Tram SIR1","route_color":"#f5a6ad"}],"pass_count":1,"station_degree":2,"codes":null,"merged_from":null,"merged_names":null,"is_interchange":false,"station_role":"normal"},"geometry":{"type":"Point","coordinates":[11.8790006,45.4142115]},"__memberLines":{}},{"type":"Feature","properties":{"station_id":"n606284716","station_name":"Tito Livio","station_name_local":"Tito Livio","station_name_en":null,"city":"Padova","country":"Italy","lines":["SIR1"],"wikipedia":null,"merged_from":2,"merged_names":null,"is_terminus":false,"routes":[{"ref":"SIR1","name":"Tram SIR1","route_color":"#f5a6ad"}],"pass_count":1,"station_degree":2,"codes":null,"is_interchange":false,"station_role":"normal"},"geometry":{"type":"Point","coordinates":[11.87709775,45.4050422]},"__memberLines":{}},{"type":"Feature","properties":{"station_id":"n610974737","station_name":"Fornace Morandi","station_name_local":"Fornace Morandi","station_name_en":null,"city":"Padova","country":"Italy","lines":["SIR1"],"wikipedia":null,"merged_from":2,"merged_names":null,"is_terminus":false,"routes":[{"ref":"SIR1","name":"Tram SIR1","route_color":"#f5a6ad"}],"pass_count":1,"station_degree":2,"codes":null,"is_interchange":false,"station_role":"normal"},"geometry":{"type":"Point","coordinates":[11.88909215,45.4389072]},"__memberLines":{}},{"type":"Feature","properties":{"station_id":"n610974778","station_name":"Pontevigodarzere","station_name_local":"Pontevigodarzere","station_name_en":null,"city":"Padova","country":"Italy","lines":["SIR1"],"wikipedia":null,"merged_from":2,"merged_names":null,"is_terminus":true,"routes":[{"ref":"SIR1","name":"Tram SIR1","route_color":"#f5a6ad"}],"pass_count":1,"station_degree":1,"codes":null,"is_interchange":false,"station_role":"terminus"},"geometry":{"type":"Point","coordinates":[11.89060385,45.44198315]},"__memberLines":{}},{"type":"Feature","properties":{"station_id":"n611037116","station_name":"Capolinea Sud","station_name_local":"Capolinea Sud","station_name_en":null,"city":"Padova","country":"Italy","lines":["SIR1"],"wikipedia":null,"merged_from":2,"merged_names":null,"is_terminus":true,"routes":[{"ref":"SIR1","name":"Tram SIR1","route_color":"#f5a6ad"}],"pass_count":1,"station_degree":1,"codes":null,"is_interchange":false,"station_role":"terminus"},"geometry":{"type":"Point","coordinates":[11.8739187,45.36797285]},"__memberLines":{}},{"type":"Feature","properties":{"station_id":"n611037118","station_name":"Guizza","station_name_local":"Guizza","station_name_en":null,"city":"Padova","country":"Italy","lines":["SIR1"],"wikipedia":null,"merged_from":2,"merged_names":null,"is_terminus":false,"routes":[{"ref":"SIR1","name":"Tram SIR1","route_color":"#f5a6ad"}],"pass_count":1,"station_degree":2,"codes":null,"is_interchange":false,"station_role":"normal"},"geometry":{"type":"Point","coordinates":[11.87054975,45.37427445]},"__memberLines":{}},{"type":"Feature","properties":{"station_id":"n611037124","station_name":"Cavallotti","station_name_local":"Cavallotti","station_name_en":null,"city":"Padova","country":"Italy","lines":["SIR1"],"wikipedia":null,"merged_from":3,"merged_names":null,"is_terminus":false,"routes":[{"ref":"SIR1","name":"Tram SIR1","route_color":"#f5a6ad"}],"pass_count":1,"station_degree":2,"codes":null,"is_interchange":false,"station_role":"normal"},"geometry":{"type":"Point","coordinates":[11.8701832,45.389889866666664]},"__memberLines":{}},{"type":"Feature","properties":{"station_id":"n611037132","station_name":"Prato Della Valle","station_name_local":"Prato Della Valle","station_name_en":null,"city":"Padova","country":"Italy","lines":["SIR1"],"wikipedia":null,"merged_from":2,"merged_names":null,"is_terminus":false,"routes":[{"ref":"SIR1","name":"Tram SIR1","route_color":"#f5a6ad"}],"pass_count":1,"station_degree":2,"codes":null,"is_interchange":false,"station_role":"normal"},"geometry":{"type":"Point","coordinates":[11.8768531,45.39970925]},"__memberLines":{}},{"type":"Feature","properties":{"station_id":"n611915602","station_name":"Santo","station_name_local":"Santo","station_name_en":null,"city":"Padova","country":"Italy","lines":["SIR1"],"wikipedia":null,"merged_from":2,"merged_names":null,"is_terminus":false,"routes":[{"ref":"SIR1","name":"Tram SIR1","route_color":"#f5a6ad"}],"pass_count":1,"station_degree":2,"codes":null,"is_interchange":false,"station_role":"normal"},"geometry":{"type":"Point","coordinates":[11.8774943,45.40082835]},"__memberLines":{}},{"type":"Feature","properties":{"station_id":"n613273835","station_name":"Diaz","station_name_local":"Diaz","station_name_en":null,"city":"Padova","country":"Italy","lines":["SIR1"],"wikipedia":null,"merged_from":3,"merged_names":null,"is_terminus":false,"routes":[{"ref":"SIR1","name":"Tram SIR1","route_color":"#f5a6ad"}],"pass_count":1,"station_degree":2,"codes":null,"is_interchange":false,"station_role":"normal"},"geometry":{"type":"Point","coordinates":[11.872715,45.39510413333333]},"__memberLines":{}},{"type":"Feature","properties":{"station_id":"n11957041180","station_name":"Cavaletto / Cavalletto","station_name_local":"Cavaletto / Cavalletto","station_name_en":null,"city":"Padova","country":"Italy","lines":["SIR1"],"wikipedia":null,"merged_from":4,"merged_names":[{"station_id":"n11957041180","station_name":"Cavaletto","station_name_local":"Cavaletto","lines":["SIR1"]},{"station_id":"n613273839","station_name":"Cavalletto","station_name_local":"Cavalletto","lines":["SIR1"]}],"is_terminus":false,"routes":[{"ref":"SIR1","name":"Tram SIR1","route_color":"#f5a6ad"}],"pass_count":1,"station_degree":2,"codes":null,"is_interchange":false,"station_role":"normal"},"geometry":{"type":"Point","coordinates":[11.87434485,45.39765145]},"__memberLines":{}},{"type":"Feature","properties":{"station_id":"n3457100629","station_name":"Cuoco","station_name_local":"Cuoco","station_name_en":null,"city":"Padova","country":"Italy","lines":["SIR1"],"wikipedia":null,"merged_from":2,"merged_names":null,"is_terminus":false,"routes":[{"ref":"SIR1","name":"Tram SIR1","route_color":"#f5a6ad"}],"pass_count":1,"station_degree":2,"codes":null,"is_interchange":false,"station_role":"normal"},"geometry":{"type":"Point","coordinates":[11.86981715,45.380005049999994]},"__memberLines":{}}]}