{"type":"FeatureCollection","metro_system":{"continent":"europe","country":"Germany","city":"Jena","official_website":null,"official_map":"https://de.wikipedia.org/wiki/Verkehrsverbund_Mittelthüringen","wikipedia":"de:Verkehrsverbund Mittelthüringen","line_count":5,"segment_count":12,"station_count":48,"modes":["tram"],"audit":{"strategies_tried":[],"passed":true,"checks":[{"id":"has_lines","ok":true,"detail":"5 lines","level":"error"},{"id":"has_stations","ok":true,"detail":"49 stations","level":"error"},{"id":"stations_have_lines","ok":true,"detail":"49/49 站皆有所屬路線","level":"error"},{"id":"line_geometry_stations","ok":true,"detail":"66 個折點/端點皆為車站","level":"error"},{"id":"route_stations_match_geometry","ok":true,"detail":"各線車站列表與圖面一致","level":"error"},{"id":"interchange_rule","ok":true,"detail":"所有車站紅/藍點符合骨架＋路線色規則（藍＝端點、紅＝交叉）","level":"error"},{"id":"stations_named","ok":true,"detail":"49/49 站皆有名稱","level":"error"},{"id":"station_order","ok":true,"detail":"所有線路站序合理","level":"warn"},{"id":"station_span","ok":true,"detail":"各線相鄰站距與系統站群跨度正常","level":"error"},{"id":"line_wiki_stations","ok":true,"detail":"各線站數與 wiki 線路條目相符（營運中站數）","level":"error"},{"id":"line_wiki_coverage","ok":false,"detail":"5 條線無 wiki 站數對照：Tram 5 Straßenbahn Jena、Tram 3 Straßenbahn Jena、Tram 4 Straßenbahn Jena","level":"warn"}],"reasons":[],"warnings":["5 條線無 wiki 站數對照：Tram 5 Straßenbahn Jena、Tram 3 Straßenbahn Jena、Tram 4 Straßenbahn Jena"],"audited_at":"2026-07-27T05:42:56.668Z"}},"features":[{"type":"Feature","properties":{"seg_id":"jena-0","routes":[{"route_id":"rm12232120","route_name":"Tram 5 Straßenbahn Jena","route_name_local":"Tram 5 Straßenbahn Jena","route_name_en":null,"route_ref":"5","route_color":"#6a2e74","wikipedia":"de:Verkehrsverbund Mittelthüringen","osm_route_ids":[147372,3474951],"status":null,"order_suspect":0,"span_suspect":0,"stations":[{"station_id":"n257707968","station_name":"Lobeda-Ost"},{"station_id":"junc:11.63399:50.87968","station_name":""},{"station_id":"n257707976","station_name":"Schlegelstraße"},{"station_id":"n279785405","station_name":"Richard-Sorge-Straße"},{"station_id":"n288404915","station_name":"Universitätsklinikum"},{"station_id":"n288404913","station_name":"Platanenstraße"},{"station_id":"n262551054","station_name":"Lobeda"},{"station_id":"n2621259933","station_name":"Burgaupark"},{"station_id":"junc:11.59014:50.89843","station_name":""},{"station_id":"n257708047","station_name":"Sparkassen-Arena"},{"station_id":"n262490334","station_name":"Sportforum"},{"station_id":"n262490333","station_name":"Jena, Jenertal"},{"station_id":"n257708105","station_name":"Paradiesbahnhof"},{"station_id":"junc:11.58694:50.92531","station_name":""},{"station_id":"n1730385174","station_name":"Holzmarkt"},{"station_id":"n11874663426","station_name":"Ernst-Abbe-Platz"}]},{"route_id":"rm12232122","route_name":"Tram 3 Straßenbahn Jena","route_name_local":"Tram 3 Straßenbahn Jena","route_name_en":null,"route_ref":"3","route_color":"#7f5f00","wikipedia":"de:Verkehrsverbund Mittelthüringen","osm_route_ids":[147373,3474899],"status":null,"order_suspect":0,"span_suspect":0,"stations":[{"station_id":"n257707968","station_name":"Lobeda-Ost"},{"station_id":"junc:11.63399:50.87968","station_name":""},{"station_id":"n257707976","station_name":"Schlegelstraße"},{"station_id":"n279785405","station_name":"Richard-Sorge-Straße"},{"station_id":"n288404915","station_name":"Universitätsklinikum"},{"station_id":"n288404913","station_name":"Platanenstraße"},{"station_id":"n1272033548","station_name":"Emil-Wölk-Straße"},{"station_id":"junc:11.60419:50.88324","station_name":""},{"station_id":"n262551053","station_name":"Lobeda-West"},{"station_id":"n312549678","station_name":"Göschwitz Bahnhof"},{"station_id":"n409626415","station_name":"Jenoptik"},{"station_id":"n593569015","station_name":"Felsbachstraße"},{"station_id":"n593707703","station_name":"Ernst-Ruska-Ring"},{"station_id":"n409626403","station_name":"Alte Burgauer Brücke"},{"station_id":"n2621259933","station_name":"Burgaupark"},{"station_id":"junc:11.59014:50.89843","station_name":""},{"station_id":"n262490610","station_name":"Freizeitbad"},{"station_id":"n262490611","station_name":"Winzerla"}]}],"route_count":2,"route_refs":["5","3"],"route_colors":["#6a2e74","#7f5f00"],"city":"Jena","country":"Germany"},"geometry":{"type":"MultiLineString","coordinates":[[[11.634882133333333,50.8795619],[11.6339944,50.8796817],[11.63056105,50.88114175],[11.623367850000001,50.8822048],[11.61961315,50.8840516],[11.6163275,50.88673835]]]}},{"type":"Feature","properties":{"seg_id":"jena-1","routes":[{"route_id":"rm12232120","route_name":"Tram 5 Straßenbahn Jena","route_name_local":"Tram 5 Straßenbahn Jena","route_name_en":null,"route_ref":"5","route_color":"#6a2e74","wikipedia":"de:Verkehrsverbund Mittelthüringen","osm_route_ids":[147372,3474951],"status":null,"order_suspect":0,"span_suspect":0,"stations":[{"station_id":"n257707968","station_name":"Lobeda-Ost"},{"station_id":"junc:11.63399:50.87968","station_name":""},{"station_id":"n257707976","station_name":"Schlegelstraße"},{"station_id":"n279785405","station_name":"Richard-Sorge-Straße"},{"station_id":"n288404915","station_name":"Universitätsklinikum"},{"station_id":"n288404913","station_name":"Platanenstraße"},{"station_id":"n262551054","station_name":"Lobeda"},{"station_id":"n2621259933","station_name":"Burgaupark"},{"station_id":"junc:11.59014:50.89843","station_name":""},{"station_id":"n257708047","station_name":"Sparkassen-Arena"},{"station_id":"n262490334","station_name":"Sportforum"},{"station_id":"n262490333","station_name":"Jena, Jenertal"},{"station_id":"n257708105","station_name":"Paradiesbahnhof"},{"station_id":"junc:11.58694:50.92531","station_name":""},{"station_id":"n1730385174","station_name":"Holzmarkt"},{"station_id":"n11874663426","station_name":"Ernst-Abbe-Platz"}]}],"route_count":1,"route_refs":["5"],"route_colors":["#6a2e74"],"city":"Jena","country":"Germany"},"geometry":{"type":"MultiLineString","coordinates":[[[11.6163275,50.88673835],[11.6021365,50.892534]]]}},{"type":"Feature","properties":{"seg_id":"jena-2","routes":[{"route_id":"rm12232120","route_name":"Tram 5 Straßenbahn Jena","route_name_local":"Tram 5 Straßenbahn Jena","route_name_en":null,"route_ref":"5","route_color":"#6a2e74","wikipedia":"de:Verkehrsverbund Mittelthüringen","osm_route_ids":[147372,3474951],"status":null,"order_suspect":0,"span_suspect":0,"stations":[{"station_id":"n257707968","station_name":"Lobeda-Ost"},{"station_id":"junc:11.63399:50.87968","station_name":""},{"station_id":"n257707976","station_name":"Schlegelstraße"},{"station_id":"n279785405","station_name":"Richard-Sorge-Straße"},{"station_id":"n288404915","station_name":"Universitätsklinikum"},{"station_id":"n288404913","station_name":"Platanenstraße"},{"station_id":"n262551054","station_name":"Lobeda"},{"station_id":"n2621259933","station_name":"Burgaupark"},{"station_id":"junc:11.59014:50.89843","station_name":""},{"station_id":"n257708047","station_name":"Sparkassen-Arena"},{"station_id":"n262490334","station_name":"Sportforum"},{"station_id":"n262490333","station_name":"Jena, Jenertal"},{"station_id":"n257708105","station_name":"Paradiesbahnhof"},{"station_id":"junc:11.58694:50.92531","station_name":""},{"station_id":"n1730385174","station_name":"Holzmarkt"},{"station_id":"n11874663426","station_name":"Ernst-Abbe-Platz"}]}],"route_count":1,"route_refs":["5"],"route_colors":["#6a2e74"],"city":"Jena","country":"Germany"},"geometry":{"type":"MultiLineString","coordinates":[[[11.5879153,50.9251584],[11.5869369,50.9253066],[11.5859858,50.92709375],[11.581388,50.9282084]]]}},{"type":"Feature","properties":{"seg_id":"jena-3","routes":[{"route_id":"rm12232120","route_name":"Tram 5 Straßenbahn Jena","route_name_local":"Tram 5 Straßenbahn Jena","route_name_en":null,"route_ref":"5","route_color":"#6a2e74","wikipedia":"de:Verkehrsverbund Mittelthüringen","osm_route_ids":[147372,3474951],"status":null,"order_suspect":0,"span_suspect":0,"stations":[{"station_id":"n257707968","station_name":"Lobeda-Ost"},{"station_id":"junc:11.63399:50.87968","station_name":""},{"station_id":"n257707976","station_name":"Schlegelstraße"},{"station_id":"n279785405","station_name":"Richard-Sorge-Straße"},{"station_id":"n288404915","station_name":"Universitätsklinikum"},{"station_id":"n288404913","station_name":"Platanenstraße"},{"station_id":"n262551054","station_name":"Lobeda"},{"station_id":"n2621259933","station_name":"Burgaupark"},{"station_id":"junc:11.59014:50.89843","station_name":""},{"station_id":"n257708047","station_name":"Sparkassen-Arena"},{"station_id":"n262490334","station_name":"Sportforum"},{"station_id":"n262490333","station_name":"Jena, Jenertal"},{"station_id":"n257708105","station_name":"Paradiesbahnhof"},{"station_id":"junc:11.58694:50.92531","station_name":""},{"station_id":"n1730385174","station_name":"Holzmarkt"},{"station_id":"n11874663426","station_name":"Ernst-Abbe-Platz"}]},{"route_id":"rm12232121","route_name":"Tram 4 Straßenbahn Jena","route_name_local":"Tram 4 Straßenbahn Jena","route_name_en":null,"route_ref":"4","route_color":"#da020e","wikipedia":"de:Verkehrsverbund Mittelthüringen","osm_route_ids":[147398,3474947],"status":null,"order_suspect":0,"span_suspect":0,"stations":[{"station_id":"n279231327","station_name":"Zwätzen Schleife"},{"station_id":"n369739828","station_name":"Zwätzen"},{"station_id":"junc:11.61559:50.95490","station_name":""},{"station_id":"n7881800760","station_name":"Flurweg"},{"station_id":"n7881800758","station_name":"Jena, Löbstedt"},{"station_id":"n270501694","station_name":"Stifterstraße"},{"station_id":"n270501681","station_name":"Altenburger Straße"},{"station_id":"n270501655","station_name":"An der Eule"},{"station_id":"n270501610","station_name":"Kieshügel"},{"station_id":"n2026739684","station_name":"Scharnhorststraße"},{"station_id":"n2026739636","station_name":"Nordschule"},{"station_id":"n1730884418","station_name":"Spittelplatz"},{"station_id":"n269714530","station_name":"Universität"},{"station_id":"junc:11.59056:50.92850","station_name":""},{"station_id":"n1730400269","station_name":"Stadtzentrum Löbdergraben"},{"station_id":"junc:11.58694:50.92531","station_name":""},{"station_id":"n257708105","station_name":"Paradiesbahnhof"},{"station_id":"n262490333","station_name":"Jenertal"},{"station_id":"n262490334","station_name":"Sportforum"},{"station_id":"n257708047","station_name":"Sparkassen-Arena"},{"station_id":"junc:11.59014:50.89843","station_name":""},{"station_id":"n2621259933","station_name":"Burgaupark"},{"station_id":"n262551054","station_name":"Lobeda"},{"station_id":"n1272033548","station_name":"Emil-Wölk-Straße"},{"station_id":"junc:11.60419:50.88324","station_name":""},{"station_id":"n262551053","station_name":"Lobeda-West"}]}],"route_count":2,"route_refs":["5","4"],"route_colors":["#6a2e74","#da020e"],"city":"Jena","country":"Germany"},"geometry":{"type":"MultiLineString","coordinates":[[[11.6021365,50.892534],[11.59346665,50.89836455]]]}},{"type":"Feature","properties":{"seg_id":"jena-4","routes":[{"route_id":"rm12232120","route_name":"Tram 5 Straßenbahn Jena","route_name_local":"Tram 5 Straßenbahn Jena","route_name_en":null,"route_ref":"5","route_color":"#6a2e74","wikipedia":"de:Verkehrsverbund Mittelthüringen","osm_route_ids":[147372,3474951],"status":null,"order_suspect":0,"span_suspect":0,"stations":[{"station_id":"n257707968","station_name":"Lobeda-Ost"},{"station_id":"junc:11.63399:50.87968","station_name":""},{"station_id":"n257707976","station_name":"Schlegelstraße"},{"station_id":"n279785405","station_name":"Richard-Sorge-Straße"},{"station_id":"n288404915","station_name":"Universitätsklinikum"},{"station_id":"n288404913","station_name":"Platanenstraße"},{"station_id":"n262551054","station_name":"Lobeda"},{"station_id":"n2621259933","station_name":"Burgaupark"},{"station_id":"junc:11.59014:50.89843","station_name":""},{"station_id":"n257708047","station_name":"Sparkassen-Arena"},{"station_id":"n262490334","station_name":"Sportforum"},{"station_id":"n262490333","station_name":"Jena, Jenertal"},{"station_id":"n257708105","station_name":"Paradiesbahnhof"},{"station_id":"junc:11.58694:50.92531","station_name":""},{"station_id":"n1730385174","station_name":"Holzmarkt"},{"station_id":"n11874663426","station_name":"Ernst-Abbe-Platz"}]},{"route_id":"rm12232123","route_name":"Tram 1 Straßenbahn Jena","route_name_local":"Tram 1 Straßenbahn Jena","route_name_en":null,"route_ref":"1","route_color":"#e94c0a","wikipedia":"de:Verkehrsverbund Mittelthüringen","osm_route_ids":[147394,3376752],"status":null,"order_suspect":0,"span_suspect":0,"stations":[{"station_id":"n262551053","station_name":"Lobeda-West"},{"station_id":"n312549678","station_name":"Göschwitz Bahnhof"},{"station_id":"n409626415","station_name":"Jenoptik"},{"station_id":"n593569015","station_name":"Felsbachstraße"},{"station_id":"n593707703","station_name":"Ernst-Ruska-Ring"},{"station_id":"n409626403","station_name":"Alte Burgauer Brücke"},{"station_id":"n2621259933","station_name":"Burgaupark"},{"station_id":"junc:11.59014:50.89843","station_name":""},{"station_id":"n257708047","station_name":"Sparkassen-Arena"},{"station_id":"n262490334","station_name":"Sportforum"},{"station_id":"n262490333","station_name":"Jena, Jenertal"},{"station_id":"n257708105","station_name":"Paradiesbahnhof"},{"station_id":"junc:11.58694:50.92531","station_name":""},{"station_id":"n1730400269","station_name":"Stadtzentrum Löbdergraben"},{"station_id":"junc:11.59056:50.92850","station_name":""},{"station_id":"n269714530","station_name":"Universität"},{"station_id":"n1730884418","station_name":"Spittelplatz"},{"station_id":"n2026739636","station_name":"Nordschule"},{"station_id":"n2026739684","station_name":"Scharnhorststraße"},{"station_id":"n270501610","station_name":"Kieshügel"},{"station_id":"n270501655","station_name":"An der Eule"},{"station_id":"n270501681","station_name":"Altenburger Straße"},{"station_id":"n270501694","station_name":"Stifterstraße"},{"station_id":"n7881800758","station_name":"Jena, Löbstedt"},{"station_id":"n7881800760","station_name":"Flurweg"},{"station_id":"junc:11.61559:50.95490","station_name":""},{"station_id":"n369739828","station_name":"Zwätzen"},{"station_id":"n279231327","station_name":"Zwätzen Schleife"}]},{"route_id":"rm12232121","route_name":"Tram 4 Straßenbahn Jena","route_name_local":"Tram 4 Straßenbahn Jena","route_name_en":null,"route_ref":"4","route_color":"#da020e","wikipedia":"de:Verkehrsverbund Mittelthüringen","osm_route_ids":[147398,3474947],"status":null,"order_suspect":0,"span_suspect":0,"stations":[{"station_id":"n279231327","station_name":"Zwätzen Schleife"},{"station_id":"n369739828","station_name":"Zwätzen"},{"station_id":"junc:11.61559:50.95490","station_name":""},{"station_id":"n7881800760","station_name":"Flurweg"},{"station_id":"n7881800758","station_name":"Jena, Löbstedt"},{"station_id":"n270501694","station_name":"Stifterstraße"},{"station_id":"n270501681","station_name":"Altenburger Straße"},{"station_id":"n270501655","station_name":"An der Eule"},{"station_id":"n270501610","station_name":"Kieshügel"},{"station_id":"n2026739684","station_name":"Scharnhorststraße"},{"station_id":"n2026739636","station_name":"Nordschule"},{"station_id":"n1730884418","station_name":"Spittelplatz"},{"station_id":"n269714530","station_name":"Universität"},{"station_id":"junc:11.59056:50.92850","station_name":""},{"station_id":"n1730400269","station_name":"Stadtzentrum Löbdergraben"},{"station_id":"junc:11.58694:50.92531","station_name":""},{"station_id":"n257708105","station_name":"Paradiesbahnhof"},{"station_id":"n262490333","station_name":"Jenertal"},{"station_id":"n262490334","station_name":"Sportforum"},{"station_id":"n257708047","station_name":"Sparkassen-Arena"},{"station_id":"junc:11.59014:50.89843","station_name":""},{"station_id":"n2621259933","station_name":"Burgaupark"},{"station_id":"n262551054","station_name":"Lobeda"},{"station_id":"n1272033548","station_name":"Emil-Wölk-Straße"},{"station_id":"junc:11.60419:50.88324","station_name":""},{"station_id":"n262551053","station_name":"Lobeda-West"}]}],"route_count":3,"route_refs":["5","1","4"],"route_colors":["#6a2e74","#e94c0a","#da020e"],"city":"Jena","country":"Germany"},"geometry":{"type":"MultiLineString","coordinates":[[[11.59346665,50.89836455],[11.5901412,50.8984338],[11.5881905,50.899300499999995],[11.5869866,50.9149423],[11.5894866,50.91997385],[11.5879153,50.9251584]]]}},{"type":"Feature","properties":{"seg_id":"jena-5","routes":[{"route_id":"rm12232122","route_name":"Tram 3 Straßenbahn Jena","route_name_local":"Tram 3 Straßenbahn Jena","route_name_en":null,"route_ref":"3","route_color":"#7f5f00","wikipedia":"de:Verkehrsverbund Mittelthüringen","osm_route_ids":[147373,3474899],"status":null,"order_suspect":0,"span_suspect":0,"stations":[{"station_id":"n257707968","station_name":"Lobeda-Ost"},{"station_id":"junc:11.63399:50.87968","station_name":""},{"station_id":"n257707976","station_name":"Schlegelstraße"},{"station_id":"n279785405","station_name":"Richard-Sorge-Straße"},{"station_id":"n288404915","station_name":"Universitätsklinikum"},{"station_id":"n288404913","station_name":"Platanenstraße"},{"station_id":"n1272033548","station_name":"Emil-Wölk-Straße"},{"station_id":"junc:11.60419:50.88324","station_name":""},{"station_id":"n262551053","station_name":"Lobeda-West"},{"station_id":"n312549678","station_name":"Göschwitz Bahnhof"},{"station_id":"n409626415","station_name":"Jenoptik"},{"station_id":"n593569015","station_name":"Felsbachstraße"},{"station_id":"n593707703","station_name":"Ernst-Ruska-Ring"},{"station_id":"n409626403","station_name":"Alte Burgauer Brücke"},{"station_id":"n2621259933","station_name":"Burgaupark"},{"station_id":"junc:11.59014:50.89843","station_name":""},{"station_id":"n262490610","station_name":"Freizeitbad"},{"station_id":"n262490611","station_name":"Winzerla"}]}],"route_count":1,"route_refs":["3"],"route_colors":["#7f5f00"],"city":"Jena","country":"Germany"},"geometry":{"type":"MultiLineString","coordinates":[[[11.6163275,50.88673835],[11.60786825,50.8849442]]]}},{"type":"Feature","properties":{"seg_id":"jena-6","routes":[{"route_id":"rm12232122","route_name":"Tram 3 Straßenbahn Jena","route_name_local":"Tram 3 Straßenbahn Jena","route_name_en":null,"route_ref":"3","route_color":"#7f5f00","wikipedia":"de:Verkehrsverbund Mittelthüringen","osm_route_ids":[147373,3474899],"status":null,"order_suspect":0,"span_suspect":0,"stations":[{"station_id":"n257707968","station_name":"Lobeda-Ost"},{"station_id":"junc:11.63399:50.87968","station_name":""},{"station_id":"n257707976","station_name":"Schlegelstraße"},{"station_id":"n279785405","station_name":"Richard-Sorge-Straße"},{"station_id":"n288404915","station_name":"Universitätsklinikum"},{"station_id":"n288404913","station_name":"Platanenstraße"},{"station_id":"n1272033548","station_name":"Emil-Wölk-Straße"},{"station_id":"junc:11.60419:50.88324","station_name":""},{"station_id":"n262551053","station_name":"Lobeda-West"},{"station_id":"n312549678","station_name":"Göschwitz Bahnhof"},{"station_id":"n409626415","station_name":"Jenoptik"},{"station_id":"n593569015","station_name":"Felsbachstraße"},{"station_id":"n593707703","station_name":"Ernst-Ruska-Ring"},{"station_id":"n409626403","station_name":"Alte Burgauer Brücke"},{"station_id":"n2621259933","station_name":"Burgaupark"},{"station_id":"junc:11.59014:50.89843","station_name":""},{"station_id":"n262490610","station_name":"Freizeitbad"},{"station_id":"n262490611","station_name":"Winzerla"}]}],"route_count":1,"route_refs":["3"],"route_colors":["#7f5f00"],"city":"Jena","country":"Germany"},"geometry":{"type":"MultiLineString","coordinates":[[[11.59346665,50.89836455],[11.5901412,50.8984338],[11.58537555,50.8984277],[11.582742733333333,50.89509939999999]]]}},{"type":"Feature","properties":{"seg_id":"jena-7","routes":[{"route_id":"rm12232122","route_name":"Tram 3 Straßenbahn Jena","route_name_local":"Tram 3 Straßenbahn Jena","route_name_en":null,"route_ref":"3","route_color":"#7f5f00","wikipedia":"de:Verkehrsverbund Mittelthüringen","osm_route_ids":[147373,3474899],"status":null,"order_suspect":0,"span_suspect":0,"stations":[{"station_id":"n257707968","station_name":"Lobeda-Ost"},{"station_id":"junc:11.63399:50.87968","station_name":""},{"station_id":"n257707976","station_name":"Schlegelstraße"},{"station_id":"n279785405","station_name":"Richard-Sorge-Straße"},{"station_id":"n288404915","station_name":"Universitätsklinikum"},{"station_id":"n288404913","station_name":"Platanenstraße"},{"station_id":"n1272033548","station_name":"Emil-Wölk-Straße"},{"station_id":"junc:11.60419:50.88324","station_name":""},{"station_id":"n262551053","station_name":"Lobeda-West"},{"station_id":"n312549678","station_name":"Göschwitz Bahnhof"},{"station_id":"n409626415","station_name":"Jenoptik"},{"station_id":"n593569015","station_name":"Felsbachstraße"},{"station_id":"n593707703","station_name":"Ernst-Ruska-Ring"},{"station_id":"n409626403","station_name":"Alte Burgauer Brücke"},{"station_id":"n2621259933","station_name":"Burgaupark"},{"station_id":"junc:11.59014:50.89843","station_name":""},{"station_id":"n262490610","station_name":"Freizeitbad"},{"station_id":"n262490611","station_name":"Winzerla"}]},{"route_id":"rm12232121","route_name":"Tram 4 Straßenbahn Jena","route_name_local":"Tram 4 Straßenbahn Jena","route_name_en":null,"route_ref":"4","route_color":"#da020e","wikipedia":"de:Verkehrsverbund Mittelthüringen","osm_route_ids":[147398,3474947],"status":null,"order_suspect":0,"span_suspect":0,"stations":[{"station_id":"n279231327","station_name":"Zwätzen Schleife"},{"station_id":"n369739828","station_name":"Zwätzen"},{"station_id":"junc:11.61559:50.95490","station_name":""},{"station_id":"n7881800760","station_name":"Flurweg"},{"station_id":"n7881800758","station_name":"Jena, Löbstedt"},{"station_id":"n270501694","station_name":"Stifterstraße"},{"station_id":"n270501681","station_name":"Altenburger Straße"},{"station_id":"n270501655","station_name":"An der Eule"},{"station_id":"n270501610","station_name":"Kieshügel"},{"station_id":"n2026739684","station_name":"Scharnhorststraße"},{"station_id":"n2026739636","station_name":"Nordschule"},{"station_id":"n1730884418","station_name":"Spittelplatz"},{"station_id":"n269714530","station_name":"Universität"},{"station_id":"junc:11.59056:50.92850","station_name":""},{"station_id":"n1730400269","station_name":"Stadtzentrum Löbdergraben"},{"station_id":"junc:11.58694:50.92531","station_name":""},{"station_id":"n257708105","station_name":"Paradiesbahnhof"},{"station_id":"n262490333","station_name":"Jenertal"},{"station_id":"n262490334","station_name":"Sportforum"},{"station_id":"n257708047","station_name":"Sparkassen-Arena"},{"station_id":"junc:11.59014:50.89843","station_name":""},{"station_id":"n2621259933","station_name":"Burgaupark"},{"station_id":"n262551054","station_name":"Lobeda"},{"station_id":"n1272033548","station_name":"Emil-Wölk-Straße"},{"station_id":"junc:11.60419:50.88324","station_name":""},{"station_id":"n262551053","station_name":"Lobeda-West"}]}],"route_count":2,"route_refs":["3","4"],"route_colors":["#7f5f00","#da020e"],"city":"Jena","country":"Germany"},"geometry":{"type":"MultiLineString","coordinates":[[[11.60786825,50.8849442],[11.6041851,50.8832378],[11.603373066666668,50.882862499999995]]]}},{"type":"Feature","properties":{"seg_id":"jena-8","routes":[{"route_id":"rm12232122","route_name":"Tram 3 Straßenbahn Jena","route_name_local":"Tram 3 Straßenbahn Jena","route_name_en":null,"route_ref":"3","route_color":"#7f5f00","wikipedia":"de:Verkehrsverbund Mittelthüringen","osm_route_ids":[147373,3474899],"status":null,"order_suspect":0,"span_suspect":0,"stations":[{"station_id":"n257707968","station_name":"Lobeda-Ost"},{"station_id":"junc:11.63399:50.87968","station_name":""},{"station_id":"n257707976","station_name":"Schlegelstraße"},{"station_id":"n279785405","station_name":"Richard-Sorge-Straße"},{"station_id":"n288404915","station_name":"Universitätsklinikum"},{"station_id":"n288404913","station_name":"Platanenstraße"},{"station_id":"n1272033548","station_name":"Emil-Wölk-Straße"},{"station_id":"junc:11.60419:50.88324","station_name":""},{"station_id":"n262551053","station_name":"Lobeda-West"},{"station_id":"n312549678","station_name":"Göschwitz Bahnhof"},{"station_id":"n409626415","station_name":"Jenoptik"},{"station_id":"n593569015","station_name":"Felsbachstraße"},{"station_id":"n593707703","station_name":"Ernst-Ruska-Ring"},{"station_id":"n409626403","station_name":"Alte Burgauer Brücke"},{"station_id":"n2621259933","station_name":"Burgaupark"},{"station_id":"junc:11.59014:50.89843","station_name":""},{"station_id":"n262490610","station_name":"Freizeitbad"},{"station_id":"n262490611","station_name":"Winzerla"}]},{"route_id":"rm12232123","route_name":"Tram 1 Straßenbahn Jena","route_name_local":"Tram 1 Straßenbahn Jena","route_name_en":null,"route_ref":"1","route_color":"#e94c0a","wikipedia":"de:Verkehrsverbund Mittelthüringen","osm_route_ids":[147394,3376752],"status":null,"order_suspect":0,"span_suspect":0,"stations":[{"station_id":"n262551053","station_name":"Lobeda-West"},{"station_id":"n312549678","station_name":"Göschwitz Bahnhof"},{"station_id":"n409626415","station_name":"Jenoptik"},{"station_id":"n593569015","station_name":"Felsbachstraße"},{"station_id":"n593707703","station_name":"Ernst-Ruska-Ring"},{"station_id":"n409626403","station_name":"Alte Burgauer Brücke"},{"station_id":"n2621259933","station_name":"Burgaupark"},{"station_id":"junc:11.59014:50.89843","station_name":""},{"station_id":"n257708047","station_name":"Sparkassen-Arena"},{"station_id":"n262490334","station_name":"Sportforum"},{"station_id":"n262490333","station_name":"Jena, Jenertal"},{"station_id":"n257708105","station_name":"Paradiesbahnhof"},{"station_id":"junc:11.58694:50.92531","station_name":""},{"station_id":"n1730400269","station_name":"Stadtzentrum Löbdergraben"},{"station_id":"junc:11.59056:50.92850","station_name":""},{"station_id":"n269714530","station_name":"Universität"},{"station_id":"n1730884418","station_name":"Spittelplatz"},{"station_id":"n2026739636","station_name":"Nordschule"},{"station_id":"n2026739684","station_name":"Scharnhorststraße"},{"station_id":"n270501610","station_name":"Kieshügel"},{"station_id":"n270501655","station_name":"An der Eule"},{"station_id":"n270501681","station_name":"Altenburger Straße"},{"station_id":"n270501694","station_name":"Stifterstraße"},{"station_id":"n7881800758","station_name":"Jena, Löbstedt"},{"station_id":"n7881800760","station_name":"Flurweg"},{"station_id":"junc:11.61559:50.95490","station_name":""},{"station_id":"n369739828","station_name":"Zwätzen"},{"station_id":"n279231327","station_name":"Zwätzen Schleife"}]}],"route_count":2,"route_refs":["3","1"],"route_colors":["#7f5f00","#e94c0a"],"city":"Jena","country":"Germany"},"geometry":{"type":"MultiLineString","coordinates":[[[11.603373066666668,50.882862499999995],[11.594812699999999,50.883761699999994],[11.5943241,50.88676945],[11.593748399999999,50.890952049999996],[11.5950168,50.89279705],[11.59717745,50.89525845],[11.59346665,50.89836455]]]}},{"type":"Feature","properties":{"seg_id":"jena-9","routes":[{"route_id":"rm12232123","route_name":"Tram 1 Straßenbahn Jena","route_name_local":"Tram 1 Straßenbahn Jena","route_name_en":null,"route_ref":"1","route_color":"#e94c0a","wikipedia":"de:Verkehrsverbund Mittelthüringen","osm_route_ids":[147394,3376752],"status":null,"order_suspect":0,"span_suspect":0,"stations":[{"station_id":"n262551053","station_name":"Lobeda-West"},{"station_id":"n312549678","station_name":"Göschwitz Bahnhof"},{"station_id":"n409626415","station_name":"Jenoptik"},{"station_id":"n593569015","station_name":"Felsbachstraße"},{"station_id":"n593707703","station_name":"Ernst-Ruska-Ring"},{"station_id":"n409626403","station_name":"Alte Burgauer Brücke"},{"station_id":"n2621259933","station_name":"Burgaupark"},{"station_id":"junc:11.59014:50.89843","station_name":""},{"station_id":"n257708047","station_name":"Sparkassen-Arena"},{"station_id":"n262490334","station_name":"Sportforum"},{"station_id":"n262490333","station_name":"Jena, Jenertal"},{"station_id":"n257708105","station_name":"Paradiesbahnhof"},{"station_id":"junc:11.58694:50.92531","station_name":""},{"station_id":"n1730400269","station_name":"Stadtzentrum Löbdergraben"},{"station_id":"junc:11.59056:50.92850","station_name":""},{"station_id":"n269714530","station_name":"Universität"},{"station_id":"n1730884418","station_name":"Spittelplatz"},{"station_id":"n2026739636","station_name":"Nordschule"},{"station_id":"n2026739684","station_name":"Scharnhorststraße"},{"station_id":"n270501610","station_name":"Kieshügel"},{"station_id":"n270501655","station_name":"An der Eule"},{"station_id":"n270501681","station_name":"Altenburger Straße"},{"station_id":"n270501694","station_name":"Stifterstraße"},{"station_id":"n7881800758","station_name":"Jena, Löbstedt"},{"station_id":"n7881800760","station_name":"Flurweg"},{"station_id":"junc:11.61559:50.95490","station_name":""},{"station_id":"n369739828","station_name":"Zwätzen"},{"station_id":"n279231327","station_name":"Zwätzen Schleife"}]},{"route_id":"rm12232121","route_name":"Tram 4 Straßenbahn Jena","route_name_local":"Tram 4 Straßenbahn Jena","route_name_en":null,"route_ref":"4","route_color":"#da020e","wikipedia":"de:Verkehrsverbund Mittelthüringen","osm_route_ids":[147398,3474947],"status":null,"order_suspect":0,"span_suspect":0,"stations":[{"station_id":"n279231327","station_name":"Zwätzen Schleife"},{"station_id":"n369739828","station_name":"Zwätzen"},{"station_id":"junc:11.61559:50.95490","station_name":""},{"station_id":"n7881800760","station_name":"Flurweg"},{"station_id":"n7881800758","station_name":"Jena, Löbstedt"},{"station_id":"n270501694","station_name":"Stifterstraße"},{"station_id":"n270501681","station_name":"Altenburger Straße"},{"station_id":"n270501655","station_name":"An der Eule"},{"station_id":"n270501610","station_name":"Kieshügel"},{"station_id":"n2026739684","station_name":"Scharnhorststraße"},{"station_id":"n2026739636","station_name":"Nordschule"},{"station_id":"n1730884418","station_name":"Spittelplatz"},{"station_id":"n269714530","station_name":"Universität"},{"station_id":"junc:11.59056:50.92850","station_name":""},{"station_id":"n1730400269","station_name":"Stadtzentrum Löbdergraben"},{"station_id":"junc:11.58694:50.92531","station_name":""},{"station_id":"n257708105","station_name":"Paradiesbahnhof"},{"station_id":"n262490333","station_name":"Jenertal"},{"station_id":"n262490334","station_name":"Sportforum"},{"station_id":"n257708047","station_name":"Sparkassen-Arena"},{"station_id":"junc:11.59014:50.89843","station_name":""},{"station_id":"n2621259933","station_name":"Burgaupark"},{"station_id":"n262551054","station_name":"Lobeda"},{"station_id":"n1272033548","station_name":"Emil-Wölk-Straße"},{"station_id":"junc:11.60419:50.88324","station_name":""},{"station_id":"n262551053","station_name":"Lobeda-West"}]}],"route_count":2,"route_refs":["1","4"],"route_colors":["#e94c0a","#da020e"],"city":"Jena","country":"Germany"},"geometry":{"type":"MultiLineString","coordinates":[[[11.5879153,50.9251584],[11.5869369,50.9253066],[11.587734000000001,50.926996599999995],[11.5905595,50.9285005],[11.590715450000001,50.929432250000005],[11.590401100000001,50.9329262],[11.588573799999999,50.93746805000001],[11.591605600000001,50.9414065],[11.59406315,50.9433546],[11.59747145,50.94603805],[11.601549,50.9487679],[11.60644025,50.9506054],[11.611317249999999,50.950728600000005],[11.614960499999999,50.953950500000005],[11.6155863,50.9549032],[11.6167882,50.9568063],[11.6177709,50.9590497]]]}},{"type":"Feature","properties":{"seg_id":"jena-10","routes":[{"route_id":"rm12232121","route_name":"Tram 4 Straßenbahn Jena","route_name_local":"Tram 4 Straßenbahn Jena","route_name_en":null,"route_ref":"4","route_color":"#da020e","wikipedia":"de:Verkehrsverbund Mittelthüringen","osm_route_ids":[147398,3474947],"status":null,"order_suspect":0,"span_suspect":0,"stations":[{"station_id":"n279231327","station_name":"Zwätzen Schleife"},{"station_id":"n369739828","station_name":"Zwätzen"},{"station_id":"junc:11.61559:50.95490","station_name":""},{"station_id":"n7881800760","station_name":"Flurweg"},{"station_id":"n7881800758","station_name":"Jena, Löbstedt"},{"station_id":"n270501694","station_name":"Stifterstraße"},{"station_id":"n270501681","station_name":"Altenburger Straße"},{"station_id":"n270501655","station_name":"An der Eule"},{"station_id":"n270501610","station_name":"Kieshügel"},{"station_id":"n2026739684","station_name":"Scharnhorststraße"},{"station_id":"n2026739636","station_name":"Nordschule"},{"station_id":"n1730884418","station_name":"Spittelplatz"},{"station_id":"n269714530","station_name":"Universität"},{"station_id":"junc:11.59056:50.92850","station_name":""},{"station_id":"n1730400269","station_name":"Stadtzentrum Löbdergraben"},{"station_id":"junc:11.58694:50.92531","station_name":""},{"station_id":"n257708105","station_name":"Paradiesbahnhof"},{"station_id":"n262490333","station_name":"Jenertal"},{"station_id":"n262490334","station_name":"Sportforum"},{"station_id":"n257708047","station_name":"Sparkassen-Arena"},{"station_id":"junc:11.59014:50.89843","station_name":""},{"station_id":"n2621259933","station_name":"Burgaupark"},{"station_id":"n262551054","station_name":"Lobeda"},{"station_id":"n1272033548","station_name":"Emil-Wölk-Straße"},{"station_id":"junc:11.60419:50.88324","station_name":""},{"station_id":"n262551053","station_name":"Lobeda-West"}]}],"route_count":1,"route_refs":["4"],"route_colors":["#da020e"],"city":"Jena","country":"Germany"},"geometry":{"type":"MultiLineString","coordinates":[[[11.6021365,50.892534],[11.60786825,50.8849442]]]}},{"type":"Feature","properties":{"seg_id":"jena-11","routes":[{"route_id":"rm12232119","route_name":"Tram 2 Straßenbahn Jena","route_name_local":"Tram 2 Straßenbahn Jena","route_name_en":null,"route_ref":"2","route_color":"#fab71b","wikipedia":"de:Verkehrsverbund Mittelthüringen","osm_route_ids":[147471,3474911],"status":null,"order_suspect":0,"span_suspect":0,"stations":[{"station_id":"n262490611","station_name":"Winzerla"},{"station_id":"junc:11.58006:50.89792","station_name":""},{"station_id":"n1839997637","station_name":"Enver-Şimşek-Platz"},{"station_id":"n1830644875","station_name":"Ringwiese"},{"station_id":"n676352665","station_name":"Mühlenstraße"},{"station_id":"n259786489","station_name":"Felsenkeller"},{"station_id":"n259786490","station_name":"Paradiesbahnhof West"},{"station_id":"junc:11.58694:50.92531","station_name":""},{"station_id":"n1730400269","station_name":"Stadtzentrum Löbdergraben"},{"station_id":"junc:11.59056:50.92850","station_name":""},{"station_id":"n1730884477","station_name":"Steinweg"},{"station_id":"n2045933394","station_name":"Geschwister-Scholl-Straße"},{"station_id":"n344852622","station_name":"Schlippenstraße"},{"station_id":"n344852621","station_name":"Ostschule"},{"station_id":"n271142348","station_name":"Jenzigweg"},{"station_id":"n344852619","station_name":"An der Trebe"},{"station_id":"n1720353263","station_name":"Löbichauer Straße"},{"station_id":"n2621259936","station_name":"Jena Ost"}]}],"route_count":1,"route_refs":["2"],"route_colors":["#fab71b"],"city":"Jena","country":"Germany"},"geometry":{"type":"MultiLineString","coordinates":[[[11.582742733333333,50.89509939999999],[11.5800553,50.8979237],[11.5786981,50.8999426],[11.576647,50.90669405],[11.576988400000001,50.91544305],[11.5813192,50.92088005],[11.5861574,50.924699700000005],[11.5869369,50.9253066],[11.587734000000001,50.926996599999995],[11.5905595,50.9285005],[11.5917758,50.928618],[11.600254300000001,50.929288533333334],[11.6046021,50.9314221],[11.6058633,50.932545],[11.6076166,50.9341114],[11.6107545,50.9338853],[11.6137884,50.9335196],[11.6199051,50.9336601]]]}},{"type":"Feature","properties":{"station_id":"n257707968","station_name":"Lobeda-Ost","station_name_local":"Lobeda-Ost","station_name_en":null,"city":"Jena","country":"Germany","lines":["3","5"],"wikipedia":null,"merged_from":3,"merged_names":null,"is_terminus":true,"routes":[{"ref":"3","name":"Tram 3 Straßenbahn Jena","route_color":"#7f5f00"},{"ref":"5","name":"Tram 5 Straßenbahn Jena","route_color":"#6a2e74"}],"pass_count":2,"station_degree":1,"codes":null,"is_interchange":false,"station_role":"terminus"},"geometry":{"type":"Point","coordinates":[11.634882133333333,50.8795619]},"__memberLines":{}},{"type":"Feature","properties":{"station_id":"n257707976","station_name":"Schlegelstraße","station_name_local":"Schlegelstraße","station_name_en":null,"city":"Jena","country":"Germany","lines":["3","5"],"wikipedia":null,"merged_from":2,"merged_names":null,"is_terminus":false,"codes":["1","2"],"routes":[{"ref":"3","name":"Tram 3 Straßenbahn Jena","route_color":"#7f5f00"},{"ref":"5","name":"Tram 5 Straßenbahn Jena","route_color":"#6a2e74"}],"pass_count":2,"station_degree":2,"is_interchange":false,"station_role":"normal"},"geometry":{"type":"Point","coordinates":[11.63056105,50.88114175]},"__memberLines":{}},{"type":"Feature","properties":{"station_id":"n257708047","station_name":"Sparkassen-Arena","station_name_local":"Sparkassen-Arena","station_name_en":null,"city":"Jena","country":"Germany","lines":["1","4","5"],"wikipedia":null,"merged_from":2,"merged_names":null,"is_terminus":false,"routes":[{"ref":"1","name":"Tram 1 Straßenbahn Jena","route_color":"#e94c0a"},{"ref":"4","name":"Tram 4 Straßenbahn Jena","route_color":"#da020e"},{"ref":"5","name":"Tram 5 Straßenbahn Jena","route_color":"#6a2e74"}],"pass_count":3,"station_degree":2,"codes":null,"is_interchange":false,"station_role":"normal"},"geometry":{"type":"Point","coordinates":[11.5881905,50.899300499999995]},"__memberLines":{}},{"type":"Feature","properties":{"station_id":"n257708105","station_name":"Paradiesbahnhof","station_name_local":"Paradiesbahnhof","station_name_en":null,"city":"Jena","country":"Germany","lines":["1","4","5"],"wikipedia":null,"merged_from":2,"merged_names":null,"is_terminus":false,"routes":[{"ref":"1","name":"Tram 1 Straßenbahn Jena","route_color":"#e94c0a"},{"ref":"4","name":"Tram 4 Straßenbahn Jena","route_color":"#da020e"},{"ref":"5","name":"Tram 5 Straßenbahn Jena","route_color":"#6a2e74"}],"pass_count":3,"station_degree":3,"codes":null,"is_interchange":true,"station_role":"interchange"},"geometry":{"type":"Point","coordinates":[11.5879153,50.9251584]},"__memberLines":{}},{"type":"Feature","properties":{"station_id":"n259786489","station_name":"Felsenkeller","station_name_local":"Felsenkeller","station_name_en":null,"city":"Jena","country":"Germany","lines":["2"],"wikipedia":null,"merged_from":2,"merged_names":null,"is_terminus":false,"routes":[{"ref":"2","name":"Tram 2 Straßenbahn Jena","route_color":"#fab71b"}],"pass_count":1,"station_degree":2,"codes":null,"is_interchange":false,"station_role":"normal"},"geometry":{"type":"Point","coordinates":[11.5813192,50.92088005]},"__memberLines":{}},{"type":"Feature","properties":{"station_id":"n259786490","station_name":"Paradiesbahnhof West","station_name_local":"Paradiesbahnhof West","station_name_en":null,"city":"Jena","country":"Germany","lines":["2"],"wikipedia":null,"merged_from":2,"merged_names":null,"is_terminus":false,"routes":[{"ref":"2","name":"Tram 2 Straßenbahn Jena","route_color":"#fab71b"}],"pass_count":1,"station_degree":2,"codes":null,"is_interchange":false,"station_role":"normal"},"geometry":{"type":"Point","coordinates":[11.5861574,50.924699700000005]},"__memberLines":{}},{"type":"Feature","properties":{"station_id":"n1730400269","station_name":"Stadtzentrum Löbdergraben","station_name_local":"Stadtzentrum Löbdergraben","station_name_en":null,"city":"Jena","country":"Germany","lines":["1","2","4"],"wikipedia":null,"merged_from":2,"merged_names":null,"is_terminus":false,"routes":[{"ref":"1","name":"Tram 1 Straßenbahn Jena","route_color":"#e94c0a"},{"ref":"2","name":"Tram 2 Straßenbahn Jena","route_color":"#fab71b"},{"ref":"4","name":"Tram 4 Straßenbahn Jena","route_color":"#da020e"}],"pass_count":3,"station_degree":4,"codes":null,"is_interchange":true,"station_role":"interchange"},"geometry":{"type":"Point","coordinates":[11.587734000000001,50.926996599999995]},"__memberLines":{}},{"type":"Feature","properties":{"station_id":"n262490333","station_name":"Jena, Jenertal / Jenertal","station_name_local":"Jena, Jenertal / Jenertal","station_name_en":null,"city":"Jena","country":"Germany","lines":["1","4","5"],"wikipedia":null,"merged_from":2,"merged_names":[{"station_id":"n262490333","station_name":"Jena, Jenertal","station_name_local":"Jena, Jenertal","lines":["1","5"]},{"station_id":"n1684176076","station_name":"Jenertal","station_name_local":"Jenertal","lines":["4"]}],"is_terminus":false,"routes":[{"ref":"1","name":"Tram 1 Straßenbahn Jena","route_color":"#e94c0a"},{"ref":"4","name":"Tram 4 Straßenbahn Jena","route_color":"#da020e"},{"ref":"5","name":"Tram 5 Straßenbahn Jena","route_color":"#6a2e74"}],"pass_count":3,"station_degree":2,"codes":null,"is_interchange":false,"station_role":"normal"},"geometry":{"type":"Point","coordinates":[11.5894866,50.91997385]},"__memberLines":{}},{"type":"Feature","properties":{"station_id":"n262490334","station_name":"Sportforum","station_name_local":"Sportforum","station_name_en":null,"city":"Jena","country":"Germany","lines":["1","4","5"],"wikipedia":null,"merged_from":2,"merged_names":null,"is_terminus":false,"routes":[{"ref":"1","name":"Tram 1 Straßenbahn Jena","route_color":"#e94c0a"},{"ref":"4","name":"Tram 4 Straßenbahn Jena","route_color":"#da020e"},{"ref":"5","name":"Tram 5 Straßenbahn Jena","route_color":"#6a2e74"}],"pass_count":3,"station_degree":2,"codes":null,"is_interchange":false,"station_role":"normal"},"geometry":{"type":"Point","coordinates":[11.5869866,50.9149423]},"__memberLines":{}},{"type":"Feature","properties":{"station_id":"n262490610","station_name":"Freizeitbad","station_name_local":"Freizeitbad","station_name_en":null,"city":"Jena","country":"Germany","lines":["3"],"wikipedia":null,"merged_from":2,"merged_names":null,"is_terminus":false,"routes":[{"ref":"3","name":"Tram 3 Straßenbahn Jena","route_color":"#7f5f00"}],"pass_count":1,"station_degree":2,"codes":null,"is_interchange":false,"station_role":"normal"},"geometry":{"type":"Point","coordinates":[11.58537555,50.8984277]},"__memberLines":{}},{"type":"Feature","properties":{"station_id":"n262490611","station_name":"Winzerla","station_name_local":"Winzerla","station_name_en":null,"city":"Jena","country":"Germany","lines":["2","3"],"wikipedia":null,"merged_from":3,"merged_names":null,"is_terminus":false,"codes":["1","2","3"],"routes":[{"ref":"2","name":"Tram 2 Straßenbahn Jena","route_color":"#fab71b"},{"ref":"3","name":"Tram 3 Straßenbahn Jena","route_color":"#7f5f00"}],"pass_count":2,"station_degree":2,"is_interchange":true,"station_role":"interchange"},"geometry":{"type":"Point","coordinates":[11.582742733333333,50.89509939999999]},"__memberLines":{}},{"type":"Feature","properties":{"station_id":"n262551053","station_name":"Lobeda-West","station_name_local":"Lobeda-West","station_name_en":null,"city":"Jena","country":"Germany","lines":["1","3","4"],"wikipedia":null,"merged_from":3,"merged_names":null,"is_terminus":false,"routes":[{"ref":"1","name":"Tram 1 Straßenbahn Jena","route_color":"#e94c0a"},{"ref":"3","name":"Tram 3 Straßenbahn Jena","route_color":"#7f5f00"},{"ref":"4","name":"Tram 4 Straßenbahn Jena","route_color":"#da020e"}],"pass_count":3,"station_degree":2,"codes":null,"is_interchange":true,"station_role":"interchange"},"geometry":{"type":"Point","coordinates":[11.603373066666668,50.882862499999995]},"__memberLines":{}},{"type":"Feature","properties":{"station_id":"n262551054","station_name":"Lobeda","station_name_local":"Lobeda","station_name_en":null,"city":"Jena","country":"Germany","lines":["4","5"],"wikipedia":null,"merged_from":2,"merged_names":null,"is_terminus":false,"routes":[{"ref":"4","name":"Tram 4 Straßenbahn Jena","route_color":"#da020e"},{"ref":"5","name":"Tram 5 Straßenbahn Jena","route_color":"#6a2e74"}],"pass_count":2,"station_degree":3,"codes":null,"is_interchange":true,"station_role":"interchange"},"geometry":{"type":"Point","coordinates":[11.6021365,50.892534]},"__memberLines":{}},{"type":"Feature","properties":{"station_id":"n269714530","station_name":"Universität","station_name_local":"Universität","station_name_en":null,"city":"Jena","country":"Germany","lines":["1","4"],"wikipedia":null,"merged_from":2,"merged_names":null,"is_terminus":false,"routes":[{"ref":"1","name":"Tram 1 Straßenbahn Jena","route_color":"#e94c0a"},{"ref":"4","name":"Tram 4 Straßenbahn Jena","route_color":"#da020e"}],"pass_count":2,"station_degree":2,"codes":null,"is_interchange":false,"station_role":"normal"},"geometry":{"type":"Point","coordinates":[11.590715450000001,50.929432250000005]},"__memberLines":{}},{"type":"Feature","properties":{"station_id":"n270501610","station_name":"Kieshügel","station_name_local":"Kieshügel","station_name_en":null,"city":"Jena","country":"Germany","lines":["1","4"],"wikipedia":null,"merged_from":2,"merged_names":null,"is_terminus":false,"routes":[{"ref":"1","name":"Tram 1 Straßenbahn Jena","route_color":"#e94c0a"},{"ref":"4","name":"Tram 4 Straßenbahn Jena","route_color":"#da020e"}],"pass_count":2,"station_degree":2,"codes":null,"is_interchange":false,"station_role":"normal"},"geometry":{"type":"Point","coordinates":[11.59406315,50.9433546]},"__memberLines":{}},{"type":"Feature","properties":{"station_id":"n270501655","station_name":"An der Eule","station_name_local":"An der Eule","station_name_en":null,"city":"Jena","country":"Germany","lines":["1","4"],"wikipedia":null,"merged_from":2,"merged_names":null,"is_terminus":false,"routes":[{"ref":"1","name":"Tram 1 Straßenbahn Jena","route_color":"#e94c0a"},{"ref":"4","name":"Tram 4 Straßenbahn Jena","route_color":"#da020e"}],"pass_count":2,"station_degree":2,"codes":null,"is_interchange":false,"station_role":"normal"},"geometry":{"type":"Point","coordinates":[11.59747145,50.94603805]},"__memberLines":{}},{"type":"Feature","properties":{"station_id":"n270501681","station_name":"Altenburger Straße","station_name_local":"Altenburger Straße","station_name_en":null,"city":"Jena","country":"Germany","lines":["1","4"],"wikipedia":null,"merged_from":2,"merged_names":null,"is_terminus":false,"routes":[{"ref":"1","name":"Tram 1 Straßenbahn Jena","route_color":"#e94c0a"},{"ref":"4","name":"Tram 4 Straßenbahn Jena","route_color":"#da020e"}],"pass_count":2,"station_degree":2,"codes":null,"is_interchange":false,"station_role":"normal"},"geometry":{"type":"Point","coordinates":[11.601549,50.9487679]},"__memberLines":{}},{"type":"Feature","properties":{"station_id":"n270501694","station_name":"Stifterstraße","station_name_local":"Stifterstraße","station_name_en":null,"city":"Jena","country":"Germany","lines":["1","4"],"wikipedia":null,"merged_from":2,"merged_names":null,"is_terminus":false,"routes":[{"ref":"1","name":"Tram 1 Straßenbahn Jena","route_color":"#e94c0a"},{"ref":"4","name":"Tram 4 Straßenbahn Jena","route_color":"#da020e"}],"pass_count":2,"station_degree":2,"codes":null,"is_interchange":false,"station_role":"normal"},"geometry":{"type":"Point","coordinates":[11.60644025,50.9506054]},"__memberLines":{}},{"type":"Feature","properties":{"station_id":"n271142348","station_name":"Jenzigweg","station_name_local":"Jenzigweg","station_name_en":null,"city":"Jena","country":"Germany","lines":["2"],"wikipedia":null,"merged_from":2,"merged_names":null,"is_terminus":false,"routes":[{"ref":"2","name":"Tram 2 Straßenbahn Jena","route_color":"#fab71b"}],"pass_count":1,"station_degree":2,"codes":null,"is_interchange":false,"station_role":"normal"},"geometry":{"type":"Point","coordinates":[11.6076166,50.9341114]},"__memberLines":{}},{"type":"Feature","properties":{"station_id":"n279231327","station_name":"Zwätzen Schleife","station_name_local":"Zwätzen Schleife","station_name_en":null,"city":"Jena","country":"Germany","lines":["1","4"],"wikipedia":null,"is_terminus":true,"routes":[{"ref":"1","name":"Tram 1 Straßenbahn Jena","route_color":"#e94c0a"},{"ref":"4","name":"Tram 4 Straßenbahn Jena","route_color":"#da020e"}],"pass_count":2,"station_degree":1,"codes":null,"merged_from":null,"merged_names":null,"is_interchange":false,"station_role":"terminus"},"geometry":{"type":"Point","coordinates":[11.6177709,50.9590497]},"__memberLines":{}},{"type":"Feature","properties":{"station_id":"n279785405","station_name":"Richard-Sorge-Straße","station_name_local":"Richard-Sorge-Straße","station_name_en":null,"city":"Jena","country":"Germany","lines":["3","5"],"wikipedia":null,"merged_from":2,"merged_names":null,"is_terminus":false,"codes":["1","2"],"routes":[{"ref":"3","name":"Tram 3 Straßenbahn Jena","route_color":"#7f5f00"},{"ref":"5","name":"Tram 5 Straßenbahn Jena","route_color":"#6a2e74"}],"pass_count":2,"station_degree":2,"is_interchange":false,"station_role":"normal"},"geometry":{"type":"Point","coordinates":[11.623367850000001,50.8822048]},"__memberLines":{}},{"type":"Feature","properties":{"station_id":"n288404913","station_name":"Platanenstraße","station_name_local":"Platanenstraße","station_name_en":null,"city":"Jena","country":"Germany","lines":["3","5"],"wikipedia":null,"merged_from":2,"merged_names":null,"is_terminus":false,"routes":[{"ref":"3","name":"Tram 3 Straßenbahn Jena","route_color":"#7f5f00"},{"ref":"5","name":"Tram 5 Straßenbahn Jena","route_color":"#6a2e74"}],"pass_count":2,"station_degree":3,"codes":null,"is_interchange":true,"station_role":"interchange"},"geometry":{"type":"Point","coordinates":[11.6163275,50.88673835]},"__memberLines":{}},{"type":"Feature","properties":{"station_id":"n288404915","station_name":"Universitätsklinikum","station_name_local":"Universitätsklinikum","station_name_en":null,"city":"Jena","country":"Germany","lines":["3","5"],"wikipedia":null,"merged_from":2,"merged_names":null,"is_terminus":false,"routes":[{"ref":"3","name":"Tram 3 Straßenbahn Jena","route_color":"#7f5f00"},{"ref":"5","name":"Tram 5 Straßenbahn Jena","route_color":"#6a2e74"}],"pass_count":2,"station_degree":2,"codes":null,"is_interchange":false,"station_role":"normal"},"geometry":{"type":"Point","coordinates":[11.61961315,50.8840516]},"__memberLines":{}},{"type":"Feature","properties":{"station_id":"n312549678","station_name":"Göschwitz Bahnhof","station_name_local":"Göschwitz Bahnhof","station_name_en":null,"city":"Jena","country":"Germany","lines":["1","3"],"wikipedia":null,"merged_from":2,"merged_names":null,"is_terminus":false,"routes":[{"ref":"1","name":"Tram 1 Straßenbahn Jena","route_color":"#e94c0a"},{"ref":"3","name":"Tram 3 Straßenbahn Jena","route_color":"#7f5f00"}],"pass_count":2,"station_degree":2,"codes":null,"is_interchange":false,"station_role":"normal"},"geometry":{"type":"Point","coordinates":[11.594812699999999,50.883761699999994]},"__memberLines":{}},{"type":"Feature","properties":{"station_id":"n344852619","station_name":"An der Trebe","station_name_local":"An der Trebe","station_name_en":null,"city":"Jena","country":"Germany","lines":["2"],"wikipedia":null,"is_terminus":false,"routes":[{"ref":"2","name":"Tram 2 Straßenbahn Jena","route_color":"#fab71b"}],"pass_count":1,"station_degree":2,"codes":null,"merged_from":null,"merged_names":null,"is_interchange":false,"station_role":"normal"},"geometry":{"type":"Point","coordinates":[11.6107545,50.9338853]},"__memberLines":{}},{"type":"Feature","properties":{"station_id":"n344852621","station_name":"Ostschule","station_name_local":"Ostschule","station_name_en":null,"city":"Jena","country":"Germany","lines":["2"],"wikipedia":null,"is_terminus":false,"routes":[{"ref":"2","name":"Tram 2 Straßenbahn Jena","route_color":"#fab71b"}],"pass_count":1,"station_degree":2,"codes":null,"merged_from":null,"merged_names":null,"is_interchange":false,"station_role":"normal"},"geometry":{"type":"Point","coordinates":[11.6058633,50.932545]},"__memberLines":{}},{"type":"Feature","properties":{"station_id":"n344852622","station_name":"Schlippenstraße","station_name_local":"Schlippenstraße","station_name_en":null,"city":"Jena","country":"Germany","lines":["2"],"wikipedia":null,"is_terminus":false,"routes":[{"ref":"2","name":"Tram 2 Straßenbahn Jena","route_color":"#fab71b"}],"pass_count":1,"station_degree":2,"codes":null,"merged_from":null,"merged_names":null,"is_interchange":false,"station_role":"normal"},"geometry":{"type":"Point","coordinates":[11.6046021,50.9314221]},"__memberLines":{}},{"type":"Feature","properties":{"station_id":"n369739828","station_name":"Zwätzen","station_name_local":"Zwätzen","station_name_en":null,"city":"Jena","country":"Germany","lines":["1","4"],"wikipedia":null,"is_terminus":false,"routes":[{"ref":"1","name":"Tram 1 Straßenbahn Jena","route_color":"#e94c0a"},{"ref":"4","name":"Tram 4 Straßenbahn Jena","route_color":"#da020e"}],"pass_count":2,"station_degree":2,"codes":null,"merged_from":null,"merged_names":null,"is_interchange":false,"station_role":"normal"},"geometry":{"type":"Point","coordinates":[11.6167882,50.9568063]},"__memberLines":{}},{"type":"Feature","properties":{"station_id":"n409626403","station_name":"Alte Burgauer Brücke","station_name_local":"Alte Burgauer Brücke","station_name_en":null,"city":"Jena","country":"Germany","lines":["1","3"],"wikipedia":null,"merged_from":2,"merged_names":null,"is_terminus":false,"routes":[{"ref":"1","name":"Tram 1 Straßenbahn Jena","route_color":"#e94c0a"},{"ref":"3","name":"Tram 3 Straßenbahn Jena","route_color":"#7f5f00"}],"pass_count":2,"station_degree":2,"codes":null,"is_interchange":false,"station_role":"normal"},"geometry":{"type":"Point","coordinates":[11.59717745,50.89525845]},"__memberLines":{}},{"type":"Feature","properties":{"station_id":"n409626415","station_name":"Jenoptik","station_name_local":"Jenoptik","station_name_en":null,"city":"Jena","country":"Germany","lines":["1","3"],"wikipedia":null,"merged_from":2,"merged_names":null,"is_terminus":false,"routes":[{"ref":"1","name":"Tram 1 Straßenbahn Jena","route_color":"#e94c0a"},{"ref":"3","name":"Tram 3 Straßenbahn Jena","route_color":"#7f5f00"}],"pass_count":2,"station_degree":2,"codes":null,"is_interchange":false,"station_role":"normal"},"geometry":{"type":"Point","coordinates":[11.5943241,50.88676945]},"__memberLines":{}},{"type":"Feature","properties":{"station_id":"n593569015","station_name":"Felsbachstraße","station_name_local":"Felsbachstraße","station_name_en":null,"city":"Jena","country":"Germany","lines":["1","3"],"wikipedia":null,"merged_from":2,"merged_names":null,"is_terminus":false,"routes":[{"ref":"1","name":"Tram 1 Straßenbahn Jena","route_color":"#e94c0a"},{"ref":"3","name":"Tram 3 Straßenbahn Jena","route_color":"#7f5f00"}],"pass_count":2,"station_degree":2,"codes":null,"is_interchange":false,"station_role":"normal"},"geometry":{"type":"Point","coordinates":[11.593748399999999,50.890952049999996]},"__memberLines":{}},{"type":"Feature","properties":{"station_id":"n593707703","station_name":"Ernst-Ruska-Ring","station_name_local":"Ernst-Ruska-Ring","station_name_en":null,"city":"Jena","country":"Germany","lines":["1","3"],"wikipedia":null,"merged_from":2,"merged_names":null,"is_terminus":false,"routes":[{"ref":"1","name":"Tram 1 Straßenbahn Jena","route_color":"#e94c0a"},{"ref":"3","name":"Tram 3 Straßenbahn Jena","route_color":"#7f5f00"}],"pass_count":2,"station_degree":2,"codes":null,"is_interchange":false,"station_role":"normal"},"geometry":{"type":"Point","coordinates":[11.5950168,50.89279705]},"__memberLines":{}},{"type":"Feature","properties":{"station_id":"n676352665","station_name":"Mühlenstraße","station_name_local":"Mühlenstraße","station_name_en":null,"city":"Jena","country":"Germany","lines":["2"],"wikipedia":null,"merged_from":2,"merged_names":null,"is_terminus":false,"routes":[{"ref":"2","name":"Tram 2 Straßenbahn Jena","route_color":"#fab71b"}],"pass_count":1,"station_degree":2,"codes":null,"is_interchange":false,"station_role":"normal"},"geometry":{"type":"Point","coordinates":[11.576988400000001,50.91544305]},"__memberLines":{}},{"type":"Feature","properties":{"station_id":"n1272033548","station_name":"Emil-Wölk-Straße","station_name_local":"Emil-Wölk-Straße","station_name_en":null,"city":"Jena","country":"Germany","lines":["3","4"],"wikipedia":null,"merged_from":2,"merged_names":null,"is_terminus":false,"routes":[{"ref":"3","name":"Tram 3 Straßenbahn Jena","route_color":"#7f5f00"},{"ref":"4","name":"Tram 4 Straßenbahn Jena","route_color":"#da020e"}],"pass_count":2,"station_degree":3,"codes":null,"is_interchange":true,"station_role":"interchange"},"geometry":{"type":"Point","coordinates":[11.60786825,50.8849442]},"__memberLines":{}},{"type":"Feature","properties":{"station_id":"n1720353263","station_name":"Löbichauer Straße","station_name_local":"Löbichauer Straße","station_name_en":null,"city":"Jena","country":"Germany","lines":["2"],"wikipedia":null,"is_terminus":false,"routes":[{"ref":"2","name":"Tram 2 Straßenbahn Jena","route_color":"#fab71b"}],"pass_count":1,"station_degree":2,"codes":null,"merged_from":null,"merged_names":null,"is_interchange":false,"station_role":"normal"},"geometry":{"type":"Point","coordinates":[11.6137884,50.9335196]},"__memberLines":{}},{"type":"Feature","properties":{"station_id":"n1730385174","station_name":"Holzmarkt","station_name_local":"Holzmarkt","station_name_en":null,"city":"Jena","country":"Germany","lines":["5"],"wikipedia":null,"merged_from":2,"merged_names":null,"is_terminus":false,"routes":[{"ref":"5","name":"Tram 5 Straßenbahn Jena","route_color":"#6a2e74"}],"pass_count":1,"station_degree":2,"codes":null,"is_interchange":false,"station_role":"normal"},"geometry":{"type":"Point","coordinates":[11.5859858,50.92709375]},"__memberLines":{}},{"type":"Feature","properties":{"station_id":"n1730884418","station_name":"Spittelplatz","station_name_local":"Spittelplatz","station_name_en":null,"city":"Jena","country":"Germany","lines":["1","4"],"wikipedia":null,"merged_from":2,"merged_names":null,"is_terminus":false,"routes":[{"ref":"1","name":"Tram 1 Straßenbahn Jena","route_color":"#e94c0a"},{"ref":"4","name":"Tram 4 Straßenbahn Jena","route_color":"#da020e"}],"pass_count":2,"station_degree":2,"codes":null,"is_interchange":false,"station_role":"normal"},"geometry":{"type":"Point","coordinates":[11.590401100000001,50.9329262]},"__memberLines":{}},{"type":"Feature","properties":{"station_id":"n1730884477","station_name":"Steinweg","station_name_local":"Steinweg","station_name_en":null,"city":"Jena","country":"Germany","lines":["2"],"wikipedia":null,"merged_from":2,"merged_names":null,"is_terminus":false,"routes":[{"ref":"2","name":"Tram 2 Straßenbahn Jena","route_color":"#fab71b"}],"pass_count":1,"station_degree":2,"codes":null,"is_interchange":false,"station_role":"normal"},"geometry":{"type":"Point","coordinates":[11.5917758,50.928618]},"__memberLines":{}},{"type":"Feature","properties":{"station_id":"n1830644875","station_name":"Ringwiese","station_name_local":"Ringwiese","station_name_en":null,"city":"Jena","country":"Germany","lines":["2"],"wikipedia":null,"merged_from":2,"merged_names":null,"is_terminus":false,"routes":[{"ref":"2","name":"Tram 2 Straßenbahn Jena","route_color":"#fab71b"}],"pass_count":1,"station_degree":2,"codes":null,"is_interchange":false,"station_role":"normal"},"geometry":{"type":"Point","coordinates":[11.576647,50.90669405]},"__memberLines":{}},{"type":"Feature","properties":{"station_id":"n2621259933","station_name":"Burgaupark","station_name_local":"Burgaupark","station_name_en":null,"city":"Jena","country":"Germany","lines":["1","3","4","5"],"wikipedia":null,"merged_from":2,"merged_names":null,"is_terminus":false,"routes":[{"ref":"1","name":"Tram 1 Straßenbahn Jena","route_color":"#e94c0a"},{"ref":"3","name":"Tram 3 Straßenbahn Jena","route_color":"#7f5f00"},{"ref":"4","name":"Tram 4 Straßenbahn Jena","route_color":"#da020e"},{"ref":"5","name":"Tram 5 Straßenbahn Jena","route_color":"#6a2e74"}],"pass_count":4,"station_degree":4,"codes":null,"is_interchange":true,"station_role":"interchange"},"geometry":{"type":"Point","coordinates":[11.59346665,50.89836455]},"__memberLines":{}},{"type":"Feature","properties":{"station_id":"n1839997637","station_name":"Enver-Şimşek-Platz","station_name_local":"Enver-Şimşek-Platz","station_name_en":null,"city":"Jena","country":"Germany","lines":["2"],"wikipedia":null,"merged_from":2,"merged_names":null,"is_terminus":false,"routes":[{"ref":"2","name":"Tram 2 Straßenbahn Jena","route_color":"#fab71b"}],"pass_count":1,"station_degree":2,"codes":null,"is_interchange":false,"station_role":"normal"},"geometry":{"type":"Point","coordinates":[11.5786981,50.8999426]},"__memberLines":{}},{"type":"Feature","properties":{"station_id":"n2026739636","station_name":"Nordschule","station_name_local":"Nordschule","station_name_en":null,"city":"Jena","country":"Germany","lines":["1","4"],"wikipedia":null,"merged_from":2,"merged_names":null,"is_terminus":false,"routes":[{"ref":"1","name":"Tram 1 Straßenbahn Jena","route_color":"#e94c0a"},{"ref":"4","name":"Tram 4 Straßenbahn Jena","route_color":"#da020e"}],"pass_count":2,"station_degree":2,"codes":null,"is_interchange":false,"station_role":"normal"},"geometry":{"type":"Point","coordinates":[11.588573799999999,50.93746805000001]},"__memberLines":{}},{"type":"Feature","properties":{"station_id":"n2026739684","station_name":"Scharnhorststraße","station_name_local":"Scharnhorststraße","station_name_en":null,"city":"Jena","country":"Germany","lines":["1","4"],"wikipedia":null,"merged_from":2,"merged_names":null,"is_terminus":false,"routes":[{"ref":"1","name":"Tram 1 Straßenbahn Jena","route_color":"#e94c0a"},{"ref":"4","name":"Tram 4 Straßenbahn Jena","route_color":"#da020e"}],"pass_count":2,"station_degree":2,"codes":null,"is_interchange":false,"station_role":"normal"},"geometry":{"type":"Point","coordinates":[11.591605600000001,50.9414065]},"__memberLines":{}},{"type":"Feature","properties":{"station_id":"n2045933394","station_name":"Geschwister-Scholl-Straße","station_name_local":"Geschwister-Scholl-Straße","station_name_en":null,"city":"Jena","country":"Germany","lines":["2"],"wikipedia":null,"merged_from":3,"merged_names":null,"is_terminus":false,"routes":[{"ref":"2","name":"Tram 2 Straßenbahn Jena","route_color":"#fab71b"}],"pass_count":1,"station_degree":2,"codes":null,"is_interchange":false,"station_role":"normal"},"geometry":{"type":"Point","coordinates":[11.600254300000001,50.929288533333334]},"__memberLines":{}},{"type":"Feature","properties":{"station_id":"n2621259936","station_name":"Jena Ost","station_name_local":"Jena Ost","station_name_en":null,"city":"Jena","country":"Germany","lines":["2"],"wikipedia":null,"is_terminus":true,"routes":[{"ref":"2","name":"Tram 2 Straßenbahn Jena","route_color":"#fab71b"}],"pass_count":1,"station_degree":1,"codes":null,"merged_from":null,"merged_names":null,"is_interchange":false,"station_role":"terminus"},"geometry":{"type":"Point","coordinates":[11.6199051,50.9336601]},"__memberLines":{}},{"type":"Feature","properties":{"station_id":"n7881800758","station_name":"Jena, Löbstedt","station_name_local":"Jena, Löbstedt","station_name_en":null,"city":"Jena","country":"Germany","lines":["1","4"],"wikipedia":null,"merged_from":2,"merged_names":null,"is_terminus":false,"routes":[{"ref":"1","name":"Tram 1 Straßenbahn Jena","route_color":"#e94c0a"},{"ref":"4","name":"Tram 4 Straßenbahn Jena","route_color":"#da020e"}],"pass_count":2,"station_degree":2,"codes":null,"is_interchange":false,"station_role":"normal"},"geometry":{"type":"Point","coordinates":[11.611317249999999,50.950728600000005]},"__memberLines":{}},{"type":"Feature","properties":{"station_id":"n7881800760","station_name":"Flurweg","station_name_local":"Flurweg","station_name_en":null,"city":"Jena","country":"Germany","lines":["1","4"],"wikipedia":null,"merged_from":2,"merged_names":null,"is_terminus":false,"routes":[{"ref":"1","name":"Tram 1 Straßenbahn Jena","route_color":"#e94c0a"},{"ref":"4","name":"Tram 4 Straßenbahn Jena","route_color":"#da020e"}],"pass_count":2,"station_degree":2,"codes":null,"is_interchange":false,"station_role":"normal"},"geometry":{"type":"Point","coordinates":[11.614960499999999,50.953950500000005]},"__memberLines":{}},{"type":"Feature","properties":{"station_id":"n11874663426","station_name":"Ernst-Abbe-Platz","station_name_local":"Ernst-Abbe-Platz","station_name_en":null,"city":"Jena","country":"Germany","lines":["5"],"wikipedia":null,"merged_from":2,"merged_names":null,"is_terminus":true,"routes":[{"ref":"5","name":"Tram 5 Straßenbahn Jena","route_color":"#6a2e74"}],"pass_count":1,"station_degree":1,"codes":null,"is_interchange":false,"station_role":"terminus"},"geometry":{"type":"Point","coordinates":[11.581388,50.9282084]},"__memberLines":{}},{"type":"Feature","properties":{"station_id":"junc:11.63399:50.87968","station_name":"","station_name_local":null,"station_name_en":null,"city":"Jena","country":"Germany","lines":null,"station_role":"junction","is_junction":true,"is_interchange":false,"is_terminus":false,"merged_from":null,"merged_names":null,"codes":null},"geometry":{"type":"Point","coordinates":[11.6339944,50.8796817]}},{"type":"Feature","properties":{"station_id":"junc:11.59014:50.89843","station_name":"","station_name_local":null,"station_name_en":null,"city":"Jena","country":"Germany","lines":null,"station_role":"junction","is_junction":true,"is_interchange":false,"is_terminus":false,"merged_from":null,"merged_names":null,"codes":null},"geometry":{"type":"Point","coordinates":[11.5901412,50.8984338]}},{"type":"Feature","properties":{"station_id":"junc:11.58694:50.92531","station_name":"","station_name_local":null,"station_name_en":null,"city":"Jena","country":"Germany","lines":null,"station_role":"junction","is_junction":true,"is_interchange":false,"is_terminus":false,"merged_from":null,"merged_names":null,"codes":null},"geometry":{"type":"Point","coordinates":[11.5869369,50.9253066]}},{"type":"Feature","properties":{"station_id":"junc:11.58006:50.89792","station_name":"","station_name_local":null,"station_name_en":null,"city":"Jena","country":"Germany","lines":null,"station_role":"junction","is_junction":true,"is_interchange":false,"is_terminus":false,"merged_from":null,"merged_names":null,"codes":null},"geometry":{"type":"Point","coordinates":[11.5800553,50.8979237]}},{"type":"Feature","properties":{"station_id":"junc:11.60419:50.88324","station_name":"","station_name_local":null,"station_name_en":null,"city":"Jena","country":"Germany","lines":null,"station_role":"junction","is_junction":true,"is_interchange":false,"is_terminus":false,"merged_from":null,"merged_names":null,"codes":null},"geometry":{"type":"Point","coordinates":[11.6041851,50.8832378]}},{"type":"Feature","properties":{"station_id":"junc:11.61559:50.95490","station_name":"","station_name_local":null,"station_name_en":null,"city":"Jena","country":"Germany","lines":null,"station_role":"junction","is_junction":true,"is_interchange":false,"is_terminus":false,"merged_from":null,"merged_names":null,"codes":null},"geometry":{"type":"Point","coordinates":[11.6155863,50.9549032]}},{"type":"Feature","properties":{"station_id":"junc:11.59056:50.92850","station_name":"","station_name_local":null,"station_name_en":null,"city":"Jena","country":"Germany","lines":null,"station_role":"junction","is_junction":true,"is_interchange":false,"is_terminus":false,"merged_from":null,"merged_names":null,"codes":null},"geometry":{"type":"Point","coordinates":[11.5905595,50.9285005]}}]}