{"type":"FeatureCollection","metro_system":{"continent":"asia","country":"China","city":"Huangshi","official_website":null,"official_map":null,"wikipedia":null,"line_count":1,"segment_count":1,"station_count":31,"modes":["tram"],"audit":{"strategies_tried":[],"passed":true,"checks":[{"id":"has_lines","ok":true,"detail":"1 lines","level":"error"},{"id":"has_stations","ok":true,"detail":"31 stations","level":"error"},{"id":"stations_have_lines","ok":true,"detail":"31/31 站皆有所屬路線","level":"error"},{"id":"line_geometry_stations","ok":true,"detail":"34 個折點/端點皆為車站","level":"error"},{"id":"route_stations_match_geometry","ok":true,"detail":"各線車站列表與圖面一致","level":"error"},{"id":"interchange_rule","ok":true,"detail":"所有車站紅/藍點符合骨架＋路線色規則（藍＝端點、紅＝交叉）","level":"error"},{"id":"stations_named","ok":true,"detail":"31/31 站皆有名稱","level":"error"},{"id":"station_order","ok":false,"detail":"1 條線站序可疑（路徑長 > 1.6× MST）：黄石现代有轨电车 2×，需以 Wikipedia 線路條目與 urbanrail.net 人工確認","level":"warn"},{"id":"line_wiki_stations","ok":true,"detail":"各線站數與 wiki 線路條目相符（營運中站數）","level":"error"},{"id":"line_wiki_coverage","ok":false,"detail":"1 條線無 wiki 站數對照：黄石现代有轨电车","level":"warn"}],"reasons":[],"warnings":["1 條線站序可疑（路徑長 > 1.6× MST）：黄石现代有轨电车 2×，需以 Wikipedia 線路條目與 urbanrail.net 人工確認","1 條線無 wiki 站數對照：黄石现代有轨电车"],"audited_at":"2026-07-27T02:39:34.824Z"}},"features":[{"type":"Feature","properties":{"seg_id":"huangshi-0","routes":[{"route_id":"r15394213","route_name":"黄石现代有轨电车","route_name_local":"黄石现代有轨电车","route_name_en":null,"route_ref":"黄石现代有轨电车","route_color":null,"wikipedia":null,"osm_route_ids":[15394213],"status":null,"order_suspect":2,"span_suspect":0,"stations":[{"station_id":"n9551999637","station_name":"黄石大道"},{"station_id":"n9529027310","station_name":"湖北师范大学"},{"station_id":"n9977074897","station_name":"桂花路磁湖中学"},{"station_id":"n13281189752","station_name":"江家湾"},{"station_id":"n9993129431","station_name":"楠竹林"},{"station_id":"n13281189755","station_name":"饶家垄"},{"station_id":"n13281189749","station_name":"未苏湾"},{"station_id":"n9529027255","station_name":"理工学院"},{"station_id":"n9977074881","station_name":"黄石北站"},{"station_id":"n13281189757","station_name":"大泉路"},{"station_id":"n9529027243","station_name":"杭州西路"},{"station_id":"n10267433161","station_name":"磁湖路"},{"station_id":"n9544664834","station_name":"大畈路"},{"station_id":"n9544664846","station_name":"白马路城发新时代"},{"station_id":"n9544664870","station_name":"黄石二中"},{"station_id":"n10578917509","station_name":"桂林南路"},{"station_id":"n9977074869","station_name":"黄石西站"},{"station_id":"n9977074860","station_name":"胡家湾"},{"station_id":"n9977074854","station_name":"钟山大道"},{"station_id":"n13281189759","station_name":"金山大道"},{"station_id":"n9977051009","station_name":"鹏程大道"},{"station_id":"n9977074851","station_name":"科技城"},{"station_id":"n10548634816","station_name":"奥体中心"},{"station_id":"n9977074846","station_name":"经三路"},{"station_id":"n9977074845","station_name":"园博大道"},{"station_id":"n9993094565","station_name":"华侨城恐龙奇域"},{"station_id":"n9993094562","station_name":"华侨城恐龙水世界"},{"station_id":"n9977074832","station_name":"市民之家"},{"station_id":"n9993094548","station_name":"奥体公园"},{"station_id":"n13281189748","station_name":"矿博馆"},{"station_id":"n9977074845","station_name":"园博大道"},{"station_id":"n9977074846","station_name":"经三路"},{"station_id":"n10548634816","station_name":"奥体中心"},{"station_id":"n9977074851","station_name":"科技城"},{"station_id":"n9977051009","station_name":"鹏程大道"},{"station_id":"n13281189759","station_name":"金山大道"},{"station_id":"n9977074854","station_name":"钟山大道"},{"station_id":"n9977074860","station_name":"胡家湾"},{"station_id":"n9977074869","station_name":"黄石西站"},{"station_id":"n10548979319","station_name":"老年大学"},{"station_id":"n9544664870","station_name":"黄石二中"},{"station_id":"n9544664846","station_name":"白马路城发新时代"},{"station_id":"n9544664834","station_name":"大畈路"},{"station_id":"n10267433161","station_name":"磁湖路"},{"station_id":"n9529027243","station_name":"杭州西路"},{"station_id":"n13281189757","station_name":"大泉路"},{"station_id":"n9977074881","station_name":"黄石北站"},{"station_id":"n9529027255","station_name":"理工学院"},{"station_id":"n13281189749","station_name":"未苏湾"},{"station_id":"n13281189755","station_name":"饶家垄"},{"station_id":"n9993129431","station_name":"楠竹林"},{"station_id":"n13281189752","station_name":"江家湾"},{"station_id":"n9977074897","station_name":"桂花路磁湖中学"},{"station_id":"n9529027310","station_name":"湖北师范大学"},{"station_id":"n9551999637","station_name":"黄石大道"}]}],"route_count":1,"route_refs":["黄石现代有轨电车"],"route_colors":["#e11d48"],"city":"Huangshi","country":"China"},"geometry":{"type":"MultiLineString","coordinates":[[[115.06801985,30.23122935],[115.05897569999999,30.2236106],[115.05140639999999,30.2204554],[115.0403305,30.22018025],[115.027801,30.22225555],[115.02004174999999,30.22140485],[115.0175563,30.2155503],[115.01476485,30.211363],[115.0050184,30.2137512],[115.00477864999999,30.20759495],[115.0034853,30.20139755],[115.00078640000001,30.1957321],[115.00598835,30.19521735],[115.0155587,30.19517745],[115.0281606,30.193227049999997],[115.0313562,30.1867318],[115.041679,30.18321145],[115.05276244999999,30.186347400000002],[115.05157575000001,30.15754505],[115.05142135,30.153169050000002],[115.0512756,30.144951300000002],[115.0512981,30.132427800000002],[115.05043345,30.12687435],[115.04386695,30.12195415],[115.03927645,30.11588225],[115.0454041,30.113561],[115.0506416,30.1125392],[115.0572189,30.1144526],[115.0516673,30.11536],[115.0452004,30.1141822],[115.03927645,30.11588225]],[[115.041679,30.18321145],[115.0313925,30.1867354],[115.0281606,30.193227049999997]]]}},{"type":"Feature","properties":{"station_id":"n9529027243","station_name":"杭州西路","station_name_local":"杭州西路","station_name_en":null,"city":"Huangshi","country":"China","lines":["黄石现代有轨电车"],"wikipedia":null,"merged_from":2,"merged_names":null,"is_terminus":false,"routes":[{"ref":"黄石现代有轨电车","name":"黄石现代有轨电车","route_color":null}],"pass_count":2,"station_degree":2,"codes":null,"is_interchange":false,"station_role":"normal"},"geometry":{"type":"Point","coordinates":[115.0034853,30.20139755]},"__memberLines":{}},{"type":"Feature","properties":{"station_id":"n9529027255","station_name":"理工学院","station_name_local":"理工学院","station_name_en":null,"city":"Huangshi","country":"China","lines":["黄石现代有轨电车"],"wikipedia":null,"merged_from":2,"merged_names":null,"is_terminus":false,"routes":[{"ref":"黄石现代有轨电车","name":"黄石现代有轨电车","route_color":null}],"pass_count":2,"station_degree":2,"codes":null,"is_interchange":false,"station_role":"normal"},"geometry":{"type":"Point","coordinates":[115.01476485,30.211363]},"__memberLines":{}},{"type":"Feature","properties":{"station_id":"n9529027310","station_name":"湖北师范大学","station_name_local":"湖北师范大学","station_name_en":null,"city":"Huangshi","country":"China","lines":["黄石现代有轨电车"],"wikipedia":null,"merged_from":2,"merged_names":null,"is_terminus":false,"routes":[{"ref":"黄石现代有轨电车","name":"黄石现代有轨电车","route_color":null}],"pass_count":2,"station_degree":2,"codes":null,"is_interchange":false,"station_role":"normal"},"geometry":{"type":"Point","coordinates":[115.05897569999999,30.2236106]},"__memberLines":{}},{"type":"Feature","properties":{"station_id":"n9544664834","station_name":"大畈路","station_name_local":"大畈路","station_name_en":null,"city":"Huangshi","country":"China","lines":["黄石现代有轨电车"],"wikipedia":null,"merged_from":2,"merged_names":null,"is_terminus":false,"routes":[{"ref":"黄石现代有轨电车","name":"黄石现代有轨电车","route_color":null}],"pass_count":2,"station_degree":2,"codes":null,"is_interchange":false,"station_role":"normal"},"geometry":{"type":"Point","coordinates":[115.00598835,30.19521735]},"__memberLines":{}},{"type":"Feature","properties":{"station_id":"n9544664846","station_name":"白马路城发新时代","station_name_local":"白马路城发新时代","station_name_en":null,"city":"Huangshi","country":"China","lines":["黄石现代有轨电车"],"wikipedia":null,"merged_from":2,"merged_names":null,"is_terminus":false,"routes":[{"ref":"黄石现代有轨电车","name":"黄石现代有轨电车","route_color":null}],"pass_count":2,"station_degree":2,"codes":null,"is_interchange":false,"station_role":"normal"},"geometry":{"type":"Point","coordinates":[115.0155587,30.19517745]},"__memberLines":{}},{"type":"Feature","properties":{"station_id":"n9544664870","station_name":"黄石二中","station_name_local":"黄石二中","station_name_en":null,"city":"Huangshi","country":"China","lines":["黄石现代有轨电车"],"wikipedia":null,"merged_from":2,"merged_names":null,"is_terminus":false,"routes":[{"ref":"黄石现代有轨电车","name":"黄石现代有轨电车","route_color":null}],"pass_count":2,"station_degree":3,"codes":null,"is_interchange":true,"station_role":"interchange"},"geometry":{"type":"Point","coordinates":[115.0281606,30.193227049999997]},"__memberLines":{}},{"type":"Feature","properties":{"station_id":"n9551999637","station_name":"黄石大道","station_name_local":"黄石大道","station_name_en":null,"city":"Huangshi","country":"China","lines":["黄石现代有轨电车"],"wikipedia":null,"merged_from":2,"merged_names":null,"is_terminus":true,"routes":[{"ref":"黄石现代有轨电车","name":"黄石现代有轨电车","route_color":null}],"pass_count":1,"station_degree":1,"codes":null,"is_interchange":false,"station_role":"terminus"},"geometry":{"type":"Point","coordinates":[115.06801985,30.23122935]},"__memberLines":{}},{"type":"Feature","properties":{"station_id":"n9977051009","station_name":"鹏程大道","station_name_local":"鹏程大道","station_name_en":null,"city":"Huangshi","country":"China","lines":["黄石现代有轨电车"],"wikipedia":null,"merged_from":2,"merged_names":null,"is_terminus":false,"routes":[{"ref":"黄石现代有轨电车","name":"黄石现代有轨电车","route_color":null}],"pass_count":2,"station_degree":2,"codes":null,"is_interchange":false,"station_role":"normal"},"geometry":{"type":"Point","coordinates":[115.0512756,30.144951300000002]},"__memberLines":{}},{"type":"Feature","properties":{"station_id":"n9977074832","station_name":"市民之家","station_name_local":"市民之家","station_name_en":null,"city":"Huangshi","country":"China","lines":["黄石现代有轨电车"],"wikipedia":null,"is_terminus":false,"routes":[{"ref":"黄石现代有轨电车","name":"黄石现代有轨电车","route_color":null}],"pass_count":1,"station_degree":2,"codes":null,"merged_from":null,"merged_names":null,"is_interchange":false,"station_role":"normal"},"geometry":{"type":"Point","coordinates":[115.0572189,30.1144526]},"__memberLines":{}},{"type":"Feature","properties":{"station_id":"n9977074845","station_name":"园博大道","station_name_local":"园博大道","station_name_en":null,"city":"Huangshi","country":"China","lines":["黄石现代有轨电车"],"wikipedia":null,"merged_from":2,"merged_names":null,"is_terminus":false,"routes":[{"ref":"黄石现代有轨电车","name":"黄石现代有轨电车","route_color":null}],"pass_count":2,"station_degree":3,"codes":null,"is_interchange":true,"station_role":"interchange"},"geometry":{"type":"Point","coordinates":[115.03927645,30.11588225]},"__memberLines":{}},{"type":"Feature","properties":{"station_id":"n9977074846","station_name":"经三路","station_name_local":"经三路","station_name_en":null,"city":"Huangshi","country":"China","lines":["黄石现代有轨电车"],"wikipedia":null,"merged_from":2,"merged_names":null,"is_terminus":false,"routes":[{"ref":"黄石现代有轨电车","name":"黄石现代有轨电车","route_color":null}],"pass_count":2,"station_degree":2,"codes":null,"is_interchange":false,"station_role":"normal"},"geometry":{"type":"Point","coordinates":[115.04386695,30.12195415]},"__memberLines":{}},{"type":"Feature","properties":{"station_id":"n9977074851","station_name":"科技城","station_name_local":"科技城","station_name_en":null,"city":"Huangshi","country":"China","lines":["黄石现代有轨电车"],"wikipedia":null,"merged_from":2,"merged_names":null,"is_terminus":false,"routes":[{"ref":"黄石现代有轨电车","name":"黄石现代有轨电车","route_color":null}],"pass_count":2,"station_degree":2,"codes":null,"is_interchange":false,"station_role":"normal"},"geometry":{"type":"Point","coordinates":[115.0512981,30.132427800000002]},"__memberLines":{}},{"type":"Feature","properties":{"station_id":"n9977074854","station_name":"钟山大道","station_name_local":"钟山大道","station_name_en":null,"city":"Huangshi","country":"China","lines":["黄石现代有轨电车"],"wikipedia":null,"merged_from":2,"merged_names":null,"is_terminus":false,"routes":[{"ref":"黄石现代有轨电车","name":"黄石现代有轨电车","route_color":null}],"pass_count":2,"station_degree":2,"codes":null,"is_interchange":false,"station_role":"normal"},"geometry":{"type":"Point","coordinates":[115.05157575000001,30.15754505]},"__memberLines":{}},{"type":"Feature","properties":{"station_id":"n9977074860","station_name":"胡家湾","station_name_local":"胡家湾","station_name_en":null,"city":"Huangshi","country":"China","lines":["黄石现代有轨电车"],"wikipedia":null,"merged_from":2,"merged_names":null,"is_terminus":false,"routes":[{"ref":"黄石现代有轨电车","name":"黄石现代有轨电车","route_color":null}],"pass_count":2,"station_degree":2,"codes":null,"is_interchange":false,"station_role":"normal"},"geometry":{"type":"Point","coordinates":[115.05276244999999,30.186347400000002]},"__memberLines":{}},{"type":"Feature","properties":{"station_id":"n9977074869","station_name":"黄石西站","station_name_local":"黄石西站","station_name_en":null,"city":"Huangshi","country":"China","lines":["黄石现代有轨电车"],"wikipedia":null,"merged_from":2,"merged_names":null,"is_terminus":false,"routes":[{"ref":"黄石现代有轨电车","name":"黄石现代有轨电车","route_color":null}],"pass_count":2,"station_degree":3,"codes":null,"is_interchange":true,"station_role":"interchange"},"geometry":{"type":"Point","coordinates":[115.041679,30.18321145]},"__memberLines":{}},{"type":"Feature","properties":{"station_id":"n9977074881","station_name":"黄石北站","station_name_local":"黄石北站","station_name_en":null,"city":"Huangshi","country":"China","lines":["黄石现代有轨电车"],"wikipedia":null,"merged_from":2,"merged_names":null,"is_terminus":false,"routes":[{"ref":"黄石现代有轨电车","name":"黄石现代有轨电车","route_color":null}],"pass_count":2,"station_degree":2,"codes":null,"is_interchange":false,"station_role":"normal"},"geometry":{"type":"Point","coordinates":[115.0050184,30.2137512]},"__memberLines":{}},{"type":"Feature","properties":{"station_id":"n9977074897","station_name":"桂花路磁湖中学","station_name_local":"桂花路磁湖中学","station_name_en":null,"city":"Huangshi","country":"China","lines":["黄石现代有轨电车"],"wikipedia":null,"merged_from":2,"merged_names":null,"is_terminus":false,"routes":[{"ref":"黄石现代有轨电车","name":"黄石现代有轨电车","route_color":null}],"pass_count":2,"station_degree":2,"codes":null,"is_interchange":false,"station_role":"normal"},"geometry":{"type":"Point","coordinates":[115.05140639999999,30.2204554]},"__memberLines":{}},{"type":"Feature","properties":{"station_id":"n9993094548","station_name":"奥体公园","station_name_local":"奥体公园","station_name_en":null,"city":"Huangshi","country":"China","lines":["黄石现代有轨电车"],"wikipedia":null,"is_terminus":false,"routes":[{"ref":"黄石现代有轨电车","name":"黄石现代有轨电车","route_color":null}],"pass_count":1,"station_degree":2,"codes":null,"merged_from":null,"merged_names":null,"is_interchange":false,"station_role":"normal"},"geometry":{"type":"Point","coordinates":[115.0516673,30.11536]},"__memberLines":{}},{"type":"Feature","properties":{"station_id":"n9993094562","station_name":"华侨城恐龙水世界","station_name_local":"华侨城恐龙水世界","station_name_en":null,"city":"Huangshi","country":"China","lines":["黄石现代有轨电车"],"wikipedia":null,"is_terminus":false,"routes":[{"ref":"黄石现代有轨电车","name":"黄石现代有轨电车","route_color":null}],"pass_count":1,"station_degree":2,"codes":null,"merged_from":null,"merged_names":null,"is_interchange":false,"station_role":"normal"},"geometry":{"type":"Point","coordinates":[115.0506416,30.1125392]},"__memberLines":{}},{"type":"Feature","properties":{"station_id":"n9993094565","station_name":"华侨城恐龙奇域","station_name_local":"华侨城恐龙奇域","station_name_en":null,"city":"Huangshi","country":"China","lines":["黄石现代有轨电车"],"wikipedia":null,"is_terminus":false,"routes":[{"ref":"黄石现代有轨电车","name":"黄石现代有轨电车","route_color":null}],"pass_count":1,"station_degree":2,"codes":null,"merged_from":null,"merged_names":null,"is_interchange":false,"station_role":"normal"},"geometry":{"type":"Point","coordinates":[115.0454041,30.113561]},"__memberLines":{}},{"type":"Feature","properties":{"station_id":"n9993129431","station_name":"楠竹林","station_name_local":"楠竹林","station_name_en":null,"city":"Huangshi","country":"China","lines":["黄石现代有轨电车"],"wikipedia":null,"merged_from":2,"merged_names":null,"is_terminus":false,"routes":[{"ref":"黄石现代有轨电车","name":"黄石现代有轨电车","route_color":null}],"pass_count":2,"station_degree":2,"codes":null,"is_interchange":false,"station_role":"normal"},"geometry":{"type":"Point","coordinates":[115.027801,30.22225555]},"__memberLines":{}},{"type":"Feature","properties":{"station_id":"n10267433161","station_name":"磁湖路","station_name_local":"磁湖路","station_name_en":null,"city":"Huangshi","country":"China","lines":["黄石现代有轨电车"],"wikipedia":null,"merged_from":2,"merged_names":null,"is_terminus":false,"routes":[{"ref":"黄石现代有轨电车","name":"黄石现代有轨电车","route_color":null}],"pass_count":2,"station_degree":2,"codes":null,"is_interchange":false,"station_role":"normal"},"geometry":{"type":"Point","coordinates":[115.00078640000001,30.1957321]},"__memberLines":{}},{"type":"Feature","properties":{"station_id":"n10548634816","station_name":"奥体中心","station_name_local":"奥体中心","station_name_en":null,"city":"Huangshi","country":"China","lines":["黄石现代有轨电车"],"wikipedia":null,"merged_from":2,"merged_names":null,"is_terminus":false,"routes":[{"ref":"黄石现代有轨电车","name":"黄石现代有轨电车","route_color":null}],"pass_count":2,"station_degree":2,"codes":null,"is_interchange":false,"station_role":"normal"},"geometry":{"type":"Point","coordinates":[115.05043345,30.12687435]},"__memberLines":{}},{"type":"Feature","properties":{"station_id":"n10548979319","station_name":"老年大学","station_name_local":"老年大学","station_name_en":null,"city":"Huangshi","country":"China","lines":["黄石现代有轨电车"],"wikipedia":null,"is_terminus":false,"routes":[{"ref":"黄石现代有轨电车","name":"黄石现代有轨电车","route_color":null}],"pass_count":1,"station_degree":2,"codes":null,"merged_from":null,"merged_names":null,"is_interchange":false,"station_role":"normal"},"geometry":{"type":"Point","coordinates":[115.0313925,30.1867354]},"__memberLines":{}},{"type":"Feature","properties":{"station_id":"n10578917509","station_name":"桂林南路","station_name_local":"桂林南路","station_name_en":null,"city":"Huangshi","country":"China","lines":["黄石现代有轨电车"],"wikipedia":null,"is_terminus":false,"routes":[{"ref":"黄石现代有轨电车","name":"黄石现代有轨电车","route_color":null}],"pass_count":1,"station_degree":2,"codes":null,"merged_from":null,"merged_names":null,"is_interchange":false,"station_role":"normal"},"geometry":{"type":"Point","coordinates":[115.0313562,30.1867318]},"__memberLines":{}},{"type":"Feature","properties":{"station_id":"n13281189748","station_name":"矿博馆","station_name_local":"矿博馆","station_name_en":null,"city":"Huangshi","country":"China","lines":["黄石现代有轨电车"],"wikipedia":null,"is_terminus":false,"routes":[{"ref":"黄石现代有轨电车","name":"黄石现代有轨电车","route_color":null}],"pass_count":1,"station_degree":2,"codes":null,"merged_from":null,"merged_names":null,"is_interchange":false,"station_role":"normal"},"geometry":{"type":"Point","coordinates":[115.0452004,30.1141822]},"__memberLines":{}},{"type":"Feature","properties":{"station_id":"n13281189749","station_name":"未苏湾","station_name_local":"未苏湾","station_name_en":null,"city":"Huangshi","country":"China","lines":["黄石现代有轨电车"],"wikipedia":null,"merged_from":2,"merged_names":null,"is_terminus":false,"routes":[{"ref":"黄石现代有轨电车","name":"黄石现代有轨电车","route_color":null}],"pass_count":2,"station_degree":2,"codes":null,"is_interchange":false,"station_role":"normal"},"geometry":{"type":"Point","coordinates":[115.0175563,30.2155503]},"__memberLines":{}},{"type":"Feature","properties":{"station_id":"n13281189752","station_name":"江家湾","station_name_local":"江家湾","station_name_en":null,"city":"Huangshi","country":"China","lines":["黄石现代有轨电车"],"wikipedia":null,"merged_from":2,"merged_names":null,"is_terminus":false,"routes":[{"ref":"黄石现代有轨电车","name":"黄石现代有轨电车","route_color":null}],"pass_count":2,"station_degree":2,"codes":null,"is_interchange":false,"station_role":"normal"},"geometry":{"type":"Point","coordinates":[115.0403305,30.22018025]},"__memberLines":{}},{"type":"Feature","properties":{"station_id":"n13281189755","station_name":"饶家垄","station_name_local":"饶家垄","station_name_en":null,"city":"Huangshi","country":"China","lines":["黄石现代有轨电车"],"wikipedia":null,"merged_from":2,"merged_names":null,"is_terminus":false,"routes":[{"ref":"黄石现代有轨电车","name":"黄石现代有轨电车","route_color":null}],"pass_count":2,"station_degree":2,"codes":null,"is_interchange":false,"station_role":"normal"},"geometry":{"type":"Point","coordinates":[115.02004174999999,30.22140485]},"__memberLines":{}},{"type":"Feature","properties":{"station_id":"n13281189757","station_name":"大泉路","station_name_local":"大泉路","station_name_en":null,"city":"Huangshi","country":"China","lines":["黄石现代有轨电车"],"wikipedia":null,"merged_from":2,"merged_names":null,"is_terminus":false,"routes":[{"ref":"黄石现代有轨电车","name":"黄石现代有轨电车","route_color":null}],"pass_count":2,"station_degree":2,"codes":null,"is_interchange":false,"station_role":"normal"},"geometry":{"type":"Point","coordinates":[115.00477864999999,30.20759495]},"__memberLines":{}},{"type":"Feature","properties":{"station_id":"n13281189759","station_name":"金山大道","station_name_local":"金山大道","station_name_en":null,"city":"Huangshi","country":"China","lines":["黄石现代有轨电车"],"wikipedia":null,"merged_from":2,"merged_names":null,"is_terminus":false,"routes":[{"ref":"黄石现代有轨电车","name":"黄石现代有轨电车","route_color":null}],"pass_count":2,"station_degree":2,"codes":null,"is_interchange":false,"station_role":"normal"},"geometry":{"type":"Point","coordinates":[115.05142135,30.153169050000002]},"__memberLines":{}}]}