{"type":"FeatureCollection","features":[{"type":"Feature","properties":{"route_ref":"1","route_color":"#ff2e17"},"geometry":{"type":"LineString","coordinates":[[14.973055735942918,51.167577594080065],[14.974774568102358,51.16812329897562],[14.97880807920743,51.16910052684638],[14.979838708382081,51.16908299042588],[14.980326339256747,51.16892828282574],[14.980664659650726,51.16867843351101],[14.980797497056873,51.16802618517798],[14.980527250921657,51.1665247854345],[14.98051086692978,51.16568396009647],[14.980913016256741,51.16522068905795],[14.982079199306526,51.16461020439051],[14.982361796999252,51.16411333720736],[14.982190720467784,51.16363714213801],[14.98101738995577,51.16236663140126],[14.980660885343566,51.16168717459163],[14.980710025608548,51.16101441547527],[14.981320450065944,51.159188666905955],[14.981673868846306,51.158712708290366],[14.982156400320786,51.158596044597836],[14.98398110882997,51.158431605419885],[14.984365108214908,51.15828759992867],[14.984691092163564,51.157988872828284],[14.984888562605667,51.157530154401094],[14.984901114621499,51.155948260445214],[14.985114723497354,51.15489918922029],[14.985553551829614,51.15436001480603],[14.98606998993967,51.15324088796946],[14.9869119315913,51.15292462233055],[14.987024034567652,51.152763850377376],[14.98703040196056,51.15244763937364],[14.986864975582503,51.15216076279959],[14.986578064354015,51.15210831151211],[14.985943717413695,51.15218102727898],[14.985544030139286,51.152053651428126],[14.982944991440945,51.15036585212963],[14.979931805427709,51.14771053504816],[14.97986998190175,51.14754445158658],[14.980021705099675,51.14736799140528],[14.981527929671536,51.146790162202414],[14.981736308951126,51.14661629964638],[14.981769564169232,51.146425350630956],[14.98122659938853,51.1456574339258],[14.98090304765482,51.145628555580416],[14.979706440999514,51.1458114896033],[14.97940944559706,51.14571916282084],[14.98040487431519,51.14452168397186],[14.980422670158724,51.14434279564672],[14.979152062798978,51.143343783198965],[14.97870461324719,51.142855731072686],[14.978386125525667,51.14226399796667],[14.978566650000003,51.14115385],[14.978892813675982,51.140309729731136],[14.9795753213517,51.139404930783954],[14.98070006873049,51.13825408272697],[14.981755863852943,51.136862429345975],[14.984571749999999,51.13125540000001],[14.98440959449893,51.13081422972748],[14.983294500000001,51.12986016666667],[14.9829785,51.12939215],[14.982060117637518,51.12732999819084],[14.981912344444442,51.1257618],[14.981115233333334,51.1239768],[14.980190099999998,51.122337519999995],[14.979980246507946,51.12217494270553],[14.979671382278624,51.12210777889298],[14.979062779506078,51.122215661860714],[14.97898691184746,51.122566801688635],[14.979161838767098,51.12296336219486],[14.979642022733875,51.12305763093901],[14.980289074617703,51.12296150998719],[14.9806411,51.1231437]]}},{"type":"Feature","properties":{"route_ref":"2","route_color":"#ff2e17"},"geometry":{"type":"MultiLineString","coordinates":[[[14.983750140933935,51.17013797473013],[14.98297856306495,51.16994036972641],[14.981716385900445,51.1693527020144],[14.981110536393658,51.16888982923524],[14.980898384759742,51.16853098938532],[14.980527250921657,51.1665247854345],[14.98051086692978,51.16568396009647],[14.980913016256741,51.16522068905795],[14.982079199306526,51.16461020439051],[14.982361796999252,51.16411333720736],[14.982190720467784,51.16363714213801],[14.980833673386739,51.16210935928592],[14.980660885343566,51.16168717459163],[14.980688711040221,51.16112550318583],[14.981320450065944,51.159188666905955],[14.981618860095912,51.15874100024612],[14.982156400320786,51.158596044597836],[14.98398110882997,51.158431605419885],[14.984365108214908,51.15828759992867],[14.984691092163564,51.157988872828284],[14.984888562605667,51.157530154401094],[14.984901114621499,51.155948260445214],[14.985092227343184,51.154953408178734],[14.98561022424442,51.15426121201955],[14.98606998993967,51.15324088796946],[14.986966224738117,51.15287149127326],[14.986935877744576,51.15223695599832],[14.98672223131333,51.152107833480144],[14.985830458620434,51.152161836687405],[14.984700678145085,51.151555115595606],[14.982717296607396,51.150196559071375],[14.980128582608696,51.147948852173904],[14.979872552447917,51.14760098323423],[14.979978122056234,51.14740237666833],[14.981527929671536,51.146790162202414],[14.981758530503276,51.14657405601201],[14.98167111132901,51.14617133887447],[14.98122659938853,51.1456574339258],[14.980360716986127,51.14569799130086],[14.978141123396945,51.146076320233206],[14.974823518773066,51.14379568749785],[14.968510650000002,51.142756],[14.967031485164675,51.14225720534896]],[[14.9667716,51.1421543],[14.9675956,51.1424749],[14.956749253083382,51.13825326868514],[14.952810366666668,51.13708156666666],[14.950129033333335,51.13612476666666],[14.948126561754924,51.135266245029385],[14.943520265038662,51.13283471783644],[14.943077647411537,51.13270348569624],[14.942266,51.1326609]]]}}]}