{"type":"FeatureCollection","metro_system":{"continent":"europe","country":"Croatia","city":"Osijek","official_website":null,"official_map":null,"wikipedia":null,"line_count":2,"segment_count":4,"station_count":38,"modes":["tram"],"audit":{"strategies_tried":[],"passed":true,"checks":[{"id":"has_lines","ok":true,"detail":"2 lines","level":"error"},{"id":"has_stations","ok":true,"detail":"41 stations","level":"error"},{"id":"stations_have_lines","ok":true,"detail":"41/41 站皆有所屬路線","level":"error"},{"id":"line_geometry_stations","ok":true,"detail":"44 個折點/端點皆為車站","level":"error"},{"id":"route_stations_match_geometry","ok":true,"detail":"各線車站列表與圖面一致","level":"error"},{"id":"interchange_rule","ok":true,"detail":"所有車站紅/藍點符合骨架＋路線色規則（藍＝端點、紅＝交叉）","level":"error"},{"id":"stations_named","ok":true,"detail":"41/41 站皆有名稱","level":"error"},{"id":"station_order","ok":false,"detail":"1 條線站序可疑（路徑長 > 1.6× MST）：Linija 1: Zeleno polje - Višnjevac 2.24×，需以 Wikipedia 線路條目與 urbanrail.net 人工確認","level":"warn"},{"id":"line_wiki_stations","ok":true,"detail":"各線站數與 wiki 線路條目相符（營運中站數）","level":"error"},{"id":"line_wiki_coverage","ok":false,"detail":"2 條線無 wiki 站數對照：Linija 1: Zeleno polje - Višnjevac、Linija 2: Trg A. Starčevića - Bikara - Trg A. Starčevića","level":"warn"}],"reasons":[],"warnings":["1 條線站序可疑（路徑長 > 1.6× MST）：Linija 1: Zeleno polje - Višnjevac 2.24×，需以 Wikipedia 線路條目與 urbanrail.net 人工確認","2 條線無 wiki 站數對照：Linija 1: Zeleno polje - Višnjevac、Linija 2: Trg A. Starčevića - Bikara - Trg A. Starčevića"],"audited_at":"2026-07-27T02:39:14.934Z"}},"features":[{"type":"Feature","properties":{"seg_id":"osijek-0","routes":[{"route_id":"rm207718","route_name":"Linija 1: Zeleno polje - Višnjevac","route_name_local":"Linija 1: Zeleno polje - Višnjevac","route_name_en":null,"route_ref":"1","route_color":"#000000","wikipedia":null,"osm_route_ids":[13882494],"status":null,"order_suspect":0,"span_suspect":0,"stations":[{"station_id":"n772210588","station_name":"Ul. Zeleno polje"},{"station_id":"n772210585","station_name":"Ul. sv. Petka"},{"station_id":"n471137725","station_name":"Trg bana J. Jelačića"},{"station_id":"n772210596","station_name":"Ul. B. Radičevića"},{"station_id":"n772210619","station_name":"Bolnica"},{"station_id":"n772210614","station_name":"Ul. cara Hadrijana"},{"station_id":"n772210563","station_name":"Remiza"},{"station_id":"n454996519","station_name":"Most dr. F. Tuđmana"},{"station_id":"n471137723","station_name":"Dom zdravlja"},{"station_id":"n645185645","station_name":"Ul. kardinala A. Stepinca"},{"station_id":"n772210605","station_name":"Ul. S. Radića"},{"station_id":"n471274352","station_name":"Trg A. Starčevića"},{"station_id":"n4949065031","station_name":"Crkva sv. Roka"},{"station_id":"n4949138847","station_name":"Retfalačko groblje"},{"station_id":"n4921133296","station_name":"Ul. Š. Petefija"},{"station_id":"n4921133291","station_name":"Kolodvorska ul."},{"station_id":"n4949138870","station_name":"Mlinska ul."},{"station_id":"n4529952636","station_name":"Pampas"},{"station_id":"n4949138859","station_name":"Svilajska ul."},{"station_id":"n9469356654","station_name":"Ul. kralja Tomislava"},{"station_id":"n6568453914","station_name":"Ul. N. Š. Zrinskog"},{"station_id":"n9469199467","station_name":"Okretište Ul. bana J. Jelačića"}]}],"route_count":1,"route_refs":["1"],"route_colors":["#000000"],"city":"Osijek","country":"Croatia"},"geometry":{"type":"MultiLineString","coordinates":[[[18.72987945,45.55254385],[18.724778,45.553844850000004],[18.7200226,45.5550453],[18.71654255,45.55593675],[18.7107108,45.557296],[18.7056141,45.5586498],[18.70304335,45.55911815],[18.69932265,45.5586976],[18.6898396,45.55964685],[18.68642285,45.56022075],[18.6826872,45.5606465]]]}},{"type":"Feature","properties":{"seg_id":"osijek-1","routes":[{"route_id":"rm207718","route_name":"Linija 1: Zeleno polje - Višnjevac","route_name_local":"Linija 1: Zeleno polje - Višnjevac","route_name_en":null,"route_ref":"1","route_color":"#000000","wikipedia":null,"osm_route_ids":[13882494],"status":null,"order_suspect":0,"span_suspect":0,"stations":[{"station_id":"n772210588","station_name":"Ul. Zeleno polje"},{"station_id":"n772210585","station_name":"Ul. sv. Petka"},{"station_id":"n471137725","station_name":"Trg bana J. Jelačića"},{"station_id":"n772210596","station_name":"Ul. B. Radičevića"},{"station_id":"n772210619","station_name":"Bolnica"},{"station_id":"n772210614","station_name":"Ul. cara Hadrijana"},{"station_id":"n772210563","station_name":"Remiza"},{"station_id":"n454996519","station_name":"Most dr. F. Tuđmana"},{"station_id":"n471137723","station_name":"Dom zdravlja"},{"station_id":"n645185645","station_name":"Ul. kardinala A. Stepinca"},{"station_id":"n772210605","station_name":"Ul. S. Radića"},{"station_id":"n471274352","station_name":"Trg A. Starčevića"},{"station_id":"n4949065031","station_name":"Crkva sv. Roka"},{"station_id":"n4949138847","station_name":"Retfalačko groblje"},{"station_id":"n4921133296","station_name":"Ul. Š. Petefija"},{"station_id":"n4921133291","station_name":"Kolodvorska ul."},{"station_id":"n4949138870","station_name":"Mlinska ul."},{"station_id":"n4529952636","station_name":"Pampas"},{"station_id":"n4949138859","station_name":"Svilajska ul."},{"station_id":"n9469356654","station_name":"Ul. kralja Tomislava"},{"station_id":"n6568453914","station_name":"Ul. N. Š. Zrinskog"},{"station_id":"n9469199467","station_name":"Okretište Ul. bana J. Jelačića"}]}],"route_count":1,"route_refs":["1"],"route_colors":["#000000"],"city":"Osijek","country":"Croatia"},"geometry":{"type":"MultiLineString","coordinates":[[[18.677089833333334,45.56131473333334],[18.669524350000003,45.563924400000005],[18.655625,45.5640583],[18.6523525,45.5646464],[18.647606500000002,45.56471075],[18.6441643,45.564812950000004],[18.6393223,45.5650316],[18.6362114,45.56504965],[18.6266004,45.5651846],[18.6203838,45.5659605],[18.6169576,45.5669559]]]}},{"type":"Feature","properties":{"seg_id":"osijek-2","routes":[{"route_id":"rm207718","route_name":"Linija 1: Zeleno polje - Višnjevac","route_name_local":"Linija 1: Zeleno polje - Višnjevac","route_name_en":null,"route_ref":"1","route_color":"#000000","wikipedia":null,"osm_route_ids":[13882494],"status":null,"order_suspect":0,"span_suspect":0,"stations":[{"station_id":"n772210588","station_name":"Ul. Zeleno polje"},{"station_id":"n772210585","station_name":"Ul. sv. Petka"},{"station_id":"n471137725","station_name":"Trg bana J. Jelačića"},{"station_id":"n772210596","station_name":"Ul. B. Radičevića"},{"station_id":"n772210619","station_name":"Bolnica"},{"station_id":"n772210614","station_name":"Ul. cara Hadrijana"},{"station_id":"n772210563","station_name":"Remiza"},{"station_id":"n454996519","station_name":"Most dr. F. Tuđmana"},{"station_id":"n471137723","station_name":"Dom zdravlja"},{"station_id":"n645185645","station_name":"Ul. kardinala A. Stepinca"},{"station_id":"n772210605","station_name":"Ul. S. Radića"},{"station_id":"n471274352","station_name":"Trg A. Starčevića"},{"station_id":"n4949065031","station_name":"Crkva sv. Roka"},{"station_id":"n4949138847","station_name":"Retfalačko groblje"},{"station_id":"n4921133296","station_name":"Ul. Š. Petefija"},{"station_id":"n4921133291","station_name":"Kolodvorska ul."},{"station_id":"n4949138870","station_name":"Mlinska ul."},{"station_id":"n4529952636","station_name":"Pampas"},{"station_id":"n4949138859","station_name":"Svilajska ul."},{"station_id":"n9469356654","station_name":"Ul. kralja Tomislava"},{"station_id":"n6568453914","station_name":"Ul. N. Š. Zrinskog"},{"station_id":"n9469199467","station_name":"Okretište Ul. bana J. Jelačića"}]},{"route_id":"rm2189262","route_name":"Linija 2: Trg A. Starčevića - Bikara - Trg A. Starčevića","route_name_local":"Linija 2: Trg A. Starčevića - Bikara - Trg A. Starčevića","route_name_en":null,"route_ref":"2","route_color":"#666666","wikipedia":null,"osm_route_ids":[13902190,13902191],"status":null,"order_suspect":0,"span_suspect":0,"stations":[{"station_id":"n560586082","station_name":"Jug II / okretište Bikara"},{"station_id":"n560586141","station_name":"Umaška ul."},{"station_id":"n560586136","station_name":"Ul. Ledine"},{"station_id":"n560586124","station_name":"Srijemska ul."},{"station_id":"n560586115","station_name":"Ul. J. Reihl-Kira"},{"station_id":"n560586109","station_name":"Crkva sv. Ćirila i Metoda"},{"station_id":"n5732671082","station_name":"Vatrogasna"},{"station_id":"n560586100","station_name":"Gradski vrt"},{"station_id":"n560588785","station_name":"Krbavska ul."},{"station_id":"n560588780","station_name":"Gacka ul."},{"station_id":"n560589046","station_name":"Mačkamama"},{"station_id":"n560589036","station_name":"Dunavska ul."},{"station_id":"n5837010711","station_name":"Đakovština"},{"station_id":"n6270131301","station_name":"Autobusni kolodvor"},{"station_id":"n6136001525","station_name":"Željeznički kolodvor"},{"station_id":"n6270131325","station_name":"Trg Lj. Gaja"},{"station_id":"n772210605","station_name":"Ul. S. Radića"},{"station_id":"n471274352","station_name":"Trg A. Starčevića"}]}],"route_count":2,"route_refs":["1","2"],"route_colors":["#000000","#666666"],"city":"Osijek","country":"Croatia"},"geometry":{"type":"MultiLineString","coordinates":[[[18.6826872,45.5606465],[18.677089833333334,45.56131473333334]]]}},{"type":"Feature","properties":{"seg_id":"osijek-3","routes":[{"route_id":"rm2189262","route_name":"Linija 2: Trg A. Starčevića - Bikara - Trg A. Starčevića","route_name_local":"Linija 2: Trg A. Starčevića - Bikara - Trg A. Starčevića","route_name_en":null,"route_ref":"2","route_color":"#666666","wikipedia":null,"osm_route_ids":[13902190,13902191],"status":null,"order_suspect":0,"span_suspect":0,"stations":[{"station_id":"n560586082","station_name":"Jug II / okretište Bikara"},{"station_id":"n560586141","station_name":"Umaška ul."},{"station_id":"n560586136","station_name":"Ul. Ledine"},{"station_id":"n560586124","station_name":"Srijemska ul."},{"station_id":"n560586115","station_name":"Ul. J. Reihl-Kira"},{"station_id":"n560586109","station_name":"Crkva sv. Ćirila i Metoda"},{"station_id":"n5732671082","station_name":"Vatrogasna"},{"station_id":"n560586100","station_name":"Gradski vrt"},{"station_id":"n560588785","station_name":"Krbavska ul."},{"station_id":"n560588780","station_name":"Gacka ul."},{"station_id":"n560589046","station_name":"Mačkamama"},{"station_id":"n560589036","station_name":"Dunavska ul."},{"station_id":"n5837010711","station_name":"Đakovština"},{"station_id":"n6270131301","station_name":"Autobusni kolodvor"},{"station_id":"n6136001525","station_name":"Željeznički kolodvor"},{"station_id":"n6270131325","station_name":"Trg Lj. Gaja"},{"station_id":"n772210605","station_name":"Ul. S. Radića"},{"station_id":"n471274352","station_name":"Trg A. Starčevića"}]}],"route_count":1,"route_refs":["2"],"route_colors":["#666666"],"city":"Osijek","country":"Croatia"},"geometry":{"type":"MultiLineString","coordinates":[[[18.7296459,45.5467186],[18.7261059,45.5477316],[18.71816385,45.5503064],[18.7132928,45.5511439],[18.7077921,45.55061045],[18.7041111,45.5501749],[18.69918595,45.5495515],[18.6950336,45.5490414],[18.686869,45.54668275],[18.67927305,45.545141099999995],[18.6791525,45.54694575],[18.677939600000002,45.55015445],[18.675797850000002,45.55426345],[18.6810065,45.5534271],[18.682697,45.5533289],[18.6827094,45.5578845],[18.6826872,45.5606465]]]}},{"type":"Feature","properties":{"station_id":"n454996519","station_name":"Most dr. F. Tuđmana","station_name_local":"Most dr. F. Tuđmana","station_name_en":null,"city":"Osijek","country":"Croatia","lines":["1"],"wikipedia":null,"merged_from":2,"merged_names":null,"is_terminus":false,"routes":[{"ref":"1","name":"Linija 1: Zeleno polje - Višnjevac","route_color":"#000000"}],"pass_count":1,"station_degree":2,"codes":null,"is_interchange":false,"station_role":"normal"},"geometry":{"type":"Point","coordinates":[18.69932265,45.5586976]},"__memberLines":{}},{"type":"Feature","properties":{"station_id":"n471137723","station_name":"Dom zdravlja","station_name_local":"Dom zdravlja","station_name_en":null,"city":"Osijek","country":"Croatia","lines":["1"],"wikipedia":null,"merged_from":2,"merged_names":null,"is_terminus":false,"routes":[{"ref":"1","name":"Linija 1: Zeleno polje - Višnjevac","route_color":"#000000"}],"pass_count":1,"station_degree":2,"codes":null,"is_interchange":false,"station_role":"normal"},"geometry":{"type":"Point","coordinates":[18.6898396,45.55964685]},"__memberLines":{}},{"type":"Feature","properties":{"station_id":"n471137725","station_name":"Trg bana J. Jelačića","station_name_local":"Trg bana J. Jelačića","station_name_en":null,"city":"Osijek","country":"Croatia","lines":["1"],"wikipedia":null,"merged_from":2,"merged_names":null,"is_terminus":false,"routes":[{"ref":"1","name":"Linija 1: Zeleno polje - Višnjevac","route_color":"#000000"}],"pass_count":1,"station_degree":2,"codes":null,"is_interchange":false,"station_role":"normal"},"geometry":{"type":"Point","coordinates":[18.7200226,45.5550453]},"__memberLines":{}},{"type":"Feature","properties":{"station_id":"n471274352","station_name":"Trg A. Starčevića","station_name_local":"Trg A. Starčevića","station_name_en":null,"city":"Osijek","country":"Croatia","lines":["1","2"],"wikipedia":null,"merged_from":3,"merged_names":null,"is_terminus":false,"routes":[{"ref":"1","name":"Linija 1: Zeleno polje - Višnjevac","route_color":"#000000"},{"ref":"2","name":"Linija 2: Trg A. Starčevića - Bikara - Trg A. Starčevića","route_color":"#666666"}],"pass_count":2,"station_degree":2,"codes":null,"is_interchange":true,"station_role":"interchange"},"geometry":{"type":"Point","coordinates":[18.677089833333334,45.56131473333334]},"__memberLines":{}},{"type":"Feature","properties":{"station_id":"n560586082","station_name":"Jug II / okretište Bikara","station_name_local":"Jug II / okretište Bikara","station_name_en":null,"city":"Osijek","country":"Croatia","lines":["2"],"wikipedia":null,"merged_from":2,"merged_names":null,"is_terminus":true,"routes":[{"ref":"2","name":"Linija 2: Trg A. Starčevića - Bikara - Trg A. Starčevića","route_color":"#666666"}],"pass_count":1,"station_degree":1,"codes":null,"is_interchange":false,"station_role":"terminus"},"geometry":{"type":"Point","coordinates":[18.7296459,45.5467186]},"__memberLines":{}},{"type":"Feature","properties":{"station_id":"n560586100","station_name":"Gradski vrt","station_name_local":"Gradski vrt","station_name_en":null,"city":"Osijek","country":"Croatia","lines":["2"],"wikipedia":null,"is_terminus":false,"routes":[{"ref":"2","name":"Linija 2: Trg A. Starčevića - Bikara - Trg A. Starčevića","route_color":"#666666"}],"pass_count":1,"station_degree":2,"codes":null,"merged_from":null,"merged_names":null,"is_interchange":false,"station_role":"normal"},"geometry":{"type":"Point","coordinates":[18.6950336,45.5490414]},"__memberLines":{}},{"type":"Feature","properties":{"station_id":"n560586109","station_name":"Crkva sv. Ćirila i Metoda","station_name_local":"Crkva sv. Ćirila i Metoda","station_name_en":null,"city":"Osijek","country":"Croatia","lines":["2"],"wikipedia":null,"is_terminus":false,"routes":[{"ref":"2","name":"Linija 2: Trg A. Starčevića - Bikara - Trg A. Starčevića","route_color":"#666666"}],"pass_count":1,"station_degree":2,"codes":null,"merged_from":null,"merged_names":null,"is_interchange":false,"station_role":"normal"},"geometry":{"type":"Point","coordinates":[18.7041111,45.5501749]},"__memberLines":{}},{"type":"Feature","properties":{"station_id":"n560586115","station_name":"Ul. J. Reihl-Kira","station_name_local":"Ul. J. Reihl-Kira","station_name_en":null,"city":"Osijek","country":"Croatia","lines":["2"],"wikipedia":null,"merged_from":2,"merged_names":null,"is_terminus":false,"routes":[{"ref":"2","name":"Linija 2: Trg A. Starčevića - Bikara - Trg A. Starčevića","route_color":"#666666"}],"pass_count":1,"station_degree":2,"codes":null,"is_interchange":false,"station_role":"normal"},"geometry":{"type":"Point","coordinates":[18.7077921,45.55061045]},"__memberLines":{}},{"type":"Feature","properties":{"station_id":"n560586124","station_name":"Srijemska ul.","station_name_local":"Srijemska ul.","station_name_en":null,"city":"Osijek","country":"Croatia","lines":["2"],"wikipedia":null,"is_terminus":false,"routes":[{"ref":"2","name":"Linija 2: Trg A. Starčevića - Bikara - Trg A. Starčevića","route_color":"#666666"}],"pass_count":1,"station_degree":2,"codes":null,"merged_from":null,"merged_names":null,"is_interchange":false,"station_role":"normal"},"geometry":{"type":"Point","coordinates":[18.7132928,45.5511439]},"__memberLines":{}},{"type":"Feature","properties":{"station_id":"n560586136","station_name":"Ul. Ledine","station_name_local":"Ul. Ledine","station_name_en":null,"city":"Osijek","country":"Croatia","lines":["2"],"wikipedia":null,"merged_from":2,"merged_names":null,"is_terminus":false,"routes":[{"ref":"2","name":"Linija 2: Trg A. Starčevića - Bikara - Trg A. Starčevića","route_color":"#666666"}],"pass_count":1,"station_degree":2,"codes":null,"is_interchange":false,"station_role":"normal"},"geometry":{"type":"Point","coordinates":[18.71816385,45.5503064]},"__memberLines":{}},{"type":"Feature","properties":{"station_id":"n560586141","station_name":"Umaška ul.","station_name_local":"Umaška ul.","station_name_en":null,"city":"Osijek","country":"Croatia","lines":["2"],"wikipedia":null,"merged_from":2,"merged_names":null,"is_terminus":false,"routes":[{"ref":"2","name":"Linija 2: Trg A. Starčevića - Bikara - Trg A. Starčevića","route_color":"#666666"}],"pass_count":1,"station_degree":2,"codes":null,"is_interchange":false,"station_role":"normal"},"geometry":{"type":"Point","coordinates":[18.7261059,45.5477316]},"__memberLines":{}},{"type":"Feature","properties":{"station_id":"n560588780","station_name":"Gacka ul.","station_name_local":"Gacka ul.","station_name_en":null,"city":"Osijek","country":"Croatia","lines":["2"],"wikipedia":null,"merged_from":2,"merged_names":null,"is_terminus":false,"routes":[{"ref":"2","name":"Linija 2: Trg A. Starčevića - Bikara - Trg A. Starčevića","route_color":"#666666"}],"pass_count":1,"station_degree":2,"codes":null,"is_interchange":false,"station_role":"normal"},"geometry":{"type":"Point","coordinates":[18.67927305,45.545141099999995]},"__memberLines":{}},{"type":"Feature","properties":{"station_id":"n560588785","station_name":"Krbavska ul.","station_name_local":"Krbavska ul.","station_name_en":null,"city":"Osijek","country":"Croatia","lines":["2"],"wikipedia":null,"merged_from":2,"merged_names":null,"is_terminus":false,"routes":[{"ref":"2","name":"Linija 2: Trg A. Starčevića - Bikara - Trg A. Starčevića","route_color":"#666666"}],"pass_count":1,"station_degree":2,"codes":null,"is_interchange":false,"station_role":"normal"},"geometry":{"type":"Point","coordinates":[18.686869,45.54668275]},"__memberLines":{}},{"type":"Feature","properties":{"station_id":"n560589036","station_name":"Dunavska ul.","station_name_local":"Dunavska ul.","station_name_en":null,"city":"Osijek","country":"Croatia","lines":["2"],"wikipedia":null,"merged_from":2,"merged_names":null,"is_terminus":false,"routes":[{"ref":"2","name":"Linija 2: Trg A. Starčevića - Bikara - Trg A. Starčevića","route_color":"#666666"}],"pass_count":1,"station_degree":2,"codes":null,"is_interchange":false,"station_role":"normal"},"geometry":{"type":"Point","coordinates":[18.677939600000002,45.55015445]},"__memberLines":{}},{"type":"Feature","properties":{"station_id":"n560589046","station_name":"Mačkamama","station_name_local":"Mačkamama","station_name_en":null,"city":"Osijek","country":"Croatia","lines":["2"],"wikipedia":null,"merged_from":2,"merged_names":null,"is_terminus":false,"routes":[{"ref":"2","name":"Linija 2: Trg A. Starčevića - Bikara - Trg A. Starčevića","route_color":"#666666"}],"pass_count":1,"station_degree":2,"codes":null,"is_interchange":false,"station_role":"normal"},"geometry":{"type":"Point","coordinates":[18.6791525,45.54694575]},"__memberLines":{}},{"type":"Feature","properties":{"station_id":"n645185645","station_name":"Ul. kardinala A. Stepinca","station_name_local":"Ul. kardinala A. Stepinca","station_name_en":null,"city":"Osijek","country":"Croatia","lines":["1"],"wikipedia":null,"merged_from":2,"merged_names":null,"is_terminus":false,"routes":[{"ref":"1","name":"Linija 1: Zeleno polje - Višnjevac","route_color":"#000000"}],"pass_count":1,"station_degree":2,"codes":null,"is_interchange":false,"station_role":"normal"},"geometry":{"type":"Point","coordinates":[18.68642285,45.56022075]},"__memberLines":{}},{"type":"Feature","properties":{"station_id":"n772210563","station_name":"Remiza","station_name_local":"Remiza","station_name_en":null,"city":"Osijek","country":"Croatia","lines":["1"],"wikipedia":null,"merged_from":2,"merged_names":null,"is_terminus":false,"routes":[{"ref":"1","name":"Linija 1: Zeleno polje - Višnjevac","route_color":"#000000"}],"pass_count":1,"station_degree":2,"codes":null,"is_interchange":false,"station_role":"normal"},"geometry":{"type":"Point","coordinates":[18.70304335,45.55911815]},"__memberLines":{}},{"type":"Feature","properties":{"station_id":"n772210585","station_name":"Ul. sv. Petka","station_name_local":"Ul. sv. Petka","station_name_en":null,"city":"Osijek","country":"Croatia","lines":["1"],"wikipedia":null,"merged_from":2,"merged_names":null,"is_terminus":false,"routes":[{"ref":"1","name":"Linija 1: Zeleno polje - Višnjevac","route_color":"#000000"}],"pass_count":1,"station_degree":2,"codes":null,"is_interchange":false,"station_role":"normal"},"geometry":{"type":"Point","coordinates":[18.724778,45.553844850000004]},"__memberLines":{}},{"type":"Feature","properties":{"station_id":"n772210588","station_name":"Ul. Zeleno polje","station_name_local":"Ul. Zeleno polje","station_name_en":null,"city":"Osijek","country":"Croatia","lines":["1"],"wikipedia":null,"merged_from":2,"merged_names":null,"is_terminus":true,"routes":[{"ref":"1","name":"Linija 1: Zeleno polje - Višnjevac","route_color":"#000000"}],"pass_count":1,"station_degree":1,"codes":null,"is_interchange":false,"station_role":"terminus"},"geometry":{"type":"Point","coordinates":[18.72987945,45.55254385]},"__memberLines":{}},{"type":"Feature","properties":{"station_id":"n772210596","station_name":"Ul. B. Radičevića","station_name_local":"Ul. B. Radičevića","station_name_en":null,"city":"Osijek","country":"Croatia","lines":["1"],"wikipedia":null,"merged_from":2,"merged_names":null,"is_terminus":false,"routes":[{"ref":"1","name":"Linija 1: Zeleno polje - Višnjevac","route_color":"#000000"}],"pass_count":1,"station_degree":2,"codes":null,"is_interchange":false,"station_role":"normal"},"geometry":{"type":"Point","coordinates":[18.71654255,45.55593675]},"__memberLines":{}},{"type":"Feature","properties":{"station_id":"n772210605","station_name":"Ul. S. Radića","station_name_local":"Ul. S. Radića","station_name_en":null,"city":"Osijek","country":"Croatia","lines":["1","2"],"wikipedia":null,"merged_from":3,"merged_names":null,"is_terminus":false,"routes":[{"ref":"1","name":"Linija 1: Zeleno polje - Višnjevac","route_color":"#000000"},{"ref":"2","name":"Linija 2: Trg A. Starčevića - Bikara - Trg A. Starčevića","route_color":"#666666"}],"pass_count":2,"station_degree":3,"codes":null,"is_interchange":true,"station_role":"interchange"},"geometry":{"type":"Point","coordinates":[18.6826872,45.5606465]},"__memberLines":{}},{"type":"Feature","properties":{"station_id":"n772210614","station_name":"Ul. cara Hadrijana","station_name_local":"Ul. cara Hadrijana","station_name_en":null,"city":"Osijek","country":"Croatia","lines":["1"],"wikipedia":null,"is_terminus":false,"routes":[{"ref":"1","name":"Linija 1: Zeleno polje - Višnjevac","route_color":"#000000"}],"pass_count":1,"station_degree":2,"codes":null,"merged_from":null,"merged_names":null,"is_interchange":false,"station_role":"normal"},"geometry":{"type":"Point","coordinates":[18.7056141,45.5586498]},"__memberLines":{}},{"type":"Feature","properties":{"station_id":"n772210619","station_name":"Bolnica","station_name_local":"Bolnica","station_name_en":null,"city":"Osijek","country":"Croatia","lines":["1"],"wikipedia":null,"merged_from":2,"merged_names":null,"is_terminus":false,"routes":[{"ref":"1","name":"Linija 1: Zeleno polje - Višnjevac","route_color":"#000000"}],"pass_count":1,"station_degree":2,"codes":null,"is_interchange":false,"station_role":"normal"},"geometry":{"type":"Point","coordinates":[18.7107108,45.557296]},"__memberLines":{}},{"type":"Feature","properties":{"station_id":"n4529952636","station_name":"Pampas","station_name_local":"Pampas","station_name_en":null,"city":"Osijek","country":"Croatia","lines":["1"],"wikipedia":null,"is_terminus":false,"routes":[{"ref":"1","name":"Linija 1: Zeleno polje - Višnjevac","route_color":"#000000"}],"pass_count":1,"station_degree":2,"codes":null,"merged_from":null,"merged_names":null,"is_interchange":false,"station_role":"normal"},"geometry":{"type":"Point","coordinates":[18.6393223,45.5650316]},"__memberLines":{}},{"type":"Feature","properties":{"station_id":"n4921133291","station_name":"Kolodvorska ul.","station_name_local":"Kolodvorska ul.","station_name_en":null,"city":"Osijek","country":"Croatia","lines":["1"],"wikipedia":null,"merged_from":2,"merged_names":null,"is_terminus":false,"routes":[{"ref":"1","name":"Linija 1: Zeleno polje - Višnjevac","route_color":"#000000"}],"pass_count":1,"station_degree":2,"codes":null,"is_interchange":false,"station_role":"normal"},"geometry":{"type":"Point","coordinates":[18.647606500000002,45.56471075]},"__memberLines":{}},{"type":"Feature","properties":{"station_id":"n4921133296","station_name":"Ul. Š. Petefija","station_name_local":"Ul. Š. Petefija","station_name_en":null,"city":"Osijek","country":"Croatia","lines":["1"],"wikipedia":null,"is_terminus":false,"routes":[{"ref":"1","name":"Linija 1: Zeleno polje - Višnjevac","route_color":"#000000"}],"pass_count":1,"station_degree":2,"codes":null,"merged_from":null,"merged_names":null,"is_interchange":false,"station_role":"normal"},"geometry":{"type":"Point","coordinates":[18.6523525,45.5646464]},"__memberLines":{}},{"type":"Feature","properties":{"station_id":"n4949065031","station_name":"Crkva sv. Roka","station_name_local":"Crkva sv. Roka","station_name_en":null,"city":"Osijek","country":"Croatia","lines":["1"],"wikipedia":null,"merged_from":2,"merged_names":null,"is_terminus":false,"routes":[{"ref":"1","name":"Linija 1: Zeleno polje - Višnjevac","route_color":"#000000"}],"pass_count":1,"station_degree":2,"codes":null,"is_interchange":false,"station_role":"normal"},"geometry":{"type":"Point","coordinates":[18.669524350000003,45.563924400000005]},"__memberLines":{}},{"type":"Feature","properties":{"station_id":"n4949138847","station_name":"Retfalačko groblje","station_name_local":"Retfalačko groblje","station_name_en":null,"city":"Osijek","country":"Croatia","lines":["1"],"wikipedia":null,"merged_from":2,"merged_names":null,"is_terminus":false,"routes":[{"ref":"1","name":"Linija 1: Zeleno polje - Višnjevac","route_color":"#000000"}],"pass_count":1,"station_degree":2,"codes":null,"is_interchange":false,"station_role":"normal"},"geometry":{"type":"Point","coordinates":[18.655625,45.5640583]},"__memberLines":{}},{"type":"Feature","properties":{"station_id":"n4949138859","station_name":"Svilajska ul.","station_name_local":"Svilajska ul.","station_name_en":null,"city":"Osijek","country":"Croatia","lines":["1"],"wikipedia":null,"merged_from":2,"merged_names":null,"is_terminus":false,"routes":[{"ref":"1","name":"Linija 1: Zeleno polje - Višnjevac","route_color":"#000000"}],"pass_count":1,"station_degree":2,"codes":null,"is_interchange":false,"station_role":"normal"},"geometry":{"type":"Point","coordinates":[18.6362114,45.56504965]},"__memberLines":{}},{"type":"Feature","properties":{"station_id":"n4949138870","station_name":"Mlinska ul.","station_name_local":"Mlinska ul.","station_name_en":null,"city":"Osijek","country":"Croatia","lines":["1"],"wikipedia":null,"merged_from":2,"merged_names":null,"is_terminus":false,"routes":[{"ref":"1","name":"Linija 1: Zeleno polje - Višnjevac","route_color":"#000000"}],"pass_count":1,"station_degree":2,"codes":null,"is_interchange":false,"station_role":"normal"},"geometry":{"type":"Point","coordinates":[18.6441643,45.564812950000004]},"__memberLines":{}},{"type":"Feature","properties":{"station_id":"n5732671082","station_name":"Vatrogasna","station_name_local":"Vatrogasna","station_name_en":null,"city":"Osijek","country":"Croatia","lines":["2"],"wikipedia":null,"merged_from":2,"merged_names":null,"is_terminus":false,"routes":[{"ref":"2","name":"Linija 2: Trg A. Starčevića - Bikara - Trg A. Starčevića","route_color":"#666666"}],"pass_count":1,"station_degree":2,"codes":null,"is_interchange":false,"station_role":"normal"},"geometry":{"type":"Point","coordinates":[18.69918595,45.5495515]},"__memberLines":{}},{"type":"Feature","properties":{"station_id":"n5837010711","station_name":"Đakovština","station_name_local":"Đakovština","station_name_en":null,"city":"Osijek","country":"Croatia","lines":["2"],"wikipedia":null,"merged_from":2,"merged_names":null,"is_terminus":false,"routes":[{"ref":"2","name":"Linija 2: Trg A. Starčevića - Bikara - Trg A. Starčevića","route_color":"#666666"}],"pass_count":1,"station_degree":2,"codes":null,"is_interchange":false,"station_role":"normal"},"geometry":{"type":"Point","coordinates":[18.675797850000002,45.55426345]},"__memberLines":{}},{"type":"Feature","properties":{"station_id":"n6136001525","station_name":"Željeznički kolodvor","station_name_local":"Željeznički kolodvor","station_name_en":null,"city":"Osijek","country":"Croatia","lines":["2"],"wikipedia":null,"is_terminus":false,"routes":[{"ref":"2","name":"Linija 2: Trg A. Starčevića - Bikara - Trg A. Starčevića","route_color":"#666666"}],"pass_count":1,"station_degree":2,"codes":null,"merged_from":null,"merged_names":null,"is_interchange":false,"station_role":"normal"},"geometry":{"type":"Point","coordinates":[18.682697,45.5533289]},"__memberLines":{}},{"type":"Feature","properties":{"station_id":"n6270131301","station_name":"Autobusni kolodvor","station_name_local":"Autobusni kolodvor","station_name_en":null,"city":"Osijek","country":"Croatia","lines":["2"],"wikipedia":null,"is_terminus":false,"routes":[{"ref":"2","name":"Linija 2: Trg A. Starčevića - Bikara - Trg A. Starčevića","route_color":"#666666"}],"pass_count":1,"station_degree":2,"codes":null,"merged_from":null,"merged_names":null,"is_interchange":false,"station_role":"normal"},"geometry":{"type":"Point","coordinates":[18.6810065,45.5534271]},"__memberLines":{}},{"type":"Feature","properties":{"station_id":"n6270131325","station_name":"Trg Lj. Gaja","station_name_local":"Trg Lj. Gaja","station_name_en":null,"city":"Osijek","country":"Croatia","lines":["2"],"wikipedia":null,"is_terminus":false,"routes":[{"ref":"2","name":"Linija 2: Trg A. Starčevića - Bikara - Trg A. Starčevića","route_color":"#666666"}],"pass_count":1,"station_degree":2,"codes":null,"merged_from":null,"merged_names":null,"is_interchange":false,"station_role":"normal"},"geometry":{"type":"Point","coordinates":[18.6827094,45.5578845]},"__memberLines":{}},{"type":"Feature","properties":{"station_id":"n6568453914","station_name":"Ul. N. Š. Zrinskog","station_name_local":"Ul. N. Š. Zrinskog","station_name_en":null,"city":"Osijek","country":"Croatia","lines":["1"],"wikipedia":null,"is_terminus":false,"routes":[{"ref":"1","name":"Linija 1: Zeleno polje - Višnjevac","route_color":"#000000"}],"pass_count":1,"station_degree":2,"codes":null,"merged_from":null,"merged_names":null,"is_interchange":false,"station_role":"normal"},"geometry":{"type":"Point","coordinates":[18.6203838,45.5659605]},"__memberLines":{}},{"type":"Feature","properties":{"station_id":"n9469199467","station_name":"Okretište Ul. bana J. Jelačića","station_name_local":"Okretište Ul. bana J. Jelačića","station_name_en":null,"city":"Osijek","country":"Croatia","lines":["1"],"wikipedia":null,"is_terminus":true,"routes":[{"ref":"1","name":"Linija 1: Zeleno polje - Višnjevac","route_color":"#000000"}],"pass_count":1,"station_degree":1,"codes":null,"merged_from":null,"merged_names":null,"is_interchange":false,"station_role":"terminus"},"geometry":{"type":"Point","coordinates":[18.6169576,45.5669559]},"__memberLines":{}},{"type":"Feature","properties":{"station_id":"n9469356654","station_name":"Ul. kralja Tomislava","station_name_local":"Ul. kralja Tomislava","station_name_en":null,"city":"Osijek","country":"Croatia","lines":["1"],"wikipedia":null,"is_terminus":false,"routes":[{"ref":"1","name":"Linija 1: Zeleno polje - Višnjevac","route_color":"#000000"}],"pass_count":1,"station_degree":2,"codes":null,"merged_from":null,"merged_names":null,"is_interchange":false,"station_role":"normal"},"geometry":{"type":"Point","coordinates":[18.6266004,45.5651846]},"__memberLines":{}}]}