{"type":"FeatureCollection","metro_system":{"continent":"europe","country":"France","city":"Rouen","official_website":null,"official_map":"https://fr.wikipedia.org/wiki/Réseau_Astuce","wikipedia":"fr:Réseau Astuce","line_count":1,"segment_count":1,"station_count":31,"modes":["tram"],"audit":{"strategies_tried":[],"passed":true,"checks":[{"id":"has_lines","ok":true,"detail":"1 lines","level":"error"},{"id":"has_stations","ok":true,"detail":"32 stations","level":"error"},{"id":"stations_have_lines","ok":true,"detail":"32/32 站皆有所屬路線","level":"error"},{"id":"line_geometry_stations","ok":true,"detail":"33 個折點/端點皆為車站","level":"error"},{"id":"route_stations_match_geometry","ok":true,"detail":"各線車站列表與圖面一致","level":"error"},{"id":"interchange_rule","ok":true,"detail":"所有車站紅/藍點符合骨架＋路線色規則（藍＝端點、紅＝交叉）","level":"error"},{"id":"stations_named","ok":true,"detail":"32/32 站皆有名稱","level":"error"},{"id":"station_order","ok":true,"detail":"所有線路站序合理","level":"warn"},{"id":"line_wiki_stations","ok":true,"detail":"各線站數與 wiki 線路條目相符（營運中站數）","level":"error"},{"id":"line_wiki_coverage","ok":false,"detail":"1 條線無 wiki 站數對照：Métro : Ligne Technopôle","level":"warn"}],"reasons":[],"warnings":["1 條線無 wiki 站數對照：Métro : Ligne Technopôle"],"audited_at":"2026-07-27T02:39:34.942Z"}},"features":[{"type":"Feature","properties":{"seg_id":"rouen-0","routes":[{"route_id":"rm16554828","route_name":"Métro : Ligne Technopôle","route_name_local":"Métro : Ligne Technopôle","route_name_en":null,"route_ref":"M","route_color":"#0b3e8b","wikipedia":"fr:Réseau Astuce","osm_route_ids":[165610,2629639,2629637,2629638],"status":null,"order_suspect":0,"span_suspect":0,"stations":[{"station_id":"n1340269550","station_name":"Boulingrin"},{"station_id":"n324790585","station_name":"Beauvoisine"},{"station_id":"n1340269537","station_name":"Gare Rue Verte"},{"station_id":"n1340269385","station_name":"Palais de Justice - Gisèle Halimi"},{"station_id":"n1336876165","station_name":"Théâtre des Arts"},{"station_id":"n324808059","station_name":"Joffre-Mutualité"},{"station_id":"n767165015","station_name":"Saint-Sever"},{"station_id":"n787180983","station_name":"Europe"},{"station_id":"n787124081","station_name":"Honoré de Balzac"},{"station_id":"n730689197","station_name":"Voltaire"},{"station_id":"n628923940","station_name":"Garibaldi"},{"station_id":"n281784381","station_name":"Hôtel de ville de Sotteville"},{"station_id":"n347267934","station_name":"14 Juillet"},{"station_id":"n783971648","station_name":"Jean Zay"},{"station_id":"n784192789","station_name":"Toit Familial"},{"station_id":"n784254509","station_name":"Champ de Courses"},{"station_id":"n786729821","station_name":"Ernest Renan"},{"station_id":"n786817138","station_name":"Le Parc"},{"station_id":"n786872144","station_name":"Maryse Bastié"},{"station_id":"n786896372","station_name":"Technopôle"},{"station_id":"n767165015","station_name":"Saint-Sever"},{"station_id":"n1336036041","station_name":"Avenue de Caen"},{"station_id":"n1336036031","station_name":"Jean Jaurès"},{"station_id":"n6362862970","station_name":"François Truffaut"},{"station_id":"n6362862968","station_name":"Place du 8 Mai"},{"station_id":"n6362862956","station_name":"Saint-Julien"},{"station_id":"n1336858495","station_name":"Charles de Gaulle"},{"station_id":"n6362862946","station_name":"Provinces"},{"station_id":"n6362862936","station_name":"J.F. Kennedy"},{"station_id":"n432643673","station_name":"Léon Blum"},{"station_id":"n432643687","station_name":"Paul Cézanne"},{"station_id":"n789882199","station_name":"Georges Braque"}]}],"route_count":1,"route_refs":["M"],"route_colors":["#0b3e8b"],"city":"Rouen","country":"France"},"geometry":{"type":"MultiLineString","coordinates":[[[1.105104875,49.44705775],[1.1006125,49.448367450000006],[1.0946167500000001,49.448464550000004],[1.09093805,49.442675475],[1.089349225,49.439926875000005],[1.0866552,49.435312425],[1.08147265,49.4312206],[1.0812081,49.42821485],[1.0868844,49.42609795],[1.0890561,49.4230829],[1.09083575,49.4188648],[1.0902476,49.4141628],[1.0832241,49.4091897],[1.0844026,49.4042003],[1.0815586499999998,49.40122585],[1.07588565,49.40141095],[1.07296795,49.3983853],[1.06940525,49.395352149999994],[1.0701,49.3919466],[1.0708378,49.386791900000006]],[[1.08147265,49.4312206],[1.075585,49.429792],[1.0669103500000001,49.4276377],[1.0625765,49.426582749999994],[1.0593590499999999,49.42401255],[1.0594977,49.42039355],[1.0556797,49.416878499999996],[1.0533201499999998,49.41180105],[1.04978675,49.40959805],[1.0452668,49.407003599999996],[1.0422088999999999,49.403662749999995],[1.0423209500000001,49.400529500000005]]]}},{"type":"Feature","properties":{"station_id":"n281784381","station_name":"Hôtel de ville de Sotteville","station_name_local":"Hôtel de ville de Sotteville","station_name_en":null,"city":"Rouen","country":"France","lines":["M"],"wikipedia":null,"merged_from":2,"merged_names":null,"is_terminus":false,"routes":[{"ref":"M","name":"Métro : Ligne Technopôle","route_color":"#0b3e8b"}],"pass_count":1,"station_degree":2,"codes":null,"is_interchange":false,"station_role":"normal"},"geometry":{"type":"Point","coordinates":[1.0902476,49.4141628]},"__memberLines":{}},{"type":"Feature","properties":{"station_id":"n324790585","station_name":"Beauvoisine","station_name_local":"Beauvoisine","station_name_en":null,"city":"Rouen","country":"France","lines":["M"],"wikipedia":null,"merged_from":2,"merged_names":null,"is_terminus":false,"routes":[{"ref":"M","name":"Métro : Ligne Technopôle","route_color":"#0b3e8b"}],"pass_count":1,"station_degree":2,"codes":null,"is_interchange":false,"station_role":"normal"},"geometry":{"type":"Point","coordinates":[1.1006125,49.448367450000006]},"__memberLines":{}},{"type":"Feature","properties":{"station_id":"n324808059","station_name":"Joffre-Mutualité","station_name_local":"Joffre-Mutualité","station_name_en":null,"city":"Rouen","country":"France","lines":["M"],"wikipedia":null,"merged_from":4,"merged_names":null,"is_terminus":false,"routes":[{"ref":"M","name":"Métro : Ligne Technopôle","route_color":"#0b3e8b"}],"pass_count":1,"station_degree":2,"codes":null,"is_interchange":false,"station_role":"normal"},"geometry":{"type":"Point","coordinates":[1.0866552,49.435312425]},"__memberLines":{}},{"type":"Feature","properties":{"station_id":"n347267934","station_name":"14 Juillet","station_name_local":"14 Juillet","station_name_en":null,"city":"Rouen","country":"France","lines":["M"],"wikipedia":null,"merged_from":2,"merged_names":null,"is_terminus":false,"routes":[{"ref":"M","name":"Métro : Ligne Technopôle","route_color":"#0b3e8b"}],"pass_count":1,"station_degree":2,"codes":null,"is_interchange":false,"station_role":"normal"},"geometry":{"type":"Point","coordinates":[1.0832241,49.4091897]},"__memberLines":{}},{"type":"Feature","properties":{"station_id":"n432643673","station_name":"Léon Blum","station_name_local":"Léon Blum","station_name_en":null,"city":"Rouen","country":"France","lines":["M"],"wikipedia":null,"merged_from":2,"merged_names":null,"is_terminus":false,"routes":[{"ref":"M","name":"Métro : Ligne Technopôle","route_color":"#0b3e8b"}],"pass_count":1,"station_degree":2,"codes":null,"is_interchange":false,"station_role":"normal"},"geometry":{"type":"Point","coordinates":[1.0452668,49.407003599999996]},"__memberLines":{}},{"type":"Feature","properties":{"station_id":"n432643687","station_name":"Paul Cézanne","station_name_local":"Paul Cézanne","station_name_en":null,"city":"Rouen","country":"France","lines":["M"],"wikipedia":null,"merged_from":2,"merged_names":null,"is_terminus":false,"routes":[{"ref":"M","name":"Métro : Ligne Technopôle","route_color":"#0b3e8b"}],"pass_count":1,"station_degree":2,"codes":null,"is_interchange":false,"station_role":"normal"},"geometry":{"type":"Point","coordinates":[1.0422088999999999,49.403662749999995]},"__memberLines":{}},{"type":"Feature","properties":{"station_id":"n628923940","station_name":"Garibaldi","station_name_local":"Garibaldi","station_name_en":null,"city":"Rouen","country":"France","lines":["M"],"wikipedia":null,"merged_from":2,"merged_names":null,"is_terminus":false,"routes":[{"ref":"M","name":"Métro : Ligne Technopôle","route_color":"#0b3e8b"}],"pass_count":1,"station_degree":2,"codes":null,"is_interchange":false,"station_role":"normal"},"geometry":{"type":"Point","coordinates":[1.09083575,49.4188648]},"__memberLines":{}},{"type":"Feature","properties":{"station_id":"n730689197","station_name":"Voltaire","station_name_local":"Voltaire","station_name_en":null,"city":"Rouen","country":"France","lines":["M"],"wikipedia":null,"merged_from":2,"merged_names":null,"is_terminus":false,"routes":[{"ref":"M","name":"Métro : Ligne Technopôle","route_color":"#0b3e8b"}],"pass_count":1,"station_degree":2,"codes":null,"is_interchange":false,"station_role":"normal"},"geometry":{"type":"Point","coordinates":[1.0890561,49.4230829]},"__memberLines":{}},{"type":"Feature","properties":{"station_id":"n767165015","station_name":"Saint-Sever","station_name_local":"Saint-Sever","station_name_en":null,"city":"Rouen","country":"France","lines":["M"],"wikipedia":null,"merged_from":2,"merged_names":null,"is_terminus":false,"routes":[{"ref":"M","name":"Métro : Ligne Technopôle","route_color":"#0b3e8b"}],"pass_count":2,"station_degree":4,"codes":null,"is_interchange":true,"station_role":"interchange"},"geometry":{"type":"Point","coordinates":[1.08147265,49.4312206]},"__memberLines":{}},{"type":"Feature","properties":{"station_id":"n783971648","station_name":"Jean Zay","station_name_local":"Jean Zay","station_name_en":null,"city":"Rouen","country":"France","lines":["M"],"wikipedia":null,"merged_from":2,"merged_names":null,"is_terminus":false,"routes":[{"ref":"M","name":"Métro : Ligne Technopôle","route_color":"#0b3e8b"}],"pass_count":1,"station_degree":2,"codes":null,"is_interchange":false,"station_role":"normal"},"geometry":{"type":"Point","coordinates":[1.0844026,49.4042003]},"__memberLines":{}},{"type":"Feature","properties":{"station_id":"n784192789","station_name":"Toit Familial","station_name_local":"Toit Familial","station_name_en":null,"city":"Rouen","country":"France","lines":["M"],"wikipedia":null,"merged_from":2,"merged_names":null,"is_terminus":false,"routes":[{"ref":"M","name":"Métro : Ligne Technopôle","route_color":"#0b3e8b"}],"pass_count":1,"station_degree":2,"codes":null,"is_interchange":false,"station_role":"normal"},"geometry":{"type":"Point","coordinates":[1.0815586499999998,49.40122585]},"__memberLines":{}},{"type":"Feature","properties":{"station_id":"n784254509","station_name":"Champ de Courses","station_name_local":"Champ de Courses","station_name_en":null,"city":"Rouen","country":"France","lines":["M"],"wikipedia":null,"merged_from":2,"merged_names":null,"is_terminus":false,"routes":[{"ref":"M","name":"Métro : Ligne Technopôle","route_color":"#0b3e8b"}],"pass_count":1,"station_degree":2,"codes":null,"is_interchange":false,"station_role":"normal"},"geometry":{"type":"Point","coordinates":[1.07588565,49.40141095]},"__memberLines":{}},{"type":"Feature","properties":{"station_id":"n786729821","station_name":"Ernest Renan","station_name_local":"Ernest Renan","station_name_en":null,"city":"Rouen","country":"France","lines":["M"],"wikipedia":null,"merged_from":2,"merged_names":null,"is_terminus":false,"routes":[{"ref":"M","name":"Métro : Ligne Technopôle","route_color":"#0b3e8b"}],"pass_count":1,"station_degree":2,"codes":null,"is_interchange":false,"station_role":"normal"},"geometry":{"type":"Point","coordinates":[1.07296795,49.3983853]},"__memberLines":{}},{"type":"Feature","properties":{"station_id":"n786817138","station_name":"Le Parc","station_name_local":"Le Parc","station_name_en":null,"city":"Rouen","country":"France","lines":["M"],"wikipedia":null,"merged_from":2,"merged_names":null,"is_terminus":false,"routes":[{"ref":"M","name":"Métro : Ligne Technopôle","route_color":"#0b3e8b"}],"pass_count":1,"station_degree":2,"codes":null,"is_interchange":false,"station_role":"normal"},"geometry":{"type":"Point","coordinates":[1.06940525,49.395352149999994]},"__memberLines":{}},{"type":"Feature","properties":{"station_id":"n786872144","station_name":"Maryse Bastié","station_name_local":"Maryse Bastié","station_name_en":null,"city":"Rouen","country":"France","lines":["M"],"wikipedia":null,"merged_from":2,"merged_names":null,"is_terminus":false,"routes":[{"ref":"M","name":"Métro : Ligne Technopôle","route_color":"#0b3e8b"}],"pass_count":1,"station_degree":2,"codes":null,"is_interchange":false,"station_role":"normal"},"geometry":{"type":"Point","coordinates":[1.0701,49.3919466]},"__memberLines":{}},{"type":"Feature","properties":{"station_id":"n786896372","station_name":"Technopôle","station_name_local":"Technopôle","station_name_en":null,"city":"Rouen","country":"France","lines":["M"],"wikipedia":null,"merged_from":2,"merged_names":null,"is_terminus":false,"routes":[{"ref":"M","name":"Métro : Ligne Technopôle","route_color":"#0b3e8b"}],"pass_count":1,"station_degree":2,"codes":null,"is_interchange":false,"station_role":"normal"},"geometry":{"type":"Point","coordinates":[1.0708378,49.386791900000006]},"__memberLines":{}},{"type":"Feature","properties":{"station_id":"n787124081","station_name":"Honoré de Balzac","station_name_local":"Honoré de Balzac","station_name_en":null,"city":"Rouen","country":"France","lines":["M"],"wikipedia":null,"merged_from":2,"merged_names":null,"is_terminus":false,"routes":[{"ref":"M","name":"Métro : Ligne Technopôle","route_color":"#0b3e8b"}],"pass_count":1,"station_degree":2,"codes":null,"is_interchange":false,"station_role":"normal"},"geometry":{"type":"Point","coordinates":[1.0868844,49.42609795]},"__memberLines":{}},{"type":"Feature","properties":{"station_id":"n787180983","station_name":"Europe","station_name_local":"Europe","station_name_en":null,"city":"Rouen","country":"France","lines":["M"],"wikipedia":null,"merged_from":2,"merged_names":null,"is_terminus":false,"routes":[{"ref":"M","name":"Métro : Ligne Technopôle","route_color":"#0b3e8b"}],"pass_count":1,"station_degree":2,"codes":null,"is_interchange":false,"station_role":"normal"},"geometry":{"type":"Point","coordinates":[1.0812081,49.42821485]},"__memberLines":{}},{"type":"Feature","properties":{"station_id":"n789882199","station_name":"Georges Braque","station_name_local":"Georges Braque","station_name_en":null,"city":"Rouen","country":"France","lines":["M"],"wikipedia":null,"merged_from":2,"merged_names":null,"is_terminus":true,"routes":[{"ref":"M","name":"Métro : Ligne Technopôle","route_color":"#0b3e8b"}],"pass_count":1,"station_degree":1,"codes":null,"is_interchange":false,"station_role":"terminus"},"geometry":{"type":"Point","coordinates":[1.0423209500000001,49.400529500000005]},"__memberLines":{}},{"type":"Feature","properties":{"station_id":"n1336036031","station_name":"Jean Jaurès","station_name_local":"Jean Jaurès","station_name_en":null,"city":"Rouen","country":"France","lines":["M"],"wikipedia":null,"merged_from":2,"merged_names":null,"is_terminus":false,"routes":[{"ref":"M","name":"Métro : Ligne Technopôle","route_color":"#0b3e8b"}],"pass_count":1,"station_degree":2,"codes":null,"is_interchange":false,"station_role":"normal"},"geometry":{"type":"Point","coordinates":[1.0669103500000001,49.4276377]},"__memberLines":{}},{"type":"Feature","properties":{"station_id":"n1336036041","station_name":"Avenue de Caen","station_name_local":"Avenue de Caen","station_name_en":null,"city":"Rouen","country":"France","lines":["M"],"wikipedia":null,"merged_from":2,"merged_names":null,"is_terminus":false,"routes":[{"ref":"M","name":"Métro : Ligne Technopôle","route_color":"#0b3e8b"}],"pass_count":1,"station_degree":2,"codes":null,"is_interchange":false,"station_role":"normal"},"geometry":{"type":"Point","coordinates":[1.075585,49.429792]},"__memberLines":{}},{"type":"Feature","properties":{"station_id":"n1336858495","station_name":"Charles de Gaulle","station_name_local":"Charles de Gaulle","station_name_en":null,"city":"Rouen","country":"France","lines":["M"],"wikipedia":null,"merged_from":2,"merged_names":null,"is_terminus":false,"routes":[{"ref":"M","name":"Métro : Ligne Technopôle","route_color":"#0b3e8b"}],"pass_count":1,"station_degree":2,"codes":null,"is_interchange":false,"station_role":"normal"},"geometry":{"type":"Point","coordinates":[1.0556797,49.416878499999996]},"__memberLines":{}},{"type":"Feature","properties":{"station_id":"n1336876165","station_name":"Théâtre des Arts","station_name_local":"Théâtre des Arts","station_name_en":null,"city":"Rouen","country":"France","lines":["M"],"wikipedia":null,"merged_from":4,"merged_names":null,"is_terminus":false,"routes":[{"ref":"M","name":"Métro : Ligne Technopôle","route_color":"#0b3e8b"}],"pass_count":1,"station_degree":2,"codes":null,"is_interchange":false,"station_role":"normal"},"geometry":{"type":"Point","coordinates":[1.089349225,49.439926875000005]},"__memberLines":{}},{"type":"Feature","properties":{"station_id":"n1340269385","station_name":"Palais de Justice - Gisèle Halimi","station_name_local":"Palais de Justice - Gisèle Halimi","station_name_en":null,"city":"Rouen","country":"France","lines":["M"],"wikipedia":null,"merged_from":4,"merged_names":null,"is_terminus":false,"routes":[{"ref":"M","name":"Métro : Ligne Technopôle","route_color":"#0b3e8b"}],"pass_count":1,"station_degree":2,"codes":null,"is_interchange":false,"station_role":"normal"},"geometry":{"type":"Point","coordinates":[1.09093805,49.442675475]},"__memberLines":{}},{"type":"Feature","properties":{"station_id":"n1340269537","station_name":"Gare Rue Verte / Gare-Rue Verte","station_name_local":"Gare Rue Verte / Gare-Rue Verte","station_name_en":null,"city":"Rouen","country":"France","lines":["M"],"wikipedia":null,"merged_from":4,"merged_names":[{"station_id":"n1340269537","station_name":"Gare Rue Verte","station_name_local":"Gare Rue Verte","lines":["M"]},{"station_id":"n6349227326","station_name":"Gare-Rue Verte","station_name_local":"Gare-Rue Verte","lines":["M"]}],"is_terminus":false,"routes":[{"ref":"M","name":"Métro : Ligne Technopôle","route_color":"#0b3e8b"}],"pass_count":1,"station_degree":2,"codes":null,"is_interchange":false,"station_role":"normal"},"geometry":{"type":"Point","coordinates":[1.0946167500000001,49.448464550000004]},"__memberLines":{}},{"type":"Feature","properties":{"station_id":"n1340269550","station_name":"Boulingrin","station_name_local":"Boulingrin","station_name_en":null,"city":"Rouen","country":"France","lines":["M"],"wikipedia":null,"merged_from":4,"merged_names":null,"is_terminus":true,"routes":[{"ref":"M","name":"Métro : Ligne Technopôle","route_color":"#0b3e8b"}],"pass_count":1,"station_degree":1,"codes":null,"is_interchange":false,"station_role":"terminus"},"geometry":{"type":"Point","coordinates":[1.105104875,49.44705775]},"__memberLines":{}},{"type":"Feature","properties":{"station_id":"n6362862936","station_name":"J.F. Kennedy","station_name_local":"J.F. Kennedy","station_name_en":null,"city":"Rouen","country":"France","lines":["M"],"wikipedia":null,"merged_from":2,"merged_names":null,"is_terminus":false,"routes":[{"ref":"M","name":"Métro : Ligne Technopôle","route_color":"#0b3e8b"}],"pass_count":1,"station_degree":2,"codes":null,"is_interchange":false,"station_role":"normal"},"geometry":{"type":"Point","coordinates":[1.04978675,49.40959805]},"__memberLines":{}},{"type":"Feature","properties":{"station_id":"n6362862946","station_name":"Provinces","station_name_local":"Provinces","station_name_en":null,"city":"Rouen","country":"France","lines":["M"],"wikipedia":null,"merged_from":2,"merged_names":null,"is_terminus":false,"routes":[{"ref":"M","name":"Métro : Ligne Technopôle","route_color":"#0b3e8b"}],"pass_count":1,"station_degree":2,"codes":null,"is_interchange":false,"station_role":"normal"},"geometry":{"type":"Point","coordinates":[1.0533201499999998,49.41180105]},"__memberLines":{}},{"type":"Feature","properties":{"station_id":"n6362862956","station_name":"Saint-Julien","station_name_local":"Saint-Julien","station_name_en":null,"city":"Rouen","country":"France","lines":["M"],"wikipedia":null,"merged_from":2,"merged_names":null,"is_terminus":false,"routes":[{"ref":"M","name":"Métro : Ligne Technopôle","route_color":"#0b3e8b"}],"pass_count":1,"station_degree":2,"codes":null,"is_interchange":false,"station_role":"normal"},"geometry":{"type":"Point","coordinates":[1.0594977,49.42039355]},"__memberLines":{}},{"type":"Feature","properties":{"station_id":"n6362862968","station_name":"Place du 8 Mai","station_name_local":"Place du 8 Mai","station_name_en":null,"city":"Rouen","country":"France","lines":["M"],"wikipedia":null,"merged_from":2,"merged_names":null,"is_terminus":false,"routes":[{"ref":"M","name":"Métro : Ligne Technopôle","route_color":"#0b3e8b"}],"pass_count":1,"station_degree":2,"codes":null,"is_interchange":false,"station_role":"normal"},"geometry":{"type":"Point","coordinates":[1.0593590499999999,49.42401255]},"__memberLines":{}},{"type":"Feature","properties":{"station_id":"n6362862970","station_name":"François Truffaut","station_name_local":"François Truffaut","station_name_en":null,"city":"Rouen","country":"France","lines":["M"],"wikipedia":null,"merged_from":2,"merged_names":null,"is_terminus":false,"routes":[{"ref":"M","name":"Métro : Ligne Technopôle","route_color":"#0b3e8b"}],"pass_count":1,"station_degree":2,"codes":null,"is_interchange":false,"station_role":"normal"},"geometry":{"type":"Point","coordinates":[1.0625765,49.426582749999994]},"__memberLines":{}}]}