{"type":"FeatureCollection","features":[{"type":"Feature","properties":{"way_id":857001881,"route_colors":[],"route_refs":["5","8","6"]},"geometry":{"type":"LineString","coordinates":[[87.1256804,53.7436176],[87.1270174,53.7436402],[87.1270917,53.7436431],[87.1271518,53.7436494],[87.1271963,53.7436567],[87.1272269,53.7436631],[87.1272959,53.7436786],[87.1273816,53.7437035],[87.1275129,53.7437527],[87.1275863,53.7437854],[87.1276573,53.7438222],[87.1290932,53.744653],[87.1316328,53.7461182],[87.131664,53.7461333],[87.1316955,53.7461446],[87.1317212,53.7461523],[87.1318168,53.7461811],[87.1318394,53.7461857],[87.1318504,53.7461872],[87.131865,53.7461887],[87.1319123,53.7461919],[87.1319457,53.7461936],[87.1319805,53.7461949],[87.1320149,53.7461951],[87.1320383,53.7461948],[87.1320895,53.7461864],[87.1321159,53.7461811],[87.1321321,53.7461779],[87.1321739,53.7461668],[87.1322247,53.7461498],[87.1322595,53.7461314],[87.1323074,53.7461008],[87.132354,53.7460693],[87.132507,53.7459747],[87.134325,53.7448514],[87.1344891,53.7447499],[87.1349705,53.7444526],[87.1357749,53.7439575],[87.1362911,53.7436366],[87.1363584,53.7435988],[87.1364344,53.7435672],[87.1365175,53.7435425],[87.1366048,53.7435255],[87.1366955,53.7435161],[87.1367419,53.7435153],[87.1367874,53.7435146],[87.1373283,53.7435102],[87.1374154,53.7435095],[87.143167,53.7434623],[87.1432517,53.7434717],[87.1433347,53.7434854],[87.1434153,53.7435035],[87.1434899,53.7435227],[87.1435047,53.7435279],[87.1436302,53.7435793],[87.1441127,53.7438393],[87.1456793,53.7447517],[87.1458478,53.7448498],[87.146387,53.7451974],[87.1483167,53.7462997],[87.148419,53.7463581]]}},{"type":"Feature","properties":{"way_id":1335823259,"route_colors":[],"route_refs":["5","8","6"]},"geometry":{"type":"LineString","coordinates":[[87.148419,53.7463581],[87.1507076,53.7476654],[87.1509683,53.7478197]]}},{"type":"Feature","properties":{"way_id":857001880,"route_colors":[],"route_refs":["5"]},"geometry":{"type":"LineString","coordinates":[[87.1509683,53.7478197],[87.1510387,53.7478746],[87.1510606,53.7478974],[87.1510855,53.7479324],[87.1510935,53.7479505],[87.1511154,53.7479955],[87.1511327,53.7480912],[87.1511346,53.7481581],[87.1511204,53.7482252],[87.1510902,53.7483002],[87.1510695,53.748326],[87.1510623,53.7483323],[87.1510306,53.7483601]]}},{"type":"Feature","properties":{"way_id":142796726,"route_colors":[],"route_refs":["5","2","9"]},"geometry":{"type":"LineString","coordinates":[[87.1510306,53.7483601],[87.1502627,53.7488369],[87.1486848,53.7498185],[87.147678,53.7504205],[87.1462481,53.7513178],[87.1450151,53.7520594],[87.1439689,53.752705],[87.1435192,53.7529783],[87.1433906,53.7530564],[87.1432689,53.753132],[87.14221,53.7537774],[87.1405483,53.7547885],[87.1395552,53.7553942],[87.1392622,53.7555724],[87.1387803,53.7558664],[87.1378652,53.7564247],[87.1373601,53.7567329],[87.1365325,53.7572367],[87.1363849,53.7573467],[87.1363097,53.7574066],[87.1362465,53.7574712],[87.1361963,53.7575397],[87.1361596,53.7576111],[87.1361414,53.7576654],[87.1361311,53.7577205],[87.1361288,53.7577759],[87.1361301,53.7580103],[87.1361376,53.7582248],[87.136194,53.7598433],[87.1361766,53.7599026],[87.1361594,53.7599376],[87.1361481,53.7599605],[87.1361089,53.7600161],[87.1360851,53.760037],[87.1360507,53.7600769],[87.1359774,53.7601341],[87.1358971,53.7601826],[87.1346255,53.7608997],[87.1338506,53.7613336],[87.1337475,53.7613913],[87.130723,53.7630848],[87.1306301,53.7631243],[87.1305302,53.7631573],[87.1304479,53.7631782],[87.1303617,53.7631949],[87.1302682,53.7632084],[87.1298989,53.7632109],[87.1264639,53.7632348],[87.12623,53.763236],[87.1260351,53.7632388],[87.1218024,53.7633022]]}},{"type":"Feature","properties":{"way_id":34557797,"route_colors":[],"route_refs":["5","2","9"]},"geometry":{"type":"LineString","coordinates":[[87.1218024,53.7633022],[87.1210504,53.7633133]]}},{"type":"Feature","properties":{"way_id":857246218,"route_colors":[],"route_refs":["5","2","9"]},"geometry":{"type":"LineString","coordinates":[[87.1001728,53.7659063],[87.1001153,53.7659361],[87.1000663,53.7659709],[87.1000271,53.7660097],[87.0999969,53.7660551],[87.0999799,53.7661028],[87.0999715,53.7662125]]}},{"type":"Feature","properties":{"way_id":147518186,"route_colors":[],"route_refs":["5","2","9"]},"geometry":{"type":"LineString","coordinates":[[87.1210504,53.7633133],[87.1201311,53.7633163],[87.1197276,53.7633192],[87.1191816,53.7633236],[87.1189278,53.7633219],[87.1188516,53.7633212],[87.1187772,53.7633212],[87.118699,53.7633171],[87.1185978,53.7633067],[87.1184943,53.7632924],[87.1184079,53.7632801],[87.1183136,53.7632633],[87.1182868,53.7632603],[87.118202,53.7632572],[87.1169055,53.7632755],[87.1142614,53.7632872],[87.1123923,53.7632939],[87.1118012,53.763296],[87.111755,53.7632968],[87.1112772,53.7633302],[87.1111706,53.7633417],[87.1110497,53.7633648],[87.1101961,53.7635537],[87.1086275,53.763922],[87.1078617,53.7641013],[87.1074084,53.7642065],[87.1058176,53.7645733],[87.1049746,53.7647732],[87.1021846,53.7654291],[87.1019802,53.7654772],[87.1003883,53.7658561],[87.1001728,53.7659063]]}},{"type":"Feature","properties":{"way_id":856710923,"route_colors":[],"route_refs":["5","2","9"]},"geometry":{"type":"LineString","coordinates":[[87.0994093,53.7660345],[87.1019572,53.7654484],[87.1021642,53.7653997],[87.1049521,53.7647433],[87.1058006,53.7645458],[87.1073913,53.7641799],[87.1078435,53.7640753],[87.1086109,53.7638939],[87.1101767,53.7635267],[87.1110293,53.763336],[87.1111663,53.7633119],[87.1113121,53.7632963],[87.111454,53.7632877],[87.1117482,53.7632698],[87.111833,53.7632684],[87.114259,53.7632555],[87.1169069,53.7632454],[87.1181982,53.7632265],[87.1182873,53.7632296],[87.1183151,53.7632321],[87.1184068,53.763248],[87.1185009,53.7632627],[87.1185981,53.7632763],[87.1187026,53.7632888],[87.1187758,53.7632927],[87.1188514,53.7632925],[87.1191742,53.7632922],[87.1197335,53.7632888],[87.1201309,53.7632866],[87.1210481,53.7632805]]}},{"type":"Feature","properties":{"way_id":856712599,"route_colors":[],"route_refs":["5","2","9"]},"geometry":{"type":"LineString","coordinates":[[87.1210481,53.7632805],[87.1218037,53.7632708]]}},{"type":"Feature","properties":{"way_id":856712600,"route_colors":[],"route_refs":["5","2","9"]},"geometry":{"type":"LineString","coordinates":[[87.1218037,53.7632708],[87.1260333,53.7632095],[87.1262285,53.7632074],[87.1264635,53.7632048],[87.129898,53.7631824],[87.130079,53.7631792],[87.1302581,53.7631802],[87.1303006,53.7631751],[87.1303405,53.7631659],[87.1304252,53.7631497],[87.1305067,53.7631291],[87.1306015,53.7630977],[87.130689,53.7630605],[87.1335358,53.7614637],[87.1337081,53.7613671],[87.1345818,53.760877],[87.1358598,53.7601602],[87.1359393,53.7601122],[87.1360083,53.7600573],[87.1360284,53.7600368],[87.1360661,53.7599983],[87.1360979,53.75995],[87.1361058,53.7599338],[87.1361247,53.7598955],[87.1361407,53.7598409],[87.1360844,53.7582248],[87.1360769,53.7580107],[87.1360769,53.7580079],[87.1360756,53.7577756],[87.136078,53.7577184],[87.1360888,53.7576606],[87.136108,53.7576035],[87.1361463,53.7575288],[87.1361989,53.757457],[87.1362652,53.7573893],[87.1363428,53.7573275],[87.1364904,53.7572171],[87.1373246,53.7567104],[87.1378285,53.7564035],[87.1387455,53.7558471],[87.1392265,53.7555506],[87.13952,53.7553718],[87.140511,53.7547677],[87.1421714,53.7537552],[87.143234,53.753115],[87.143359,53.7530372],[87.1434863,53.7529592],[87.1439367,53.7526872],[87.1449801,53.7520373],[87.1462082,53.7512952],[87.1476397,53.7503987],[87.148645,53.7497977],[87.1502327,53.7488182],[87.1510061,53.7483486]]}},{"type":"Feature","properties":{"way_id":857001879,"route_colors":[],"route_refs":["5"]},"geometry":{"type":"LineString","coordinates":[[87.1510061,53.7483486],[87.151038,53.7483183],[87.1510588,53.7482923],[87.1510743,53.7482509],[87.1510842,53.7482244],[87.1510881,53.7482138],[87.151099,53.7481645],[87.1510978,53.7481267],[87.1510904,53.7480676],[87.1510779,53.7480057],[87.1510635,53.7479663],[87.1510432,53.7479333],[87.1510153,53.7479056],[87.1509396,53.747845]]}},{"type":"Feature","properties":{"way_id":857000133,"route_colors":[],"route_refs":["5","8"]},"geometry":{"type":"LineString","coordinates":[[87.1509396,53.747845],[87.1506705,53.7476879],[87.14837,53.7463738],[87.1482783,53.7463214],[87.1463489,53.7452193],[87.1458095,53.7448717],[87.1456694,53.7447901],[87.1440761,53.7438621],[87.1435984,53.7436046],[87.1434814,53.7435604],[87.1433942,53.7435327],[87.1433182,53.7435156],[87.1432399,53.7435027],[87.14316,53.7434938],[87.1376268,53.7435387],[87.1374153,53.7435404],[87.1367421,53.7435458],[87.1367208,53.743546],[87.1366477,53.7435519],[87.1365762,53.7435629],[87.1365074,53.7435787],[87.1364473,53.7435974],[87.1363909,53.7436198],[87.136339,53.7436457],[87.1358079,53.7439767],[87.1350049,53.7444727],[87.1345257,53.7447706],[87.1343602,53.7448718],[87.1326378,53.745939],[87.1323929,53.7460907],[87.1323468,53.746123],[87.1322955,53.7461542],[87.1322732,53.7461651],[87.1322502,53.7461753],[87.1322202,53.7461853],[87.1321895,53.7461948],[87.1321492,53.7462056],[87.1321243,53.746211],[87.1320689,53.7462194],[87.1320369,53.7462232],[87.1320099,53.7462255],[87.1319899,53.7462263],[87.1319716,53.746226],[87.1318948,53.7462214],[87.1318731,53.7462201],[87.131846,53.7462176],[87.1318217,53.7462148],[87.1317973,53.7462111],[87.1317823,53.7462077],[87.1316856,53.7461775],[87.1316652,53.7461711],[87.1316315,53.7461585],[87.1315995,53.7461425],[87.1290589,53.7446757],[87.1275916,53.7438282],[87.1275474,53.7438054],[87.1274975,53.7437849],[87.1273236,53.7437207],[87.1272741,53.7437059],[87.1272384,53.7436977],[87.1271601,53.7436828],[87.1271368,53.74368],[87.1270664,53.7436728],[87.1269961,53.7436703],[87.1256772,53.7436416]]}},{"type":"Feature","properties":{"way_id":857001870,"route_colors":[],"route_refs":["8","6"]},"geometry":{"type":"LineString","coordinates":[[87.1509683,53.7478197],[87.1511425,53.7479245],[87.1514057,53.7480828],[87.1514689,53.7481228],[87.1517094,53.748271]]}},{"type":"Feature","properties":{"way_id":857001872,"route_colors":[],"route_refs":["8","6","2","9"]},"geometry":{"type":"LineString","coordinates":[[87.1517094,53.748271],[87.1517404,53.7482861],[87.1577257,53.7517442],[87.1578944,53.7518417],[87.1586982,53.7523038],[87.1592244,53.7525812],[87.1627005,53.7545718],[87.1664333,53.7567129],[87.1667345,53.7568793],[87.1669819,53.7569964],[87.1671566,53.7570765],[87.1673486,53.7571545],[87.1686896,53.7576299],[87.1688862,53.7577093],[87.1690597,53.7577859],[87.1692275,53.7578749],[87.169406,53.7579789],[87.1695752,53.7580885],[87.1696749,53.7581581],[87.1697669,53.7582294],[87.1700132,53.7584363],[87.1701932,53.7586163]]}},{"type":"Feature","properties":{"way_id":1068168526,"route_colors":[],"route_refs":["8","6","2","9"]},"geometry":{"type":"LineString","coordinates":[[87.1701932,53.7586163],[87.1705648,53.7590294]]}},{"type":"Feature","properties":{"way_id":857001878,"route_colors":[],"route_refs":["8","6","2","9"]},"geometry":{"type":"LineString","coordinates":[[87.1705648,53.7590294],[87.1714736,53.7600463],[87.1719048,53.7605739]]}},{"type":"Feature","properties":{"way_id":37030572,"route_colors":[],"route_refs":["8","6","2","9"]},"geometry":{"type":"LineString","coordinates":[[87.1719048,53.7605739],[87.1751778,53.7643525]]}},{"type":"Feature","properties":{"way_id":37030542,"route_colors":[],"route_refs":["8","6","2","9"]},"geometry":{"type":"LineString","coordinates":[[87.1751778,53.7643525],[87.1757385,53.7649445],[87.1759315,53.7651159],[87.1761192,53.7652555],[87.1763361,53.7653914],[87.1765757,53.7655182],[87.1769483,53.7656938],[87.1772977,53.765831],[87.1835407,53.7678309],[87.1848693,53.7682572],[87.1850774,53.7683238],[87.1853877,53.7684271],[87.1855299,53.7684811],[87.1864645,53.768863],[87.1865575,53.7689014],[87.1866665,53.7689532],[87.1867396,53.7689978],[87.1867918,53.7690452],[87.1868252,53.769099],[87.1868414,53.769156],[87.1868411,53.7691782],[87.1868524,53.7692138],[87.1868685,53.7692455],[87.1868932,53.7692796],[87.1869085,53.7692939],[87.1869348,53.769317],[87.1869686,53.7693375],[87.1870092,53.769358],[87.1927854,53.7719293],[87.1940654,53.7724557],[87.1946267,53.7726735],[87.1947898,53.7727252],[87.1949719,53.7727856],[87.1962191,53.7733043],[87.1967563,53.7735276],[87.1976491,53.7738988],[87.1978378,53.7739773],[87.1985131,53.774258],[87.1998811,53.7748267],[87.202182,53.7758193],[87.2024896,53.7759559],[87.2035988,53.7764553],[87.2057506,53.7774299],[87.2077624,53.7783366],[87.2094941,53.77911],[87.209633,53.7791706],[87.2097973,53.7792422],[87.2098424,53.7792619],[87.2129541,53.7806224],[87.213344,53.7807924],[87.2137712,53.7809789],[87.2156418,53.781792],[87.2169031,53.782344],[87.217571,53.7826336],[87.2201486,53.7837746]]}},{"type":"Feature","properties":{"way_id":856380273,"route_colors":[],"route_refs":["8","2"]},"geometry":{"type":"LineString","coordinates":[[87.2201486,53.7837746],[87.2203104,53.7838462],[87.2203536,53.7838651],[87.2207413,53.7840347],[87.2208569,53.7840852]]}},{"type":"Feature","properties":{"way_id":37030539,"route_colors":[],"route_refs":["8","2"]},"geometry":{"type":"LineString","coordinates":[[87.2208569,53.7840852],[87.2211434,53.7842137],[87.223368,53.7852013],[87.2264381,53.7865643],[87.2266212,53.7866456],[87.2270218,53.7868235],[87.2273923,53.7869881],[87.22764,53.7870981],[87.2279897,53.7872533],[87.2280907,53.7872983],[87.2325454,53.7892768],[87.2358373,53.7907389],[87.2366537,53.7910483],[87.2369667,53.7911188],[87.2371012,53.7911384],[87.237233,53.7911441],[87.2374693,53.7911289],[87.2375792,53.7911161],[87.2376754,53.7910965],[87.2379476,53.7910127],[87.2380393,53.7909781],[87.2381232,53.790936],[87.2391907,53.7903378],[87.2393028,53.7902819],[87.2394334,53.7902158],[87.2409267,53.7895272],[87.2427494,53.7886918],[87.2451322,53.7876377],[87.2506193,53.7852211],[87.255039,53.78334],[87.2552807,53.7832371],[87.2553543,53.7832058],[87.2555109,53.7831318],[87.2555646,53.7830851],[87.2555787,53.7830193],[87.2555626,53.7829756],[87.255508,53.7828927],[87.2555121,53.7828319],[87.2555479,53.7827772],[87.255674,53.7827157],[87.2558862,53.7826323],[87.2560667,53.7825632],[87.2561981,53.7825394],[87.2563289,53.7825637],[87.2564825,53.7826088],[87.256636,53.7826314],[87.2567683,53.782604],[87.2570969,53.7824641],[87.258626,53.7818133],[87.2588718,53.78171],[87.2593676,53.7815015],[87.2594497,53.7814785],[87.2595736,53.7814439],[87.2598383,53.7813747],[87.259925,53.781352],[87.2599762,53.7813338]]}},{"type":"Feature","properties":{"way_id":41499356,"route_colors":[],"route_refs":["8","6","2","9"]},"geometry":{"type":"LineString","coordinates":[[87.2599762,53.7813338],[87.2601455,53.7812735],[87.2605128,53.7811143],[87.2607481,53.7810122],[87.261093,53.7808626],[87.2649485,53.7791401],[87.2660745,53.7786437],[87.2662699,53.7785759],[87.2666,53.7785033],[87.2666784,53.7784946],[87.2667883,53.7784823],[87.2670325,53.7784741],[87.2672411,53.7784856],[87.2674443,53.7785152],[87.2676365,53.7785671],[87.2679361,53.7786896],[87.2690282,53.7794426],[87.2709949,53.7809331],[87.2711342,53.7810131],[87.2712829,53.7810815],[87.2714988,53.7811476],[87.2717556,53.7812275],[87.2719335,53.78128],[87.2721262,53.7813334],[87.2723681,53.7813816],[87.2726957,53.7814142],[87.2743058,53.781393],[87.2797858,53.7812965],[87.2811898,53.7812851],[87.2827653,53.7812664],[87.2842562,53.7812388],[87.2861481,53.7812038],[87.2880697,53.7811683],[87.289827,53.7811358],[87.2901751,53.7811294],[87.2928456,53.78108],[87.2929565,53.7810779],[87.2937373,53.7810631],[87.2939498,53.7810591],[87.2952158,53.781035],[87.2954305,53.7810309],[87.2975412,53.7809979],[87.3010716,53.7809316],[87.3017194,53.7809381],[87.3022198,53.7809505],[87.3023268,53.7809532],[87.3027634,53.7809824],[87.3032401,53.7810414],[87.303751,53.7811236],[87.3046983,53.7813189],[87.30729,53.7819455],[87.3079318,53.7821007],[87.3080657,53.7821316],[87.312732,53.7832252],[87.3129555,53.7832776],[87.3130207,53.7832865],[87.3130802,53.7832893],[87.3131402,53.7832866],[87.313172,53.7832812],[87.3132409,53.7832698],[87.3133098,53.7832536],[87.3133999,53.783226],[87.3134582,53.783207],[87.313508,53.7831851],[87.3135497,53.783159],[87.3135772,53.7831338],[87.3137139,53.7829691]]}},{"type":"Feature","properties":{"way_id":195122861,"route_colors":[],"route_refs":["8","6"]},"geometry":{"type":"LineString","coordinates":[[87.3137139,53.7829691],[87.3137693,53.7828827],[87.313796,53.7828493],[87.3138217,53.7828285],[87.3139201,53.7827659],[87.3139634,53.7827471],[87.3140062,53.7827379],[87.3141402,53.7827258],[87.3141808,53.782726],[87.3142223,53.7827303],[87.3144126,53.782764],[87.3144485,53.7827762],[87.3144815,53.7827965],[87.314536,53.7828473],[87.3145532,53.7828677],[87.3145663,53.7828934],[87.3145959,53.7829681]]}},{"type":"Feature","properties":{"way_id":195122863,"route_colors":[],"route_refs":["8","6"]},"geometry":{"type":"LineString","coordinates":[[87.3145959,53.7829681],[87.3146808,53.7831557],[87.3147162,53.7831963],[87.3147621,53.7832293],[87.3148827,53.7832935],[87.3149412,53.7833139],[87.3150101,53.7833302],[87.3152992,53.7833628],[87.3153792,53.7833695],[87.3154527,53.7833716],[87.3159221,53.7833671],[87.3159985,53.7833576],[87.316086,53.783332],[87.3164591,53.7831823],[87.3165274,53.7831501],[87.3165611,53.7831258],[87.316604,53.7830824],[87.3167107,53.7829595],[87.3167624,53.7829021],[87.3168085,53.7828629],[87.3168704,53.7828173],[87.3169514,53.7827725],[87.3170229,53.7827464],[87.317342,53.7826598],[87.3174521,53.782638],[87.3175664,53.7826244],[87.3178361,53.7826164],[87.3179868,53.7826168],[87.3181788,53.7826259],[87.3193908,53.7827135],[87.3207513,53.7828174],[87.3211618,53.7828487],[87.3259224,53.7831766],[87.3309499,53.7835229],[87.33127,53.7835449],[87.3324074,53.7836223],[87.3330089,53.783663],[87.3331619,53.7836752],[87.3332973,53.7836929],[87.3336896,53.7837539],[87.3338387,53.7837819],[87.3339819,53.7838168],[87.3343871,53.783929],[87.334502,53.7839667],[87.3346311,53.784009],[87.3350995,53.7841857],[87.3352504,53.7842505],[87.3354092,53.7843367],[87.3368152,53.7851853],[87.3371132,53.7853643],[87.3379915,53.7858918],[87.3383627,53.7860601],[87.3390515,53.7863145],[87.3391523,53.7863551],[87.3392716,53.7864072],[87.341327,53.787368],[87.3422828,53.7877691],[87.3426915,53.7879179],[87.3430569,53.7880215],[87.343136,53.7880436],[87.3432159,53.7880609],[87.3432952,53.7880769],[87.3438259,53.7881843],[87.3439243,53.7882072],[87.3440155,53.788232],[87.3459133,53.7888441],[87.3474733,53.7894292],[87.3501247,53.7904083]]}},{"type":"Feature","properties":{"way_id":856374704,"route_colors":[],"route_refs":["8"]},"geometry":{"type":"LineString","coordinates":[[87.3500982,53.7904493],[87.34744,53.7894679],[87.3458813,53.7888859],[87.3439888,53.7882643],[87.3438531,53.7882286],[87.3437456,53.7882046],[87.343379,53.7881282],[87.343199,53.7880907],[87.3431161,53.7880739],[87.3430384,53.7880517],[87.3426662,53.7879502],[87.3422553,53.7878035],[87.3412856,53.7873989],[87.3392478,53.7864516],[87.3391013,53.7863871],[87.3389707,53.7863351],[87.3383167,53.7860918],[87.3379577,53.7859295],[87.3367711,53.7852082],[87.3364574,53.7850216],[87.3353301,53.784351],[87.3351994,53.7842805],[87.335058,53.7842203],[87.3346264,53.7840558],[87.3344809,53.7840035],[87.334358,53.7839646],[87.3339415,53.783851],[87.3338181,53.7838204],[87.3336879,53.7837965],[87.3332672,53.7837305],[87.3331505,53.7837145],[87.3330073,53.7837024],[87.3324008,53.7836559],[87.331651,53.7836044],[87.3312649,53.7835779],[87.3264826,53.7832506],[87.3215771,53.7829148],[87.321152,53.7828857],[87.319386,53.7827531],[87.3181319,53.7826617],[87.3179871,53.7826544],[87.317846,53.7826546],[87.3175639,53.7826624],[87.3174724,53.7826729],[87.3173709,53.7826934],[87.3170606,53.7827813],[87.3169935,53.7828036],[87.3169431,53.7828337],[87.3168624,53.7828932],[87.3168193,53.7829287],[87.3167718,53.782978],[87.3166715,53.7830938],[87.316618,53.7831456],[87.3165606,53.7831831],[87.3165358,53.783196],[87.3165004,53.7832128],[87.316093,53.7833751],[87.3160238,53.7833902],[87.3159234,53.783401],[87.3154513,53.783403],[87.3153809,53.7833993],[87.3152993,53.7833941],[87.3149957,53.7833608],[87.3149157,53.7833457],[87.3148446,53.7833292],[87.3146551,53.7832686],[87.3145979,53.7832544],[87.3145322,53.7832441],[87.3142075,53.7832079]]}},{"type":"Feature","properties":{"way_id":856374702,"route_colors":[],"route_refs":["8"]},"geometry":{"type":"LineString","coordinates":[[87.3142075,53.7832079],[87.3139486,53.7831711]]}},{"type":"Feature","properties":{"way_id":856374705,"route_colors":[],"route_refs":["8","2","9"]},"geometry":{"type":"LineString","coordinates":[[87.3139486,53.7831711],[87.3138191,53.7831695],[87.3137335,53.7831799],[87.313647,53.7831985],[87.3135585,53.7832284],[87.3133558,53.7832959],[87.3132618,53.7833152],[87.3132216,53.7833226],[87.3131127,53.7833305],[87.3130311,53.783323],[87.3129561,53.7833108],[87.312714,53.7832539],[87.3088291,53.7823413],[87.3080544,53.7821593],[87.3078944,53.7821206],[87.3046787,53.781353],[87.3037362,53.7811599],[87.3032215,53.7810779],[87.3027436,53.7810174],[87.3023245,53.7809893],[87.3017191,53.7809747],[87.3010813,53.7809699],[87.2954293,53.7810753],[87.2952181,53.7810796],[87.294161,53.7811012],[87.2939513,53.7811055],[87.2929463,53.7811261],[87.2928471,53.7811278],[87.2903786,53.7811694],[87.2898297,53.7811787],[87.2880828,53.7812081],[87.2861515,53.7812407],[87.2844163,53.78127],[87.2827528,53.7812984],[87.2812182,53.7813191],[87.2797867,53.7813279],[87.2745305,53.7814299],[87.2726707,53.7814557],[87.2723447,53.7814214],[87.2720733,53.7813701],[87.2718361,53.7813074],[87.2716212,53.7812407],[87.2714438,53.7811851],[87.271226,53.7811175],[87.2710733,53.7810366],[87.2709177,53.7809625],[87.2689683,53.7794668],[87.2678813,53.7787186],[87.267599,53.7786117],[87.2673895,53.7785627],[87.2672066,53.7785368],[87.2670033,53.7785253],[87.2667941,53.7785296],[87.2666362,53.778549],[87.2663199,53.7786132],[87.2661173,53.7786825],[87.2649799,53.7791655],[87.2611342,53.7808936],[87.2608072,53.7810307],[87.2604566,53.7811777],[87.2601767,53.7812989],[87.2600001,53.7813663]]}},{"type":"Feature","properties":{"way_id":856380284,"route_colors":[],"route_refs":["8","2"]},"geometry":{"type":"LineString","coordinates":[[87.2600001,53.7813663],[87.2595482,53.7814883],[87.2593984,53.7815271],[87.2588763,53.7817467],[87.258657,53.7818389],[87.2568572,53.782605],[87.2566005,53.7827142],[87.2561996,53.7828848],[87.2560305,53.782968],[87.2555627,53.7831559],[87.2554945,53.7831849],[87.2553153,53.7832612],[87.2506507,53.7852465],[87.2451885,53.7876521],[87.2427905,53.7887272],[87.2409752,53.7895447],[87.2394551,53.7902525],[87.2393519,53.7903045],[87.2392398,53.790362],[87.2381418,53.7909801],[87.2380634,53.7910179],[87.237977,53.7910503],[87.2376763,53.7911391],[87.2375917,53.7911592],[87.2374823,53.791172],[87.2372472,53.7911881],[87.2370872,53.7911844],[87.2369789,53.7911684],[87.2366182,53.7910839],[87.2358034,53.7907749],[87.2325157,53.7893008],[87.2279624,53.7872756],[87.2275004,53.7870701],[87.2274093,53.7870296],[87.2271015,53.7868926],[87.2234295,53.7852594],[87.2211475,53.7842444],[87.2208251,53.7841104],[87.2207735,53.7840878]]}},{"type":"Feature","properties":{"way_id":856380272,"route_colors":[],"route_refs":["8","2"]},"geometry":{"type":"LineString","coordinates":[[87.2207735,53.7840878],[87.2202303,53.783854]]}},{"type":"Feature","properties":{"way_id":856380274,"route_colors":[],"route_refs":["8","2","9"]},"geometry":{"type":"LineString","coordinates":[[87.2202303,53.783854],[87.2175393,53.7826588],[87.2168728,53.7823668],[87.2156545,53.7818331],[87.2137417,53.7810005],[87.2133169,53.7808145],[87.2129251,53.7806447],[87.2098108,53.7792872],[87.2097676,53.7792673],[87.2096388,53.7792121],[87.2094622,53.7791351],[87.2077354,53.7783573],[87.2057218,53.7774527],[87.2035674,53.7764808],[87.2024594,53.7759818],[87.2021633,53.7758485],[87.1998499,53.7748522],[87.1984831,53.774284],[87.1978077,53.7740032],[87.1976167,53.7739237],[87.1967266,53.7735537],[87.1961933,53.773326],[87.1949563,53.7728118],[87.1948294,53.772768],[87.1946064,53.7727004],[87.1940234,53.772477],[87.1927474,53.7719568],[87.1872018,53.7694826],[87.1869874,53.769387],[87.1869369,53.769361],[87.1868971,53.7693372],[87.1868639,53.7693112],[87.1868414,53.7692874],[87.1868082,53.7692344],[87.1867904,53.7691963],[87.1867869,53.7691557],[87.1867686,53.7691041],[87.1867399,53.7690599],[87.1866985,53.7690193],[87.1866246,53.7689765],[87.1865427,53.7689369],[87.1854941,53.7685095],[87.1853697,53.7684627],[87.1851343,53.7683835],[87.1848445,53.7682899],[87.183506,53.7678657],[87.1772677,53.7658595],[87.1769108,53.7657201],[87.1765387,53.7655429],[87.1762935,53.7654087],[87.1760706,53.7652659],[87.1758904,53.7651275],[87.1757025,53.7649647],[87.1751468,53.7643634]]}},{"type":"Feature","properties":{"way_id":857001874,"route_colors":[],"route_refs":["8","2","9"]},"geometry":{"type":"LineString","coordinates":[[87.1751468,53.7643634],[87.1718696,53.7605854]]}},{"type":"Feature","properties":{"way_id":1068168527,"route_colors":[],"route_refs":["8","2","9"]},"geometry":{"type":"LineString","coordinates":[[87.1718696,53.7605854],[87.171422,53.7600421],[87.1705116,53.7590437]]}},{"type":"Feature","properties":{"way_id":1068168528,"route_colors":[],"route_refs":["8","2","9"]},"geometry":{"type":"LineString","coordinates":[[87.1705116,53.7590437],[87.1701414,53.7586267]]}},{"type":"Feature","properties":{"way_id":857001873,"route_colors":[],"route_refs":["8","2","9"]},"geometry":{"type":"LineString","coordinates":[[87.1701414,53.7586267],[87.1699849,53.7584659],[87.1697253,53.758243],[87.1696373,53.7581735],[87.1695536,53.7581148],[87.1693635,53.757993],[87.1691957,53.7578948],[87.1690298,53.7578087],[87.1688608,53.7577324],[87.1686652,53.7576503],[87.1673272,53.7571793],[87.1671354,53.7571015],[87.1669381,53.7570088],[87.1667429,53.7569168],[87.1664042,53.756733],[87.1626636,53.7545944],[87.1591866,53.7526033],[87.1586619,53.7523268],[87.1578595,53.7518644],[87.157686,53.7517642],[87.1517038,53.7483089],[87.1516724,53.7482904]]}},{"type":"Feature","properties":{"way_id":112557083,"route_colors":[],"route_refs":["8"]},"geometry":{"type":"LineString","coordinates":[[87.1516724,53.7482904],[87.1515699,53.7482284],[87.1514417,53.7481528],[87.1513601,53.7481007],[87.151105,53.7479444],[87.1510855,53.7479324],[87.1509396,53.747845]]}},{"type":"Feature","properties":{"way_id":856380278,"route_colors":[],"route_refs":["6","9"]},"geometry":{"type":"LineString","coordinates":[[87.2201486,53.7837746],[87.2202156,53.7837873],[87.2202852,53.783793],[87.2203228,53.7837923],[87.2203555,53.7837917],[87.2204244,53.7837832],[87.2204898,53.783768],[87.220552,53.7837455],[87.2206064,53.7837169],[87.2206514,53.783683],[87.2206856,53.783645],[87.2207079,53.783604]]}},{"type":"Feature","properties":{"way_id":1067940199,"route_colors":[],"route_refs":["6","9"]},"geometry":{"type":"LineString","coordinates":[[87.2207079,53.783604],[87.220693,53.7831997],[87.2206453,53.782056],[87.220651,53.7819957],[87.2206665,53.7819321],[87.2207391,53.7817417],[87.2208043,53.7816214],[87.2208257,53.7815663],[87.2208366,53.7815238],[87.2209655,53.7807718],[87.2212977,53.7787852],[87.2213209,53.7785927],[87.2214649,53.7775365],[87.2216335,53.7762362],[87.2216502,53.7761131],[87.2216695,53.7760755],[87.2216931,53.77604],[87.2217237,53.7760163],[87.2217722,53.7759863],[87.2217955,53.7759792],[87.2219334,53.7759385],[87.2221402,53.775905],[87.2222008,53.7758961],[87.2228155,53.775835],[87.2229715,53.7758138],[87.2231281,53.7757905],[87.2249901,53.7754426]]}},{"type":"Feature","properties":{"way_id":1067940200,"route_colors":[],"route_refs":["6","9"]},"geometry":{"type":"LineString","coordinates":[[87.2249901,53.7754426],[87.225375,53.775367]]}},{"type":"Feature","properties":{"way_id":856380280,"route_colors":[],"route_refs":["6","9"]},"geometry":{"type":"LineString","coordinates":[[87.225375,53.775367],[87.2291987,53.7746157],[87.2299474,53.7744962],[87.2307376,53.7744373],[87.2313916,53.7744347],[87.2321908,53.7744785],[87.2322803,53.7744869],[87.2323891,53.774501],[87.2329092,53.7745798],[87.2330823,53.7746125],[87.2333225,53.7746695],[87.2370685,53.7756725],[87.2397899,53.7763666],[87.2515234,53.7793101],[87.2590086,53.7811683],[87.2590881,53.781188],[87.2593829,53.7812612],[87.2596418,53.7813283],[87.2596924,53.7813365],[87.2597356,53.7813393],[87.2598499,53.7813425],[87.2599207,53.7813405],[87.2599762,53.7813338]]}},{"type":"Feature","properties":{"way_id":856380281,"route_colors":[],"route_refs":["8","9"]},"geometry":{"type":"LineString","coordinates":[[87.2600001,53.7813663],[87.2599321,53.7813734],[87.2598383,53.7813747],[87.2597323,53.7813714],[87.2596797,53.781367],[87.2596234,53.781358],[87.259443,53.7813115],[87.2593513,53.7812878],[87.259058,53.781215],[87.2589059,53.7811772],[87.2515027,53.7793391],[87.2397689,53.7763955],[87.2370425,53.7756951],[87.233298,53.7746972],[87.2330713,53.7746439],[87.2328938,53.7746099],[87.2323468,53.7745271],[87.2322637,53.7745181],[87.2321839,53.7745099],[87.2313938,53.7744678],[87.2307438,53.7744725],[87.2299561,53.7745274],[87.2292143,53.7746458],[87.2253992,53.7753953]]}},{"type":"Feature","properties":{"way_id":1067940202,"route_colors":[],"route_refs":["8","9"]},"geometry":{"type":"LineString","coordinates":[[87.2253992,53.7753953],[87.2250179,53.7754702]]}},{"type":"Feature","properties":{"way_id":1067940201,"route_colors":[],"route_refs":["8","9"]},"geometry":{"type":"LineString","coordinates":[[87.2250179,53.7754702],[87.2231128,53.7758308],[87.2229826,53.77585],[87.2228335,53.7758698],[87.2222121,53.7759294],[87.2219645,53.7759672],[87.2219529,53.7759689],[87.2219488,53.77597],[87.2218086,53.7760138],[87.2217727,53.776039],[87.2217487,53.7760593],[87.22173,53.7760868],[87.221714,53.7761158],[87.2216995,53.7762339],[87.2215289,53.7775345],[87.2213754,53.7785959],[87.2213521,53.7787951],[87.2210134,53.7807786],[87.2208972,53.7815349],[87.220887,53.7815728],[87.2208676,53.7816247],[87.220795,53.7817458],[87.2207173,53.7819445],[87.2207044,53.7819984],[87.2206986,53.7820587],[87.2207446,53.7831944],[87.220765,53.7836975]]}},{"type":"Feature","properties":{"way_id":856380279,"route_colors":[],"route_refs":["8","9"]},"geometry":{"type":"LineString","coordinates":[[87.220765,53.7836975],[87.2207338,53.7837375],[87.2207141,53.7837562],[87.2206914,53.7837737],[87.2206391,53.7838051],[87.2205783,53.7838306],[87.2205134,53.7838491],[87.2204671,53.783857],[87.2204442,53.7838609],[87.2203726,53.7838657],[87.2203536,53.7838651],[87.2203006,53.7838634],[87.2202303,53.783854]]}},{"type":"Feature","properties":{"way_id":854210323,"route_colors":[],"route_refs":["2","9"]},"geometry":{"type":"LineString","coordinates":[[87.1516724,53.7482904],[87.1515651,53.7482523],[87.1515227,53.748245],[87.1514811,53.7482391],[87.1514347,53.748237],[87.1513773,53.7482385],[87.1513174,53.7482468],[87.151206,53.7482756],[87.1511145,53.7483144],[87.1510717,53.7483377],[87.1510306,53.7483601]]}},{"type":"Feature","properties":{"way_id":857001871,"route_colors":[],"route_refs":["2","9"]},"geometry":{"type":"LineString","coordinates":[[87.1510061,53.7483486],[87.1510484,53.7483243],[87.1510902,53.7483002],[87.1511849,53.7482578],[87.1512646,53.7482365],[87.1513568,53.7482184],[87.151415,53.7482153],[87.1514802,53.7482172],[87.1515699,53.7482284],[87.151627,53.7482421],[87.1517094,53.748271]]}},{"type":"Feature","properties":{"way_id":1332149489,"route_colors":[],"route_refs":["10"]},"geometry":{"type":"LineString","coordinates":[[87.15355,53.8179278],[87.1532046,53.8178643]]}},{"type":"Feature","properties":{"way_id":46262423,"route_colors":[],"route_refs":["10"]},"geometry":{"type":"LineString","coordinates":[[87.1532046,53.8178643],[87.153113,53.8178429],[87.1530496,53.817828],[87.1529925,53.8178054],[87.1529298,53.8177712],[87.1528673,53.8177063],[87.1528335,53.8176368],[87.1528341,53.8175566],[87.1528609,53.8175099],[87.1529045,53.8174676],[87.1529618,53.8174375],[87.1530424,53.8174129],[87.1531304,53.8174031],[87.153224,53.817401],[87.1533452,53.8174119],[87.1534961,53.8174457],[87.1536601,53.8175046],[87.1537743,53.817583],[87.1540649,53.8179152],[87.1541866,53.817985],[87.1542528,53.8180126],[87.1543298,53.818037]]}},{"type":"Feature","properties":{"way_id":855483958,"route_colors":[],"route_refs":["10"]},"geometry":{"type":"LineString","coordinates":[[87.1543298,53.818037],[87.1545284,53.8180841],[87.1546717,53.818122],[87.1547326,53.818146],[87.1547946,53.8181866],[87.1553055,53.8186439],[87.1557929,53.819068],[87.1561931,53.8194283],[87.1570371,53.8201673],[87.1573928,53.8204787],[87.1576536,53.8207071],[87.1576947,53.8207411],[87.1582566,53.8212076],[87.1601538,53.8228947],[87.1602636,53.8229931],[87.160457,53.8231665],[87.1619292,53.8244478],[87.1633491,53.8256917],[87.1633722,53.8257116],[87.1646383,53.826801],[87.1647289,53.8268789],[87.1655062,53.8275657],[87.1655421,53.8275994],[87.1656321,53.8276728],[87.1657179,53.8277143],[87.1657929,53.8277361],[87.1658512,53.8277471],[87.1659245,53.8277506],[87.1659779,53.8277471],[87.1660441,53.8277397],[87.1660978,53.8277289],[87.1661457,53.8277147],[87.1666527,53.8275229],[87.1668278,53.827457],[87.1669138,53.8274286],[87.1670173,53.8274083],[87.1671078,53.8274032],[87.1671987,53.8274086],[87.1672949,53.8274248],[87.1673871,53.8274506],[87.1674683,53.8274948],[87.1680789,53.8280216],[87.1709736,53.8305527],[87.1714644,53.8309845],[87.1716249,53.8311281],[87.1726952,53.8320596],[87.1736762,53.832912],[87.1738697,53.8330808],[87.1749019,53.8339888],[87.1756249,53.8346101],[87.1763471,53.8352379],[87.1770447,53.8358397],[87.1787678,53.8373421],[87.1794568,53.8379421],[87.1796813,53.8381419],[87.1820782,53.8402112],[87.1832155,53.8411968],[87.1851777,53.8429062],[87.1857207,53.8433799],[87.1857706,53.8434246],[87.1858518,53.843495],[87.1862552,53.8438471],[87.1863285,53.8439111],[87.1865249,53.8440837],[87.1879425,53.84533],[87.1879998,53.8453682],[87.1881114,53.8454166],[87.1882731,53.8454753],[87.1883739,53.8455006],[87.1885023,53.8455213],[87.1886119,53.8455304],[87.1907393,53.8455559],[87.191223,53.8455303],[87.191683,53.8454933],[87.191772,53.8454862],[87.1922143,53.8454265],[87.1929307,53.8452805],[87.1935682,53.8451284],[87.1942397,53.8449297],[87.1964626,53.8441833],[87.196545,53.8441411],[87.1966101,53.8440991],[87.1966812,53.8440425],[87.1967107,53.8440038],[87.1968005,53.8438387],[87.1970165,53.8431702],[87.1970638,53.8430759],[87.1971369,53.8429931],[87.1972289,53.8429231],[87.1973608,53.8428567],[87.1974995,53.8428236],[87.1976739,53.8428116],[87.1978342,53.8428204],[87.19801,53.8428535],[87.1981198,53.8428808],[87.1991198,53.843173],[87.1992297,53.8431978],[87.1993589,53.8432112],[87.1995075,53.843212],[87.1996397,53.8431999],[87.199836,53.8431614],[87.2020821,53.8425778],[87.2037302,53.8421551],[87.2045351,53.8419488],[87.2045707,53.8419397],[87.2046332,53.8419264],[87.2047986,53.8419019],[87.2061415,53.8417776],[87.2078118,53.8416702],[87.2080347,53.8416684],[87.2082769,53.8416767],[87.2085062,53.8417109],[87.2087205,53.8417595],[87.2089336,53.8418358],[87.2091072,53.8419122],[87.2105676,53.8426629],[87.2107896,53.8428213],[87.2109274,53.8429453],[87.2111719,53.8432117],[87.2129336,53.8455559],[87.2151869,53.8485302],[87.21538,53.8487851],[87.2169079,53.8508029],[87.2171942,53.8511375],[87.2174719,53.8514168],[87.2179613,53.8518428],[87.2180567,53.8519259],[87.2183528,53.8521861],[87.220799,53.8543159],[87.2210629,53.8545422],[87.2212927,53.8547067],[87.2214473,53.8548072],[87.2216132,53.8549051],[87.2225939,53.8554666],[87.2228885,53.8556335],[87.2254542,53.8570863],[87.2273915,53.8581834],[87.2336743,53.8617318],[87.2358203,53.8628797],[87.2373638,53.863572],[87.237522,53.863643],[87.2470245,53.8675122],[87.2488489,53.868255],[87.2517843,53.8694501],[87.2533558,53.8700899],[87.2599431,53.8727717],[87.2639805,53.8744153],[87.2671562,53.8757081],[87.2732713,53.8781999],[87.2796925,53.8808163],[87.2799663,53.8809279],[87.2819406,53.8817323],[87.285942,53.8833482],[87.2913969,53.8855509],[87.2928089,53.886121],[87.2939052,53.886555],[87.2945183,53.8868078],[87.296387,53.8875785],[87.3006606,53.8893372]]}},{"type":"Feature","properties":{"way_id":1095304629,"route_colors":[],"route_refs":["10"]},"geometry":{"type":"LineString","coordinates":[[87.3006606,53.8893372],[87.3007392,53.8893696],[87.3008582,53.8894186],[87.3010111,53.8894549],[87.301117,53.8894672],[87.3012272,53.8894638],[87.3013056,53.889454],[87.3017664,53.8893872],[87.3018887,53.8893733],[87.3020813,53.889385],[87.3021725,53.8894101],[87.3022598,53.8894461],[87.302334,53.8894989],[87.3023709,53.8895427],[87.3023882,53.8895807],[87.3023859,53.8896623],[87.3023476,53.8897189],[87.3022577,53.8897774],[87.3021178,53.889822],[87.3019601,53.8898352],[87.3018341,53.8898257],[87.301716,53.889797],[87.300834,53.8894441],[87.296344,53.8876007],[87.2942572,53.8867429],[87.2938723,53.8865846],[87.2927821,53.8861621],[87.2913647,53.8855876],[87.2860846,53.8834475],[87.2819191,53.8817591],[87.2799407,53.8809537],[87.2793549,53.8807152],[87.2729918,53.8781248],[87.2671294,53.8757381],[87.2638019,53.8743831],[87.2599121,53.8727991],[87.2529922,53.8699814],[87.2517468,53.8694743],[87.2466335,53.8673921],[87.2374962,53.863671],[87.235792,53.8629003],[87.2336437,53.8617512],[87.2273605,53.8582026],[87.2254231,53.8571055],[87.2225626,53.8554856],[87.2215808,53.85492],[87.2214241,53.8548292],[87.221253,53.8547224],[87.2210325,53.8545637],[87.2207622,53.8543311],[87.21831,53.8521957],[87.2179242,53.8518577],[87.2174347,53.8514317],[87.2171465,53.8511533],[87.2168587,53.8508146],[87.2153383,53.8487958],[87.214985,53.8483294],[87.2128926,53.8455666],[87.2111315,53.8432234],[87.2108895,53.8429596],[87.2107504,53.8428388],[87.2105345,53.842681],[87.2090799,53.8419332],[87.2089067,53.841858],[87.2087009,53.8417836],[87.2084908,53.8417373],[87.2082695,53.8417031],[87.208031,53.8416958],[87.2078137,53.8416967],[87.2061474,53.8418038],[87.2047988,53.8419278],[87.2046488,53.8419509],[87.2045913,53.841963],[87.2045692,53.8419689],[87.203596,53.8422185],[87.2021001,53.8426021],[87.1998508,53.8431865],[87.1996461,53.843225],[87.1995114,53.8432388],[87.1993541,53.8432382],[87.1992176,53.8432238],[87.1991012,53.8431982],[87.1980928,53.8429025],[87.1979957,53.8428789],[87.1978221,53.8428455],[87.197675,53.8428387],[87.1975038,53.8428527],[87.197384,53.8428806],[87.1972627,53.8429403],[87.1971778,53.8430063],[87.1971082,53.8430841],[87.197058,53.843172],[87.1968472,53.8438482],[87.1967544,53.8440165],[87.1967188,53.844058],[87.1966433,53.8441223],[87.1965806,53.8441617],[87.1965058,53.8442015],[87.1942914,53.8449463],[87.1935957,53.8451549],[87.1929515,53.8453068],[87.192227,53.845452],[87.1917801,53.8455123],[87.1916887,53.8455196],[87.191228,53.8455566],[87.1907408,53.8455824],[87.1886019,53.8455525],[87.1884916,53.8455446],[87.1883594,53.8455245],[87.1882479,53.845495],[87.1881589,53.845462],[87.1880382,53.845415],[87.1879727,53.8453867],[87.1879103,53.8453469],[87.1864124,53.8440322],[87.1862888,53.8439238],[87.1857423,53.843441],[87.1849929,53.8428005],[87.1830986,53.8411417],[87.182036,53.8402271],[87.179644,53.8381567],[87.1794063,53.8379479],[87.1787334,53.8373568],[87.1770032,53.8358545],[87.1763109,53.8352515],[87.1755853,53.8346259],[87.1748593,53.8340022],[87.1740208,53.8332503],[87.1738393,53.8330926],[87.1726582,53.8320745],[87.171707,53.8312464],[87.1715862,53.8311435],[87.1709366,53.8305678],[87.1680312,53.8280414],[87.167425,53.8275167],[87.1673629,53.8274793],[87.1672784,53.8274545],[87.1671926,53.8274416],[87.1671093,53.8274389],[87.1670276,53.8274447],[87.1669379,53.827461],[87.1668597,53.8274851],[87.1663029,53.827693],[87.1661608,53.8277469],[87.1661152,53.8277614],[87.1660618,53.8277746],[87.1659889,53.8277849],[87.1659161,53.8277893],[87.1658309,53.8277835],[87.1657426,53.8277647],[87.1656709,53.8277368],[87.1655813,53.8276863],[87.1655133,53.8276273],[87.1654526,53.8275794],[87.1646865,53.8268947],[87.1645974,53.8268181],[87.1634498,53.8258314],[87.1633309,53.8257281],[87.1618504,53.8244409],[87.1604808,53.8232393],[87.1602256,53.823009],[87.1601078,53.8229027],[87.1582121,53.8212329],[87.15765,53.8207587],[87.1573662,53.8205194],[87.1573426,53.8204985],[87.1569896,53.8201862],[87.1561517,53.8194447],[87.1557492,53.8190828],[87.1551836,53.818591],[87.1547475,53.8182062],[87.1546928,53.818171],[87.1546267,53.8181442],[87.1545229,53.8181165],[87.154408,53.8180934],[87.1541936,53.8180509]]}},{"type":"Feature","properties":{"way_id":855476390,"route_colors":[],"route_refs":["10"]},"geometry":{"type":"LineString","coordinates":[[87.1541936,53.8180509],[87.15355,53.8179278]]}}]}