{"type":"FeatureCollection","features":[{"type":"Feature","properties":{"route_ref":"8","route_color":"#229133"},"geometry":{"type":"MultiLineString","coordinates":[[[13.733045376339623,51.039202708161625],[13.7323906,51.0374952],[13.730781279560894,51.03410908923999],[13.730117011281157,51.0331553101355],[13.72959461311577,51.032767354224276],[13.727727392436487,51.032043165679404],[13.726960510238383,51.031950144185906],[13.7241502,51.0331376],[13.722941869787881,51.03339030501092],[13.7223261560942,51.033682118315426],[13.7222437148537,51.03399072453561],[13.722531273494685,51.034084194838336],[13.722939437674915,51.03401531899791],[13.723570228151475,51.03370407089518],[13.724187775300676,51.03312085710035],[13.72695453359972,51.03195487883569],[13.7273402,51.0319507],[13.727996493531405,51.032137995394415],[13.72959678339464,51.032772390540416],[13.730006957949197,51.03303419181903],[13.730636711561987,51.033857321466655],[13.732770074130423,51.03836640189129],[13.733040363799448,51.03920394939],[13.73331703813036,51.039563432683245],[13.733040298979978,51.03921482124177],[13.733948532386677,51.04029157849056],[13.734283645519364,51.040468217979445],[13.737573033333332,51.0396374],[13.741520079740067,51.038193206156855],[13.744029300577257,51.03739358768569],[13.74442201980091,51.03731196251283],[13.74472656082459,51.037369833356074],[13.747540525356813,51.038896915084706],[13.74835595216431,51.039582011520075],[13.754835806282026,51.04600222936648],[13.756238839779007,51.048069589527714],[13.757086453408526,51.04955064125228],[13.757534406701861,51.05074150541342],[13.758336387956426,51.05306164026629],[13.758214773097375,51.0537118158132],[13.756879274427703,51.055074542996095],[13.753181547667424,51.05846793618891],[13.751751519590709,51.06287246078545],[13.751005237215695,51.06309541343974],[13.74747668880966,51.063596046879795],[13.75085595,51.0631154],[13.751505175959059,51.06299880111581],[13.751758408059024,51.062867438770645],[13.753145525550522,51.05852643232097],[13.758022050449963,51.05400084108766],[13.75833949450738,51.053442166156465],[13.758342469810515,51.05306660642616],[13.756927179999995,51.0492426],[13.75496744279284,51.046147862397554],[13.754158420937918,51.04532507530249]],[[13.748537380808632,51.063398793831595],[13.74734168492522,51.06362754444216],[13.746975933053049,51.06376945734156],[13.746857187240197,51.063933213557114],[13.747018466041723,51.06653091769854],[13.74752842833298,51.06777202380879],[13.748824850000005,51.0693328],[13.75536752553349,51.076488943037965],[13.7579492,51.0786316],[13.762502144105198,51.085271279667275],[13.763606138544375,51.08726903235058],[13.76401677524579,51.088297330976445],[13.76388416652115,51.09000069150983],[13.764044234126718,51.09058532126562],[13.7657642,51.09270159999999],[13.767072226261336,51.09541782771494],[13.769690218567895,51.10155289134197],[13.770014616060742,51.10260579116299],[13.769309282042697,51.1035559591257],[13.768349333333333,51.104535399999996],[13.764402533333332,51.1077793],[13.763099150000004,51.10906274999999],[13.762904011605313,51.10963107143827],[13.763499132233289,51.1104194611234],[13.763497454561486,51.11065200262601],[13.762744894714064,51.11146404358366],[13.76189435826118,51.111947772325934],[13.761322248187962,51.11217078109581],[13.759940868298346,51.11245108906416],[13.758247390170338,51.1121426273539],[13.756421096578412,51.11206210908131],[13.750479237361038,51.112629892425964],[13.749719303673718,51.11298272880391],[13.74845773382369,51.114118797927645],[13.747607397485494,51.11472641323432],[13.745850177747355,51.115678443242835],[13.74359422653147,51.116735229523556],[13.742817794622308,51.11689148508083],[13.741092305393403,51.11693000854467],[13.74064566036701,51.11677563821284],[13.740409954505461,51.1163522737352]]]}},{"type":"Feature","properties":{"route_ref":"7","route_color":"#229133"},"geometry":{"type":"MultiLineString","coordinates":[[[13.745944233761843,51.06260066470019],[13.746543003040124,51.06318852695586],[13.746794858672196,51.063644154631056],[13.747010848450607,51.06648474306389],[13.7472547768932,51.067251759655704],[13.74768747660883,51.067999125323276],[13.755370786828681,51.076489014792266],[13.757951199528268,51.07863412242517],[13.762598029226123,51.08541971155003],[13.763985800518752,51.08818037976688],[13.76388466185845,51.0900019889071],[13.764046356886714,51.0905861216443],[13.765533240731958,51.092320633701576],[13.765897914074731,51.09296069794367],[13.766870199999998,51.094953700000005],[13.769966357972757,51.10224819800601],[13.766957186954349,51.09515609997315],[13.7657642,51.09270159999999],[13.764044234126718,51.09058532126562],[13.76388416652115,51.09000069150983],[13.76401677524579,51.088297330976445],[13.762715371394348,51.08562117652654],[13.7579492,51.0786316],[13.75536752553349,51.076488943037965],[13.747685980533255,51.06799824654133],[13.747252589452806,51.0672515504447],[13.747018466041723,51.06653091769854],[13.746790077554454,51.06362833099128],[13.746561122591087,51.06322220884016],[13.745929998749057,51.06258309597092]],[[13.74586209006035,51.057639542570826],[13.745981780592427,51.05828056110937],[13.745832362986752,51.0575507615964],[13.74554714220429,51.05738476021287],[13.743789506689902,51.0573449193386],[13.742575247407903,51.05743990154014],[13.741617641489757,51.05762129277695],[13.741282982020378,51.05758385348507],[13.7408764,51.0571975],[13.738613852513671,51.053989085365295],[13.738284575316392,51.053887008945495],[13.737596324777115,51.05393549048089],[13.736880092520742,51.0537221745978],[13.734619389174318,51.05204050116264],[13.733457383922012,51.05162622301924],[13.733283256735888,51.05148423589111],[13.73328710262359,51.05105932764363],[13.734641127189825,51.04738373812196],[13.734843722357558,51.047177294279535],[13.735180769592063,51.04709250074115],[13.738180527874192,51.04714191471372],[13.7403671,51.0470554],[13.740858300779768,51.04691104457041],[13.74106244142756,51.04659603763775],[13.740901862487762,51.04629847680449],[13.736249732118205,51.042589552279445],[13.734413444620841,51.04078620838674],[13.736721934271673,51.04297339212724],[13.740927248245447,51.04631205437011],[13.74106400190821,51.046616452102526],[13.740879781387967,51.046897712497845],[13.740347955100077,51.0470569277334],[13.738634849999999,51.047140775],[13.735142718082978,51.04710141975129],[13.734862786715471,51.0471779694696],[13.734612066623356,51.047457079669925],[13.733290344201718,51.05106381617579],[13.733309795758373,51.05151337007452],[13.734621566742007,51.05203895782255],[13.736861994454905,51.05371088145155],[13.737565007767632,51.053928745878835],[13.738330036948655,51.05388635611229],[13.738618964029621,51.053988930814604],[13.74080880040977,51.057097124435884],[13.741310594793871,51.057593338045386],[13.741609602136714,51.05762016065952],[13.74335016139684,51.05735832419746],[13.74552491763357,51.05738226448073],[13.745821931231596,51.05752976870951],[13.745957468724452,51.05828274140778],[13.74586700145068,51.05764190841395]],[[13.703872895358659,51.0436887844285],[13.701450175,51.04377429999999],[13.6998284,51.0436854],[13.70147410739969,51.04377352503261],[13.703108180355171,51.043734314075756],[13.704100287603891,51.04366498143651],[13.705230361339119,51.043380726104665],[13.705588243430007,51.04341556511558],[13.7072014,51.0442377],[13.710370388912533,51.04504514161596],[13.710998880687619,51.045279363121104],[13.71283013588021,51.046349148257484],[13.714613262387596,51.047555929101414],[13.7156431943237,51.04809640437626],[13.717694813678717,51.04873692831786],[13.719777080697037,51.04916838238582],[13.720112026916496,51.049072795877414],[13.720401159321806,51.04878741173528],[13.722156496152282,51.045162382020706],[13.722652975531187,51.044697197732376],[13.727536718308093,51.04280442164609],[13.733872383465052,51.04067106144977],[13.72739756885406,51.042852386123556],[13.722646696111006,51.044697957920306],[13.722155428558551,51.04516573227969],[13.720414066812802,51.04877971524721],[13.720199489947923,51.049023225419006],[13.71969183013085,51.049186906626645],[13.717295339903293,51.04862593171028],[13.715343858622528,51.047971616349386],[13.712697968329948,51.04626992641462],[13.710696627314627,51.04514780382375],[13.707208780640725,51.04424318682292],[13.705532855594255,51.043406839377994],[13.705101617446177,51.04340016259311],[13.703871921819273,51.04369911164365]],[[13.678293535580917,51.04536905669651],[13.677479039057832,51.045261920101204],[13.678978808653833,51.045378134576154],[13.679304667826866,51.045314822622714],[13.67960772091618,51.04512470687801],[13.67989432723087,51.04321317148533],[13.679988157627957,51.04323104962936],[13.680017215367315,51.042692177902346],[13.680105320636244,51.04268685524817],[13.67996475066975,51.042852465201115],[13.67994120463827,51.04326032792736],[13.679983638151358,51.04278486603852],[13.680216963578193,51.04248181732075],[13.680603166867634,51.042369270587855],[13.690010225404986,51.04255645833751],[13.6943787991566,51.04311495958233],[13.6998284,51.0436854],[13.694337623748254,51.043111416930756],[13.6900992822063,51.04256064930421],[13.68060510872081,51.04236834965458],[13.68028213375998,51.04243774148506],[13.680002329104516,51.042701186409964],[13.6797091,51.0449508],[13.679473287006035,51.0452355026471],[13.679120730650398,51.045354730427235],[13.676656334978778,51.045210216611146],[13.666844198758797,51.04421203458639],[13.66591901112895,51.04426570172592],[13.66520381182741,51.04443234978683],[13.664460653170288,51.0448116438638],[13.66406316985559,51.04517071515687],[13.663678587104569,51.045837046312506],[13.663109443024801,51.047546694155834],[13.6627429,51.0480967],[13.662043283918994,51.0486536794055],[13.661019314571586,51.04898029503185],[13.659575108573883,51.048995005799064],[13.656598156049679,51.04840960740507],[13.654581453503615,51.04775722284959],[13.652781653465176,51.04675189496495],[13.65343467002283,51.04711631665024]],[[13.67745335517275,51.0452719484807],[13.667152440159589,51.044232734424014],[13.665741530653527,51.04429741987351],[13.66459034858646,51.04473076537816],[13.664141321049396,51.04508435541879],[13.66375498625212,51.04565405624376],[13.663086946476655,51.04759301754655],[13.662574427337626,51.0483053852205],[13.661912384876253,51.04871693961761],[13.661244201913863,51.04893699818531],[13.659806884821851,51.04902089715155],[13.657588199186364,51.04865781996882],[13.655843405709955,51.04820008399923],[13.654247516442526,51.04760555581428],[13.652300888493176,51.04646289486211],[13.65073787280716,51.04523590096256],[13.650128338302919,51.04445846361451],[13.649010086057865,51.04235814161568],[13.64802655290451,51.04115022427491],[13.647303639107246,51.04048725296055],[13.646365980801887,51.04014963172497],[13.636525872996732,51.038634568848835],[13.634662947255476,51.038584611777345],[13.633807676831088,51.03869972465983],[13.633081734269457,51.03906196920758],[13.632782938922285,51.03937904181149],[13.63241233263987,51.040667254489136],[13.631698396866643,51.041137888774244],[13.630737034441397,51.041211841999356],[13.6256229,51.04066770000001]],[[13.79136461721857,51.12287996005518],[13.790808079999998,51.12076427],[13.789635400243531,51.118604155687215],[13.78857415,51.117396025000005],[13.78642941498621,51.11552889279322],[13.782850949999995,51.11376775],[13.775306346618247,51.11040577950199],[13.774470726321614,51.10985306461934],[13.772975019999995,51.10767342],[13.772124916058447,51.10681241199181],[13.771437321281983,51.105732444276626],[13.769981814706725,51.10223931349808],[13.77157208965327,51.10597933526529],[13.772179098881917,51.10687543787303],[13.772937263450526,51.10762985503582],[13.774234508944865,51.10958779445735],[13.77497520650035,51.1102351576805],[13.7766597,51.1110074]],[[13.7930579,51.1280677],[13.79296923745714,51.12792260267318],[13.793828947222222,51.129395108333334],[13.79534124095573,51.13382837472857],[13.795749566666666,51.1346177],[13.797121403010864,51.13605895270417],[13.798230899999997,51.137567000000004],[13.798556429272812,51.13852105034394],[13.798757400000001,51.1387627],[13.799867359239657,51.13988229732158],[13.802163049999995,51.1414118],[13.80298231938503,51.14219619059222],[13.80370758404346,51.14337439895142],[13.804006020000001,51.144273080000005],[13.803941604800638,51.14466572951373],[13.803660372718085,51.144853596285486],[13.803405694227246,51.14488365823471],[13.8030635649374,51.144810442022724],[13.802861850576583,51.14460458569128],[13.802994681641906,51.144317060168895],[13.803755072951363,51.1437977592015],[13.803704484923248,51.14336659657045],[13.803356,51.1427791]]]}},{"type":"Feature","properties":{"route_ref":"11","route_color":"#229133"},"geometry":{"type":"MultiLineString","coordinates":[[[13.752201333830913,51.062947686608936],[13.75488069976462,51.062907076856],[13.761138359999999,51.0638936],[13.76374375068401,51.06450809998299],[13.769683286122184,51.066213708735795],[13.775594911043,51.06727047214889],[13.777033788433537,51.067418703848894],[13.77798896334759,51.06736442689257],[13.779687814049867,51.06687577007302],[13.7804698377051,51.06679429695056],[13.782766132181777,51.06704753037603],[13.786084460201726,51.066895602597],[13.789874079236718,51.067166971149625],[13.793266005190015,51.066695139443084],[13.796393309515869,51.066012013677316],[13.800967885036647,51.065904682156685],[13.806117660050816,51.065501654374785],[13.80887246340459,51.06489183391398],[13.810598663495682,51.06439072165883],[13.811840369052376,51.06424430276114],[13.812494924712473,51.06379350343895],[13.812800573805502,51.06370370798636],[13.813751605483489,51.063820353681955],[13.8162743,51.0645748],[13.818145141539434,51.064541753932126],[13.819113913031986,51.06438849606939],[13.8232459,51.06329499999999],[13.825585721824908,51.06236184164483],[13.829550620331961,51.06207466804855],[13.83200641457595,51.06180334059328],[13.832935778573036,51.0618196778576],[13.83733458710835,51.06232449677399],[13.845653934771157,51.06181017192891],[13.849514631555177,51.06182839272347],[13.85101542279692,51.061646876246336],[13.853308176145864,51.06211382406567],[13.854112923173902,51.062134662097364],[13.854741065405568,51.06203992523069],[13.855036130698954,51.0622455770779],[13.8548794791499,51.06243009105582],[13.854547243345081,51.06246717921918],[13.8539135,51.0621966],[13.85100559397397,51.061648584333504],[13.849519361277242,51.06182923095752],[13.845876876155685,51.0618157278972],[13.837457162805036,51.06233656191004],[13.836346468579988,51.06226672855677],[13.833098431978472,51.06183564449648],[13.83201298816617,51.06180268830333],[13.829378645947006,51.062088796878335],[13.825591916963905,51.0623610906819],[13.823164795363567,51.06331892518367],[13.81924428744129,51.064362112784],[13.81814604293582,51.06454364184486],[13.816275299257718,51.06457493877829],[13.813749153424604,51.06382089498212],[13.812804086522402,51.06370421125085],[13.812499416186869,51.063793213653824],[13.811838085309489,51.064247134158045],[13.810597703879694,51.06438939513663],[13.808089774999996,51.06508681999999],[13.806115258682055,51.06550102355934],[13.802000316666666,51.06585115],[13.796392291514714,51.066012881609716],[13.793710485721013,51.0666134535919],[13.789872826638542,51.067167350571495],[13.786345130700653,51.06690124145158],[13.782751207730307,51.067048237383425],[13.780764904280648,51.06679378822538],[13.779668059799333,51.066883560316526],[13.778448066675503,51.067274422700855],[13.777436979332602,51.0674159816809],[13.776317125794865,51.06738243685432],[13.770601685265836,51.06640316863732],[13.766859315384618,51.06543855384614],[13.76412560819867,51.06461771217802],[13.761142152429688,51.063904812928584],[13.7553700030019,51.062968872546485],[13.754398384909017,51.06287981319364],[13.75205619913441,51.062959384146616],[13.747430228576356,51.063620283475814]],[[13.741837289304343,51.01941326336057],[13.741453082277298,51.019456911396766],[13.741115747308566,51.019682931061865],[13.74071955,51.020846150000004],[13.741363219766045,51.02318680779228],[13.741696496520087,51.023540758718156],[13.743466341860307,51.02349188820151],[13.743742252491566,51.02360486104955],[13.743944443285235,51.02385017930245],[13.745896710762288,51.02852392958001],[13.749205587951815,51.03367564471346],[13.749392966666665,51.03533653333333],[13.74932962785718,51.03649096016254],[13.749012102565848,51.037135237935644],[13.748727812239077,51.0374015681053],[13.747040705922142,51.03819157568807],[13.746694457795845,51.03826555427299],[13.746376050441704,51.03822470091692],[13.74472656082459,51.037369833356074],[13.744365935327277,51.03731671766249],[13.741520079740067,51.038193206156855],[13.73769754854954,51.03959786134369],[13.7348804,51.0403676],[13.737638012106448,51.039616360132015],[13.74143699658071,51.03821983770117],[13.744300834546266,51.037323752481015],[13.744753603889663,51.037378032231445],[13.746362,51.0382194],[13.746750887389046,51.03826072612836],[13.74710968462993,51.038173272511024],[13.748751205915573,51.03737608088869],[13.749045290064656,51.0370969826263],[13.74930082024945,51.03655960838358],[13.749402024049992,51.03572279336164],[13.749253639677947,51.03379262655208],[13.74583187408874,51.02840510578734],[13.743912630718752,51.02379966476016],[13.743464550431062,51.023492663884774],[13.741812724381951,51.023571824920715],[13.741530393514223,51.02345490056976],[13.741363064708285,51.02318781646561],[13.740780235386826,51.021452203286614],[13.74073454799948,51.020764353152096],[13.7410787,51.0204987],[13.742545847834647,51.020267090961205],[13.742848225241763,51.02014913758735],[13.74302980189143,51.0198497312487],[13.742930547515893,51.01959538422815],[13.742701975340685,51.01946938512293],[13.74186,51.0194047],[13.742544826266423,51.01944081221558]],[[13.7407581,51.064769899999995],[13.743565458832839,51.064517181857774],[13.746596562888193,51.06380141630828],[13.743460939828378,51.06452391396892],[13.741394112500002,51.06474565],[13.74072298031097,51.06477075750048],[13.740259828756137,51.0646769543537],[13.738289445596525,51.06391617285584],[13.734622101913118,51.06168375327385],[13.732070828571434,51.06092438571428],[13.730105294650164,51.060190597700064],[13.729029780301953,51.059459488225585],[13.728166546189257,51.05854664484961],[13.727464348389047,51.05798513951124],[13.727461311184816,51.05781395849201],[13.728617238196257,51.0563892401793],[13.73289283949646,51.051698643689186],[13.73318189100122,51.05120651569958],[13.732953287310188,51.05162661683393],[13.728487957954274,51.056536969062805],[13.727476473359781,51.05779624326996],[13.727464268789971,51.057979666451565],[13.728409869231632,51.058761790918034],[13.729229209088185,51.05962282852967],[13.730311005968677,51.06029033535317],[13.734612734841129,51.061680626432555],[13.738288708667328,51.06391542627787],[13.7401484138391,51.06463771046866],[13.7407581,51.064769899999995]],[[13.7346067,51.0409354],[13.73655394032964,51.042830818522965],[13.740927248245447,51.04631205437011],[13.74106400190821,51.046616452102526],[13.740879781387967,51.046897712497845],[13.740347955100077,51.0470569277334],[13.738634849999999,51.047140775],[13.735142718082978,51.04710141975129],[13.734862786715471,51.0471779694696],[13.734612066623356,51.047457079669925],[13.733222573991851,51.05121121212817],[13.734641127189825,51.04738373812196],[13.734843722357558,51.047177294279535],[13.735180769592063,51.04709250074115],[13.738180527874192,51.04714191471372],[13.7403671,51.0470554],[13.740858300779768,51.04691104457041],[13.74106244142756,51.04659603763775],[13.740901862487762,51.04629847680449],[13.736249732118205,51.042589552279445],[13.7348212786916,51.04117233496739],[13.734545511770289,51.04069411738252],[13.7348745,51.0403374],[13.734554615917938,51.040665400963285],[13.73460860378674,51.040934952127394]]]}},{"type":"Feature","properties":{"route_ref":"6","route_color":"#229133"},"geometry":{"type":"MultiLineString","coordinates":[[[13.747430228576356,51.063620283475814],[13.75085595,51.0631154],[13.751505175959059,51.06299880111581],[13.751758408059024,51.062867438770645],[13.752963886758062,51.05889420899509],[13.753278761043436,51.058361508159045],[13.757829877671313,51.054160824076135],[13.758451144654616,51.05385837170041],[13.760658516375335,51.05336937565537],[13.762138396394686,51.053134333563094],[13.76455642014484,51.05313109342097],[13.76760204127068,51.052871549057436],[13.768733232227738,51.05271705214545],[13.770034825432125,51.05237622747075],[13.771051916150618,51.05221859257815],[13.787262386373294,51.05387266012071],[13.792602427392568,51.053773186275855],[13.800471216893405,51.05275590636593],[13.80371293915404,51.052244770048716],[13.80649119749899,51.052118897279236],[13.80693134083254,51.05201474465634],[13.809330822407743,51.049964291012],[13.810276711951637,51.048313333962525],[13.812858953957761,51.04606643422329],[13.813935862624499,51.04481580839589],[13.814740456844502,51.044076272145055],[13.814906411775624,51.043655075617224],[13.814540195075711,51.04315316851606],[13.808861,51.0382097],[13.814826916703833,51.04344510175825],[13.814886268430586,51.04379153440786],[13.814601521416721,51.04422695176398],[13.812377300053718,51.046545831287126],[13.810206359744612,51.04839810067258],[13.809340364152877,51.04995430597844],[13.807432838235236,51.05166827688499],[13.806764893130284,51.052081457227246],[13.803409556237085,51.05228601894875],[13.793167549999998,51.0537413],[13.788195778518018,51.05389962931805],[13.787360369864391,51.05388239329712],[13.77093325,51.052221749999994],[13.76873302335953,51.05271966215703],[13.767327524999999,51.052899274999994],[13.764672327263778,51.053128641190625],[13.761683657395889,51.05318242894863],[13.758453603859731,51.05385771925903],[13.75778608783438,51.05418693758663],[13.753181547667424,51.05846793618891],[13.751751519590709,51.06287246078545],[13.751005237215695,51.06309541343974],[13.748109930172745,51.06346699814529],[13.7471332,51.0636951],[13.748537380808632,51.063398793831595]],[[13.837159494251875,51.024752073754144],[13.837377111878904,51.025021095637996],[13.836914342049845,51.0258148190815],[13.834274559999997,51.02818852],[13.831830789768246,51.03013023269934],[13.831449218276125,51.03053448866722],[13.831126598016755,51.031168552441386],[13.830250001081067,51.031740726292156],[13.828424396671577,51.03232882266038],[13.826355623964398,51.033372277168546],[13.823420521851926,51.03393185134097],[13.818145179778089,51.03525370513751],[13.809371114500642,51.0377035773746],[13.8089607,51.0378879],[13.808899455360063,51.0382107813458],[13.808911962166865,51.037916148634025],[13.809448861336264,51.03767605728931],[13.8179208,51.0353142],[13.823314839304334,51.03395478549139],[13.826359536153294,51.03337048169475],[13.828425727317988,51.032328587234744],[13.83025066673637,51.031738955384725],[13.8311319,51.031163899999996],[13.83148205367744,51.030485125533424],[13.831805694948919,51.03014788451695],[13.835802909485642,51.026864201990605],[13.836916103265255,51.025811512646484],[13.837269337249412,51.02533872260284],[13.83736469651013,51.02494421497473],[13.837084725950476,51.0246764804901],[13.834500844253123,51.02319980028329],[13.833953857524834,51.02276127146359],[13.833148555285407,51.02070285767366],[13.831285781289896,51.01816075966176],[13.830634207730665,51.01760818421201],[13.828258569211398,51.01663798245479],[13.827379050064238,51.016149977136145],[13.82474519841679,51.01394761619568],[13.823904810656401,51.01301402698163],[13.823971256445077,51.01277728246471],[13.826562741790797,51.01185215499197],[13.830769302976138,51.00997974882517],[13.830698473779577,51.00958673767874],[13.825632140000003,51.003863499999994],[13.825400252689954,51.003455494096656],[13.825735500000002,51.00302635],[13.8295505,51.0007228],[13.829579859463227,51.0004777161882],[13.829152995492326,51.000093216421064],[13.829184822241825,50.99985330401338],[13.8294667,50.9996491]],[[13.723311124727651,51.05526140848466],[13.72220023260179,51.055766197507026],[13.721889995845531,51.05573198219127],[13.721209292657775,51.05535839303633],[13.718730599999995,51.053717850000005],[13.713352548180042,51.05054289523133],[13.709319657142851,51.047521728571425],[13.706648848418203,51.04569291635732],[13.704294853171243,51.04375539909994],[13.700085539443831,51.04370857908762],[13.694337623748254,51.043111416930756],[13.6900992822063,51.04256064930421],[13.684151133333334,51.042432733333335],[13.683711290866984,51.042483692759546],[13.682886299999998,51.04295915],[13.680849099999998,51.04360990000001],[13.68036087657486,51.04368425370686],[13.680084479374353,51.043605801851086],[13.679921008718837,51.043404953886366],[13.680072076956057,51.04268424952046],[13.6799671063623,51.043253801976086],[13.680107827058237,51.04264885383239],[13.680260137275718,51.042473369457035],[13.68060335460312,51.04237368012135],[13.689567409381038,51.04253788961087],[13.70023765,51.043725550000005],[13.70417868560161,51.043731885694406],[13.704512627499758,51.04389175085612],[13.706637270177017,51.04569007835027],[13.708482212856842,51.04692141016087],[13.713814002122785,51.05086971747061],[13.718513701184532,51.05359140430434],[13.721306009145133,51.05541734238629],[13.72187828115928,51.055728321939235],[13.722234524018276,51.05577405879732],[13.723396591832946,51.05523482975013],[13.7237258030098,51.05530181333069],[13.723328484019932,51.05525825683432]],[[13.727473745595363,51.05807367561505],[13.728207433580241,51.05858240877921],[13.729229209088185,51.05962282852967],[13.730311005968677,51.06029033535317],[13.734612734841129,51.061680626432555],[13.738288708667328,51.06391542627787],[13.7401484138391,51.06463771046866],[13.740654585623204,51.06476273017303],[13.741149055390693,51.06476404754993],[13.743105807168371,51.06457759391554],[13.746596562888193,51.06380141630828],[13.743878202924,51.06446169049919],[13.741394112500002,51.06474565],[13.74057754070799,51.064752344450724],[13.739554600000004,51.0644231],[13.738289445596525,51.06391617285584],[13.734622101913118,51.06168375327385],[13.731040503614418,51.060580709409884],[13.729774912706969,51.06000465787332],[13.72891954393907,51.05936106199523],[13.728166546189257,51.05854664484961],[13.7237618,51.0552763],[13.727476264982375,51.05807438201326]]]}},{"type":"Feature","properties":{"route_ref":"13","route_color":"#229133"},"geometry":{"type":"MultiLineString","coordinates":[[[13.798870769161054,50.999244730243404],[13.79934804453749,50.99910258410863],[13.799660194011082,50.99914011359263],[13.799912506575003,50.999356750375455],[13.799842015908878,50.999640201099076],[13.799337364231324,50.999796470152944],[13.79833609470379,50.999634590685616],[13.798068812087998,50.99967658220435],[13.797160351888232,51.00012578458484],[13.796919354686711,51.000522211774545],[13.798022646060657,51.0023677846895],[13.798050906531959,51.00428651165475],[13.798705654597837,51.0049369236103],[13.803300853685954,51.00826372432681],[13.803489557082074,51.00852229658138],[13.803414960441406,51.00867838445574],[13.8030638,51.0088834],[13.80205075349061,51.00934059017658],[13.800238544062562,51.010401405573376],[13.798999104487436,51.01168391488821],[13.798591988738377,51.012419506636434],[13.796472046255179,51.012726007171906],[13.794819427255396,51.01306793178767],[13.7932305,51.013072],[13.792280103031466,51.01317532396638],[13.7912593,51.0133873],[13.789281820577564,51.014065043748836],[13.788293501994186,51.01464988708232],[13.786352625138049,51.01625406525027],[13.783716624999997,51.017748825],[13.770176479964787,51.024824117939914],[13.769840869711514,51.02485423646325],[13.769538764763663,51.024738615392394],[13.767338084504908,51.023064933044154],[13.766274828257162,51.022464195241575],[13.76579067768882,51.022329405375494],[13.765528344232752,51.02237548242804],[13.762067924154955,51.02465431532241],[13.759491472036755,51.027855153961156],[13.759226803251892,51.028363218856796],[13.759373598273335,51.02873040776077],[13.760490979654493,51.03023925342268],[13.76227877763931,51.03241409179427],[13.762430302662906,51.03268800995267],[13.762351960950458,51.032839673941],[13.751807301579825,51.0371008528866],[13.750852151323627,51.03734096932209],[13.749026131594213,51.037452466213225],[13.748465826570879,51.037584254057386],[13.749148480990701,51.03743191619626],[13.750728970347305,51.037358128755706],[13.75161790052229,51.037164897013795],[13.761320814964787,51.033305774037984],[13.7623733957536,51.03281495281135],[13.762335106112552,51.032503849767586],[13.760089009090912,51.02969935454546],[13.759318689427998,51.02864826856935],[13.759236276601355,51.028323225778585],[13.759376871473693,51.02799801590221],[13.76208008575012,51.02463223764196],[13.76550639069445,51.022385938457866],[13.765916226287018,51.02233831456457],[13.766464614285715,51.02255754285714],[13.76724029623985,51.02299217530405],[13.769540624634686,51.024737089649506],[13.769835081171719,51.024857907586956],[13.770118737741655,51.02483689052795],[13.78370706060778,51.01775255611724],[13.786354178214628,51.01625070877234],[13.788289243247327,51.01463924748367],[13.78926707236922,51.01406896100039],[13.790970111127395,51.01346650611129],[13.792303019111952,51.01317093366604],[13.79321999911997,51.01307101606615],[13.794809243311285,51.01306809670472],[13.798607165061885,51.0124104995652],[13.79900929258436,51.01167035698336],[13.80026975598977,51.01037621433036],[13.801946516939056,51.00939998538641],[13.803336818536385,51.008723906189815],[13.80348362620948,51.00854334832249],[13.803281430783297,51.00825087731875],[13.798862763399425,51.00507469054198],[13.798051766391069,51.004286026400955],[13.797947048405115,51.00392946248259],[13.798024580529153,51.002374264196725],[13.797815164827034,51.00190341708522],[13.79712946,51.001029859999996],[13.796900880633435,51.00048351619675],[13.797166308382215,51.00011415509993],[13.798871499999997,50.9992453]],[[13.755953838518128,51.069617912579524],[13.755855460995946,51.06980994144024],[13.750835235997268,51.071357626040246],[13.7449548560647,51.072332126811695],[13.734142378278458,51.07534475009042],[13.7335333,51.075664100000004],[13.732779265142074,51.07707946830844],[13.733428002705264,51.07577399999661],[13.733696722625421,51.075529802589436],[13.734136964197718,51.07534694999682],[13.744963742855461,51.07231994170622],[13.750900301975307,51.07134069278473],[13.755922287919192,51.06977790435713],[13.755924414678748,51.069510896033755],[13.75391581111111,51.06656437777777],[13.753260731398825,51.065268136660656],[13.752021967434256,51.063470608145465],[13.751844539334243,51.06310299218189],[13.751852626077307,51.062743292979455],[13.753181547667424,51.05846793618891],[13.75804594754962,51.05395166459334],[13.758348161807412,51.05341817806832],[13.758336387956426,51.05306164026629],[13.757086453408526,51.04955064125228],[13.75593146780163,51.04756426281028],[13.754835806282026,51.04600222936648],[13.74835595216431,51.039582011520075],[13.747018662019418,51.038526240552095],[13.74705340377331,51.038221111576064],[13.74844251631834,51.03754248168913],[13.747052371716121,51.03822277333719],[13.747039140862654,51.038547634411735],[13.748126974999993,51.0393538875],[13.754667262307214,51.04584624549915],[13.754158420937918,51.04532507530249]],[[13.6872385,51.0834215],[13.687813856361332,51.083427841770856],[13.691519037931625,51.08215869641663],[13.692761023529071,51.08185267420597],[13.693845062500001,51.0818344],[13.696166630067125,51.081994362320835],[13.696677298025387,51.08190726736597],[13.696891272076835,51.08151960529303],[13.697523554194913,51.0775346292899],[13.697648467674139,51.07735033482136],[13.697930279038276,51.07724274301706],[13.698688549999998,51.077242150000004],[13.700012578781143,51.07739258608708],[13.706341031432828,51.07870986295638],[13.707318713990912,51.07884760281828],[13.714070877014398,51.0795107024823],[13.714638672307524,51.07944544509369],[13.714295366402617,51.07953328397048],[13.707285566567046,51.07884572444949],[13.700338887982051,51.07745066389296],[13.699553821407589,51.07732571388845],[13.697933080665438,51.07724335393422],[13.697676279352057,51.077333185577984],[13.6975209080554,51.077536145403236],[13.696894286672912,51.08152043675069],[13.69668467916757,51.08190357317554],[13.6959913,51.08199299999999],[13.693431485353624,51.08182067595696],[13.692508730180672,51.081899413683765],[13.688621331415222,51.083139863299316],[13.68680489801684,51.08383904971774],[13.686502999958975,51.08386274206355],[13.686202465529897,51.08369957986484],[13.686204732306228,51.0834792470171],[13.6863370554411,51.0833919373877],[13.6872385,51.0834215]],[[13.716690567818924,51.07756924502583],[13.719768696791299,51.07737872114342],[13.72300151592231,51.07736042455462],[13.729216186748552,51.07634405530373],[13.729603168670945,51.0763905392343],[13.7320746,51.07735480000001],[13.732448760198517,51.07733590051258],[13.732733808498994,51.077081764347305],[13.732732493107404,51.07719634194901],[13.732511609205964,51.0773094371062],[13.732073476472909,51.07735458422328],[13.729616516943288,51.07639662117255],[13.729213416496794,51.07634463388071],[13.723251139001318,51.07733557168833],[13.721439366092277,51.07741455414015],[13.71968213999957,51.07738083237181],[13.7166617,51.077578]]]}},{"type":"Feature","properties":{"route_ref":"10","route_color":"#229133"},"geometry":{"type":"LineString","coordinates":[[13.809153308037327,51.03849911778307],[13.808847982182703,51.03821615630788],[13.808425651076076,51.038168301474585],[13.806257644753124,51.039311977248985],[13.805169291527578,51.039731777212666],[13.796279268297006,51.04273662958671],[13.791783198890311,51.04319710168678],[13.783315352818574,51.043440910771615],[13.77592486310477,51.04527428167878],[13.772978248746055,51.04637127831518],[13.77239865264086,51.046456722823315],[13.770192229880946,51.04648663305376],[13.766848822132921,51.04702866609707],[13.75907057174141,51.046447061651314],[13.758438957576494,51.04628567910905],[13.757677088701346,51.045655397564545],[13.75719120354582,51.0455011652301],[13.7568183,51.0455317],[13.755278534100874,51.04600320979068],[13.754881399607688,51.04596628509872],[13.7532902,51.0445235],[13.747883399994612,51.03914847459504],[13.746558303001121,51.03831931880156],[13.744522632802095,51.03731686401124],[13.742893547635846,51.0377453841878],[13.73769754854954,51.03959786134369],[13.735096722068866,51.04028058240939],[13.72739756885406,51.042852386123556],[13.724521948584826,51.04402184067993],[13.723138215488026,51.04447907286163],[13.722392756156644,51.04487171636073],[13.72150647114111,51.04642903358687],[13.720102742897097,51.04929748230596],[13.719867142887928,51.05002806660483],[13.720247241219896,51.051498011468304],[13.721679959500342,51.053509491670496],[13.722925386748607,51.05469038111354],[13.725597107684044,51.0566919036386],[13.725815492783694,51.0569080587329],[13.72581132831766,51.05708338893737],[13.725198896392763,51.05751734226288],[13.724470656503259,51.05784691548698],[13.715099147050447,51.06087067339131],[13.714662216534226,51.061032538296836],[13.714530501349014,51.06117403351748],[13.714555,51.061396],[13.715324964710677,51.06216647113505],[13.715554457226354,51.06261754502723],[13.716474911749627,51.06793441959834],[13.7163894524076,51.06823382712869],[13.716232708822599,51.068307302595436],[13.714585971800146,51.068536986627784],[13.714256117902703,51.068737730318674],[13.714571454383986,51.071482170725325],[13.715037567486725,51.072461224719724],[13.715606805514025,51.072606087846374],[13.715704322442912,51.07288563296286],[13.715466471384937,51.07303478118012],[13.715101025216553,51.07300065764095],[13.714916652184476,51.072813014264895],[13.71491567612884,51.072422536729285],[13.714892717900305,51.072722980791475]]}},{"type":"Feature","properties":{"route_ref":"4","route_color":"#229133"},"geometry":{"type":"MultiLineString","coordinates":[[[13.6885359,51.0992846],[13.685944619999997,51.10056984],[13.684015076270732,51.10140266400307],[13.680444890637338,51.102490354124235],[13.677023546832174,51.10320249138439],[13.680441680317433,51.10248701106282],[13.684399345170883,51.101254594555314],[13.693664607596622,51.09674372861657],[13.702555831387931,51.09035482759091],[13.704774846284428,51.08581716990466],[13.705288765720383,51.08505631593164],[13.707208517777456,51.08446690118008],[13.709413841632832,51.084256691549385],[13.711649455206102,51.082973251231884],[13.71286704863411,51.081822833303484],[13.715346159576276,51.07839564195556],[13.715773330980563,51.07801744178054],[13.718194366072657,51.076839279184426],[13.720497348241334,51.07590824792222],[13.722152984970867,51.07509499709576],[13.722968575804602,51.074593197903546],[13.725773485681424,51.072468122015394],[13.729332201482597,51.07039889368883],[13.7297221836835,51.070087303610386],[13.731030185063995,51.06853907715971],[13.732853441337495,51.06676707648853],[13.735193389122948,51.064937248619096],[13.736974664293536,51.06330349529595],[13.738144484468412,51.06065487461734],[13.738841736848043,51.059377368293454],[13.73948277646133,51.058732622048254],[13.740966038887496,51.05786658685847],[13.741133114369505,51.057604017818306],[13.738613852513671,51.053989085365295],[13.738284575316392,51.053887008945495],[13.737596324777115,51.05393549048089],[13.736880092520742,51.0537221745978],[13.734619389174318,51.05204050116264],[13.733417245466171,51.051603714501404],[13.733240778995896,51.05122813995121],[13.734601073519029,51.04748438152162],[13.734843722357558,51.047177294279535],[13.735180769592063,51.04709250074115],[13.738180527874192,51.04714191471372],[13.7403671,51.0470554],[13.740858300779768,51.04691104457041],[13.741057426937923,51.046515870882956],[13.740787033291355,51.04620359718252],[13.736249732118205,51.042589552279445],[13.7345722,51.040951],[13.73655394032964,51.042830818522965],[13.740927248245447,51.04631205437011],[13.741061403182501,51.04655007626998],[13.740879781387967,51.046897712497845],[13.740347955100077,51.0470569277334],[13.738634849999999,51.047140775],[13.735142718082978,51.04710141975129],[13.734862786715471,51.0471779694696],[13.734612066623356,51.047457079669925],[13.733239631827312,51.05123194045254],[13.73339566946744,51.051588545976195],[13.734621566742007,51.05203895782255],[13.736861994454905,51.05371088145155],[13.737565007767632,51.053928745878835],[13.738330036948655,51.05388635611229],[13.738618964029621,51.053988930814604],[13.741126873253535,51.057577223740815],[13.74099137582299,51.05784937164963],[13.739546565868475,51.058673146292065],[13.738838425769316,51.05938297852381],[13.738067609807729,51.06081235786662],[13.73698439212435,51.063294830163024],[13.735239839999995,51.0648984],[13.732520819118717,51.06707795967362],[13.729392828984638,51.07035657688088],[13.725911500157727,51.07238134296297],[13.7230347,51.07454474],[13.722150876924745,51.075094462114436],[13.720925514285705,51.07572648571428],[13.71649366586764,51.07762773262536],[13.715637320326534,51.078127618138296],[13.712867001849864,51.08182242672474],[13.711522527929969,51.0830666893551],[13.709407484066306,51.08426133870009],[13.707211601541946,51.08446704230051],[13.7056333,51.0848934],[13.705208751798384,51.08511804036874],[13.702490598928684,51.090421815000944],[13.693538291746423,51.0968252818415],[13.688447036834873,51.09933911279951],[13.688311992185868,51.099596676106366],[13.68863539519662,51.09988323996297],[13.68932872383793,51.0999625123969],[13.689786692347901,51.099750890670485],[13.689923591886156,51.099409562167885],[13.689798431257373,51.09886154754585],[13.690076019915038,51.09852276236402]],[[13.6216993,51.1117579],[13.62426038379939,51.11070680373618],[13.62632234525466,51.1093619547844],[13.628971480000002,51.108487620000005],[13.630117215597307,51.10819621260945],[13.638215798019598,51.1069881579516],[13.6395452,51.1067183],[13.640811481818183,51.1065933],[13.644343140621968,51.10644980852285],[13.647714338049356,51.1061260132404],[13.649288090275096,51.10612571649375],[13.651938453029457,51.105637637662234],[13.655918539174984,51.10533819428505],[13.657129861646728,51.105443052633085],[13.65960113529923,51.10602731282506],[13.66107313724603,51.10604525829834],[13.662894644814465,51.105404763299276],[13.666238925594847,51.10471305670686],[13.669593136999303,51.10382798070192],[13.670335402227558,51.103757883672294],[13.674022783234843,51.103808204854126],[13.677036893034513,51.10318777974896],[13.673740244792024,51.10382522449173],[13.66984,51.1037864],[13.66609448199791,51.10474666898155],[13.66293010443688,51.10539518729731],[13.66108121837676,51.10604510905108],[13.659311685609435,51.10598695095078],[13.6566177,51.1053699],[13.654952011175002,51.10538655145044],[13.651630773881468,51.10566655629687],[13.649408459668171,51.106116225217335],[13.647477015772534,51.1061474419809],[13.64384984407504,51.10649427738621],[13.639726149628837,51.106693405697385],[13.629805665120767,51.10826532251902],[13.62657712902308,51.10925576542889],[13.625869876766854,51.10961451669703],[13.624262740781157,51.11070746346717],[13.619648299999998,51.11255750000001],[13.616217975000001,51.113484975000006],[13.612623667953066,51.11423769951395],[13.610026995336941,51.11505306236333],[13.609422166666668,51.11550286666666],[13.607327900000003,51.11776644999999],[13.605635099999997,51.11888005],[13.603629306360505,51.11970376007899],[13.601999900000001,51.12023993333333],[13.599310495134723,51.12084824034336],[13.595543457380677,51.120887854238376],[13.59487335310004,51.121035603406085],[13.593810790687561,51.121430005781214],[13.593389574091958,51.1216897666904],[13.593192470503002,51.121988738560034],[13.592950766666664,51.123460066666674],[13.592610792096368,51.124035658838096],[13.592068900000001,51.12443626666667],[13.590187725,51.125280325],[13.5855432,51.126680566666664],[13.580256036259607,51.12735860105769],[13.577700488137095,51.127941863026095],[13.57593412744891,51.12851546601848],[13.575455040556731,51.12894912319014],[13.575391392711662,51.1294794613522],[13.577241400000002,51.13427144999999],[13.5782654,51.13614908],[13.578334514887512,51.13669391770539],[13.57801822054496,51.1371620099524],[13.575915930295142,51.13906322794133],[13.572355550000003,51.143749],[13.572101714364678,51.14453189756025],[13.572301047883885,51.14519946746286],[13.575058571830722,51.14896430727753],[13.575239195120057,51.14947661093724],[13.57517638257191,51.150009747557505],[13.572536600000001,51.15396636],[13.571836649999998,51.1547609],[13.567102767837909,51.15891769968026],[13.5666159,51.15917319999999],[13.565405265470185,51.15932441003467],[13.565062539417138,51.15950671466663],[13.565002038820046,51.159751849403264],[13.565400510229361,51.16002332676892],[13.56596267739231,51.15996307173522],[13.566444874477783,51.15962344712851],[13.566025551262806,51.15993389788532]],[[13.798870769161054,50.999244730243404],[13.79934804453749,50.99910258410863],[13.799660194011082,50.99914011359263],[13.799912506575003,50.999356750375455],[13.799842015908878,50.999640201099076],[13.799337364231324,50.999796470152944],[13.79833609470379,50.999634590685616],[13.798068812087998,50.99967658220435],[13.797160351888232,51.00012578458484],[13.796919354686711,51.000522211774545],[13.798022646060657,51.0023677846895],[13.798050906531959,51.00428651165475],[13.798705654597837,51.0049369236103],[13.803300853685954,51.00826372432681],[13.803489557082074,51.00852229658138],[13.803414960441406,51.00867838445574],[13.8030638,51.0088834],[13.80205075349061,51.00934059017658],[13.800238544062562,51.010401405573376],[13.798999104487436,51.01168391488821],[13.798591988738377,51.012419506636434],[13.796472046255179,51.012726007171906],[13.794819427255396,51.01306793178767],[13.7932305,51.013072],[13.792280103031466,51.01317532396638],[13.7912593,51.0133873],[13.789281820577564,51.014065043748836],[13.788293501994186,51.01464988708232],[13.786352625138049,51.01625406525027],[13.783716624999997,51.017748825],[13.770176479964787,51.024824117939914],[13.769840869711514,51.02485423646325],[13.769538764763663,51.024738615392394],[13.767338084504908,51.023064933044154],[13.766274828257162,51.022464195241575],[13.76579067768882,51.022329405375494],[13.765524366069357,51.02237219988281],[13.762067924154955,51.02465431532241],[13.759491472036755,51.027855153961156],[13.759226803251892,51.028363218856796],[13.759373598273335,51.02873040776077],[13.760490979654493,51.03023925342268],[13.76227877763931,51.03241409179427],[13.762430302662906,51.03268800995267],[13.762351960950458,51.032839673941],[13.751807301579825,51.0371008528866],[13.750852151323627,51.03734096932209],[13.749026131594213,51.037452466213225],[13.748465826570879,51.037584254057386],[13.749148480990701,51.03743191619626],[13.750728970347305,51.037358128755706],[13.75161790052229,51.037164897013795],[13.761320814964787,51.033305774037984],[13.7623733957536,51.03281495281135],[13.762335106112552,51.032503849767586],[13.760089009090912,51.02969935454546],[13.759318689427998,51.02864826856935],[13.759236276601355,51.028323225778585],[13.759376871473693,51.02799801590221],[13.76208008575012,51.02463223764196],[13.765540481511975,51.022362803232355],[13.765916226287018,51.02233831456457],[13.766464614285715,51.02255754285714],[13.76724029623985,51.02299217530405],[13.769540624634686,51.024737089649506],[13.769835081171719,51.024857907586956],[13.770118737741655,51.02483689052795],[13.78370706060778,51.01775255611724],[13.786354178214628,51.01625070877234],[13.788289243247327,51.01463924748367],[13.78926707236922,51.01406896100039],[13.790970111127395,51.01346650611129],[13.792303019111952,51.01317093366604],[13.79321999911997,51.01307101606615],[13.794809243311285,51.01306809670472],[13.798607165061885,51.0124104995652],[13.79900929258436,51.01167035698336],[13.80026975598977,51.01037621433036],[13.801946516939056,51.00939998538641],[13.803336818536385,51.008723906189815],[13.80348362620948,51.00854334832249],[13.803281430783297,51.00825087731875],[13.798862763399425,51.00507469054198],[13.798051766391069,51.004286026400955],[13.797947048405115,51.00392946248259],[13.798024580529153,51.002374264196725],[13.797815164827034,51.00190341708522],[13.79712946,51.001029859999996],[13.796900880633435,51.00048351619675],[13.797166308382215,51.00011415509993],[13.798871499999997,50.9992453]],[[13.746377769115412,51.038226272408444],[13.74472656082459,51.037369833356074],[13.744365935327277,51.03731671766249],[13.741520079740067,51.038193206156855],[13.73769754854954,51.03959786134369],[13.7348804,51.0403676],[13.737638012106448,51.039616360132015],[13.74143699658071,51.03821983770117],[13.744300834546266,51.037323752481015],[13.744753603889663,51.037378032231445],[13.745874439325329,51.038009375077664],[13.746648135550213,51.03826359664376],[13.74710968462993,51.038173272511024],[13.74844251631834,51.03754248168913],[13.747138301030954,51.038160757885485],[13.746694457795845,51.03826555427299],[13.746373963245619,51.03822306749062]]]}},{"type":"Feature","properties":{"route_ref":"3","route_color":"#229133"},"geometry":{"type":"MultiLineString","coordinates":[[[13.6993917,51.0158434],[13.700027764560948,51.01593879711051],[13.706316452968416,51.01918447170393],[13.706879049922035,51.02001076904861],[13.707635108689429,51.02066323685023],[13.710142459220533,51.021595566236016],[13.712991045573949,51.02227715940046],[13.714734109707281,51.022435941746615],[13.716357465403881,51.02230447194959],[13.719296980886426,51.02168765843911],[13.719682925671643,51.02170809268964],[13.72012783238819,51.021858208750665],[13.720384253640077,51.02208672990875],[13.720461753119062,51.02234826637116],[13.720204152385893,51.022765949412744],[13.719692211894719,51.023033932328985],[13.71770808514139,51.02369643687365],[13.716678607929184,51.024320230475894],[13.716221601843971,51.02477560713966],[13.715794704894694,51.02554832111244],[13.71571270946091,51.026093349196046],[13.715720515036727,51.02669346671952],[13.716055979470653,51.02760694955749],[13.716576564053424,51.02812267523982],[13.727415986601285,51.031934333811286],[13.726372388126814,51.0317144498591],[13.71829208333334,51.02889294999999],[13.716675120597968,51.02828052368621],[13.716239260000004,51.02788368],[13.715919343443492,51.02736692145182],[13.715732972367867,51.02665897129458],[13.715799969571316,51.025550120011545],[13.716120891966142,51.024912735988494],[13.716718360484704,51.024287186564024],[13.717641842133196,51.0237261868517],[13.719748651665354,51.02300628202261],[13.720179010019537,51.02278290993749],[13.720458239974311,51.022310679595414],[13.720179991218858,51.02188976813719],[13.719719291417702,51.021715342933966],[13.71914165374553,51.021704970893495],[13.71643643357293,51.02229539798708],[13.714352797570273,51.022433177569496],[13.71299463606925,51.02227837479698],[13.710390448267438,51.02166711157505],[13.709181838273933,51.02128753940488],[13.70757953730467,51.02062890830006],[13.706850516666668,51.01997871666667],[13.706316608749242,51.01918380256034],[13.701426629516977,51.01668407691346],[13.700820467825949,51.016499431518874],[13.698709806486299,51.016442659274695],[13.698315676737382,51.016314716300414],[13.698211332571937,51.016106824898465],[13.698338493211322,51.01590042264158],[13.698667150887681,51.015828367488695],[13.6993917,51.0158434]],[[13.74586209006035,51.057639542570826],[13.745981780592427,51.05828056110937],[13.745832362986752,51.0575507615964],[13.74554714220429,51.05738476021287],[13.743789506689902,51.0573449193386],[13.742575247407903,51.05743990154014],[13.741617641489757,51.05762129277695],[13.741282982020378,51.05758385348507],[13.7408764,51.0571975],[13.738613852513671,51.053989085365295],[13.738284575316392,51.053887008945495],[13.737596324777115,51.05393549048089],[13.736880092520742,51.0537221745978],[13.734619389174318,51.05204050116264],[13.733457383922012,51.05162622301924],[13.733283256735888,51.05148423589111],[13.73328710262359,51.05105932764363],[13.734641127189825,51.04738373812196],[13.734843722357558,51.047177294279535],[13.735180769592063,51.04709250074115],[13.738180527874192,51.04714191471372],[13.7403671,51.0470554],[13.740858300779768,51.04691104457041],[13.74106244142756,51.04659603763775],[13.740901862487762,51.04629847680449],[13.736249732118205,51.042589552279445],[13.7340299,51.0404197],[13.736388453233506,51.042686852645566],[13.740927248245447,51.04631205437011],[13.74106400190821,51.046616452102526],[13.740879781387967,51.046897712497845],[13.740347955100077,51.0470569277334],[13.738634849999999,51.047140775],[13.735142718082978,51.04710141975129],[13.734862786715471,51.0471779694696],[13.734612066623356,51.047457079669925],[13.733290344201718,51.05106381617579],[13.733309795758373,51.05151337007452],[13.734621566742007,51.05203895782255],[13.736861994454905,51.05371088145155],[13.737565007767632,51.053928745878835],[13.738330036948655,51.05388635611229],[13.738618964029621,51.053988930814604],[13.74080880040977,51.057097124435884],[13.741310594793871,51.057593338045386],[13.741609602136714,51.05762016065952],[13.74335016139684,51.05735832419746],[13.74552491763357,51.05738226448073],[13.745821931231596,51.05752976870951],[13.745957468724452,51.05828274140778],[13.74586700145068,51.05764190841395]],[[13.719437679777378,51.09583746473795],[13.719276143944825,51.09552592661338],[13.719702236849411,51.094273776885466],[13.720618,51.0928567],[13.722691289008628,51.09063685962917],[13.723908304061021,51.0888447152321],[13.72573333333334,51.08680873333333],[13.730895645819789,51.08156554821478],[13.732509213817536,51.078487906587696],[13.73268909773969,51.077322348895194],[13.733428002705264,51.07577399999661],[13.735368391170311,51.073144340479416],[13.737061986704601,51.071216186054045],[13.738971209009717,51.06801241369214],[13.739097794287236,51.067601161823326],[13.739083680158211,51.066039256297316],[13.739188040801471,51.06573267160386],[13.740346981265084,51.06484840328438],[13.743565458832839,51.064517181857774],[13.74660571626475,51.06377111302278],[13.746728627062945,51.063634298143484],[13.746684797512213,51.0634002126778],[13.745929998749057,51.06258309597092]],[[13.73334891085042,51.039565653391094],[13.73303248505189,51.039218598611704],[13.732174924054974,51.03702827509281],[13.730781279560894,51.03410908923999],[13.730269000299758,51.03332742812792],[13.72959461311577,51.032767354224276],[13.727385076891766,51.031943455979025],[13.72959678339464,51.032772390540416],[13.730302446473594,51.03337517598971],[13.730987456839992,51.03451580973687],[13.732843363971941,51.038529719322405],[13.73304495283293,51.03920229604211],[13.73331878890955,51.03956342021068],[13.733050402983283,51.03921524085134],[13.734044152099038,51.040417979596846],[13.733318057080245,51.0395650540261],[13.733577261263486,51.039857283711065]]]}},{"type":"Feature","properties":{"route_ref":"12","route_color":"#e5005a"},"geometry":{"type":"MultiLineString","coordinates":[[[13.807852000000002,51.03841619999999],[13.808425180399357,51.03813122984885],[13.808894870600668,51.038197341275755],[13.814446438095233,51.04307276666667],[13.814826916703833,51.04344510175825],[13.81490228390933,51.04369129909786],[13.814740058025665,51.04407667717497],[13.812538682843066,51.046390932403995],[13.810206359744612,51.04839810067258],[13.809186146667065,51.05011561955665],[13.806928284334592,51.05201484270233],[13.80649407873964,51.052120327220855],[13.803409556237085,51.05228601894875],[13.800469999999997,51.0527565],[13.792482654830971,51.053776581981694],[13.787554804928853,51.05389615060564],[13.778147039969653,51.052919111314004],[13.78740681021939,51.05388288639257],[13.792602427392568,51.053773186275855],[13.800471216893405,51.05275590636593],[13.80371293915404,51.052244770048716],[13.80649119749899,51.052118897279236],[13.80693134083254,51.05201474465634],[13.809330822407743,51.049964291012],[13.810276711951637,51.048313333962525],[13.812858953957761,51.04606643422329],[13.813935862624499,51.04481580839589],[13.814740456844502,51.044076272145055],[13.814906411775624,51.043655075617224],[13.814540195075711,51.04315316851606],[13.809208054577738,51.03847507525121]],[[13.740353450939855,51.04707356548001],[13.738634849999999,51.047140775],[13.735142718082978,51.04710141975129],[13.734862786715471,51.0471779694696],[13.734612066623356,51.047457079669925],[13.73344656679027,51.05066139888846],[13.734641127189825,51.04738373812196],[13.734843722357558,51.047177294279535],[13.73511580271896,51.047094053072115],[13.73875245524133,51.047137655643596],[13.74149366838596,51.04703821230915],[13.741882700604073,51.04709221616254],[13.742249192335954,51.04723716161446],[13.742708143453935,51.04764477432624],[13.743906975437218,51.04912700124214],[13.744166338925949,51.049316094039426],[13.744430217747887,51.04936352104957],[13.745212966646466,51.04923452663457],[13.74686505489063,51.04877112260309],[13.753147718052775,51.046552652575336],[13.755483560498643,51.04600688020555],[13.757116134537393,51.04551351638354],[13.757680621529483,51.04565642155567],[13.758438659141552,51.04628551640585],[13.759094487001141,51.04644855008464],[13.766168041020661,51.0470261144707],[13.766848822132921,51.04702866609707],[13.77019215638778,51.04648637740864],[13.7710867,51.0464628],[13.7715755,51.0466484],[13.7722624,51.0473488],[13.771538931112023,51.046616510224105],[13.771134833603133,51.046466734876304],[13.770043076618046,51.046495513598174],[13.766843787391535,51.04702515215062],[13.766171908717283,51.04702663921787],[13.75907057174141,51.046447061651314],[13.758438957576494,51.04628567910905],[13.7575504,51.0455904],[13.757083673019311,51.04553354641798],[13.75527016264932,51.046066358048776],[13.753214873927464,51.04653516950329],[13.746919840674208,51.048752832889555],[13.745184349999999,51.04924265],[13.744451242219945,51.04936646803211],[13.744207458298508,51.04933328493854],[13.743906912798892,51.049128736200466],[13.742716284021785,51.047656698037926],[13.74212927730488,51.04717194467438],[13.74139822129537,51.047033093506954],[13.740353265900016,51.047073487360294]],[[13.6705221,51.0590557],[13.670489028446084,51.0594738630682],[13.671025808458444,51.05974473705227],[13.676671711890325,51.060818541394795],[13.678350925771698,51.06105162182335],[13.680922115134655,51.06170636090397],[13.681318555001036,51.0616279201242],[13.682170243348809,51.06079389149876],[13.682784004714577,51.059940289574534],[13.684050814305731,51.05894906017135],[13.68503396225623,51.05840129312065],[13.686613842772148,51.05716085468043],[13.689615819179394,51.05567600580753],[13.6900624,51.0553329],[13.691269945194627,51.05215019771954],[13.692267209453867,51.048144463724334],[13.692812260000004,51.04665194999999],[13.694126574523995,51.04343993841752],[13.694286320729244,51.04321355626981],[13.694575807422009,51.04313610248234],[13.694232429658854,51.0432676903931],[13.693996899601325,51.04372175143528],[13.692326409978694,51.04797190637953],[13.691270267666422,51.05214915428298],[13.690190873955421,51.05511132013965],[13.689973590970174,51.05543077972272],[13.68676127295833,51.05707487996237],[13.685030770611625,51.05840393610568],[13.683977817965358,51.059006754655535],[13.682778459105048,51.05994521048894],[13.682015182295883,51.06097364186625],[13.681253335569378,51.06167396814556],[13.680916069297966,51.06171229857808],[13.678351316951208,51.06104979813924],[13.675713020852966,51.06063795674977]],[[13.703872895358659,51.0436887844285],[13.701450175,51.04377429999999],[13.70023765,51.043725550000005],[13.694587117565327,51.043138503925285],[13.700085539443831,51.04370857908762],[13.70147410739969,51.04377352503261],[13.703937447069855,51.0436824941877],[13.705094784042803,51.043400861836275],[13.705588243430007,51.04341556511558],[13.7072014,51.0442377],[13.710370388912533,51.04504514161596],[13.710998880687619,51.045279363121104],[13.71283013588021,51.046349148257484],[13.714613262387596,51.047555929101414],[13.7156431943237,51.04809640437626],[13.717694813678717,51.04873692831786],[13.719676494489875,51.04917429463973],[13.717553988704426,51.048698196440114],[13.715343858622528,51.047971616349386],[13.712697968329948,51.04626992641462],[13.710696627314627,51.04514780382375],[13.707208780640725,51.04424318682292],[13.705532855594255,51.043406839377994],[13.705101617446177,51.04340016259311],[13.703871921819273,51.04369911164365]],[[13.71969095408278,51.04917568081654],[13.726276097533702,51.050541356900055],[13.727732800561208,51.05075885154609],[13.732268251954437,51.05099619657125],[13.733088358057485,51.05090114135717],[13.733450131380353,51.050637176737],[13.733429760829038,51.05074492457256],[13.732907528940958,51.05093399196658],[13.732044732448282,51.05098990716752],[13.727737063436837,51.050759468481914],[13.726195489659597,51.05052752059664],[13.719694353617829,51.04917656865357]]]}},{"type":"Feature","properties":{"route_ref":"9","route_color":"#e5005a"},"geometry":{"type":"MultiLineString","coordinates":[[[13.7337202,51.0508447],[13.733324,51.0510641],[13.733576514829469,51.05087809907495],[13.734322360000002,51.050726440000005],[13.736633083814514,51.05048778051971],[13.744235664463076,51.04946087654976],[13.746865348602647,51.04877148279539],[13.752916364291481,51.04662394982105],[13.755483560498643,51.04600688020555],[13.756947257614046,51.045533651874976],[13.75756740559803,51.04559726160167],[13.758438659141552,51.04628551640585],[13.759094487001141,51.04644855008464],[13.766843787391535,51.04702515215062],[13.770329981093177,51.04647155673744],[13.7723975,51.0464568],[13.772968425410795,51.04637423495509],[13.77632507,51.04515583],[13.783295353298486,51.043439569541555],[13.791723836889568,51.04318784058522],[13.795755574787238,51.04283300705695],[13.796961546764354,51.042545828876584],[13.804891325194342,51.03984110908935],[13.806257101438126,51.03931168075242],[13.808422504983561,51.038130456055185],[13.806257644753124,51.039311977248985],[13.8046551,51.0399234],[13.797004745805284,51.04254934179932],[13.79575569976084,51.042837251199984],[13.791783198890311,51.04319710168678],[13.783315352818574,51.043440910771615],[13.77592486310477,51.04527428167878],[13.772978248746055,51.04637127831518],[13.77239865264086,51.046456722823315],[13.770192229880946,51.04648663305376],[13.766848822132921,51.04702866609707],[13.75907057174141,51.046447061651314],[13.758438957576494,51.04628567910905],[13.7575504,51.0455904],[13.757023048416611,51.04554028283543],[13.75527016264932,51.046066358048776],[13.753214873927464,51.04653516950329],[13.746919840674208,51.048752832889555],[13.744448511069217,51.04941710636341],[13.733719590616182,51.05084264908832],[13.735362651455677,51.050605208869]],[[13.7410793,51.05748809999999],[13.738613852513671,51.053989085365295],[13.738284575316392,51.053887008945495],[13.737596324777115,51.05393549048089],[13.736800848095934,51.05367964776143],[13.734619389174318,51.05204050116264],[13.733340722833939,51.05154912518356],[13.733281029973638,51.05106292426095],[13.733240271797493,51.05135377990802],[13.73339566946744,51.051588545976195],[13.734621566742007,51.05203895782255],[13.736719965307659,51.053635709092596],[13.737565007767632,51.053928745878835],[13.738330036948655,51.05388635611229],[13.738618964029621,51.053988930814604],[13.7409694,51.0572591],[13.741126873253535,51.057577223740815],[13.741064160186495,51.05779136126212],[13.739546565868475,51.058673146292065],[13.738838425769316,51.05938297852381],[13.736906012320224,51.06339338712494],[13.735239839999995,51.0648984],[13.732520819118717,51.06707795967362],[13.731042947507948,51.0685301126755],[13.729654565859157,51.070161774150655],[13.725911500157727,51.07238134296297],[13.722150876924745,51.075094462114436],[13.720925514285705,51.07572648571428],[13.71817858302944,51.07685599642843],[13.715893987054931,51.07794097005637],[13.715348641583509,51.07839183182686],[13.714695064615565,51.079410553244415],[13.715346159576276,51.07839564195556],[13.71586418290541,51.07795454474161],[13.71844520126561,51.07672788825095],[13.721120785534508,51.07563340680728],[13.722152984970867,51.07509499709576],[13.725773485681424,51.072468122015394],[13.729558980277005,51.070232170682445],[13.731030185063995,51.06853907715971],[13.732704077532462,51.066905990272865],[13.735193389122948,51.064937248619096],[13.73689345972162,51.063403202634746],[13.738841736848043,51.059377368293454],[13.739559377780552,51.0586748406676],[13.741048978361476,51.057801561030765],[13.7410793,51.05748809999999]],[[13.837634496739051,51.02302390068679],[13.837575525615067,51.023318060673546],[13.838052079999997,51.02362862],[13.838206642511198,51.02386957817088],[13.836974583508086,51.025746919437196],[13.834274559999997,51.02818852],[13.831830789768246,51.03013023269934],[13.831449218276125,51.03053448866722],[13.831126598016755,51.031168552441386],[13.830250001081067,51.031740726292156],[13.828424396671577,51.03232882266038],[13.826355623964398,51.033372277168546],[13.823420521851926,51.03393185134097],[13.818145179778089,51.03525370513751],[13.81013788677745,51.03747434509183],[13.809107370726421,51.03780285974618],[13.808402813096857,51.03814206592015],[13.809998268698738,51.03751154187284],[13.8179208,51.0353142],[13.823314839304334,51.03395478549139],[13.826359536153294,51.03337048169475],[13.828425727317988,51.032328587234744],[13.83025066673637,51.031738955384725],[13.8311319,51.031163899999996],[13.83148205367744,51.030485125533424],[13.831805694948919,51.03014788451695],[13.834092169675937,51.028325966174165],[13.836979141662335,51.0257418426631],[13.837825400000009,51.0243245],[13.838861961841584,51.02300521937901],[13.83874332018694,51.02279215596851],[13.838380486166546,51.02263820996966],[13.8381264833639,51.02268483049445],[13.837635728319825,51.02302407220316]],[[13.6872385,51.0834215],[13.687813856361332,51.083427841770856],[13.691519037931625,51.08215869641663],[13.692761023529071,51.08185267420597],[13.693845062500001,51.0818344],[13.696166630067125,51.081994362320835],[13.696677298025387,51.08190726736597],[13.696891272076835,51.08151960529303],[13.697523554194913,51.0775346292899],[13.697648467674139,51.07735033482136],[13.697930279038276,51.07724274301706],[13.698688549999998,51.077242150000004],[13.700012578781143,51.07739258608708],[13.706341031432828,51.07870986295638],[13.707318713990912,51.07884760281828],[13.714070877014398,51.0795107024823],[13.71466764215383,51.07939585512639],[13.714415911917731,51.079497592399626],[13.71401192422317,51.07950786869695],[13.707285566567046,51.07884572444949],[13.700338887982051,51.07745066389296],[13.699553821407589,51.07732571388845],[13.697933080665438,51.07724335393422],[13.697676279352057,51.077333185577984],[13.6975209080554,51.077536145403236],[13.696894286672912,51.08152043675069],[13.69668467916757,51.08190357317554],[13.6959913,51.08199299999999],[13.693431485353624,51.08182067595696],[13.692508730180672,51.081899413683765],[13.688621331415222,51.083139863299316],[13.68680489801684,51.08383904971774],[13.686502999958975,51.08386274206355],[13.686202465529897,51.08369957986484],[13.686204732306228,51.0834792470171],[13.6863370554411,51.0833919373877],[13.6872385,51.0834215]]]}},{"type":"Feature","properties":{"route_ref":"20","route_color":"#e5005a"},"geometry":{"type":"LineString","coordinates":[[13.714871840454508,51.07243631745424],[13.714571972223414,51.07147937621989],[13.714254402738014,51.06874255449295],[13.714464283736833,51.06857054930924],[13.71482462353048,51.06847748826851],[13.71625049926115,51.0683013827048],[13.71647055462979,51.0679696726116],[13.715553759865118,51.06261904788557],[13.715322448896638,51.06216532009196],[13.714539156692638,51.061376061836455],[13.71457285799025,51.06108480500137],[13.724333527578104,51.05789616016989],[13.726078116222048,51.057027007575215],[13.72840780576141,51.0565639656054],[13.733133819278816,51.05132681668628],[13.734785513189937,51.047171697111445],[13.735187312540173,51.047065825777736],[13.735963133333334,51.04711893333332],[13.740289500936456,51.047058110420394],[13.74077158723551,51.046941797157395],[13.741019472289432,51.04673965369472],[13.740885460821941,51.046306120118686],[13.736619625000005,51.042918050000004],[13.734283833760475,51.040738853038235],[13.733768250000002,51.04072965],[13.727288133333337,51.04292936666667],[13.72276665683693,51.04465657526508],[13.722188350000001,51.04517315],[13.71997545,51.04971965],[13.719911973515213,51.050323634116175],[13.720085280000001,51.05106884],[13.720387325000004,51.051707625000006],[13.72202075,51.053861950000005],[13.725706790798766,51.056753359525196],[13.725856591036177,51.05689562544528],[13.725842903586278,51.05707396521748],[13.725198896392763,51.05751734226288],[13.7243217,51.05790090000001],[13.715099147050447,51.06087067339131],[13.714552546833966,51.06113706500001],[13.714555,51.061396],[13.715324964710677,51.06216647113505],[13.715554457226354,51.06261754502723],[13.716474911749627,51.06793441959834],[13.7163894524076,51.06823382712869],[13.716232708822599,51.068307302595436],[13.714585971800146,51.068536986627784],[13.714256117902703,51.068737730318674],[13.714571454383986,51.071482170725325],[13.715037567486725,51.072461224719724],[13.715606805514025,51.072606087846374],[13.715704322442912,51.07288563296286],[13.715466471384937,51.07303478118012],[13.715101025216553,51.07300065764095],[13.714916652184476,51.072813014264895],[13.71491567612884,51.072422536729285],[13.714892717900305,51.072722980791475]]}},{"type":"Feature","properties":{"route_ref":"2","route_color":"#f9b000"},"geometry":{"type":"MultiLineString","coordinates":[[[13.7962634914298,51.02819815728824],[13.793669722983699,51.02868620077591],[13.7888257183246,51.03040872965965],[13.786492504097259,51.03088416311578],[13.78489279657015,51.03145294551575],[13.7834271746548,51.032279346327215],[13.78267463439873,51.03297799115138],[13.782735125418736,51.033400889510595],[13.783665217427998,51.03444320289611],[13.783551204510962,51.034848981312344],[13.77820441075573,51.03700055363293],[13.776608376923074,51.03777867692308],[13.759098515384613,51.04471984615384],[13.758168585394175,51.04495842652976],[13.758133009835404,51.04506574880015],[13.757239933333334,51.0454224],[13.75704409645247,51.045399058778955],[13.7566024,51.0456553],[13.752528921320952,51.04674909708975],[13.746403642279713,51.04891351646559],[13.743618782057906,51.0495573533582],[13.746462641090286,51.04889633236923],[13.752916364291481,51.04662394982105],[13.755483560498643,51.04600688020555],[13.756594651503372,51.045655615499705],[13.7566517,51.0455538],[13.75987304969521,51.04435330528167],[13.7609841,51.0437244],[13.776355308333336,51.03762700833333],[13.777849816059097,51.03718258151478],[13.783223896894818,51.03503349167655],[13.783596949820017,51.03481193045553],[13.783690820839174,51.034493834158575],[13.78271750439184,51.03337958319257],[13.782719074277113,51.03289349968996],[13.783910891175031,51.03197018045659],[13.78558408515975,51.03117736968966],[13.786793383224596,51.030818697827456],[13.78882047936476,51.030410186514395],[13.793953649724479,51.02861034387273],[13.79960978388678,51.02757930632915],[13.802592442753216,51.02662375785772],[13.804224937872588,51.025944679094636],[13.805351737575513,51.025601204359404],[13.806080065526311,51.0252028139338],[13.807638525000012,51.02409120000001],[13.811356101898932,51.02213365945258],[13.8116338061123,51.02159997893411],[13.811733066706815,51.0204706316827],[13.811875891260161,51.020178350801544],[13.813595484975805,51.01922799959006],[13.814836136748337,51.0174058416462],[13.816294743633076,51.016100663639094],[13.818000649058547,51.01478097427021],[13.81902454488318,51.014213185076194],[13.82008591573914,51.01376644422703],[13.823939203787386,51.0127841192696],[13.826562741790797,51.01185215499197],[13.830631480732317,51.01006663973746],[13.826040847832262,51.01204445123654],[13.823595897685843,51.012885139645206],[13.820087343155164,51.01376541748767],[13.818378105189867,51.01454963189015],[13.816533904140313,51.0159024460112],[13.814884757956811,51.017372754625804],[13.813464509488005,51.019338463136684],[13.811897516220695,51.02015405050571],[13.811745474180617,51.02042339984789],[13.8115738797687,51.02181743115962],[13.811357113913301,51.02213356684827],[13.807528405456948,51.024160088897084],[13.805452314677586,51.02555847528581],[13.802594406239566,51.026621936698426],[13.799773789990866,51.02753707644189],[13.795275702045386,51.02837112227768]],[[13.653353440202507,51.04711135151236],[13.654581453503615,51.04775722284959],[13.656598156049679,51.04840960740507],[13.659575108573883,51.048995005799064],[13.66081414329042,51.04900882995076],[13.661711714516894,51.04879428723698],[13.662494431079732,51.048350963962534],[13.663109443024801,51.047546694155834],[13.663752942807575,51.04565335953081],[13.664126957066884,51.04507835133237],[13.664946335778891,51.044543899363696],[13.665742036890071,51.0442968094816],[13.66724431111111,51.04424007777778],[13.678845636392586,51.045394406164654],[13.679477658347125,51.04557975824824],[13.679687850938507,51.04577823724962],[13.68022486856424,51.04757398020082],[13.682258122381334,51.05034721708381],[13.682897868189661,51.05145949183918],[13.683222660449207,51.05162466028217],[13.683672443583994,51.05151393318116],[13.685384670065023,51.0507192874348],[13.685975807946242,51.05035442798608],[13.687040699146689,51.049449700611326],[13.687333222140202,51.04932183060016],[13.692721393855313,51.04897645356546],[13.695431899999999,51.04897650000001],[13.696955448075684,51.04908276264585],[13.703982924938185,51.050925181119545],[13.706943045266227,51.05160143888594],[13.707789367225477,51.05152862127454],[13.708976112292042,51.05125143919876],[13.712688839397114,51.05011546631222],[13.714126702681785,51.0510614309018],[13.718730599999995,51.053717850000005],[13.721309233213063,51.055418801123224],[13.722084566720998,51.05576671249205],[13.722492532949275,51.055686193082764],[13.723420936728802,51.05514529455597],[13.724062813987656,51.05439556741328],[13.72425041231269,51.0537003130207],[13.724480821218538,51.05343631342022],[13.728775163766183,51.052110194636214],[13.728949923345782,51.05190039281372],[13.729154009134229,51.05110888732321],[13.729363459154591,51.05093193219752],[13.72980806010002,51.05086088253296],[13.732044732448282,51.05098990716752],[13.733128534036245,51.05093131750065],[13.732268251954437,51.05099619657125],[13.729815669026557,51.05085671383853],[13.729390762883476,51.05092517427272],[13.72912508962424,51.051177095038724],[13.728799620198728,51.05209963659469],[13.724530756691449,51.05340717041168],[13.724293499213571,51.0536159022611],[13.723990862499997,51.054493725],[13.723410997859425,51.05515474477299],[13.722470936890446,51.05569258341411],[13.721996486248857,51.05577054579683],[13.71265376327226,51.05011566313587],[13.711501881733009,51.05053358208321],[13.709090874999996,51.051219924999984],[13.708005346583695,51.05149417360015],[13.706968531146329,51.05160635075595],[13.705030057142858,51.05119677142857],[13.697050221574905,51.04910671287681],[13.695413475589625,51.04897749531155],[13.6931803,51.0489622],[13.687365320705563,51.04931413642504],[13.6869841,51.0494947],[13.685572387874014,51.05061195959726],[13.68367365158395,51.05151337685442],[13.683195113844546,51.0516280191319],[13.682852303158816,51.05139778990429],[13.682237530977243,51.05034433341403],[13.680223240189546,51.04757284036545],[13.6796635080622,51.04574354723539],[13.67941665585764,51.045555902575494],[13.678954471412817,51.04541191107353],[13.67745599243477,51.04527064998954],[13.67829456005224,51.045368185705186]],[[13.854535539716558,51.00834325335776],[13.85421441864519,51.00845277505701],[13.85378466485447,51.00844176749348],[13.848465672256962,51.00792479262292],[13.846405569630935,51.00783028544679],[13.830658,51.010098],[13.846403341822038,51.00783005799084],[13.8484554,51.0079231],[13.854992499999998,51.008524500000014]]]}},{"type":"Feature","properties":{"route_ref":"1","route_color":"#f9b000"},"geometry":{"type":"MultiLineString","coordinates":[[[13.7962634914298,51.02819815728824],[13.793669722983699,51.02868620077591],[13.7888257183246,51.03040872965965],[13.786492504097259,51.03088416311578],[13.78489279657015,51.03145294551575],[13.7834271746548,51.032279346327215],[13.78267463439873,51.03297799115138],[13.782735125418736,51.033400889510595],[13.783665217427998,51.03444320289611],[13.783551204510962,51.034848981312344],[13.77820441075573,51.03700055363293],[13.776608376923074,51.03777867692308],[13.759098515384613,51.04471984615384],[13.758168585394175,51.04495842652976],[13.758133009835404,51.04506574880015],[13.757239933333334,51.0454224],[13.75704409645247,51.045399058778955],[13.7566024,51.0456553],[13.752528921320952,51.04674909708975],[13.746403642279713,51.04891351646559],[13.743618782057906,51.0495573533582],[13.746462641090286,51.04889633236923],[13.752916364291481,51.04662394982105],[13.755483560498643,51.04600688020555],[13.756594651503372,51.045655615499705],[13.7566517,51.0455538],[13.75987304969521,51.04435330528167],[13.7609841,51.0437244],[13.776355308333336,51.03762700833333],[13.777849816059097,51.03718258151478],[13.783223896894818,51.03503349167655],[13.783596949820017,51.03481193045553],[13.783690820839174,51.034493834158575],[13.78271750439184,51.03337958319257],[13.782719074277113,51.03289349968996],[13.783910891175031,51.03197018045659],[13.78558408515975,51.03117736968966],[13.786793383224596,51.030818697827456],[13.78882047936476,51.030410186514395],[13.793953649724479,51.02861034387273],[13.79960978388678,51.02757930632915],[13.802592442753216,51.02662375785772],[13.804224937872588,51.025944679094636],[13.805351737575513,51.025601204359404],[13.806080065526311,51.0252028139338],[13.807638525000012,51.02409120000001],[13.811356101898932,51.02213365945258],[13.8116338061123,51.02159997893411],[13.811733066706815,51.0204706316827],[13.811875891260161,51.020178350801544],[13.813595484975805,51.01922799959006],[13.81457408495928,51.01770486672599],[13.8159071,51.0164378],[13.8146207408722,51.01764435073679],[13.813578364291535,51.019237674946666],[13.811897516220695,51.02015405050571],[13.811745474180617,51.02042339984789],[13.811546165509661,51.02189443361951],[13.811357113913301,51.02213356684827],[13.8106486,51.02257410000001],[13.807528405456948,51.024160088897084],[13.805452314677586,51.02555847528581],[13.802594406239566,51.026621936698426],[13.799773789990866,51.02753707644189],[13.795275702045386,51.02837112227768]],[[13.6705221,51.0590557],[13.670489028446084,51.0594738630682],[13.671025808458444,51.05974473705227],[13.676671711890325,51.060818541394795],[13.678350925771698,51.06105162182335],[13.681200880209497,51.06179734659454],[13.683567165245538,51.061861137746945],[13.685454815021858,51.062276614377716],[13.685998115545628,51.06228717616751],[13.687112898181109,51.0619858370192],[13.689373390955828,51.06177136501838],[13.690663363677281,51.06146540178038],[13.693135389862478,51.0610945258513],[13.699237722635234,51.0595222663614],[13.709966306146551,51.05810509120365],[13.718428000701074,51.05529744027534],[13.719944339537308,51.05483544558933],[13.720350678570838,51.05487585356877],[13.720260532655724,51.05480057943952],[13.719940562201447,51.05482988012896],[13.718681887500006,51.055210225],[13.710081807843123,51.058075701928864],[13.709013595456781,51.05827810700381],[13.699067832917526,51.05954764844216],[13.693137471822423,51.06109452575137],[13.69066540063549,51.06146792119884],[13.689368813815248,51.061771288413674],[13.687114484843843,51.061980863210174],[13.68601223479851,51.06228445914134],[13.685303674839512,51.06225167605165],[13.683651583013694,51.06186782304842],[13.681157891551841,51.06178275792465],[13.678351316951208,51.06104979813924],[13.675713020852966,51.06063795674977]],[[13.7988158,50.99919630000001],[13.79929328544687,50.999049962256926],[13.799635404165784,50.99909749963431],[13.799912506575003,50.999356750375455],[13.799842015908878,50.999640201099076],[13.799337364231324,50.999796470152944],[13.79802956925945,50.99962877218659],[13.797320089256477,50.999960948751735],[13.797343499999995,51.00012157142857],[13.797065494562801,51.00024481583869],[13.796919354686711,51.000522211774545],[13.797998527352139,51.00229226313393],[13.797975693595905,51.004050888485054],[13.798239568986585,51.00455456164935],[13.803165872651057,51.008212253060364],[13.80518734601247,51.00954229071481],[13.805553827500269,51.00994987371781],[13.80624357078434,51.011252364811384],[13.806721870195307,51.011363859772004],[13.807810505361065,51.01124697814026],[13.808222055926226,51.01140854534796],[13.809675524193782,51.01235096839993],[13.811377101538286,51.01371437312674],[13.81575222066876,51.01604033531606],[13.815889543413741,51.01613811892014],[13.815944100482929,51.01645415718748],[13.815940847839812,51.01623513059973],[13.8157485,51.0160395],[13.811362400651628,51.01370659721745],[13.809384164156594,51.01215358467312],[13.80820292212908,51.01140200485784],[13.80780126901991,51.01124755996573],[13.806712965422138,51.01136901987226],[13.806254498407128,51.01126143456035],[13.80594976,51.01086816],[13.805510524587548,51.00988731781756],[13.805012910350277,51.0094074787966],[13.803147600000008,51.00820028750001],[13.798218756535727,51.004538459573226],[13.797947048405115,51.00392946248259],[13.798024580529153,51.002374264196725],[13.797815164827034,51.00190341708522],[13.79712946,51.001029859999996],[13.796910810365587,51.00040153746593],[13.797319221864115,50.9999523061122],[13.7988158,50.99919630000001]],[[13.723302076722769,51.05522943220148],[13.722470936890446,51.05569258341411],[13.721996486248857,51.05577054579683],[13.720316199956585,51.05482911383723],[13.721729548656553,51.05565743711578],[13.722264639150753,51.05576080453749],[13.723346328477422,51.05519601868254],[13.723640622677625,51.05493048709347],[13.724062813987656,51.05439556741328],[13.72425041231269,51.0537003130207],[13.724443771577558,51.053459902173046],[13.728775163766183,51.052110194636214],[13.728949923345782,51.05190039281372],[13.729154009134229,51.05110888732321],[13.729363459154591,51.05093193219752],[13.730092305606524,51.05086511911817],[13.732268251954437,51.05099619657125],[13.733132022673914,51.05089845086155],[13.732044732448282,51.05098990716752],[13.730114935306375,51.050866993661366],[13.729390762883476,51.05092517427272],[13.72912508962424,51.051177095038724],[13.728799620198728,51.05209963659469],[13.724442176676423,51.05345779620181],[13.723990862499997,51.054493725],[13.723295761063206,51.05523142211376]]]}}]}