{"type":"FeatureCollection","features":[{"type":"Feature","properties":{"route_ref":"1","route_color":"#f78a21"},"geometry":{"type":"MultiLineString","coordinates":[[[12.085365397557203,50.863405485041895],[12.08427943718827,50.862883607084555],[12.084041450728325,50.86230259792095],[12.0840170144434,50.86178014977801],[12.084415249651215,50.86136846672248],[12.086772333238695,50.85958783153469],[12.089019685113897,50.85817295498477],[12.089523178668017,50.857450421351885],[12.090160960543734,50.8552355512218],[12.090024365673887,50.85426589529528],[12.089074362761641,50.852809957772635],[12.089530559568285,50.85168882839878],[12.088495330807218,50.85030690498399],[12.08735931099533,50.849038247339024],[12.087243301968128,50.84866561777036],[12.087741994036183,50.84808391109321],[12.087575798389317,50.84792772861504],[12.087234344972012,50.84789667434844],[12.08696750250701,50.84815506475653],[12.08731211546797,50.84895337670827],[12.088989881774319,50.850892563821965],[12.089547195637284,50.851739704277875],[12.08907282442249,50.85280282248981],[12.090023055704167,50.854259038905674],[12.090171640758083,50.85513451036877],[12.089522429920812,50.85745145298948],[12.089117497216971,50.858031409163786],[12.089449391014687,50.857598677293915]],[[12.069138796239702,50.89079911408201],[12.06946741720401,50.88681649250045],[12.069284243893527,50.88535107815928],[12.06887943003507,50.88454265216878],[12.069733706423046,50.883503024783586],[12.07020335442301,50.882699889151134],[12.070502860156228,50.88251594132241],[12.070889553983084,50.88246469675009],[12.073623439095304,50.88285509703593],[12.074358898019536,50.88287220335359],[12.076304748913223,50.88255176050603],[12.077154262036741,50.88228926048595],[12.077257490863728,50.882112640900274],[12.077185148771553,50.88148060549577],[12.07873205325498,50.880175284043396],[12.079036477529872,50.879371970240186],[12.07785031831745,50.87830806924456],[12.077783453462423,50.87806095552276],[12.079952381857913,50.87641016176539],[12.079726853133089,50.87606723392016],[12.078483590882813,50.87541117227606],[12.079711270358418,50.8760442906274],[12.078445151302835,50.875356184477766],[12.078086991398271,50.87505875267361],[12.078059945797948,50.87488061403096],[12.07837519280114,50.87470529771473],[12.079026002489199,50.87472776207022],[12.079326723131066,50.87461346230326],[12.079694417947502,50.873821578650485],[12.079912521847453,50.87363040827215],[12.080204064671193,50.8735989969001],[12.080941834354663,50.87376463201422],[12.081716940682785,50.87381349561692],[12.082019924321505,50.87353665563838],[12.082560213067397,50.87240894191589],[12.082312809292825,50.872893327330544]],[[12.084826495530734,50.86317740635073],[12.085445861461267,50.863439720250874],[12.085623967158778,50.863632116976135],[12.085292069177573,50.86662712313095],[12.082575177278734,50.872422210010505],[12.085286757173485,50.86666826989979],[12.0856242,50.8636438],[12.085438157798784,50.86344140314521],[12.084276352636184,50.862883745842666],[12.084008665156349,50.86218738286115],[12.084017411965542,50.86178169841884],[12.085105485714292,50.86081535714285],[12.086772882236124,50.8595874847312],[12.088903486439218,50.85828044093549],[12.089452504003384,50.85759925809358]]]}},{"type":"Feature","properties":{"route_ref":"3","route_color":"#f78a21"},"geometry":{"type":"MultiLineString","coordinates":[[[12.075840123992142,50.87229018952776],[12.075353,50.8718369],[12.0744745073121,50.87146048079668],[12.072863793112926,50.87099369631585],[12.072462882508251,50.87058579043751],[12.072884857063217,50.863604600433305],[12.07274277970372,50.850200686953656],[12.072601353897145,50.84961595339917],[12.072253120166666,50.8493947762161],[12.07063859090909,50.848954527272724],[12.063577547584883,50.846178461808535],[12.062744126139451,50.84569962719349],[12.062474866666669,50.845300333333334],[12.0623365,50.84476097499999],[12.062563508333334,50.8421549],[12.062731915000771,50.84173542822808],[12.063553812865376,50.84077785290987],[12.0636931,50.83975975],[12.063586408071787,50.839242102541746],[12.063067984264764,50.83885253239333],[12.062580785722291,50.838728739158],[12.062077549999998,50.8387155],[12.057394350000001,50.839460599999995],[12.0558721,50.83961704],[12.051247203063465,50.83958154323602]],[[12.099694253235857,50.90071983110179],[12.097749382775797,50.900342415590025],[12.097068245931078,50.9003368078516],[12.096303910785602,50.900458276539126],[12.094652280000004,50.901104839999995],[12.088804486279816,50.90374136575638],[12.078924876085471,50.90601642510273],[12.077896028796896,50.90609591651343],[12.077001909847896,50.90603378772444],[12.072911622037848,50.90525602741478],[12.07250908529353,50.90505826541547],[12.072180341811887,50.90461436182097],[12.072551037462373,50.902965760844694],[12.072097914961537,50.90186199845767],[12.073104927096834,50.90011420680106],[12.073831281829513,50.89916539252231],[12.075248049999999,50.89793155],[12.079776769076494,50.894391483174594],[12.08016852739558,50.89383521343043]],[[12.080328603032301,50.89329351498047],[12.080137901293336,50.89383014150538],[12.083797204776582,50.88110730053818],[12.084350199999996,50.879992400000006],[12.085358559858431,50.87862428875458],[12.085372880138147,50.87835072488568],[12.07962067429939,50.876056813820014],[12.078473566790164,50.87543969641368],[12.079694729203718,50.876074677434026],[12.078516926898759,50.87542755009102],[12.077210006365991,50.87438174768229],[12.075811217697169,50.872321325451495],[12.076022793976266,50.87259401572195]]]}},{"type":"Feature","properties":{"route_ref":"2","route_color":"#fbba00"},"geometry":{"type":"LineString","coordinates":[[12.050903018033274,50.839504691254824],[12.052064956203097,50.839585899716496],[12.055724692656552,50.83960787115525],[12.058182616582066,50.839328719939736],[12.061928580260005,50.83871780546604],[12.062967839762182,50.83879355407751],[12.063393589067791,50.83901537780246],[12.063659752138694,50.839312218823096],[12.063724519999997,50.84018778],[12.063498745882752,50.840909895018385],[12.062759720214684,50.84174966903219],[12.062527574198123,50.842496300564676],[12.062387072723972,50.84484854351498],[12.06263006390742,50.84553181878287],[12.06284910983374,50.845764157514864],[12.06336528523345,50.846043990739965],[12.070529638189482,50.84889384166823],[12.072556999704796,50.84942167565068],[12.077445536618955,50.84945585632374],[12.078955608014953,50.84930811681293],[12.080437963232765,50.84902083161169],[12.080930347994485,50.849051549669944],[12.081375828890293,50.84932169745735],[12.081958335117507,50.84991881074944],[12.082418946494707,50.85065780290819],[12.082441513797171,50.85093147171816],[12.082130270108298,50.85103549540578],[12.081851431860219,50.850957887459884],[12.081792265324067,50.8506848211103],[12.08203330039464,50.8500530155806],[12.081376265853423,50.84932165881037],[12.0809106,50.8490499],[12.080456739971007,50.84901808115006],[12.079091270758772,50.84929299820598],[12.077067637376729,50.84948353744253],[12.072804564258934,50.84945747433792],[12.072137138485655,50.84936136001742],[12.070532344816131,50.848895638920055],[12.063599316048679,50.84615783479284],[12.062919674848091,50.84581218482386],[12.062564958766021,50.84544299102425],[12.062367373696079,50.84484922665356],[12.062516050000001,50.8425979],[12.062764908782366,50.841744694191554],[12.0635355,50.84082750000001],[12.063712507982702,50.83993750508363],[12.06365999080377,50.8393185261275],[12.06339415829852,50.839017676541516],[12.062956596054125,50.838795573777084],[12.062218903548699,50.838698267004006],[12.061630622065326,50.83875678765972],[12.058183030936968,50.83932930160642],[12.05572386449129,50.83960872588755],[12.054374913413303,50.839645323536715],[12.05124995846646,50.839545754176505]]}}]}