{"type":"FeatureCollection","metro_system":{"continent":"africa","country":"Algeria","city":"Oran","official_website":null,"official_map":null,"wikipedia":null,"line_count":1,"segment_count":1,"station_count":32,"modes":["tram"],"audit":{"strategies_tried":[],"passed":true,"checks":[{"id":"has_lines","ok":true,"detail":"1 lines","level":"error"},{"id":"has_stations","ok":true,"detail":"32 stations","level":"error"},{"id":"stations_have_lines","ok":true,"detail":"32/32 站皆有所屬路線","level":"error"},{"id":"line_geometry_stations","ok":true,"detail":"32 個折點/端點皆為車站","level":"error"},{"id":"route_stations_match_geometry","ok":true,"detail":"各線車站列表與圖面一致","level":"error"},{"id":"interchange_rule","ok":true,"detail":"所有車站紅/藍點符合骨架＋路線色規則（藍＝端點、紅＝交叉）","level":"error"},{"id":"stations_named","ok":true,"detail":"32/32 站皆有名稱","level":"error"},{"id":"station_order","ok":true,"detail":"所有線路站序合理","level":"warn"},{"id":"line_wiki_stations","ok":true,"detail":"各線站數與 wiki 線路條目相符（營運中站數）","level":"error"},{"id":"line_wiki_coverage","ok":false,"detail":"1 條線無 wiki 站數對照：ligne du Tramway d'Oran","level":"warn"}],"reasons":[],"warnings":["1 條線無 wiki 站數對照：ligne du Tramway d'Oran"],"audited_at":"2026-07-27T02:39:34.914Z"}},"features":[{"type":"Feature","properties":{"seg_id":"oran-0","routes":[{"route_id":"rm19781527","route_name":"ligne du Tramway d'Oran","route_name_local":"ligne du Tramway d'Oran","route_name_en":null,"route_ref":"ligne du Tramway d'Oran","route_color":null,"wikipedia":null,"osm_route_ids":[6848474,13167518],"status":null,"order_suspect":0,"span_suspect":0,"stations":[{"station_id":"n3890757610","station_name":"Senia Université"},{"station_id":"n3890757609","station_name":"Senia Sud"},{"station_id":"n3890757608","station_name":"Senia Centre"},{"station_id":"n3890757612","station_name":"Moulay Abdelkader"},{"station_id":"n3887703010","station_name":"Université Docteur Taleb"},{"station_id":"n3890757607","station_name":"Cité Volontaire ENSET"},{"station_id":"n3890757611","station_name":"Lycée Les Palmiers"},{"station_id":"n4589680774","station_name":"Jardin Othmania"},{"station_id":"n3700109570","station_name":"Cité Universitaire Haï El Badr"},{"station_id":"n3917025158","station_name":"Sûreté de Wilaya"},{"station_id":"n3884586003","station_name":"Palais Des Sports"},{"station_id":"n3884586005","station_name":"Ghaouti"},{"station_id":"n3884586006","station_name":"M'dina El Djadida"},{"station_id":"n3884586007","station_name":"Houha Tlemcen"},{"station_id":"n3884586008","station_name":"Place Mokrani"},{"station_id":"n3700106058","station_name":"Place 1er Novembre"},{"station_id":"n3890745437","station_name":"Emir Abdelkader"},{"station_id":"n3890745438","station_name":"Gare SNTF"},{"station_id":"n3890745436","station_name":"Bd Colonel Ahmed Ben Abderrezak"},{"station_id":"n3890745440","station_name":"Les Frères Moulay"},{"station_id":"n3890745439","station_name":"Maâlem Bentayeb"},{"station_id":"n1554977699","station_name":"Les Castors"},{"station_id":"n1554977660","station_name":"Mosquée Ibn Badis"},{"station_id":"n3884848352","station_name":"Palais De Justice"},{"station_id":"n3884864860","station_name":"Trois Cliniques"},{"station_id":"n1554977543","station_name":"Cité USTO"},{"station_id":"n1554977535","station_name":"Hôpital 1er Novembre"},{"station_id":"n1554977522","station_name":"Université USTO"},{"station_id":"n3884890191","station_name":"Bd Pépinière"},{"station_id":"n3940040251","station_name":"Hai El Yasmine"},{"station_id":"n2273847474","station_name":"Hai Sabah"},{"station_id":"n2273847462","station_name":"Gare Routière Sidi Maâ rouf"}]}],"route_count":1,"route_refs":["ligne du Tramway d'Oran"],"route_colors":["#e11d48"],"city":"Oran","country":"Algeria"},"geometry":{"type":"MultiLineString","coordinates":[[[-0.6172031499999999,35.642445949999995],[-0.6217251,35.64606165],[-0.6252044,35.65002565],[-0.628204,35.6549435],[-0.63202555,35.6612499],[-0.6346461000000001,35.6655617],[-0.63817915,35.67129185],[-0.64112605,35.6760774],[-0.64341995,35.67982535],[-0.64561225,35.6834102],[-0.6476646500000001,35.68684985],[-0.6489110499999999,35.689799],[-0.6503949499999999,35.69364365],[-0.65147225,35.6972781],[-0.6503258000000001,35.70056555],[-0.6488409500000001,35.7035647],[-0.6452636,35.70035685],[-0.6385611,35.699692299999995],[-0.63192385,35.6985692],[-0.6255483500000001,35.699092],[-0.6179557499999999,35.6980612],[-0.61325075,35.697053350000004],[-0.6061163,35.69688975],[-0.60210785,35.6992281],[-0.5962711,35.701832350000004],[-0.5895995,35.70196095],[-0.5836393,35.70213685],[-0.576793,35.704459400000005],[-0.5736827,35.70594545],[-0.57007035,35.70345815],[-0.57187765,35.69661655],[-0.568722,35.69075345]]]}},{"type":"Feature","properties":{"station_id":"n1554977522","station_name":"Université USTO","station_name_local":"Université USTO","station_name_en":null,"city":"Oran","country":"Algeria","lines":["ligne du Tramway d'Oran"],"wikipedia":null,"merged_from":2,"merged_names":null,"is_terminus":false,"routes":[{"ref":"ligne du Tramway d'Oran","name":"ligne du Tramway d'Oran","route_color":null}],"pass_count":1,"station_degree":2,"codes":null,"is_interchange":false,"station_role":"normal"},"geometry":{"type":"Point","coordinates":[-0.576793,35.704459400000005]},"__memberLines":{}},{"type":"Feature","properties":{"station_id":"n1554977535","station_name":"Hôpital 1er Novembre","station_name_local":"Hôpital 1er Novembre","station_name_en":null,"city":"Oran","country":"Algeria","lines":["ligne du Tramway d'Oran"],"wikipedia":null,"merged_from":2,"merged_names":null,"is_terminus":false,"routes":[{"ref":"ligne du Tramway d'Oran","name":"ligne du Tramway d'Oran","route_color":null}],"pass_count":1,"station_degree":2,"codes":null,"is_interchange":false,"station_role":"normal"},"geometry":{"type":"Point","coordinates":[-0.5836393,35.70213685]},"__memberLines":{}},{"type":"Feature","properties":{"station_id":"n1554977543","station_name":"Cité USTO","station_name_local":"Cité USTO","station_name_en":null,"city":"Oran","country":"Algeria","lines":["ligne du Tramway d'Oran"],"wikipedia":null,"merged_from":2,"merged_names":null,"is_terminus":false,"routes":[{"ref":"ligne du Tramway d'Oran","name":"ligne du Tramway d'Oran","route_color":null}],"pass_count":1,"station_degree":2,"codes":null,"is_interchange":false,"station_role":"normal"},"geometry":{"type":"Point","coordinates":[-0.5895995,35.70196095]},"__memberLines":{}},{"type":"Feature","properties":{"station_id":"n1554977660","station_name":"Mosquée Ibn Badis","station_name_local":"Mosquée Ibn Badis","station_name_en":null,"city":"Oran","country":"Algeria","lines":["ligne du Tramway d'Oran"],"wikipedia":null,"merged_from":2,"merged_names":null,"is_terminus":false,"routes":[{"ref":"ligne du Tramway d'Oran","name":"ligne du Tramway d'Oran","route_color":null}],"pass_count":1,"station_degree":2,"codes":null,"is_interchange":false,"station_role":"normal"},"geometry":{"type":"Point","coordinates":[-0.6061163,35.69688975]},"__memberLines":{}},{"type":"Feature","properties":{"station_id":"n1554977699","station_name":"Les Castors","station_name_local":"Les Castors","station_name_en":null,"city":"Oran","country":"Algeria","lines":["ligne du Tramway d'Oran"],"wikipedia":null,"merged_from":2,"merged_names":null,"is_terminus":false,"routes":[{"ref":"ligne du Tramway d'Oran","name":"ligne du Tramway d'Oran","route_color":null}],"pass_count":1,"station_degree":2,"codes":null,"is_interchange":false,"station_role":"normal"},"geometry":{"type":"Point","coordinates":[-0.61325075,35.697053350000004]},"__memberLines":{}},{"type":"Feature","properties":{"station_id":"n2273847462","station_name":"Gare Routière Sidi Maâ rouf","station_name_local":"Gare Routière Sidi Maâ rouf","station_name_en":null,"city":"Oran","country":"Algeria","lines":["ligne du Tramway d'Oran"],"wikipedia":null,"merged_from":2,"merged_names":null,"is_terminus":true,"routes":[{"ref":"ligne du Tramway d'Oran","name":"ligne du Tramway d'Oran","route_color":null}],"pass_count":1,"station_degree":1,"codes":null,"is_interchange":false,"station_role":"terminus"},"geometry":{"type":"Point","coordinates":[-0.568722,35.69075345]},"__memberLines":{}},{"type":"Feature","properties":{"station_id":"n2273847474","station_name":"Hai Sabah","station_name_local":"Hai Sabah","station_name_en":null,"city":"Oran","country":"Algeria","lines":["ligne du Tramway d'Oran"],"wikipedia":null,"merged_from":2,"merged_names":null,"is_terminus":false,"routes":[{"ref":"ligne du Tramway d'Oran","name":"ligne du Tramway d'Oran","route_color":null}],"pass_count":1,"station_degree":2,"codes":null,"is_interchange":false,"station_role":"normal"},"geometry":{"type":"Point","coordinates":[-0.57187765,35.69661655]},"__memberLines":{}},{"type":"Feature","properties":{"station_id":"n3700106058","station_name":"Place 1er Novembre","station_name_local":"Place 1er Novembre","station_name_en":null,"city":"Oran","country":"Algeria","lines":["ligne du Tramway d'Oran"],"wikipedia":null,"merged_from":2,"merged_names":null,"is_terminus":false,"routes":[{"ref":"ligne du Tramway d'Oran","name":"ligne du Tramway d'Oran","route_color":null}],"pass_count":1,"station_degree":2,"codes":null,"is_interchange":false,"station_role":"normal"},"geometry":{"type":"Point","coordinates":[-0.6488409500000001,35.7035647]},"__memberLines":{}},{"type":"Feature","properties":{"station_id":"n3700109570","station_name":"Cité Universitaire Haï El Badr","station_name_local":"Cité Universitaire Haï El Badr","station_name_en":null,"city":"Oran","country":"Algeria","lines":["ligne du Tramway d'Oran"],"wikipedia":null,"merged_from":2,"merged_names":null,"is_terminus":false,"routes":[{"ref":"ligne du Tramway d'Oran","name":"ligne du Tramway d'Oran","route_color":null}],"pass_count":1,"station_degree":2,"codes":null,"is_interchange":false,"station_role":"normal"},"geometry":{"type":"Point","coordinates":[-0.64341995,35.67982535]},"__memberLines":{}},{"type":"Feature","properties":{"station_id":"n3884586003","station_name":"Palais Des Sports","station_name_local":"Palais Des Sports","station_name_en":null,"city":"Oran","country":"Algeria","lines":["ligne du Tramway d'Oran"],"wikipedia":null,"merged_from":2,"merged_names":null,"is_terminus":false,"routes":[{"ref":"ligne du Tramway d'Oran","name":"ligne du Tramway d'Oran","route_color":null}],"pass_count":1,"station_degree":2,"codes":null,"is_interchange":false,"station_role":"normal"},"geometry":{"type":"Point","coordinates":[-0.6476646500000001,35.68684985]},"__memberLines":{}},{"type":"Feature","properties":{"station_id":"n3884586005","station_name":"Ghaouti","station_name_local":"Ghaouti","station_name_en":null,"city":"Oran","country":"Algeria","lines":["ligne du Tramway d'Oran"],"wikipedia":null,"merged_from":2,"merged_names":null,"is_terminus":false,"routes":[{"ref":"ligne du Tramway d'Oran","name":"ligne du Tramway d'Oran","route_color":null}],"pass_count":1,"station_degree":2,"codes":null,"is_interchange":false,"station_role":"normal"},"geometry":{"type":"Point","coordinates":[-0.6489110499999999,35.689799]},"__memberLines":{}},{"type":"Feature","properties":{"station_id":"n3884586006","station_name":"M'dina El Djadida","station_name_local":"M'dina El Djadida","station_name_en":null,"city":"Oran","country":"Algeria","lines":["ligne du Tramway d'Oran"],"wikipedia":null,"merged_from":2,"merged_names":null,"is_terminus":false,"routes":[{"ref":"ligne du Tramway d'Oran","name":"ligne du Tramway d'Oran","route_color":null}],"pass_count":1,"station_degree":2,"codes":null,"is_interchange":false,"station_role":"normal"},"geometry":{"type":"Point","coordinates":[-0.6503949499999999,35.69364365]},"__memberLines":{}},{"type":"Feature","properties":{"station_id":"n3884586007","station_name":"Houha Tlemcen","station_name_local":"Houha Tlemcen","station_name_en":null,"city":"Oran","country":"Algeria","lines":["ligne du Tramway d'Oran"],"wikipedia":null,"merged_from":2,"merged_names":null,"is_terminus":false,"routes":[{"ref":"ligne du Tramway d'Oran","name":"ligne du Tramway d'Oran","route_color":null}],"pass_count":1,"station_degree":2,"codes":null,"is_interchange":false,"station_role":"normal"},"geometry":{"type":"Point","coordinates":[-0.65147225,35.6972781]},"__memberLines":{}},{"type":"Feature","properties":{"station_id":"n3884586008","station_name":"Place Mokrani","station_name_local":"Place Mokrani","station_name_en":null,"city":"Oran","country":"Algeria","lines":["ligne du Tramway d'Oran"],"wikipedia":null,"merged_from":2,"merged_names":null,"is_terminus":false,"routes":[{"ref":"ligne du Tramway d'Oran","name":"ligne du Tramway d'Oran","route_color":null}],"pass_count":1,"station_degree":2,"codes":null,"is_interchange":false,"station_role":"normal"},"geometry":{"type":"Point","coordinates":[-0.6503258000000001,35.70056555]},"__memberLines":{}},{"type":"Feature","properties":{"station_id":"n3884848352","station_name":"Palais De Justice","station_name_local":"Palais De Justice","station_name_en":null,"city":"Oran","country":"Algeria","lines":["ligne du Tramway d'Oran"],"wikipedia":null,"merged_from":2,"merged_names":null,"is_terminus":false,"routes":[{"ref":"ligne du Tramway d'Oran","name":"ligne du Tramway d'Oran","route_color":null}],"pass_count":1,"station_degree":2,"codes":null,"is_interchange":false,"station_role":"normal"},"geometry":{"type":"Point","coordinates":[-0.60210785,35.6992281]},"__memberLines":{}},{"type":"Feature","properties":{"station_id":"n3884864860","station_name":"Trois Cliniques","station_name_local":"Trois Cliniques","station_name_en":null,"city":"Oran","country":"Algeria","lines":["ligne du Tramway d'Oran"],"wikipedia":null,"merged_from":2,"merged_names":null,"is_terminus":false,"routes":[{"ref":"ligne du Tramway d'Oran","name":"ligne du Tramway d'Oran","route_color":null}],"pass_count":1,"station_degree":2,"codes":null,"is_interchange":false,"station_role":"normal"},"geometry":{"type":"Point","coordinates":[-0.5962711,35.701832350000004]},"__memberLines":{}},{"type":"Feature","properties":{"station_id":"n3884890191","station_name":"Bd Pépinière","station_name_local":"Bd Pépinière","station_name_en":null,"city":"Oran","country":"Algeria","lines":["ligne du Tramway d'Oran"],"wikipedia":null,"merged_from":2,"merged_names":null,"is_terminus":false,"routes":[{"ref":"ligne du Tramway d'Oran","name":"ligne du Tramway d'Oran","route_color":null}],"pass_count":1,"station_degree":2,"codes":null,"is_interchange":false,"station_role":"normal"},"geometry":{"type":"Point","coordinates":[-0.5736827,35.70594545]},"__memberLines":{}},{"type":"Feature","properties":{"station_id":"n3887703010","station_name":"Université Docteur Taleb","station_name_local":"Université Docteur Taleb","station_name_en":null,"city":"Oran","country":"Algeria","lines":["ligne du Tramway d'Oran"],"wikipedia":null,"merged_from":2,"merged_names":null,"is_terminus":false,"routes":[{"ref":"ligne du Tramway d'Oran","name":"ligne du Tramway d'Oran","route_color":null}],"pass_count":1,"station_degree":2,"codes":null,"is_interchange":false,"station_role":"normal"},"geometry":{"type":"Point","coordinates":[-0.63202555,35.6612499]},"__memberLines":{}},{"type":"Feature","properties":{"station_id":"n3890745436","station_name":"Bd Colonel Ahmed Ben Abderrezak","station_name_local":"Bd Colonel Ahmed Ben Abderrezak","station_name_en":null,"city":"Oran","country":"Algeria","lines":["ligne du Tramway d'Oran"],"wikipedia":null,"merged_from":2,"merged_names":null,"is_terminus":false,"routes":[{"ref":"ligne du Tramway d'Oran","name":"ligne du Tramway d'Oran","route_color":null}],"pass_count":1,"station_degree":2,"codes":null,"is_interchange":false,"station_role":"normal"},"geometry":{"type":"Point","coordinates":[-0.63192385,35.6985692]},"__memberLines":{}},{"type":"Feature","properties":{"station_id":"n3890745437","station_name":"Emir Abdelkader","station_name_local":"Emir Abdelkader","station_name_en":null,"city":"Oran","country":"Algeria","lines":["ligne du Tramway d'Oran"],"wikipedia":null,"merged_from":2,"merged_names":null,"is_terminus":false,"routes":[{"ref":"ligne du Tramway d'Oran","name":"ligne du Tramway d'Oran","route_color":null}],"pass_count":1,"station_degree":2,"codes":null,"is_interchange":false,"station_role":"normal"},"geometry":{"type":"Point","coordinates":[-0.6452636,35.70035685]},"__memberLines":{}},{"type":"Feature","properties":{"station_id":"n3890745438","station_name":"Gare SNTF","station_name_local":"Gare SNTF","station_name_en":null,"city":"Oran","country":"Algeria","lines":["ligne du Tramway d'Oran"],"wikipedia":null,"merged_from":2,"merged_names":null,"is_terminus":false,"routes":[{"ref":"ligne du Tramway d'Oran","name":"ligne du Tramway d'Oran","route_color":null}],"pass_count":1,"station_degree":2,"codes":null,"is_interchange":false,"station_role":"normal"},"geometry":{"type":"Point","coordinates":[-0.6385611,35.699692299999995]},"__memberLines":{}},{"type":"Feature","properties":{"station_id":"n3890745439","station_name":"Maâlem Bentayeb","station_name_local":"Maâlem Bentayeb","station_name_en":null,"city":"Oran","country":"Algeria","lines":["ligne du Tramway d'Oran"],"wikipedia":null,"merged_from":2,"merged_names":null,"is_terminus":false,"routes":[{"ref":"ligne du Tramway d'Oran","name":"ligne du Tramway d'Oran","route_color":null}],"pass_count":1,"station_degree":2,"codes":null,"is_interchange":false,"station_role":"normal"},"geometry":{"type":"Point","coordinates":[-0.6179557499999999,35.6980612]},"__memberLines":{}},{"type":"Feature","properties":{"station_id":"n3890745440","station_name":"Les Frères Moulay","station_name_local":"Les Frères Moulay","station_name_en":null,"city":"Oran","country":"Algeria","lines":["ligne du Tramway d'Oran"],"wikipedia":null,"merged_from":2,"merged_names":null,"is_terminus":false,"routes":[{"ref":"ligne du Tramway d'Oran","name":"ligne du Tramway d'Oran","route_color":null}],"pass_count":1,"station_degree":2,"codes":null,"is_interchange":false,"station_role":"normal"},"geometry":{"type":"Point","coordinates":[-0.6255483500000001,35.699092]},"__memberLines":{}},{"type":"Feature","properties":{"station_id":"n3890757607","station_name":"Cité Volontaire ENSET","station_name_local":"Cité Volontaire ENSET","station_name_en":null,"city":"Oran","country":"Algeria","lines":["ligne du Tramway d'Oran"],"wikipedia":null,"merged_from":2,"merged_names":null,"is_terminus":false,"routes":[{"ref":"ligne du Tramway d'Oran","name":"ligne du Tramway d'Oran","route_color":null}],"pass_count":1,"station_degree":2,"codes":null,"is_interchange":false,"station_role":"normal"},"geometry":{"type":"Point","coordinates":[-0.6346461000000001,35.6655617]},"__memberLines":{}},{"type":"Feature","properties":{"station_id":"n3890757608","station_name":"Senia Centre","station_name_local":"Senia Centre","station_name_en":null,"city":"Oran","country":"Algeria","lines":["ligne du Tramway d'Oran"],"wikipedia":null,"merged_from":2,"merged_names":null,"is_terminus":false,"routes":[{"ref":"ligne du Tramway d'Oran","name":"ligne du Tramway d'Oran","route_color":null}],"pass_count":1,"station_degree":2,"codes":null,"is_interchange":false,"station_role":"normal"},"geometry":{"type":"Point","coordinates":[-0.6252044,35.65002565]},"__memberLines":{}},{"type":"Feature","properties":{"station_id":"n3890757609","station_name":"Senia Sud","station_name_local":"Senia Sud","station_name_en":null,"city":"Oran","country":"Algeria","lines":["ligne du Tramway d'Oran"],"wikipedia":null,"merged_from":2,"merged_names":null,"is_terminus":false,"routes":[{"ref":"ligne du Tramway d'Oran","name":"ligne du Tramway d'Oran","route_color":null}],"pass_count":1,"station_degree":2,"codes":null,"is_interchange":false,"station_role":"normal"},"geometry":{"type":"Point","coordinates":[-0.6217251,35.64606165]},"__memberLines":{}},{"type":"Feature","properties":{"station_id":"n3890757610","station_name":"Senia Université","station_name_local":"Senia Université","station_name_en":null,"city":"Oran","country":"Algeria","lines":["ligne du Tramway d'Oran"],"wikipedia":null,"merged_from":2,"merged_names":null,"is_terminus":true,"routes":[{"ref":"ligne du Tramway d'Oran","name":"ligne du Tramway d'Oran","route_color":null}],"pass_count":1,"station_degree":1,"codes":null,"is_interchange":false,"station_role":"terminus"},"geometry":{"type":"Point","coordinates":[-0.6172031499999999,35.642445949999995]},"__memberLines":{}},{"type":"Feature","properties":{"station_id":"n3890757611","station_name":"Lycée Les Palmiers","station_name_local":"Lycée Les Palmiers","station_name_en":null,"city":"Oran","country":"Algeria","lines":["ligne du Tramway d'Oran"],"wikipedia":null,"merged_from":2,"merged_names":null,"is_terminus":false,"routes":[{"ref":"ligne du Tramway d'Oran","name":"ligne du Tramway d'Oran","route_color":null}],"pass_count":1,"station_degree":2,"codes":null,"is_interchange":false,"station_role":"normal"},"geometry":{"type":"Point","coordinates":[-0.63817915,35.67129185]},"__memberLines":{}},{"type":"Feature","properties":{"station_id":"n3890757612","station_name":"Moulay Abdelkader","station_name_local":"Moulay Abdelkader","station_name_en":null,"city":"Oran","country":"Algeria","lines":["ligne du Tramway d'Oran"],"wikipedia":null,"merged_from":2,"merged_names":null,"is_terminus":false,"routes":[{"ref":"ligne du Tramway d'Oran","name":"ligne du Tramway d'Oran","route_color":null}],"pass_count":1,"station_degree":2,"codes":null,"is_interchange":false,"station_role":"normal"},"geometry":{"type":"Point","coordinates":[-0.628204,35.6549435]},"__memberLines":{}},{"type":"Feature","properties":{"station_id":"n3917025158","station_name":"Sûreté de Wilaya","station_name_local":"Sûreté de Wilaya","station_name_en":null,"city":"Oran","country":"Algeria","lines":["ligne du Tramway d'Oran"],"wikipedia":null,"merged_from":2,"merged_names":null,"is_terminus":false,"routes":[{"ref":"ligne du Tramway d'Oran","name":"ligne du Tramway d'Oran","route_color":null}],"pass_count":1,"station_degree":2,"codes":null,"is_interchange":false,"station_role":"normal"},"geometry":{"type":"Point","coordinates":[-0.64561225,35.6834102]},"__memberLines":{}},{"type":"Feature","properties":{"station_id":"n3940040251","station_name":"Hai El Yasmine","station_name_local":"Hai El Yasmine","station_name_en":null,"city":"Oran","country":"Algeria","lines":["ligne du Tramway d'Oran"],"wikipedia":null,"merged_from":2,"merged_names":null,"is_terminus":false,"routes":[{"ref":"ligne du Tramway d'Oran","name":"ligne du Tramway d'Oran","route_color":null}],"pass_count":1,"station_degree":2,"codes":null,"is_interchange":false,"station_role":"normal"},"geometry":{"type":"Point","coordinates":[-0.57007035,35.70345815]},"__memberLines":{}},{"type":"Feature","properties":{"station_id":"n4589680774","station_name":"Jardin Othmania","station_name_local":"Jardin Othmania","station_name_en":null,"city":"Oran","country":"Algeria","lines":["ligne du Tramway d'Oran"],"wikipedia":null,"merged_from":2,"merged_names":null,"is_terminus":false,"routes":[{"ref":"ligne du Tramway d'Oran","name":"ligne du Tramway d'Oran","route_color":null}],"pass_count":1,"station_degree":2,"codes":null,"is_interchange":false,"station_role":"normal"},"geometry":{"type":"Point","coordinates":[-0.64112605,35.6760774]},"__memberLines":{}}]}