{"type":"FeatureCollection","features":[{"type":"Feature","properties":{"route_ref":"U35","route_color":"#294488"},"geometry":{"type":"LineString","coordinates":[[7.213823700000003,51.5524033],[7.214059011906747,51.552155840187275],[7.214465641210386,51.55107310841622],[7.215118650000001,51.54860905],[7.2153997012705995,51.54811678694559],[7.225928595527007,51.53700792606204],[7.226247886195722,51.53644380807665],[7.226154116666667,51.53572026666667],[7.226263284193197,51.53563518995648],[7.22615275,51.53555080000001],[7.226233853404244,51.535295119520185],[7.2260467509083774,51.534665291009375],[7.224990152698482,51.533541570435276],[7.221459519584418,51.53042601539671],[7.22060224545455,51.529609218181825],[7.220406631588801,51.52925843352898],[7.219882178571434,51.52893560714286],[7.216446594617755,51.525715637990466],[7.210401186043115,51.51236949444483],[7.210447620000003,51.51120528],[7.210770922865431,51.510514197676905],[7.210706999999998,51.510411471428576],[7.211045050000004,51.5094214],[7.211284872070516,51.50926954831986],[7.2111423,51.5091563],[7.211497764168615,51.508426659944334],[7.211586826315791,51.50787544210527],[7.211709796171967,51.50779911214528],[7.211646110526317,51.507698536842106],[7.212530909785463,51.50476704418415],[7.212569832899097,51.50362311166803],[7.211824538095239,51.50019178571428],[7.2117706,51.49923030000001],[7.214691940000001,51.48430982],[7.215373889081528,51.48347910839194],[7.216439020000005,51.48279722],[7.217785757274433,51.48222189992393],[7.2186785593913365,51.481981194393185],[7.219482900000004,51.4816315],[7.219682386721588,51.481654063896244],[7.220215192221953,51.481294601265105],[7.222106799999999,51.479455449999996],[7.2253400347937085,51.476824437012155],[7.225984751554357,51.47581553173424],[7.226045566558089,51.473949552997944],[7.2264630318646,51.471102177595945],[7.226571528540277,51.471026171978316],[7.22663058,51.470195700000005],[7.227304200000002,51.46736],[7.2275906999999995,51.4666378],[7.228075450018775,51.466016847934824],[7.228843720000005,51.465357739999995],[7.233509081732494,51.46246535091398],[7.234583155993762,51.46166697885499],[7.235512907914374,51.4607066164074],[7.2377760400366284,51.45788903242572],[7.239119400035072,51.456740425599115],[7.2399726685813475,51.456185964620666],[7.240917759471332,51.455729423128766],[7.24421540202254,51.454596512862786],[7.245285564537187,51.454029985587674],[7.245869384804913,51.45355359576821],[7.247582873146197,51.4506449580993],[7.248539697335756,51.449425940507616],[7.249847990970587,51.448304360846116],[7.251008952904382,51.447603166969714],[7.252538042847634,51.44706272354572],[7.254464220334261,51.44678350807059],[7.256211679358302,51.44676738048422],[7.258091683479346,51.446986554399956],[7.259249026916078,51.447251284518686],[7.260622065925725,51.44774549711006],[7.264825133333333,51.44984093333334],[7.265347942410567,51.45019139563633],[7.2669094246011,51.45078029509823],[7.267894358568513,51.45110621051041],[7.26933835985564,51.4514283713177],[7.2724741,51.4518531]]}},{"type":"Feature","properties":{"route_ref":"302","route_color":"#294488"},"geometry":{"type":"LineString","coordinates":[[7.1259472718088075,51.488316243824116],[7.1260785545654155,51.4880700448631],[7.125375556174708,51.48912341846865],[7.12375230288547,51.490448888928924],[7.123082784907343,51.49180222276501],[7.122606870470441,51.493403951808624],[7.122421308092745,51.49359585132617],[7.117829581410242,51.49448567089423],[7.1165493190275155,51.494879997228026],[7.115614570857432,51.49528944438291],[7.113945466834781,51.49632894700507],[7.112421566617199,51.4987124050832],[7.111845724484621,51.49918048323704],[7.1110043414785356,51.499566389255925],[7.106750848856164,51.50110694163855],[7.106014972327682,51.50147466842853],[7.105597517719782,51.50180141916498],[7.105984498774965,51.50146436855445],[7.104559884486329,51.502694035357],[7.104232570936528,51.503149839847836],[7.103162101141786,51.50389802818764],[7.101581578124393,51.505412617875315],[7.100691798396183,51.50605487936613],[7.099388407836079,51.50658076059111],[7.096781955326463,51.507266676924615],[7.095618876679267,51.50802183522108],[7.094640957837685,51.509370507751896],[7.094518145893244,51.509754782594975],[7.093989033195924,51.51042481899727],[7.093722421428575,51.51054226428572],[7.0919812985899355,51.51314585044289],[7.092046466360141,51.5133380098177],[7.09232978585991,51.51346558781994],[7.094037885338753,51.51392225978149],[7.09423265877303,51.51406596535342],[7.094232996032805,51.51421282534535],[7.091751073904664,51.5183039457333],[7.091996827083515,51.517824439728564],[7.0918290500000065,51.51807205],[7.088216600518052,51.52435655000656],[7.087283334066586,51.52570946171558],[7.0862117222565315,51.52676916084236],[7.079449641533981,51.53223556371528],[7.0779310350271265,51.53317537015884],[7.075588432462478,51.53432807028154],[7.072627333741089,51.53622141599023],[7.0710888239315794,51.537374736784614],[7.07028588255958,51.53822382700531],[7.06952178705329,51.539651809952105],[7.066183419695152,51.54800253586989],[7.0643455041046,51.551514523626466],[7.063047600000003,51.55337076666666],[7.062653390909091,51.554122536363636],[7.0628311884420905,51.55425017825358],[7.062519576631998,51.55484750388078],[7.062248740000004,51.554886919999994],[7.06125362396741,51.55677841131544],[7.059829533333333,51.55885856666667],[7.059587554324822,51.559831654017444],[7.059698881845785,51.56145050330325],[7.059610822082839,51.562432691028505],[7.058527559833788,51.56601199498863],[7.057962044013183,51.56711263781593],[7.056635973442372,51.56852578609727],[7.056287932738782,51.56915331198267],[7.056206454965722,51.56972796923923],[7.056621847592933,51.57233013100079],[7.057527999758231,51.57398119449171],[7.057814976741968,51.57493858458614],[7.057760987094033,51.57563190000945],[7.057550555879613,51.576172361132286],[7.056667078088114,51.577568971911184],[7.056758424732328,51.577778212066185],[7.057104021860737,51.57791170540345],[7.057481421890701,51.57798168768844],[7.056819445939913,51.57780914184701],[7.056666467444645,51.577571256393554],[7.057497698234876,51.576306367111535],[7.057776772714831,51.57554162714064],[7.057814009224801,51.57493715709364],[7.057559678284528,51.57404078557105],[7.0565683259465155,51.572145778505316],[7.0562304,51.5699151],[7.056358951969745,51.568994366081476],[7.056712792849293,51.56843619230456],[7.057792408921999,51.56733577038244],[7.058380515358052,51.56641552169245],[7.059595028885603,51.562495756285784],[7.059658589855011,51.560391311446764],[7.059838350000001,51.5598862],[7.062021747357014,51.55601817237741],[7.061847881928826,51.55588561893873],[7.062103228728108,51.55539586631925],[7.062410728571429,51.55528149999999],[7.066118768981372,51.548144678815554],[7.0695265761457895,51.539640592335125],[7.070351144308715,51.53813999521744],[7.0715731209706325,51.53698741719687],[7.073874551864505,51.53541008325108],[7.075513680127472,51.53437342932861],[7.077870215329334,51.533207740066246],[7.0794568835575316,51.532229090349894],[7.086384399999993,51.5266289],[7.087363276991422,51.525612363122434],[7.089572517665039,51.52210958790404],[7.091862639106146,51.5180379682962],[7.094224616334674,51.514213494662414],[7.094227302987062,51.51405198789578],[7.094062017464144,51.513934598069035],[7.092329204913946,51.51346520198344],[7.09202726673401,51.51331286054127],[7.091987424753239,51.513144142629756],[7.092687751064714,51.51205121410456],[7.093311574999995,51.51148495],[7.094572056895173,51.5097652996601],[7.094094338043407,51.510367877481876],[7.09479440944446,51.50942380381127],[7.095191358602363,51.508534522241625],[7.095653778749366,51.50802391714198],[7.096728987985791,51.50728397937459],[7.0999387840015125,51.50643244080678],[7.101173071428567,51.50582885714285],[7.102486546539822,51.504599328337896],[7.102843306262541,51.50440240260294],[7.10372016199814,51.503548938593454],[7.103983399999995,51.50343074],[7.104662627815613,51.50260439835165],[7.1059542387409715,51.50151151987202],[7.106915252006511,51.50104347003054],[7.110985191837262,51.499574238225115],[7.111892742962387,51.499150842281],[7.112494382312778,51.49862674301518],[7.114014882522013,51.49626155044423],[7.115801151531986,51.495193237278166],[7.117593636027769,51.49454691719237],[7.122436092242127,51.49359541181521],[7.1226728,51.4930798],[7.122651441113708,51.49333468901158],[7.123140313411372,51.49163651454582],[7.1238344475753115,51.49034435403978],[7.1253527193577355,51.48913761853818],[7.1260720368685355,51.48810191783239],[7.127248576549104,51.48738962062488],[7.129140816706073,51.48603195970779],[7.129333527216968,51.485774352861185],[7.1296540561599535,51.484170358859316],[7.130196687838763,51.483529191929065],[7.133681722883456,51.482730068822555],[7.136551879046505,51.48226915734054],[7.138180112812967,51.48120964680044],[7.138932237307893,51.48042300861025],[7.13967252539357,51.48012563966955],[7.1414703371960675,51.47995220959559],[7.144325126534357,51.48017496249844],[7.1479443,51.479989266666664],[7.1480500845678,51.479964625710146],[7.147641410140946,51.4800072796898],[7.1487315425727616,51.47987890834223],[7.150898922717794,51.4792353093128],[7.154581652878101,51.478921533674544],[7.1555517545120475,51.47892209389283],[7.157662087825637,51.479147048710935],[7.161585389367735,51.480065898098594],[7.1612145597171155,51.4799702490181],[7.1683234557588,51.48147195480633],[7.170495094100441,51.48176954863669],[7.175668143199072,51.4819286509354],[7.176447328640127,51.4820300442929],[7.177673619426522,51.48245207352566],[7.1782283002342,51.48249650583427],[7.179244075000001,51.482208775],[7.181704951772014,51.481066976807355],[7.182872915936017,51.480810655447804],[7.186778403399454,51.480872953345276],[7.1884087159905015,51.48081913773022],[7.190137887231846,51.480650842121854],[7.192663140601154,51.48015491705582],[7.193224317986077,51.47980525924851],[7.193282220848451,51.47882594616554],[7.193663265468651,51.47730027848568],[7.1940390163375,51.4771068708272],[7.207199383196068,51.48010741951784],[7.2129581400000005,51.481541379999996],[7.214326740000002,51.48176869999999],[7.21728105699643,51.48199497379859],[7.217415720000002,51.48207062],[7.218491853515638,51.48205102445788],[7.219365850000001,51.481874250000004],[7.2202695,51.48145353333334],[7.2255209111111105,51.476926911111114],[7.226258099999997,51.47647185],[7.22708685,51.476162725],[7.227654620000001,51.47604166],[7.2287342,51.47598120000001],[7.229805329102934,51.47607913456519],[7.231030040000003,51.47634837999999],[7.231838754613502,51.4764313699028],[7.233447899999994,51.4762805],[7.234217081649454,51.47600718552741],[7.234274548584012,51.475900574865],[7.234454137234612,51.47591972856416],[7.236139052925545,51.47522089827922],[7.24123953409519,51.47336028013646],[7.241311771283594,51.473329513567975],[7.240800905637866,51.47352147788471],[7.243800585655606,51.47229407367533],[7.244471432083572,51.47207379271406],[7.245628742498702,51.47186886731704],[7.248008049616169,51.47196560302975],[7.2502625988112746,51.47227105258797],[7.252718980755406,51.472315558785674],[7.2595931474698805,51.47200942138201],[7.262808769944165,51.47153745376817],[7.265995279679947,51.47061666631819],[7.266819629005186,51.470267338138825],[7.267932133874411,51.46955927557031],[7.268101313983818,51.46954450661822],[7.268117765558728,51.46943835261458],[7.268381202413295,51.46936398434829],[7.268406047767118,51.46926285275858],[7.269750643329617,51.46836993799373],[7.27192578963578,51.46704941838409],[7.273416628935484,51.46624458376868],[7.276071464539758,51.46502680462417],[7.277686744884105,51.46445387607068],[7.280097877890035,51.46386281043507],[7.281658804600457,51.463632883198315],[7.283228333815862,51.46353086400665],[7.2857184296855,51.463572321443486],[7.287517434251403,51.46380593267311],[7.288799875997773,51.46407825298528],[7.291059530362851,51.464758513108755],[7.298130800000003,51.46716135],[7.30551020453128,51.46920119629371],[7.306628576208298,51.46961668555048],[7.307964518809024,51.47041448429993],[7.309038198498376,51.470800283175066],[7.310979907994664,51.47126269818662],[7.313640826349568,51.47205430038422],[7.315881045334431,51.47250164402255],[7.319079024491308,51.47345327791276],[7.320227946007339,51.473645213850276],[7.323509400344817,51.47366304241605],[7.324019906420043,51.47373870298775],[7.324204394966295,51.47385488307543],[7.3242113933209065,51.47408892258136],[7.3234644475962085,51.475153600419645],[7.323258316984641,51.47569176337938],[7.323269618051506,51.47605741465532],[7.32382465286022,51.47715082351724],[7.323942405531373,51.47770806807115]]}},{"type":"Feature","properties":{"route_ref":"305","route_color":"#294488"},"geometry":{"type":"LineString","coordinates":[[7.15167409212182,51.46440939522576],[7.152004710517109,51.46420646696236],[7.15225892317894,51.46416724741724],[7.152831966921117,51.46437529891527],[7.15506454250577,51.46547216580816],[7.156930095616102,51.4665959181981],[7.161487599978045,51.46907387384907],[7.16382927950538,51.47001931446516],[7.171224012823119,51.4718069168053],[7.170580771099648,51.47166374086118],[7.175538734797802,51.472727547936714],[7.1848398138700675,51.47496234328974],[7.205236348277974,51.4797131963288],[7.207199383196068,51.48010741951784],[7.212426533333335,51.48142192380951],[7.214326740000002,51.48176869999999],[7.21728105699643,51.48199497379859],[7.217415720000002,51.48207062],[7.21898743333333,51.48197516666667],[7.220174499999996,51.48151416666667],[7.2255209111111105,51.476926911111114],[7.226258099999997,51.47647185],[7.22708685,51.476162725],[7.227654620000001,51.47604166],[7.2287342,51.47598120000001],[7.229805329102934,51.47607913456519],[7.231030040000003,51.47634837999999],[7.231838754613502,51.4764313699028],[7.233447899999994,51.4762805],[7.234217081649454,51.47600718552741],[7.234274548584012,51.475900574865],[7.234454137234612,51.47591972856416],[7.236139052925545,51.47522089827922],[7.24123953409519,51.47336028013646],[7.241311771283594,51.473329513567975],[7.240800905637866,51.47352147788471],[7.243800585655606,51.47229407367533],[7.244471432083572,51.47207379271406],[7.245628742498702,51.47186886731704],[7.248008049616169,51.47196560302975],[7.2502625988112746,51.47227105258797],[7.252718980755406,51.472315558785674],[7.2595931474698805,51.47200942138201],[7.262808769944165,51.47153745376817],[7.265995279679947,51.47061666631819],[7.266819629005186,51.470267338138825],[7.267932133874411,51.46955927557031],[7.268101313983818,51.46954450661822],[7.268117765558728,51.46943835261458],[7.268381202413295,51.46936398434829],[7.268406047767118,51.46926285275858],[7.269750643329617,51.46836993799373],[7.27192578963578,51.46704941838409],[7.273416628935484,51.46624458376868],[7.276071464539758,51.46502680462417],[7.277686744884105,51.46445387607068],[7.280097877890035,51.46386281043507],[7.281658804600457,51.463632883198315],[7.283228333815862,51.46353086400665],[7.2857184296855,51.463572321443486],[7.287517434251403,51.46380593267311],[7.288799875997773,51.46407825298528],[7.291059530362851,51.464758513108755],[7.298130800000003,51.46716135],[7.30551020453128,51.46920119629371],[7.306628576208298,51.46961668555048],[7.307964518809024,51.47041448429993],[7.309038198498376,51.470800283175066],[7.310979907994664,51.47126269818662],[7.313640826349568,51.47205430038422],[7.315881045334431,51.47250164402255],[7.319079024491308,51.47345327791276],[7.320227946007339,51.473645213850276],[7.323509400344817,51.47366304241605],[7.324019906420043,51.47373870298775],[7.324204394966295,51.47385488307543],[7.3242113933209065,51.47408892258136],[7.3234644475962085,51.475153600419645],[7.323258316984641,51.47569176337938],[7.323269618051506,51.47605741465532],[7.323912006796673,51.47725490295898],[7.323987263059685,51.47770743219187]]}},{"type":"Feature","properties":{"route_ref":"310","route_color":"#294488"},"geometry":{"type":"MultiLineString","coordinates":[[[7.15167409212182,51.46440939522576],[7.152004710517109,51.46420646696236],[7.15225892317894,51.46416724741724],[7.152831966921117,51.46437529891527],[7.15506454250577,51.46547216580816],[7.156930095616102,51.4665959181981],[7.161487599978045,51.46907387384907],[7.16382927950538,51.47001931446516],[7.171224012823119,51.4718069168053],[7.170580771099648,51.47166374086118],[7.175538734797802,51.472727547936714],[7.1848398138700675,51.47496234328974],[7.205236348277974,51.4797131963288],[7.207199383196068,51.48010741951784],[7.212426533333335,51.48142192380951],[7.214326740000002,51.48176869999999],[7.21728105699643,51.48199497379859],[7.217415720000002,51.48207062],[7.21898743333333,51.48197516666667],[7.220174499999996,51.48151416666667],[7.2255209111111105,51.476926911111114],[7.226258099999997,51.47647185],[7.22708685,51.476162725],[7.227654620000001,51.47604166],[7.2287342,51.47598120000001],[7.229805329102934,51.47607913456519],[7.231030040000003,51.47634837999999],[7.231838754613502,51.4764313699028],[7.233447899999994,51.4762805],[7.234217081649454,51.47600718552741],[7.234274548584012,51.475900574865],[7.234454137234612,51.47591972856416],[7.236139052925545,51.47522089827922],[7.24123953409519,51.47336028013646],[7.241311771283594,51.473329513567975],[7.240800905637866,51.47352147788471],[7.243800585655606,51.47229407367533],[7.244471432083572,51.47207379271406],[7.245628742498702,51.47186886731704],[7.248008049616169,51.47196560302975],[7.2502625988112746,51.47227105258797],[7.252718980755406,51.472315558785674],[7.2595931474698805,51.47200942138201],[7.262808769944165,51.47153745376817],[7.265995279679947,51.47061666631819],[7.266819629005186,51.470267338138825],[7.267932133874411,51.46955927557031],[7.268101313983818,51.46954450661822],[7.268117765558728,51.46943835261458],[7.268381202413295,51.46936398434829],[7.268406047767118,51.46926285275858],[7.269750643329617,51.46836993799373],[7.271808590821842,51.46711580818006],[7.275632983976553,51.465204654355254],[7.277686744884105,51.46445387607068],[7.280097877890035,51.46386281043507],[7.281658804600457,51.463632883198315],[7.283696523670894,51.463518399252294],[7.2857184296855,51.463572321443486],[7.287517434251403,51.46380593267311],[7.288799875997773,51.46407825298528],[7.291059530362851,51.464758513108755],[7.298130800000003,51.46716135],[7.30551020453128,51.46920119629371],[7.306628576208298,51.46961668555048],[7.307964518809024,51.47041448429993],[7.309038198498376,51.470800283175066],[7.310979907994664,51.47126269818662],[7.313640826349568,51.47205430038422],[7.315881045334431,51.47250164402255],[7.319235865021713,51.47349097441053],[7.320591384926063,51.473665639785956],[7.324071587591982,51.47367561212364],[7.324376465344323,51.47358607678139],[7.324703407471611,51.47308257781389],[7.324388663830578,51.47356594883329],[7.324114761221178,51.47366854551485],[7.320646102402702,51.473664557890785],[7.319425396988685,51.47353236370605],[7.315069881507089,51.472279678388865],[7.314399744739869,51.47212213695668],[7.314203222880992,51.4721717070794],[7.310507576591494,51.47112585996],[7.309165731780491,51.47083380550714],[7.308068087235486,51.4704560937121],[7.306629449697829,51.469615001932105],[7.305606377953241,51.4692096104275],[7.3040987286367915,51.46884804169718],[7.303475,51.4686054],[7.3009670984418396,51.46795892206063],[7.297298815757428,51.466852447314785],[7.289090294242675,51.464148476302704],[7.2879239362254955,51.46388268496909],[7.2856999158678635,51.46357148620196],[7.283749622348068,51.463516953632855],[7.281626837352266,51.463636349548345],[7.280142786200304,51.46385329207414],[7.278701341172098,51.464181372645605],[7.277443599831759,51.46453054416805],[7.275837513633052,51.465120081099634],[7.273611390298458,51.46614511879498],[7.2718549082944435,51.46708929070492],[7.266807282058167,51.47026513047865],[7.264971554153694,51.470933570790315],[7.262374467453219,51.47162290188151],[7.259603664392561,51.47200640739112],[7.253130350632787,51.472296935043566],[7.250320966455825,51.47227401014622],[7.247847585339959,51.47194987857994],[7.245562747231061,51.47187369262186],[7.243820160024761,51.472286872948764],[7.241223046057605,51.4733645284261],[7.233553841457656,51.47620002615894],[7.2318048684165195,51.476398262801915],[7.230597319086496,51.476235737263664],[7.229076839999997,51.475872960000004],[7.228031333333333,51.47578491666667],[7.2272126000000005,51.47583103333333],[7.2264882800000025,51.47599929999999],[7.225735133333332,51.4763083],[7.225117466666666,51.476720666666665],[7.221639475000001,51.47963965],[7.219845099999998,51.48136276666667],[7.218969139324204,51.481757249864536],[7.217738946949597,51.482012872168795],[7.215343268224498,51.48181969586758],[7.212212180037146,51.48130770499603],[7.2053056283036385,51.479623380611734],[7.185965417482194,51.475224259624206],[7.180493977970042,51.47389298501288],[7.181023206734478,51.47398817562631],[7.1704650279195885,51.471633167552554],[7.163836851881277,51.47002034919111],[7.161498610613667,51.46907938215936],[7.155470075281892,51.465692139911006],[7.1529927,51.4644483]],[[7.2973494443210924,51.43815099162548],[7.299600433333336,51.43913076666667],[7.3022051333333335,51.439920199999996],[7.3139459500000035,51.442683349999996],[7.316212628197854,51.44301030502515],[7.3174738,51.44306399999999],[7.319394095321622,51.443039845425815],[7.320178894199424,51.442758271788406],[7.320519337321702,51.442334619823654],[7.3209350666666655,51.44120590000001],[7.321136493265658,51.43936221923862],[7.322393972039904,51.438614398352264],[7.3239658187494525,51.43731209088446],[7.329794914672152,51.43760854287183],[7.333727678086517,51.43835405463345],[7.336617873647438,51.43906220172235],[7.336738008973844,51.439183278813836],[7.3367051033189545,51.43942982796979],[7.336113697142788,51.44034425911887],[7.335823968103996,51.44109047434135],[7.3361668013333095,51.44334921690551],[7.3365378782247195,51.44460896555066],[7.336339183678487,51.44399073221259],[7.3365137,51.4446556],[7.336255394042243,51.44504204275154],[7.3353685790085175,51.445542191819875],[7.329761108727127,51.448068352818325],[7.3288073,51.4483933],[7.326824717203045,51.44888216229581],[7.326510261423046,51.44916374086139],[7.32607259990845,51.450039997784714],[7.325750478869249,51.4503872125981],[7.3254704455945285,51.45114508260379],[7.325266182472907,51.451385764673084],[7.325130715341475,51.4513661191545]],[[7.3249062,51.4515985],[7.325173868976309,51.451376421303515],[7.324564654936905,51.45195267539908],[7.3243279,51.4518928],[7.32422771279904,51.451975487265344],[7.323308688702729,51.45196279759361],[7.32277669433495,51.45211976280023],[7.322400529687428,51.45267292855237],[7.32163980084369,51.453309227289104],[7.31883355808398,51.455023358340796],[7.318535847328597,51.45538261401817],[7.31845206697178,51.45571747036476],[7.318817098811576,51.456684026628814],[7.318705721879562,51.458800584514705],[7.319207003293284,51.46097005237066],[7.320218039467387,51.462947399924644],[7.320058127813516,51.46267748207495],[7.320109503528837,51.462906275006645],[7.320357059497831,51.4631601020874],[7.320302011984256,51.4632616518001],[7.323477900264219,51.47013309649593],[7.324564152182321,51.47172284880064],[7.324745968763113,51.47247839842262],[7.3246558,51.4731284],[7.324745282498363,51.47241792788695],[7.324607356729983,51.4718205599079],[7.323421198459737,51.47001515249455],[7.320112715902736,51.462715652395126],[7.320260359356935,51.4630025234268],[7.320261601130753,51.46289342332544],[7.319409808038153,51.46144993129202],[7.318985477357426,51.460309633169366],[7.3187060551230125,51.45879993506967],[7.318820992417947,51.45668400701769],[7.318463777537514,51.45563498148039],[7.318645001104155,51.45522278562154],[7.3189435,51.4549482]]]}},{"type":"Feature","properties":{"route_ref":"309","route_color":"#6ba5d9"},"geometry":{"type":"MultiLineString","coordinates":[[[7.2973494443210924,51.43815099162548],[7.299600433333336,51.43913076666667],[7.3022051333333335,51.439920199999996],[7.3139459500000035,51.442683349999996],[7.316212628197854,51.44301030502515],[7.3174738,51.44306399999999],[7.319394095321622,51.443039845425815],[7.320178894199424,51.442758271788406],[7.320519337321702,51.442334619823654],[7.3209350666666655,51.44120590000001],[7.321136493265658,51.43936221923862],[7.322393972039904,51.438614398352264],[7.3239658187494525,51.43731209088446],[7.329794914672152,51.43760854287183],[7.333727678086517,51.43835405463345],[7.336617873647438,51.43906220172235],[7.336738008973844,51.439183278813836],[7.3367051033189545,51.43942982796979],[7.336113697142788,51.44034425911887],[7.335823968103996,51.44109047434135],[7.3361668013333095,51.44334921690551],[7.3365378782247195,51.44460896555066],[7.336339183678487,51.44399073221259],[7.3365137,51.4446556],[7.336255394042243,51.44504204275154],[7.3353685790085175,51.445542191819875],[7.329761108727127,51.448068352818325],[7.3288073,51.4483933],[7.326824717203045,51.44888216229581],[7.326510261423046,51.44916374086139],[7.32607259990845,51.450039997784714],[7.325750478869249,51.4503872125981],[7.3254704455945285,51.45114508260379],[7.325266182472907,51.451385764673084],[7.325130715341475,51.4513661191545]],[[7.323987263059685,51.47770743219187],[7.323912006796673,51.47725490295898],[7.323269618051506,51.47605741465532],[7.323258316984641,51.47569176337938],[7.3234644475962085,51.475153600419645],[7.324231993398511,51.47409244634167],[7.324594504160123,51.4732944467033],[7.324745968763113,51.47247839842262],[7.324680903213923,51.47211692770672],[7.324336355940538,51.47133596579401],[7.323477900264219,51.47013309649593],[7.320302011984256,51.4632616518001],[7.320357059497831,51.4631601020874],[7.320222558462267,51.463093126935675],[7.320058127813516,51.46267748207495],[7.320109503528837,51.462906275006645],[7.320209733094458,51.462958720111494],[7.319207003293284,51.46097005237066],[7.318705721879562,51.458800584514705],[7.318817098811576,51.456684026628814],[7.31845206697178,51.45571747036476],[7.318535847328597,51.45538261401817],[7.31883355808398,51.455023358340796],[7.32163980084369,51.453309227289104],[7.322400529687428,51.45267292855237],[7.32277669433495,51.45211976280023],[7.323308688702729,51.45196279759361],[7.32422771279904,51.451975487265344],[7.3243279,51.4518928],[7.324564654936905,51.45195267539908],[7.3252235050777985,51.4513717519826],[7.3249062,51.4515985]]]}},{"type":"Feature","properties":{"route_ref":"301","route_color":"#6ba5d9"},"geometry":{"type":"MultiLineString","coordinates":[[[7.102090025512712,51.504894269136706],[7.101581578124393,51.505412617875315],[7.100495313217661,51.50616428886111],[7.099262151279727,51.50661869518136],[7.096781955326463,51.507266676924615],[7.095618876679267,51.50802183522108],[7.095162358195752,51.508596452985685],[7.094564026856355,51.50976694107166],[7.093392900000002,51.511115011111116],[7.092347950000004,51.51256765],[7.09196365,51.513449200000004],[7.091774971428572,51.51492864285714],[7.091907100000001,51.51570256666667],[7.092228474312503,51.51634702219717],[7.092825748585406,51.51699431155158],[7.0934644000000056,51.51743627142857],[7.094602614285717,51.51792184285714],[7.099425123807932,51.519328566545695],[7.100602544419702,51.51990678546722],[7.101271780970372,51.52040877195278],[7.10205632203821,51.52174094064215],[7.102045006327946,51.52654285321033],[7.102254854149379,51.52759481476795],[7.102826830023755,51.529118980624744],[7.103303156405144,51.52977574806408],[7.104426430215443,51.53071642167612],[7.105443900437368,51.53137931703651],[7.107106089863337,51.53217018397736],[7.108140249816976,51.53305735211584],[7.108744415129814,51.53395062312507],[7.109142284962182,51.535012623190156],[7.109451789408877,51.53816300601247],[7.109189342359104,51.54002632528031],[7.107771682476775,51.54300760504488],[7.107530335572216,51.54335913125855],[7.106822220996947,51.54375635136339],[7.106519503862268,51.54409285799767],[7.105647941408203,51.54584525461954],[7.105071149123408,51.54785761475872],[7.104632771730309,51.551235855391624],[7.104133800825959,51.55148660457751],[7.102886819869243,51.55170443676585],[7.102317154677378,51.5519981310942],[7.091724598260418,51.55927732625598],[7.091963845578087,51.55909163120696],[7.0837600722460525,51.56459249397833],[7.082976299999999,51.565204],[7.082638047945636,51.56566480813381],[7.082757585976646,51.565434006810406],[7.0804458,51.5689703],[7.0805907,51.5687367],[7.07997491141025,51.56933666296688],[7.069725863398543,51.57434671630539],[7.068390224501045,51.57461782131192],[7.064256648314651,51.575019791039175],[7.0625375267696615,51.575050994745524],[7.06246229615865,51.57509359186372],[7.063153968259645,51.575045790122964],[7.062160560726692,51.575094664625134],[7.06051425360953,51.575393318741696],[7.057628924748127,51.57628411594321],[7.057125515247672,51.57678270621417],[7.05666339471223,51.577508141890114],[7.057178785053407,51.576715444129704],[7.057629802909848,51.576283431013415],[7.060349865283975,51.575427921686355],[7.062440206403497,51.57506072093524],[7.064918043963681,51.57496498746417],[7.068386036328477,51.57461695566877],[7.069727182940052,51.57434426476282],[7.08005939777116,51.56927535551997],[7.0805302293540935,51.568807362743506],[7.0823916,51.5658681],[7.0822258,51.5661144],[7.082965444766127,51.565212241763575],[7.0837668192184395,51.56458646893544],[7.102315,51.5519996],[7.102823887455947,51.551720915081134],[7.104286292548399,51.55143612604516],[7.104653343394109,51.55121133689406],[7.1050118,51.54816805],[7.105646100942628,51.54584724498311],[7.106523210661597,51.544085923005326],[7.106813145172672,51.54375927782235],[7.1074829,51.5434007],[7.107730825000003,51.543090074999995],[7.10781831745348,51.542839945712366],[7.107550104020209,51.54335013519665],[7.108646199999998,51.54145876363636],[7.109365766666667,51.53969443333334],[7.109522899999999,51.5386297],[7.109526279999999,51.5367849],[7.10940215,51.5357734],[7.109021831422307,51.5344542306421],[7.1085037839901855,51.533398190959154],[7.107885028368746,51.532730791768635],[7.107715615647002,51.53270469174761],[7.1077267999278515,51.532598308524484],[7.106919836855516,51.53206153590245],[7.10567602387919,51.53147019787446],[7.104706484641766,51.53087086464552],[7.103461608652408,51.52993670036215],[7.1029945224026445,51.529332308754036],[7.102480545255461,51.52810166376152],[7.102125146834481,51.52673363660263],[7.102172199999998,51.52190957142857],[7.101904314643006,51.52108254472396],[7.1015759749999985,51.5206008],[7.100643539999997,51.51985566],[7.099448203338195,51.51929248486319],[7.094165868672732,51.51769169891997],[7.0925468289469205,51.51662165828735],[7.092067751017249,51.515840998312036],[7.091869938263173,51.514841117337845],[7.092044353344472,51.51358587732062],[7.092502966013482,51.512446548296744],[7.093411069988821,51.51109922692357],[7.094579095069432,51.509769169312484],[7.094119393567827,51.510368765624264],[7.094794095040671,51.50942372829447],[7.095255184388191,51.50845052656024],[7.095653778749366,51.50802391714198],[7.096728987985791,51.50728397937459],[7.099558398282146,51.50655632368599],[7.100655792997814,51.50613497495048],[7.101374585714279,51.50569082857143],[7.102210438380346,51.50494045349369]],[[7.0418837686688684,51.5488803397702],[7.043751311688351,51.55065806904093],[7.0444583142431405,51.551808272919956],[7.044395053620378,51.55157800184487],[7.046087308048455,51.558533385725504],[7.046343461985494,51.55981674869265],[7.046302256362911,51.560419310343754],[7.046475281832946,51.560687515392836],[7.046491841164584,51.56994270593788],[7.046532027858475,51.57116188169118],[7.04680965157455,51.5719981429303],[7.048681483741326,51.575283508680954],[7.049611504715602,51.576043211927185],[7.050430001070741,51.5764161022594],[7.051307783166954,51.57663184126357],[7.051169816477974,51.57660914384807],[7.050980925790683,51.57656059112814],[7.0556650333333355,51.57762266666666],[7.056427417133314,51.577665521351925],[7.056687033817318,51.577516734931585],[7.0562985718108555,51.57769091889714],[7.055851876062655,51.57764094699284],[7.050462467168873,51.57642447106569],[7.049455008092686,51.57593619427735],[7.048663957477239,51.575265581581604],[7.046934878217951,51.57224034482084],[7.0465711926256605,51.57134336395311],[7.0464563,51.563437099999994]],[[7.046461938623912,51.563750998957275],[7.046409879803411,51.56105220359336],[7.0465178710869205,51.56076202022791],[7.046358281329761,51.560463769636264],[7.046392912042004,51.559916944569636],[7.045624734900995,51.55652242396991],[7.045440854124228,51.55612055184064],[7.045386714566094,51.55530813305966],[7.045449617264218,51.55552153311737],[7.044472669235802,51.55175973191614],[7.04396708800123,51.550895030817415],[7.043231302228454,51.550125470151826],[7.037838491779228,51.54507992683176],[7.036912327353242,51.54444859522913],[7.03729584877416,51.54468397287236],[7.037061550740802,51.54452903494202],[7.035722972031947,51.54382903378836],[7.0343388696998845,51.54342641229628],[7.032692868338391,51.54319488384297],[7.031158540021641,51.54323867524835],[7.031852169186253,51.543188531008965],[7.031398765647584,51.54319499309807],[7.028471942914562,51.543426386373646],[7.0258209,51.543362099999996],[7.025470738728597,51.54325915616748],[7.025341407364284,51.54291751914699],[7.025465640409263,51.54215024265111],[7.025961965946408,51.54045054412501],[7.0259287070225955,51.54014674442371],[7.0260856,51.539974],[7.026099359709024,51.53969270793264],[7.0261823689187715,51.53975548163091],[7.0262898125247535,51.53905072574804],[7.026389382189678,51.53907491385953],[7.0262062764947615,51.53970709596213],[7.026380915973855,51.53897940077902],[7.026261143261645,51.538879579297124],[7.026334504406841,51.538564840767826],[7.026513925156508,51.53829105522847],[7.026134163744013,51.53739177896812],[7.0254475277874,51.536822540176864],[7.024474104478448,51.53637208035848],[7.021806326547984,51.53554956874821],[7.0212805319524705,51.53560754006041],[7.019601916503799,51.53645786484139]]]}},{"type":"Feature","properties":{"route_ref":"306","route_color":"#ea504c"},"geometry":{"type":"LineString","coordinates":[[7.222387259997988,51.47927772572312],[7.222310166666666,51.4791773],[7.220249509088754,51.47836209095402],[7.219432799999999,51.47813613333333],[7.218360900000001,51.4781177],[7.21720976666667,51.4784582],[7.216498549999999,51.479079524999996],[7.2160962429156426,51.47992983811606],[7.21599677966228,51.481993153410684],[7.215508246811898,51.48309947989957],[7.215710518216893,51.4826452183105],[7.2155016350983265,51.483331862678874],[7.2158789,51.48461249999999],[7.2154890384046135,51.485015844994365],[7.21403063187975,51.48571227198551],[7.211134480576914,51.48738366731432],[7.210257613667281,51.48799213896932],[7.207708790712464,51.48932432122418],[7.195644724823773,51.49217979645116],[7.191559577965808,51.49387674908894],[7.189778281980113,51.495329926686914],[7.1893168524507685,51.495847671323844],[7.1890938,51.4965734],[7.189010920497925,51.498945857192915],[7.1887485645917355,51.50078887242786],[7.189054171268722,51.50272886881824],[7.189800367508776,51.50431214243348],[7.190068706059817,51.50536400346918],[7.190053870600946,51.50650334422831],[7.189830335686289,51.507393257605706],[7.189464553975906,51.50758014783022],[7.1884657375489,51.50754941506711],[7.189397044523628,51.507611252454645],[7.1840779871829845,51.50742111951773],[7.1836930583878384,51.50751618611535],[7.183520025898698,51.507979738965346],[7.1835707481636755,51.507683614764595],[7.183536422871188,51.50781279143037],[7.183096735817041,51.51008994155361],[7.181049461079019,51.512420060128264],[7.1805695698391405,51.512743439562186],[7.178209473813955,51.51341157344291],[7.178012710435449,51.51376252666799],[7.178020164435076,51.51435915645057],[7.177834108659973,51.51459074129329],[7.1728103466882205,51.517264455583565],[7.172028047437174,51.51755227529577],[7.1701088722713875,51.51795595786605],[7.169595495434341,51.518151706657534],[7.1691735757868,51.518719811653995],[7.16855386371465,51.52019174944662],[7.167993957443656,51.52084132480602],[7.164780684777387,51.52336409799989],[7.162401516147399,51.52448611807573],[7.161391622060275,51.52599537999276],[7.161253375773786,51.52718687569335],[7.15994154679934,51.529184903741935],[7.159844962092793,51.52951814253189],[7.160241692982739,51.52974886666621],[7.161145652183282,51.529960465826065],[7.160241283503582,51.52973678199607],[7.160307910194884,51.5297976972626],[7.1602591657895385,51.529742140919154],[7.161640971689273,51.530018234218794],[7.162230768954653,51.53021471650749],[7.163086410459641,51.530736257842264],[7.163865376689383,51.53137440490543],[7.1645751454259115,51.53172299665685]]}},{"type":"Feature","properties":{"route_ref":"316","route_color":"#ea504c"},"geometry":{"type":"LineString","coordinates":[[7.27173065589157,51.51591911536279],[7.270192682274995,51.51460429865073],[7.268109725424817,51.51316262712163],[7.267675071494574,51.51249676694066],[7.267487284094881,51.51170596526144],[7.2669794730281865,51.510518313038716],[7.266499469636885,51.509932391258445],[7.262239593807309,51.506664517467904],[7.26005897075242,51.50474442889172],[7.259562864084675,51.504030268519465],[7.259162223352681,51.503014438014254],[7.2593654119905615,51.50091669254123],[7.259126738690384,51.499800437561],[7.258602451080137,51.499082039885884],[7.25676548999738,51.49731288731421],[7.256360894160594,51.49663065756603],[7.256437135969556,51.4944524276779],[7.256195576662367,51.4937334258434],[7.255550142721605,51.4936333102705],[7.251938221343439,51.49368857935297],[7.250810119611539,51.49350106089891],[7.248069391356259,51.49264263591309],[7.243396660129532,51.491607787357815],[7.241217549556434,51.49078973014992],[7.240754865067773,51.49070273221777],[7.237105310738907,51.48924356183722],[7.233754924129048,51.4880742588255],[7.227644819436058,51.48494930913729],[7.226574584031193,51.48423520152039],[7.225491372597643,51.483025063586275],[7.224459308529171,51.480650504839055],[7.224044593178853,51.48018708630694],[7.223401729491839,51.47974236965306],[7.2218870956714065,51.47900058370431],[7.2213992719125555,51.478879761462494],[7.219975674999999,51.478269925000006],[7.2192881,51.47811386666667],[7.218360900000001,51.4781177],[7.217576766666669,51.4782966],[7.216913374999998,51.47864595],[7.216498549999999,51.479079524999996],[7.216219485714287,51.479597514285715],[7.21599717832956,51.480437626506166],[7.21599677966228,51.481993153410684],[7.215508246811898,51.48309947989957],[7.215710518216893,51.4826452183105],[7.2155016350983265,51.483331862678874],[7.2158789,51.48461249999999],[7.2154890384046135,51.485015844994365],[7.21403063187975,51.48571227198551],[7.211134480576914,51.48738366731432],[7.210257613667281,51.48799213896932],[7.207708790712464,51.48932432122418],[7.198353824747971,51.49154134676468],[7.199014783500546,51.491406268612245],[7.198841115672624,51.49147291652312],[7.196709101331765,51.49187300216944],[7.195202072916113,51.49232986709907],[7.191559577965808,51.49387674908894],[7.189623333794439,51.4954737934166],[7.1893168524507685,51.495847671323844],[7.1890938,51.4965734],[7.189010920497925,51.498945857192915],[7.1887485645917355,51.50078887242786],[7.189054171268722,51.50272886881824],[7.189800367508776,51.50431214243348],[7.190068706059817,51.50536400346918],[7.190053870600946,51.50650334422831],[7.189830335686289,51.507393257605706],[7.189464553975906,51.50758014783022],[7.1884657375489,51.50754941506711],[7.189397044523628,51.507611252454645],[7.1840779871829845,51.50742111951773],[7.1836930583878384,51.50751618611535],[7.183520025898698,51.507979738965346],[7.1835707481636755,51.507683614764595],[7.183536422871188,51.50781279143037],[7.183096735817041,51.51008994155361],[7.181049461079019,51.512420060128264],[7.1805695698391405,51.512743439562186],[7.178209473813955,51.51341157344291],[7.178012710435449,51.51376252666799],[7.178020164435076,51.51435915645057],[7.177834108659973,51.51459074129329],[7.1728103466882205,51.517264455583565],[7.172028047437174,51.51755227529577],[7.1701088722713875,51.51795595786605],[7.169595495434341,51.518151706657534],[7.1691735757868,51.518719811653995],[7.16855386371465,51.52019174944662],[7.167993957443656,51.52084132480602],[7.164780684777387,51.52336409799989],[7.162401516147399,51.52448611807573],[7.161391622060275,51.52599537999276],[7.161253375773786,51.52718687569335],[7.15994154679934,51.529184903741935],[7.159844962092793,51.52951814253189],[7.160241692982739,51.52974886666621],[7.161145652183282,51.529960465826065],[7.160241283503582,51.52973678199607],[7.160307910194884,51.5297976972626],[7.1602591657895385,51.529742140919154],[7.161640971689273,51.530018234218794],[7.162230768954653,51.53021471650749],[7.163086410459641,51.530736257842264],[7.163865376689383,51.53137440490543],[7.1645751454259115,51.53172299665685]]}},{"type":"Feature","properties":{"route_ref":"318","route_color":"#ea504c"},"geometry":{"type":"LineString","coordinates":[[7.143009860598837,51.42671299723572],[7.144544174662152,51.42637358538096],[7.146403492006286,51.42644240427467],[7.149256722244588,51.426199898889315],[7.149828285207715,51.42588734660464],[7.150329295033418,51.42484499651852],[7.150994321861229,51.42472477545304],[7.153206966131299,51.424681035812185],[7.153797185091043,51.424502805178015],[7.154992985871123,51.42389108738233],[7.155525414798769,51.42383847398739],[7.1574992,51.42479749999999],[7.160523854309932,51.42569659761672],[7.162056996107449,51.42704381976228],[7.170581475075026,51.432150130109214],[7.171738831062882,51.43266513662946],[7.17401136364978,51.433484741158836],[7.177768029632652,51.43455326110877],[7.182776040231768,51.43708977466834],[7.1854468,51.4385769],[7.188365694700114,51.44058854616478],[7.192341391121221,51.44261077311932],[7.193671996895143,51.44342004309314],[7.194198823539496,51.44391852331783],[7.1944497830749095,51.4443457984208],[7.194676140112508,51.445181390711795],[7.194656636181507,51.44569108861082],[7.194215625726898,51.44752867365664],[7.192288493884443,51.45303571391947],[7.192161262559161,51.45355868846985],[7.1922757893217035,51.45405353490099],[7.1928412193708695,51.454625069368106],[7.205981281602644,51.465087485316495],[7.206214155501319,51.465374814505275],[7.206432598454872,51.46655420878862],[7.206813990296464,51.467159152903605],[7.210030391712541,51.46987108874149],[7.211324378645636,51.47069964323795],[7.214863333333329,51.47232673333333],[7.216070516435047,51.473174407050934],[7.2163377343395485,51.4740150512733],[7.216065175980172,51.47500080077607],[7.216089123188439,51.47564584592683],[7.216964233726722,51.47735309041764],[7.217348093796376,51.47777580268662],[7.218427809889044,51.47835708955733],[7.220581924176727,51.47864241757646],[7.221662727752301,51.478917835603134],[7.223401729491839,51.47974236965306],[7.224044593178853,51.48018708630694],[7.224459308529171,51.480650504839055],[7.225491372597643,51.483025063586275],[7.226574584031193,51.48423520152039],[7.227644819436058,51.48494930913729],[7.233754924129048,51.4880742588255],[7.237105310738907,51.48924356183722],[7.240754865067773,51.49070273221777],[7.241217549556434,51.49078973014992],[7.243396660129532,51.491607787357815],[7.248069391356259,51.49264263591309],[7.250810119611539,51.49350106089891],[7.251938221343439,51.49368857935297],[7.255550142721605,51.4936333102705],[7.256195576662367,51.4937334258434],[7.256437135969556,51.4944524276779],[7.256360894160594,51.49663065756603],[7.25676548999738,51.49731288731421],[7.258602451080137,51.499082039885884],[7.259126738690384,51.499800437561],[7.2593654119905615,51.50091669254123],[7.25913587483758,51.50240583271295],[7.259182402531978,51.503119211791734],[7.259562864084675,51.504030268519465],[7.260135960626718,51.50483536091022],[7.263367059743285,51.50754857275222],[7.263013995233939,51.507291808182416],[7.264808434176544,51.508555444094874],[7.266499469636885,51.509932391258445],[7.2669794730281865,51.510518313038716],[7.267487284094881,51.51170596526144],[7.267675071494574,51.51249676694066],[7.268109725424817,51.51316262712163],[7.270761638537134,51.51504398892001],[7.27555374665439,51.51936651083497],[7.275310174427136,51.51916241283029],[7.276093716324277,51.52003154721505],[7.277144861195827,51.52052516349454],[7.277818458760666,51.52122229146303],[7.279492969770423,51.522324676778105],[7.282785032754932,51.52387977715885],[7.283981493983104,51.52423261500474]]}}]}