{"type":"FeatureCollection","features":[{"type":"Feature","properties":{"route_ref":"5","route_color":"#00975f"},"geometry":{"type":"MultiLineString","coordinates":[[[8.478187984179545,49.49131480975883],[8.504305214872423,49.48368230346085],[8.506812520000002,49.48286236],[8.51502694681569,49.48056526418285],[8.518116988817038,49.47951257772284],[8.52304926,49.477610160000005],[8.529365174192492,49.475887947781764],[8.53107265769231,49.475611769230774],[8.538124811399662,49.47497768701089],[8.541430557187311,49.47455962354739],[8.547249056293158,49.47401433346716],[8.550242509195753,49.47342699109527],[8.5555904839052,49.47194390015927],[8.55701184254898,49.470908819114534],[8.5576869,49.4701328],[8.558454158474493,49.469496323844666],[8.563991494941742,49.46651404196976],[8.566683433207436,49.463832833669436],[8.56821680339594,49.46300515078972],[8.571026933710188,49.461208543352384],[8.57282517058796,49.460546218553226],[8.57921338363375,49.45877744460098],[8.59150064890667,49.454229902729224],[8.593155716653587,49.45335353662065],[8.594989831735308,49.45164928154795],[8.595904812375403,49.45100447708155],[8.603460976487696,49.4474294351714],[8.610935566553326,49.44292172714086],[8.61490998163659,49.441311798463616],[8.62296637573196,49.43827241126206],[8.624149281217981,49.43790501660082],[8.627335552250527,49.43730620832466],[8.628632485826646,49.436922440046814],[8.635507669200189,49.433406490125876],[8.639386033603083,49.431196383285524],[8.642097355521367,49.429044822428715],[8.643295789339613,49.4277061644105],[8.646091719212835,49.423384763698834],[8.64337415,49.4276299],[8.642264695749382,49.42888733289104],[8.641082721507098,49.42994393740437],[8.639391549999996,49.4311981],[8.635578449999995,49.43337224999999],[8.628642214022616,49.43691850198462],[8.627747359054945,49.43721625465828],[8.624668310951328,49.43779334312961],[8.623042838469084,49.43824451057236],[8.611344938003981,49.44272982901462],[8.603373734034596,49.44747712096403],[8.596105806771657,49.450891236047944],[8.595143768915074,49.45151946215065],[8.593165514316972,49.45334805088137],[8.591506556631572,49.45422756524457],[8.579171570911361,49.45879036671858],[8.571570402306333,49.460961017872926],[8.5703545276488,49.46160283308189],[8.569053460978182,49.46254821212548],[8.568863254856105,49.46257451879948],[8.568424088721109,49.46290098021675],[8.566745224967221,49.46378917476688],[8.563973248665674,49.466526648448585],[8.55845884174031,49.469498438372746],[8.55637000144658,49.47144222683277],[8.555408828563019,49.47201653007936],[8.550207980271168,49.47343357019284],[8.547362591019404,49.474000662190434],[8.541510809987571,49.474550485125164],[8.537879466666665,49.47500093333333],[8.530338842446177,49.47569815490106],[8.529346116344298,49.47589102324297],[8.523125928761717,49.47758084853494],[8.517097031250003,49.47989829375],[8.515023049999995,49.48056645],[8.5112154,49.4816895],[8.507576458558828,49.4826413285446],[8.504303485714278,49.483682914285716],[8.476960373926914,49.491698904879186],[8.47578800386877,49.491940101928726],[8.475005786418821,49.49142821686306],[8.47465964538917,49.49138227782548],[8.472900079005194,49.49239160388827],[8.471451437545948,49.49287214398586],[8.47108052006893,49.492866813346204],[8.470691878226882,49.4926400975977],[8.463283343387115,49.48459812942711],[8.463381372591233,49.484290417679006],[8.465339353739427,49.48349328933422],[8.465630439194179,49.483288737974945],[8.46545818581205,49.48282144077041],[8.46491702784989,49.482379079242435],[8.464750131199233,49.482093582008844],[8.465051986418603,49.481785952218445],[8.465768346944762,49.481580806743075],[8.465093041105558,49.48177211716691]],[[8.645740632121226,49.42389220143203],[8.648589641131514,49.41941037775224],[8.649649910948431,49.41401705600661],[8.649475156266474,49.41095853754201],[8.649962533077073,49.4101790950601],[8.650834249043514,49.409713527933405],[8.651627314482196,49.40955159652743],[8.65417834418876,49.40940830106547],[8.656638154651153,49.409138055910745],[8.66198958457092,49.40833114177882],[8.663935,49.4078474],[8.667032777935876,49.406684183011265],[8.669554364280097,49.40594927066685],[8.670890823376261,49.405666558834625],[8.675455757293092,49.40496067012741],[8.677412820128962,49.40446785260669],[8.678347100645857,49.404403000885324],[8.683589988284737,49.40528632637987],[8.684778771569935,49.405764948199824],[8.685749948996987,49.40604078420024],[8.692225093814221,49.40717741184373],[8.692668169579772,49.40739236400149],[8.692692853813705,49.40789199639167],[8.692504772008204,49.40875646468272],[8.692602507025768,49.409072110974044],[8.693147405446286,49.40979467123438],[8.693182567705176,49.41013249331421],[8.692793046962286,49.41106900250594],[8.692287568359752,49.413389068901076],[8.69191938052222,49.4172144492661],[8.690896296095003,49.4182658787746],[8.690320730022979,49.4194936323606],[8.689315525697227,49.4211280307331],[8.687878985346776,49.42427003892727],[8.68734953419499,49.424612447278584],[8.683562337084979,49.4262093867829],[8.682984831615096,49.42684538720953],[8.682899931095688,49.427231397682995],[8.683298965417253,49.42818312562755],[8.682532470811058,49.42972059291999],[8.6825280457359,49.4324382592891],[8.682342616079541,49.434005964323525],[8.682126495399439,49.4347414916498],[8.680398307451147,49.4379372191994],[8.67697590499187,49.44262755795952],[8.675388257691479,49.4454927175879],[8.6743594,49.4468041],[8.673925923532458,49.44716947420119],[8.673068605130911,49.4475379359793],[8.670448614721064,49.44808777378522],[8.66891466075389,49.448845178958344],[8.668339002970157,49.44934735584249],[8.667876433333333,49.45129526666666],[8.6659624,49.45644265],[8.662248577492745,49.46734319833117],[8.660936069541389,49.47011327356831],[8.66000440760281,49.47250501925899],[8.6578773301658,49.47630421028497],[8.657056106987122,49.47864104148943],[8.656958066666666,49.479634233333336],[8.657074701245556,49.48141050391475],[8.657096097357567,49.488080251144055],[8.65663002248933,49.494289466379065],[8.65664206820683,49.49803013901266],[8.656301894061436,49.50119030098245],[8.656614996760348,49.50401576818593],[8.656529189454258,49.505139359485135],[8.656090952044844,49.50726615274492],[8.6558261,49.5106486],[8.65628067923337,49.51204696829],[8.656490732857742,49.51354182097454],[8.656934250217287,49.51478575913758],[8.656973162395406,49.51523478116361],[8.656676526336591,49.516547297113604],[8.65547479816525,49.519146892072406],[8.655284525,49.52046605],[8.655319764500254,49.52169103015832],[8.656176417417283,49.523639790884694],[8.656752450611004,49.52630083063313],[8.65761543695238,49.52756967306876],[8.657965444589298,49.52852512786856],[8.657961345237293,49.53190620686641],[8.658996789611399,49.53410688822868],[8.659344595558592,49.53523334943],[8.659668263969898,49.53872922543694],[8.663531273960627,49.54626950816467],[8.664815534514855,49.54835644684437],[8.665266454059967,49.550385781547355],[8.665407712923283,49.552083709070985],[8.664903521027968,49.55231516175987],[8.663631564702015,49.5525264946719],[8.661290621432569,49.552550100536315],[8.66026702616459,49.552381300359194],[8.6596311,49.5520813],[8.659320246061478,49.55179860727315],[8.658308662439513,49.54998350991958],[8.658023155488593,49.54966246395832],[8.657506807796025,49.54936124084407],[8.655411162053937,49.54860665839748]],[[8.46576460996514,49.48157271481687],[8.468126741048213,49.48050448048814],[8.469959279934882,49.48008787580331],[8.470450724833622,49.48013177813007],[8.470654770347833,49.4804768183284],[8.471476625001374,49.481184433540875],[8.472766956963236,49.482528117964904],[8.472749412531952,49.48264234975938],[8.474506535957559,49.48424870899167],[8.475100279528753,49.48496231027144],[8.475731941014548,49.48596842505034],[8.475975056649968,49.487118361635986],[8.476166810146342,49.48747245662675],[8.47665446925545,49.48762449484968],[8.478619749490255,49.48774969506661],[8.479443142569842,49.488089791572015],[8.480281228862287,49.48904612880979],[8.482912718007155,49.49290584523836],[8.48336731714298,49.49327297677649],[8.485129605147144,49.494313642517724],[8.488590552637852,49.49819857230294],[8.489341367193958,49.498677529021755],[8.492945940460771,49.500528926831585],[8.497705582980991,49.50335061262129],[8.498938742134174,49.50394042245379],[8.50141315000105,49.50491550575935],[8.504149011371313,49.50633712675535],[8.505946853994699,49.507110210677546],[8.506918643634133,49.50729314483881],[8.514880452996294,49.50818831161046],[8.517034690173288,49.508562105010796],[8.517668762359325,49.508960498057576],[8.518548865809125,49.51023727043605],[8.5192118,49.510715600000005],[8.5221490260121,49.511479088827556],[8.5232424,49.5119025],[8.534740544715968,49.517145918399486],[8.53679985136494,49.51798097203418],[8.551224568421683,49.52172492900063],[8.552584790722504,49.52241400924259],[8.558084339899708,49.52583602723652],[8.56065670240795,49.526869287253874],[8.564412384924127,49.52797369262841],[8.566509432417542,49.52847620434894],[8.567404255895518,49.52857879046519],[8.569634467237842,49.52837143197281],[8.57043713534944,49.52839515613712],[8.571187830662426,49.52858641446191],[8.573204716176104,49.529364089264014],[8.574087445128313,49.52959148635435],[8.577453325557304,49.53000257632046],[8.579078846137762,49.53028558145111],[8.579923229834364,49.53074674386817],[8.580479199249739,49.531425373755766],[8.580727105440594,49.53378987117889],[8.58092528195611,49.53423398197535],[8.582033714584735,49.535059253197105],[8.5828764,49.535493],[8.582904569983123,49.535603461923216],[8.583076799999992,49.53560673333334],[8.583837856024788,49.53602015628112],[8.586893492394388,49.536691573776736],[8.612441183703378,49.543977863932554],[8.619015370066716,49.54577273380374],[8.620449247392505,49.5459457301443],[8.621677245861155,49.54592260880187],[8.644059600000002,49.544041660869574],[8.646418898859007,49.5439581862949],[8.647295837613942,49.544122131190235],[8.648276517300026,49.54445536858159],[8.652256263146219,49.54717248253074],[8.65434629354816,49.548206679156614],[8.656575855724517,49.5490396904854]]]}},{"type":"Feature","properties":{"route_ref":"26","route_color":"#00975f"},"geometry":{"type":"MultiLineString","coordinates":[[[8.682275607159966,49.434351697851795],[8.6825280457359,49.4324382592891],[8.682532470811058,49.42972059291999],[8.683298965417253,49.42818312562755],[8.682899931095688,49.427231397682995],[8.682984831615096,49.42684538720953],[8.683562337084979,49.4262093867829],[8.68734953419499,49.424612447278584],[8.687878985346776,49.42427003892727],[8.689315525697227,49.4211280307331],[8.690320730022979,49.4194936323606],[8.690896296095003,49.4182658787746],[8.69191938052222,49.4172144492661],[8.692287568359752,49.413389068901076],[8.692793046962286,49.41106900250594],[8.693182567705176,49.41013249331421],[8.693147405446286,49.40979467123438],[8.6927765,49.4092802],[8.693148663057926,49.409795082037085],[8.693183228932389,49.41008704745002],[8.69281401683392,49.41102977806577],[8.69226100456531,49.4135832749043],[8.691919405593653,49.41721276304952],[8.69086,49.4183309],[8.69032404311712,49.419487082983295],[8.689313451145404,49.421132739988764],[8.688170926963373,49.42377870264345],[8.68779689016258,49.42435983802177],[8.687265109857915,49.42466882372223],[8.683504163237423,49.42624453348777],[8.682961782995488,49.426926473611694],[8.68292240563321,49.42728540734463],[8.683302270674924,49.42818055566763],[8.68251677032318,49.42980453933709],[8.682552838617589,49.432438786126106],[8.682279979415265,49.43432419064058],[8.6820275,49.4349532]],[[8.675524279327083,49.40787190270592],[8.676551996369035,49.40789323983696],[8.672987063781818,49.40790592035533],[8.672367338071947,49.407761612190406],[8.67059590408146,49.406270183384734],[8.66790765665693,49.40371464715507],[8.668003804426588,49.403488183817174],[8.668177595264876,49.403425269146325],[8.673076496095236,49.402331347539935],[8.676289033333331,49.400750433333336],[8.6774058,49.400156599999995],[8.677877749936131,49.39979775753509],[8.679229654185514,49.39822829753665],[8.679563800867582,49.397554810381784],[8.679554462630424,49.397314854716676],[8.679216942762327,49.39696485681379],[8.677856440335594,49.396023973730465],[8.677584130655772,49.39572364476891],[8.676140549999998,49.393129599999995],[8.674927390599276,49.38970596913732],[8.67355217012374,49.38677026546817],[8.672271974238841,49.38295182332683],[8.670820720420929,49.38057023202184],[8.669747037735219,49.37939992305466],[8.668954963696331,49.37892903729814],[8.665702163235293,49.377441728721486],[8.663683697909997,49.37680641462794],[8.659956838199117,49.375888724254885],[8.658600523660088,49.375876423997504],[8.659073145141992,49.37590690278026],[8.658515274627076,49.3759140416589],[8.658224860960054,49.37606761178317],[8.658266135167336,49.37624167124824],[8.658555164127264,49.376335129169156],[8.658975539350697,49.376179874563455],[8.658939377770142,49.37601895728879],[8.659265674160963,49.375937085722136],[8.659857564714379,49.37588007135001],[8.660439725983583,49.37598137917497],[8.664182015444759,49.37694033668379],[8.665746274191367,49.377462953511234],[8.666654001938596,49.377901627819256]],[[8.676590020193778,49.40788192101177],[8.684542010749546,49.407821284082],[8.691507096,49.408932944],[8.692808,49.4092587],[8.691432692525757,49.40892110748206],[8.684435161804016,49.407812935942516],[8.672722987967438,49.40789049029374],[8.672325131908527,49.40773457230306],[8.670349596700829,49.406056480823],[8.668342920000004,49.40418948000001],[8.66792547716022,49.40375551071755],[8.667910591870461,49.403601506029474],[8.66799762089474,49.40348794202334],[8.668679251358387,49.40328988580201],[8.673120535585305,49.40231593073587],[8.675562941941813,49.40113245367509],[8.677780678705501,49.399886955872844],[8.679225867613868,49.39822700745153],[8.679563450105071,49.39755553962642],[8.679513,49.3972484],[8.67920133642844,49.39695300474086],[8.67784815,49.3960193],[8.677585812709474,49.39572348012259]]]}}]}