{"type":"FeatureCollection","features":[{"type":"Feature","properties":{"way_id":194448009,"route_colors":[],"route_refs":["1"]},"geometry":{"type":"LineString","coordinates":[[55.8896284,53.3346388],[55.8900133,53.333923],[55.8901603,53.3336631],[55.8902463,53.333554],[55.8903027,53.3335164],[55.8904153,53.3334691],[55.8906004,53.3334483],[55.8908,53.3334704],[55.8913601,53.3335862],[55.8927493,53.3338456],[55.8936773,53.3340282],[55.8940034,53.3340889],[55.8943917,53.3341428],[55.8949573,53.3341588],[55.8960242,53.3341641],[55.8984437,53.3341876],[55.8997985,53.3342004],[55.9053424,53.3342516],[55.9079386,53.3342677],[55.9134823,53.3342949]]}},{"type":"Feature","properties":{"way_id":193095344,"route_colors":[],"route_refs":["1"]},"geometry":{"type":"LineString","coordinates":[[55.9134823,53.3342949],[55.9146049,53.3342933]]}},{"type":"Feature","properties":{"way_id":193095353,"route_colors":[],"route_refs":["1"]},"geometry":{"type":"LineString","coordinates":[[55.9146049,53.3342933],[55.9167884,53.3341892],[55.9171529,53.3341706],[55.9175221,53.3341769],[55.9177229,53.3341851],[55.9179066,53.3342171],[55.9180917,53.3342627],[55.9182553,53.3343212],[55.918431,53.3343901],[55.9185869,53.3344747],[55.9187462,53.3345623],[55.9188931,53.3346605],[55.9190104,53.3347753],[55.9190912,53.334905],[55.9191512,53.3351501],[55.9191451,53.3352982]]}},{"type":"Feature","properties":{"way_id":194448010,"route_colors":[],"route_refs":["1","3"]},"geometry":{"type":"LineString","coordinates":[[55.9191451,53.3352982],[55.9191954,53.3360955],[55.9192209,53.3363897],[55.9193723,53.338712],[55.9193749,53.3387447],[55.9194239,53.3393618],[55.9193702,53.3396163],[55.9191495,53.3398259],[55.9185108,53.340257],[55.9184127,53.340329],[55.9183456,53.3404058],[55.9183175,53.3404867],[55.9183081,53.3405846],[55.9183545,53.3413103],[55.9183578,53.3413625],[55.9187799,53.3467579],[55.9187889,53.3470151],[55.9189196,53.3498643],[55.9191164,53.351265],[55.9191541,53.3516349],[55.919231,53.3527418],[55.9192429,53.3535377],[55.9192421,53.3535985],[55.9192316,53.3544061],[55.9192352,53.3544495],[55.9192178,53.3547588],[55.9191797,53.3559005],[55.9191766,53.355982],[55.919178,53.356212],[55.919161,53.3570307],[55.9191144,53.359258],[55.9190376,53.3616158],[55.9190419,53.3618199],[55.9189718,53.3640271],[55.9189696,53.3641438],[55.9189379,53.3655431],[55.9188986,53.3668659],[55.9188271,53.3692695],[55.9188147,53.3699239],[55.9188056,53.3702997],[55.9188064,53.3708632],[55.9188204,53.3711456],[55.9188627,53.3715593],[55.9190394,53.3728253],[55.9190518,53.3729139],[55.919091,53.3731825],[55.9191868,53.3735501],[55.9196418,53.3742495],[55.9200696,53.3748017],[55.9201971,53.3750318],[55.9202534,53.3752686],[55.9202615,53.3755054],[55.9202105,53.3757422],[55.9201032,53.3759726],[55.9199611,53.3761838],[55.9197813,53.3763934],[55.9195587,53.3765807],[55.9192717,53.3767727],[55.9189552,53.3769343],[55.9185851,53.3770767],[55.9182015,53.3771871],[55.9177885,53.3772703],[55.9173647,53.3773183],[55.916473,53.3773408]]}},{"type":"Feature","properties":{"way_id":193095345,"route_colors":[],"route_refs":["1","3"]},"geometry":{"type":"LineString","coordinates":[[55.916473,53.3773408],[55.9158918,53.3773468]]}},{"type":"Feature","properties":{"way_id":193095351,"route_colors":[],"route_refs":["1","3"]},"geometry":{"type":"LineString","coordinates":[[55.9158918,53.3773468],[55.9147742,53.3773652],[55.914311,53.3773711],[55.9138523,53.3774047],[55.9134071,53.3774799],[55.9129833,53.3775935],[55.9125836,53.3777535],[55.9122376,53.3779407],[55.9119345,53.3781615],[55.9117261,53.3784088],[55.9115561,53.3787038],[55.9114551,53.3792172],[55.9114498,53.3800611],[55.9113174,53.3826044],[55.9113124,53.3828652],[55.911275,53.3838783],[55.9111838,53.3863492],[55.9111788,53.3864903],[55.9110038,53.3914374],[55.9109984,53.391614],[55.910983,53.3921136],[55.9109374,53.3925271],[55.9107875,53.3929089],[55.9106802,53.3930922],[55.9104976,53.3932619],[55.9100849,53.3935417],[55.907474,53.3950618],[55.9071156,53.3953009],[55.9068339,53.395576],[55.9066274,53.3958927],[55.9065348,53.3962131],[55.9064904,53.3987324],[55.906477,53.3990613],[55.9064693,53.3994378],[55.9064501,53.4003756],[55.9064278,53.4007732],[55.9064098,53.4010928],[55.9063809,53.4019406],[55.9063791,53.4020461],[55.9063409,53.4021366],[55.9062632,53.4022101],[55.9061425,53.4022525],[55.9060875,53.4022645],[55.9060235,53.4022684],[55.9059212,53.4022605],[55.90583,53.4022341],[55.9057576,53.4021909],[55.9057039,53.4021438],[55.9056543,53.4020934],[55.9056275,53.402043],[55.9056255,53.4019355],[55.905661,53.4018351],[55.9057053,53.401784],[55.9057763,53.4017424],[55.9060478,53.4016253]]}},{"type":"Feature","properties":{"way_id":193095341,"route_colors":[],"route_refs":["1","3"]},"geometry":{"type":"LineString","coordinates":[[55.9060478,53.4016253],[55.9061559,53.4015713],[55.9062578,53.4015057],[55.9063195,53.401421],[55.9063489,53.4013233]]}},{"type":"Feature","properties":{"way_id":193095350,"route_colors":[],"route_refs":["1","3"]},"geometry":{"type":"LineString","coordinates":[[55.9063489,53.4013233],[55.9063511,53.4010934],[55.9063655,53.4007742],[55.9063837,53.4003681],[55.9064029,53.3994301],[55.9064106,53.3990532],[55.9064141,53.3987174],[55.9064819,53.3962122],[55.9065677,53.3958849],[55.9067733,53.3955658],[55.9070716,53.3952733],[55.9074386,53.3950291],[55.910042,53.3935214],[55.9104576,53.3932393],[55.9106319,53.3930762],[55.9107339,53.3928986],[55.9108868,53.3925163],[55.9109247,53.3921202],[55.9109381,53.3916135],[55.9109428,53.3914365],[55.911123,53.3864872],[55.9111281,53.386348],[55.9112134,53.3838783],[55.9112487,53.3828571],[55.9112532,53.3826034],[55.9113834,53.3800536],[55.9113887,53.3792079],[55.9114908,53.3786889],[55.911664,53.3783936],[55.9118918,53.3781328],[55.9122028,53.3779103],[55.9125484,53.3777247],[55.9129536,53.3775625],[55.9133916,53.377441],[55.9138389,53.3773727],[55.9143056,53.3773391],[55.9147725,53.3773272],[55.9158866,53.3773087]]}},{"type":"Feature","properties":{"way_id":193095343,"route_colors":[],"route_refs":["1","3"]},"geometry":{"type":"LineString","coordinates":[[55.9158866,53.3773087],[55.9164719,53.3773021]]}},{"type":"Feature","properties":{"way_id":193095352,"route_colors":[],"route_refs":["1","3"]},"geometry":{"type":"LineString","coordinates":[[55.9164719,53.3773021],[55.9173654,53.3772798],[55.9177697,53.3772351],[55.9181801,53.3771535],[55.9185583,53.3770479],[55.9189284,53.3769023],[55.9192282,53.3767462],[55.9195221,53.3765598],[55.9197277,53.3763726],[55.9199086,53.376172],[55.9200522,53.3759502],[55.9201558,53.3757339],[55.9202051,53.3755022],[55.9201984,53.3752756],[55.9201434,53.3750446],[55.920025,53.3748183],[55.9195916,53.3742616],[55.9191346,53.3735593],[55.9190428,53.3731827],[55.9190046,53.3729148],[55.9188117,53.3715609],[55.9187524,53.3710138],[55.9187627,53.3698971],[55.9187715,53.3692912],[55.9188353,53.3668633],[55.9188703,53.3655305],[55.9188977,53.3645988],[55.9189092,53.364296],[55.9189161,53.363898],[55.9189316,53.3634432],[55.9189743,53.3618289],[55.9189779,53.3616172],[55.9190387,53.3592586],[55.9190913,53.3570235],[55.9190998,53.3564822],[55.9191167,53.356212],[55.9191246,53.3560853],[55.9191257,53.3560036],[55.9191528,53.3547576],[55.9191737,53.3544543],[55.9191737,53.3544001],[55.9191715,53.3542422],[55.9191746,53.354203],[55.9191898,53.3537217],[55.9191871,53.3533872],[55.9191709,53.352752],[55.9191555,53.352607],[55.9191151,53.352131],[55.9190922,53.3516336],[55.9190576,53.3512651],[55.9188655,53.3498661],[55.9187159,53.3470179],[55.9186992,53.3467557],[55.9183117,53.3413639],[55.9183078,53.3413157],[55.9182485,53.3405872],[55.9182596,53.3404876],[55.918297,53.3403828],[55.9183671,53.3403025],[55.9184615,53.340236],[55.9191157,53.3397941],[55.9193189,53.3395951],[55.9193616,53.3393582],[55.9193102,53.3387591],[55.9193074,53.3387262],[55.9191672,53.3364471]]}},{"type":"Feature","properties":{"way_id":194448007,"route_colors":[],"route_refs":["1"]},"geometry":{"type":"LineString","coordinates":[[55.9191672,53.3364471],[55.9191358,53.3360998],[55.9190842,53.3351497],[55.9189514,53.3347945],[55.9188454,53.3346888],[55.9187086,53.3345927],[55.9185611,53.3345038],[55.9184028,53.3344269],[55.9182285,53.3343588],[55.9180635,53.3342988],[55.9178865,53.3342555],[55.9177068,53.3342227],[55.917515,53.3342131],[55.9171556,53.3342107],[55.9167962,53.3342264],[55.9146104,53.3343353]]}},{"type":"Feature","properties":{"way_id":193095342,"route_colors":[],"route_refs":["1"]},"geometry":{"type":"LineString","coordinates":[[55.9146104,53.3343353],[55.9134853,53.3343337]]}},{"type":"Feature","properties":{"way_id":193095347,"route_colors":[],"route_refs":["1"]},"geometry":{"type":"LineString","coordinates":[[55.9134853,53.3343337],[55.9079461,53.3343049],[55.905347,53.334284],[55.8997981,53.3342328],[55.898443,53.33422],[55.8960234,53.3341965],[55.8949557,53.3341912],[55.8943842,53.334175],[55.8939892,53.3341201],[55.8936607,53.334059],[55.8927327,53.3338764],[55.8913431,53.333617],[55.8907874,53.333502],[55.8905977,53.3334851],[55.8904395,53.3334979],[55.8903617,53.3335292],[55.8903,53.3335732],[55.890212,53.3336713],[55.890063,53.3339396],[55.8899751,53.3340922],[55.8899513,53.3341963],[55.8899486,53.334278],[55.8899862,53.3343628],[55.8900411,53.3344431],[55.8901781,53.3346221],[55.8902383,53.3347344],[55.8902383,53.3347953],[55.8902034,53.3348546],[55.8901525,53.3349106],[55.8900801,53.3349555],[55.8899996,53.3349827],[55.8899084,53.3349891],[55.8897984,53.3349923],[55.8896965,53.3349587],[55.8896268,53.334917],[55.8895999,53.334853],[55.8895865,53.3347504],[55.8896284,53.3346388]]}},{"type":"Feature","properties":{"way_id":189264823,"route_colors":[],"route_refs":["3"]},"geometry":{"type":"LineString","coordinates":[[55.9191672,53.3364471],[55.9190734,53.3361975],[55.9189473,53.3360598],[55.9187783,53.3359669],[55.918529,53.3358399],[55.9184255,53.3357719],[55.9183634,53.3356977],[55.918322,53.3352116],[55.9183433,53.335171],[55.9183761,53.3351332],[55.9184193,53.3350994],[55.9184717,53.3350705],[55.9185317,53.3350476],[55.9185974,53.3350311],[55.9186669,53.3350217],[55.9187381,53.3350197],[55.9188088,53.3350251],[55.9188769,53.3350376],[55.9189403,53.3350571],[55.9189971,53.3350828],[55.9190455,53.335114],[55.9190842,53.3351497],[55.919112,53.3351889],[55.9191451,53.3352982]]}}]}