{"type":"FeatureCollection","features":[{"type":"Feature","properties":{"route_ref":"E-W","route_color":"#3cb44b"},"geometry":{"type":"LineString","coordinates":[[38.722268982133414,9.01166153722043],[38.723999799999994,9.010811771428576],[38.7248055888423,9.010597224737174],[38.725215009841754,9.01062549305485],[38.72584854698066,9.010870121676273],[38.726794432834225,9.011574921458175],[38.727462153281316,9.011951365202611],[38.72836384208445,9.012081280501315],[38.73466475029081,9.011545317373248],[38.7425699,9.0105044],[38.74420677866571,9.010354940723357],[38.74797179616849,9.010706665811995],[38.7491573003391,9.011308551262912],[38.74979009707696,9.011478077209985],[38.75656964859385,9.012144961114979],[38.76270411757956,9.011070827694136],[38.763942537538895,9.010983688863497],[38.7664477752355,9.010584489196525],[38.76920316252833,9.010357522452768],[38.77087488749999,9.010100387500001],[38.77194252,9.01005698],[38.772707068043054,9.010149607669076],[38.77366736376175,9.0104660222852],[38.77650129,9.011849660000001],[38.78051841467241,9.013962045714768],[38.78324874286868,9.014886679957597],[38.79345027973532,9.017128144108192],[38.799597803289444,9.01904808073705],[38.80215726666667,9.019460033333335],[38.80239244028414,9.019587493033313],[38.803274740103575,9.019650502177946],[38.80451914403269,9.019944954427158],[38.807700406365996,9.020452293348313],[38.809029305472905,9.020435422240936],[38.811849499999994,9.019908650000003],[38.81745311792956,9.019564796926232],[38.8206961889937,9.01892593271256],[38.82204749030869,9.018829540435386],[38.823107525587304,9.018922192941426],[38.82420556449599,9.019190583968355],[38.83019592363115,9.021621614195043],[38.8306676757565,9.021763492839076],[38.83140985891082,9.021837334759832],[38.84143704202723,9.021481222945644],[38.85951935000001,9.020539800000002],[38.864633211453445,9.02088384730546],[38.86738160520631,9.020903385411984],[38.873349535621514,9.021266633074088]]}},{"type":"Feature","properties":{"route_ref":"S-N","route_color":"#3cb44b"},"geometry":{"type":"LineString","coordinates":[[38.763036514187064,8.937992935065534],[38.76278770706006,8.938449531049526],[38.762665284549875,8.938907338015445],[38.7627142433781,8.939382358935175],[38.762847799072325,8.939681792275355],[38.76633660867234,8.943212611756508],[38.76653248600789,8.94359636760584],[38.76659084914376,8.943987636850403],[38.76636321565814,8.944781333842865],[38.76488913120353,8.947822358591077],[38.7634632005914,8.951141772658135],[38.763378550000006,8.951801150000001],[38.763449614285726,8.952947285714284],[38.7639875773081,8.958812969686448],[38.7629855685368,8.965698960548979],[38.762443090760016,8.968735332580584],[38.7614043481026,8.970960637292267],[38.76069021739131,8.973271778260871],[38.75995939607542,8.976090987751391],[38.75939158265923,8.97723682291076],[38.758791236310635,8.979196296070239],[38.758814309525576,8.98006827729368],[38.759023600000006,8.981089500000001],[38.75950511079404,8.983096341201504],[38.75991900532795,8.984283009661251],[38.76009247502464,8.985493321044755],[38.760128079879856,8.986623822165013],[38.760085485904256,8.987013059648818],[38.75961975000001,8.988416300000004],[38.75925892684551,8.989950589842122],[38.759023929971185,8.991727399579448],[38.7591332625,8.992452175],[38.7592149824808,8.992522850159075],[38.759176637500005,8.992623224999999],[38.759787184830635,8.994313146183515],[38.75981888931996,8.995085515357736],[38.75942067240325,8.996894417555087],[38.7586576,8.9986838],[38.758577941154314,8.99925379399035],[38.758973160000004,9.009046280000002],[38.759238980326124,9.010641937211304],[38.7592489,9.0113213],[38.75896480282547,9.011644004767517],[38.757967270459524,9.011940030609846],[38.75684704251787,9.012135266827489],[38.756133745686654,9.012140949142792],[38.753912480000004,9.011842960000001],[38.75256513992949,9.011778887182523],[38.74979009707696,9.011478077209985],[38.7491573003391,9.011308551262912],[38.74797179616849,9.010706665811995],[38.74403704788012,9.010352970024941],[38.73555616343181,9.011411458746071],[38.73470360404369,9.011586325324334],[38.73437380381425,9.011858072686215],[38.73431056971652,9.012246133205622],[38.734858295673,9.016537048347876],[38.73498219999999,9.0181329],[38.73480234085056,9.018621150977781],[38.7346703484867,9.018759539226942],[38.73350258892945,9.01950426310751],[38.73329826478267,9.020045905582332],[38.73357766624822,9.023302665238905],[38.733545068060444,9.024250635930207],[38.733225945132446,9.027175075347294],[38.73225378333333,9.033222300000002],[38.73223066274583,9.033693014698871],[38.73231692705744,9.033844016859119],[38.73305750335893,9.034074676091912],[38.736667071775955,9.034542558956014],[38.737265749725246,9.034475065958507],[38.73940081044979,9.033929201987428],[38.7404969543768,9.033846340332008],[38.74786273844089,9.034781201903243],[38.74938278868657,9.035227950578076],[38.75060774593145,9.035812093695537],[38.751438734695796,9.035833718977239],[38.75197969636028,9.035956598506107],[38.752139720217464,9.036071196655948],[38.75232067074195,9.036478755700271],[38.752255885876416,9.037244069946263],[38.75240551507382,9.037784790388315],[38.75273232977823,9.038124540250315],[38.75306910083736,9.038298746082761]]}}]}