{"type":"FeatureCollection","metro_system":{"continent":"europe","country":"Poland","city":"Czestochowa","official_website":null,"official_map":"https://pl.wikipedia.org/wiki/Tramwaje_w_Częstochowie","wikipedia":"pl:Tramwaje w Częstochowie","line_count":3,"segment_count":5,"station_count":35,"modes":["tram"],"audit":{"strategies_tried":[],"passed":true,"checks":[{"id":"has_lines","ok":true,"detail":"3 lines","level":"error"},{"id":"has_stations","ok":true,"detail":"35 stations","level":"error"},{"id":"stations_have_lines","ok":true,"detail":"35/35 站皆有所屬路線","level":"error"},{"id":"line_geometry_stations","ok":true,"detail":"39 個折點/端點皆為車站","level":"error"},{"id":"route_stations_match_geometry","ok":true,"detail":"各線車站列表與圖面一致","level":"error"},{"id":"interchange_rule","ok":true,"detail":"所有車站紅/藍點符合骨架＋路線色規則（藍＝端點、紅＝交叉）","level":"error"},{"id":"stations_named","ok":true,"detail":"35/35 站皆有名稱","level":"error"},{"id":"station_order","ok":true,"detail":"所有線路站序合理","level":"warn"},{"id":"station_span","ok":true,"detail":"各線相鄰站距與系統站群跨度正常","level":"error"},{"id":"line_wiki_stations","ok":true,"detail":"各線站數與 wiki 線路條目相符（營運中站數）","level":"error"},{"id":"line_wiki_coverage","ok":false,"detail":"3 條線無 wiki 站數對照：Tram 1、Tram 2、Tram 3","level":"warn"}],"reasons":[],"warnings":["3 條線無 wiki 站數對照：Tram 1、Tram 2、Tram 3"],"audited_at":"2026-07-27T11:54:48.528Z"}},"features":[{"type":"Feature","properties":{"seg_id":"czestochowa-0","routes":[{"route_id":"rm4543906","route_name":"Tram 1","route_name_local":"Tram 1","route_name_en":null,"route_ref":"1","route_color":null,"wikipedia":null,"osm_route_ids":[178133,4543903],"status":null,"order_suspect":0,"span_suspect":0,"stations":[{"station_id":"n905986014","station_name":"Kucelin - Szpital"},{"station_id":"n3322151545","station_name":"Dąbie"},{"station_id":"n3322151548","station_name":"Rejtana"},{"station_id":"n10731236276","station_name":"Plac Orląt Lwowskich"},{"station_id":"n3323049772","station_name":"Aleja Pokoju"},{"station_id":"n906018133","station_name":"Estakada"},{"station_id":"n3321733788","station_name":"Powstańców Śląskich"},{"station_id":"n3321733790","station_name":"Równoległa"},{"station_id":"n906057773","station_name":"Ostatni Grosz"},{"station_id":"n906057786","station_name":"Rondo Mickiewicza"},{"station_id":"n823278103","station_name":"Dworzec PKS"},{"station_id":"n3321733780","station_name":"Dworzec Główny PKP"},{"station_id":"n3321733783","station_name":"II Al. Najświętszej Maryi Panny"},{"station_id":"n9136272423","station_name":"Jasnogórska","pass":true},{"station_id":"n12122799535","station_name":"Aleja Jana Pawła II - Uniwersytet"},{"station_id":"n3321733784","station_name":"Politechnika"},{"station_id":"n745482903","station_name":"Hala Polonia"},{"station_id":"n3321733787","station_name":"Polskiego Czerwonego Krzyża"},{"station_id":"n3380257573","station_name":"Promenada Niemena"},{"station_id":"n418722225","station_name":"Iwaszkiewicza"},{"station_id":"n3321733779","station_name":"Baczyńskiego"},{"station_id":"n419374203","station_name":"Fieldorfa-Nila"}]}],"route_count":1,"route_refs":["1"],"route_colors":["#e11d48"],"city":"Czestochowa","country":"Poland"},"geometry":{"type":"MultiLineString","coordinates":[[[19.1730296,50.7902818],[19.161,50.7923994],[19.155342,50.789369],[19.1486136,50.786509]]]}},{"type":"Feature","properties":{"seg_id":"czestochowa-1","routes":[{"route_id":"rm4543906","route_name":"Tram 1","route_name_local":"Tram 1","route_name_en":null,"route_ref":"1","route_color":null,"wikipedia":null,"osm_route_ids":[178133,4543903],"status":null,"order_suspect":0,"span_suspect":0,"stations":[{"station_id":"n905986014","station_name":"Kucelin - Szpital"},{"station_id":"n3322151545","station_name":"Dąbie"},{"station_id":"n3322151548","station_name":"Rejtana"},{"station_id":"n10731236276","station_name":"Plac Orląt Lwowskich"},{"station_id":"n3323049772","station_name":"Aleja Pokoju"},{"station_id":"n906018133","station_name":"Estakada"},{"station_id":"n3321733788","station_name":"Powstańców Śląskich"},{"station_id":"n3321733790","station_name":"Równoległa"},{"station_id":"n906057773","station_name":"Ostatni Grosz"},{"station_id":"n906057786","station_name":"Rondo Mickiewicza"},{"station_id":"n823278103","station_name":"Dworzec PKS"},{"station_id":"n3321733780","station_name":"Dworzec Główny PKP"},{"station_id":"n3321733783","station_name":"II Al. Najświętszej Maryi Panny"},{"station_id":"n9136272423","station_name":"Jasnogórska","pass":true},{"station_id":"n12122799535","station_name":"Aleja Jana Pawła II - Uniwersytet"},{"station_id":"n3321733784","station_name":"Politechnika"},{"station_id":"n745482903","station_name":"Hala Polonia"},{"station_id":"n3321733787","station_name":"Polskiego Czerwonego Krzyża"},{"station_id":"n3380257573","station_name":"Promenada Niemena"},{"station_id":"n418722225","station_name":"Iwaszkiewicza"},{"station_id":"n3321733779","station_name":"Baczyńskiego"},{"station_id":"n419374203","station_name":"Fieldorfa-Nila"}]},{"route_id":"rm4543902","route_name":"Tram 2","route_name_local":"Tram 2","route_name_en":null,"route_ref":"2","route_color":null,"wikipedia":null,"osm_route_ids":[309866,4543904],"status":null,"order_suspect":0,"span_suspect":0,"stations":[{"station_id":"n3321733852","station_name":"Raków - Dworzec PKP"},{"station_id":"junc:19.15070:50.78721","station_name":""},{"station_id":"n10731236276","station_name":"Plac Orląt Lwowskich"},{"station_id":"n3323049772","station_name":"Aleja Pokoju"},{"station_id":"n906018133","station_name":"Estakada"},{"station_id":"n3321733788","station_name":"Powstańców Śląskich"},{"station_id":"n3321733790","station_name":"Równoległa"},{"station_id":"n906057773","station_name":"Ostatni Grosz"},{"station_id":"n906057786","station_name":"Rondo Mickiewicza"},{"station_id":"n823278103","station_name":"Dworzec PKS"},{"station_id":"n3321733780","station_name":"Dworzec Główny PKP"},{"station_id":"n3321733783","station_name":"II Al. Najświętszej Maryi Panny"},{"station_id":"n9136272423","station_name":"Jasnogórska"},{"station_id":"n12122799535","station_name":"Aleja Jana Pawła II - Uniwersytet"},{"station_id":"n3321733784","station_name":"Politechnika"},{"station_id":"n745482903","station_name":"Hala Polonia"},{"station_id":"n3321733787","station_name":"Polskiego Czerwonego Krzyża"},{"station_id":"n3380257573","station_name":"Promenada Niemena"},{"station_id":"n418722225","station_name":"Iwaszkiewicza"},{"station_id":"n3321733779","station_name":"Baczyńskiego"},{"station_id":"n419374203","station_name":"Fieldorfa-Nila"}]}],"route_count":2,"route_refs":["1","2"],"route_colors":["#e11d48","#e11d48"],"city":"Czestochowa","country":"Poland"},"geometry":{"type":"MultiLineString","coordinates":[[[19.1486136,50.786509],[19.14364,50.7848626],[19.1405934,50.7847923]]]}},{"type":"Feature","properties":{"seg_id":"czestochowa-2","routes":[{"route_id":"rm4543906","route_name":"Tram 1","route_name_local":"Tram 1","route_name_en":null,"route_ref":"1","route_color":null,"wikipedia":null,"osm_route_ids":[178133,4543903],"status":null,"order_suspect":0,"span_suspect":0,"stations":[{"station_id":"n905986014","station_name":"Kucelin - Szpital"},{"station_id":"n3322151545","station_name":"Dąbie"},{"station_id":"n3322151548","station_name":"Rejtana"},{"station_id":"n10731236276","station_name":"Plac Orląt Lwowskich"},{"station_id":"n3323049772","station_name":"Aleja Pokoju"},{"station_id":"n906018133","station_name":"Estakada"},{"station_id":"n3321733788","station_name":"Powstańców Śląskich"},{"station_id":"n3321733790","station_name":"Równoległa"},{"station_id":"n906057773","station_name":"Ostatni Grosz"},{"station_id":"n906057786","station_name":"Rondo Mickiewicza"},{"station_id":"n823278103","station_name":"Dworzec PKS"},{"station_id":"n3321733780","station_name":"Dworzec Główny PKP"},{"station_id":"n3321733783","station_name":"II Al. Najświętszej Maryi Panny"},{"station_id":"n9136272423","station_name":"Jasnogórska","pass":true},{"station_id":"n12122799535","station_name":"Aleja Jana Pawła II - Uniwersytet"},{"station_id":"n3321733784","station_name":"Politechnika"},{"station_id":"n745482903","station_name":"Hala Polonia"},{"station_id":"n3321733787","station_name":"Polskiego Czerwonego Krzyża"},{"station_id":"n3380257573","station_name":"Promenada Niemena"},{"station_id":"n418722225","station_name":"Iwaszkiewicza"},{"station_id":"n3321733779","station_name":"Baczyńskiego"},{"station_id":"n419374203","station_name":"Fieldorfa-Nila"}]},{"route_id":"rm4543902","route_name":"Tram 2","route_name_local":"Tram 2","route_name_en":null,"route_ref":"2","route_color":null,"wikipedia":null,"osm_route_ids":[309866,4543904],"status":null,"order_suspect":0,"span_suspect":0,"stations":[{"station_id":"n3321733852","station_name":"Raków - Dworzec PKP"},{"station_id":"junc:19.15070:50.78721","station_name":""},{"station_id":"n10731236276","station_name":"Plac Orląt Lwowskich"},{"station_id":"n3323049772","station_name":"Aleja Pokoju"},{"station_id":"n906018133","station_name":"Estakada"},{"station_id":"n3321733788","station_name":"Powstańców Śląskich"},{"station_id":"n3321733790","station_name":"Równoległa"},{"station_id":"n906057773","station_name":"Ostatni Grosz"},{"station_id":"n906057786","station_name":"Rondo Mickiewicza"},{"station_id":"n823278103","station_name":"Dworzec PKS"},{"station_id":"n3321733780","station_name":"Dworzec Główny PKP"},{"station_id":"n3321733783","station_name":"II Al. Najświętszej Maryi Panny"},{"station_id":"n9136272423","station_name":"Jasnogórska"},{"station_id":"n12122799535","station_name":"Aleja Jana Pawła II - Uniwersytet"},{"station_id":"n3321733784","station_name":"Politechnika"},{"station_id":"n745482903","station_name":"Hala Polonia"},{"station_id":"n3321733787","station_name":"Polskiego Czerwonego Krzyża"},{"station_id":"n3380257573","station_name":"Promenada Niemena"},{"station_id":"n418722225","station_name":"Iwaszkiewicza"},{"station_id":"n3321733779","station_name":"Baczyńskiego"},{"station_id":"n419374203","station_name":"Fieldorfa-Nila"}]},{"route_id":"rm4543907","route_name":"Tram 3","route_name_local":"Tram 3","route_name_en":null,"route_ref":"3","route_color":null,"wikipedia":null,"osm_route_ids":[2425616,4543905],"status":null,"order_suspect":0,"span_suspect":0,"stations":[{"station_id":"n419374203","station_name":"Fieldorfa-Nila"},{"station_id":"n3321733779","station_name":"Baczyńskiego"},{"station_id":"n418722225","station_name":"Iwaszkiewicza"},{"station_id":"n3380257573","station_name":"Promenada Niemena"},{"station_id":"n3321733787","station_name":"Polskiego Czerwonego Krzyża"},{"station_id":"n745482903","station_name":"Hala Polonia"},{"station_id":"n3321733784","station_name":"Politechnika"},{"station_id":"n12122799535","station_name":"Aleja Jana Pawła II - Uniwersytet"},{"station_id":"n9136272423","station_name":"Jasnogórska","pass":true},{"station_id":"n3321733783","station_name":"II Al. Najświętszej Maryi Panny"},{"station_id":"n3321733780","station_name":"Dworzec Główny PKP"},{"station_id":"n823278103","station_name":"Dworzec PKS"},{"station_id":"n906057786","station_name":"Rondo Mickiewicza"},{"station_id":"n906057773","station_name":"Ostatni Grosz"},{"station_id":"n3321733790","station_name":"Równoległa"},{"station_id":"n3321733788","station_name":"Powstańców Śląskich"},{"station_id":"n906018133","station_name":"Estakada"},{"station_id":"n3322009310","station_name":"D.H. Sezam"},{"station_id":"n3322009308","station_name":"Kasztanowa"},{"station_id":"n10713044415","station_name":"Bukowa"},{"station_id":"n2777217591","station_name":"Orkana - Szkoła"},{"station_id":"n3322030631","station_name":"Wrzosowiak"},{"station_id":"n878834357","station_name":"Sportowa"},{"station_id":"n2962443557","station_name":"Jesienna"},{"station_id":"n2962443564","station_name":"Jesienna - Szkoła"},{"station_id":"n2779362683","station_name":"Bohaterów Katynia"},{"station_id":"n3322126651","station_name":"Rakowska"},{"station_id":"n3322128952","station_name":"Żarecka"},{"station_id":"n3322126653","station_name":"Stadion Raków"}]}],"route_count":3,"route_refs":["1","2","3"],"route_colors":["#e11d48","#e11d48","#e11d48"],"city":"Czestochowa","country":"Poland"},"geometry":{"type":"MultiLineString","coordinates":[[[19.1405934,50.7847923],[19.1379421,50.7864367],[19.1331754,50.7894794],[19.1273125,50.7932127],[19.1179829,50.8016374],[19.1183344,50.8057934],[19.1182745,50.8089951],[19.11838745,50.811914],[19.1185817,50.8163232],[19.118547,50.8179694],[19.1180808,50.8215497],[19.1169365,50.8261514],[19.1158082,50.8302095],[19.1165043,50.8328381],[19.1194576,50.8355421],[19.1260956,50.8383503],[19.1293809,50.8397038]]]}},{"type":"Feature","properties":{"seg_id":"czestochowa-3","routes":[{"route_id":"rm4543902","route_name":"Tram 2","route_name_local":"Tram 2","route_name_en":null,"route_ref":"2","route_color":null,"wikipedia":null,"osm_route_ids":[309866,4543904],"status":null,"order_suspect":0,"span_suspect":0,"stations":[{"station_id":"n3321733852","station_name":"Raków - Dworzec PKP"},{"station_id":"junc:19.15070:50.78721","station_name":""},{"station_id":"n10731236276","station_name":"Plac Orląt Lwowskich"},{"station_id":"n3323049772","station_name":"Aleja Pokoju"},{"station_id":"n906018133","station_name":"Estakada"},{"station_id":"n3321733788","station_name":"Powstańców Śląskich"},{"station_id":"n3321733790","station_name":"Równoległa"},{"station_id":"n906057773","station_name":"Ostatni Grosz"},{"station_id":"n906057786","station_name":"Rondo Mickiewicza"},{"station_id":"n823278103","station_name":"Dworzec PKS"},{"station_id":"n3321733780","station_name":"Dworzec Główny PKP"},{"station_id":"n3321733783","station_name":"II Al. Najświętszej Maryi Panny"},{"station_id":"n9136272423","station_name":"Jasnogórska"},{"station_id":"n12122799535","station_name":"Aleja Jana Pawła II - Uniwersytet"},{"station_id":"n3321733784","station_name":"Politechnika"},{"station_id":"n745482903","station_name":"Hala Polonia"},{"station_id":"n3321733787","station_name":"Polskiego Czerwonego Krzyża"},{"station_id":"n3380257573","station_name":"Promenada Niemena"},{"station_id":"n418722225","station_name":"Iwaszkiewicza"},{"station_id":"n3321733779","station_name":"Baczyńskiego"},{"station_id":"n419374203","station_name":"Fieldorfa-Nila"}]}],"route_count":1,"route_refs":["2"],"route_colors":["#e11d48"],"city":"Czestochowa","country":"Poland"},"geometry":{"type":"MultiLineString","coordinates":[[[19.1521695,50.7880543],[19.1507011,50.7872061],[19.1486136,50.786509]]]}},{"type":"Feature","properties":{"seg_id":"czestochowa-4","routes":[{"route_id":"rm4543907","route_name":"Tram 3","route_name_local":"Tram 3","route_name_en":null,"route_ref":"3","route_color":null,"wikipedia":null,"osm_route_ids":[2425616,4543905],"status":null,"order_suspect":0,"span_suspect":0,"stations":[{"station_id":"n419374203","station_name":"Fieldorfa-Nila"},{"station_id":"n3321733779","station_name":"Baczyńskiego"},{"station_id":"n418722225","station_name":"Iwaszkiewicza"},{"station_id":"n3380257573","station_name":"Promenada Niemena"},{"station_id":"n3321733787","station_name":"Polskiego Czerwonego Krzyża"},{"station_id":"n745482903","station_name":"Hala Polonia"},{"station_id":"n3321733784","station_name":"Politechnika"},{"station_id":"n12122799535","station_name":"Aleja Jana Pawła II - Uniwersytet"},{"station_id":"n9136272423","station_name":"Jasnogórska","pass":true},{"station_id":"n3321733783","station_name":"II Al. Najświętszej Maryi Panny"},{"station_id":"n3321733780","station_name":"Dworzec Główny PKP"},{"station_id":"n823278103","station_name":"Dworzec PKS"},{"station_id":"n906057786","station_name":"Rondo Mickiewicza"},{"station_id":"n906057773","station_name":"Ostatni Grosz"},{"station_id":"n3321733790","station_name":"Równoległa"},{"station_id":"n3321733788","station_name":"Powstańców Śląskich"},{"station_id":"n906018133","station_name":"Estakada"},{"station_id":"n3322009310","station_name":"D.H. Sezam"},{"station_id":"n3322009308","station_name":"Kasztanowa"},{"station_id":"n10713044415","station_name":"Bukowa"},{"station_id":"n2777217591","station_name":"Orkana - Szkoła"},{"station_id":"n3322030631","station_name":"Wrzosowiak"},{"station_id":"n878834357","station_name":"Sportowa"},{"station_id":"n2962443557","station_name":"Jesienna"},{"station_id":"n2962443564","station_name":"Jesienna - Szkoła"},{"station_id":"n2779362683","station_name":"Bohaterów Katynia"},{"station_id":"n3322126651","station_name":"Rakowska"},{"station_id":"n3322128952","station_name":"Żarecka"},{"station_id":"n3322126653","station_name":"Stadion Raków"}]}],"route_count":1,"route_refs":["3"],"route_colors":["#e11d48"],"city":"Czestochowa","country":"Poland"},"geometry":{"type":"MultiLineString","coordinates":[[[19.1405934,50.7847923],[19.1403052,50.7837697],[19.1357859,50.7826544],[19.1298498,50.7835245],[19.131512,50.7795373],[19.1354942,50.7766449],[19.1356471,50.7732727],[19.1403904,50.770688],[19.1450036,50.7696396],[19.1498217,50.7703517],[19.1539857,50.7718756],[19.157283,50.7744105],[19.1576598,50.7757053]]]}},{"type":"Feature","properties":{"station_id":"n418722225","station_name":"Iwaszkiewicza","station_name_local":"Iwaszkiewicza","station_name_en":null,"city":"Czestochowa","country":"Poland","lines":["1","2","3"],"wikipedia":null,"is_terminus":false,"routes":[{"ref":"1","name":"Tram 1","route_color":null},{"ref":"2","name":"Tram 2","route_color":null},{"ref":"3","name":"Tram 3","route_color":null}],"pass_count":3,"station_degree":2,"codes":null,"merged_from":null,"merged_names":null,"is_interchange":false,"station_role":"normal"},"geometry":{"type":"Point","coordinates":[19.1194576,50.8355421]},"__memberLines":{}},{"type":"Feature","properties":{"station_id":"n419374203","station_name":"Fieldorfa-Nila","station_name_local":"Fieldorfa-Nila","station_name_en":null,"city":"Czestochowa","country":"Poland","lines":["1","2","3"],"wikipedia":null,"is_terminus":true,"routes":[{"ref":"1","name":"Tram 1","route_color":null},{"ref":"2","name":"Tram 2","route_color":null},{"ref":"3","name":"Tram 3","route_color":null}],"pass_count":3,"station_degree":1,"codes":null,"merged_from":null,"merged_names":null,"is_interchange":false,"station_role":"terminus"},"geometry":{"type":"Point","coordinates":[19.1293809,50.8397038]},"__memberLines":{}},{"type":"Feature","properties":{"station_id":"n745482903","station_name":"Hala Polonia","station_name_local":"Hala Polonia","station_name_en":null,"city":"Czestochowa","country":"Poland","lines":["1","2","3"],"wikipedia":null,"is_terminus":false,"routes":[{"ref":"1","name":"Tram 1","route_color":null},{"ref":"2","name":"Tram 2","route_color":null},{"ref":"3","name":"Tram 3","route_color":null}],"pass_count":3,"station_degree":2,"codes":null,"merged_from":null,"merged_names":null,"is_interchange":false,"station_role":"normal"},"geometry":{"type":"Point","coordinates":[19.1169365,50.8261514]},"__memberLines":{}},{"type":"Feature","properties":{"station_id":"n823278103","station_name":"Dworzec PKS","station_name_local":"Dworzec PKS","station_name_en":null,"city":"Czestochowa","country":"Poland","lines":["1","2","3"],"wikipedia":null,"is_terminus":false,"routes":[{"ref":"1","name":"Tram 1","route_color":null},{"ref":"2","name":"Tram 2","route_color":null},{"ref":"3","name":"Tram 3","route_color":null}],"pass_count":3,"station_degree":2,"codes":null,"merged_from":null,"merged_names":null,"is_interchange":false,"station_role":"normal"},"geometry":{"type":"Point","coordinates":[19.1183344,50.8057934]},"__memberLines":{}},{"type":"Feature","properties":{"station_id":"n878834357","station_name":"Sportowa","station_name_local":"Sportowa","station_name_en":null,"city":"Czestochowa","country":"Poland","lines":["3"],"wikipedia":null,"is_terminus":false,"routes":[{"ref":"3","name":"Tram 3","route_color":null}],"pass_count":1,"station_degree":2,"codes":null,"merged_from":null,"merged_names":null,"is_interchange":false,"station_role":"normal"},"geometry":{"type":"Point","coordinates":[19.1356471,50.7732727]},"__memberLines":{}},{"type":"Feature","properties":{"station_id":"n905986014","station_name":"Kucelin - Szpital","station_name_local":"Kucelin - Szpital","station_name_en":null,"city":"Czestochowa","country":"Poland","lines":["1"],"wikipedia":null,"is_terminus":true,"routes":[{"ref":"1","name":"Tram 1","route_color":null}],"pass_count":1,"station_degree":1,"codes":null,"merged_from":null,"merged_names":null,"is_interchange":false,"station_role":"terminus"},"geometry":{"type":"Point","coordinates":[19.1730296,50.7902818]},"__memberLines":{}},{"type":"Feature","properties":{"station_id":"n906018133","station_name":"Estakada","station_name_local":"Estakada","station_name_en":null,"city":"Czestochowa","country":"Poland","lines":["1","2","3"],"wikipedia":null,"is_terminus":false,"routes":[{"ref":"1","name":"Tram 1","route_color":null},{"ref":"2","name":"Tram 2","route_color":null},{"ref":"3","name":"Tram 3","route_color":null}],"pass_count":3,"station_degree":3,"codes":null,"merged_from":null,"merged_names":null,"is_interchange":true,"station_role":"interchange"},"geometry":{"type":"Point","coordinates":[19.1405934,50.7847923]},"__memberLines":{}},{"type":"Feature","properties":{"station_id":"n906057773","station_name":"Ostatni Grosz","station_name_local":"Ostatni Grosz","station_name_en":null,"city":"Czestochowa","country":"Poland","lines":["1","2","3"],"wikipedia":null,"is_terminus":false,"routes":[{"ref":"1","name":"Tram 1","route_color":null},{"ref":"2","name":"Tram 2","route_color":null},{"ref":"3","name":"Tram 3","route_color":null}],"pass_count":3,"station_degree":2,"codes":null,"merged_from":null,"merged_names":null,"is_interchange":false,"station_role":"normal"},"geometry":{"type":"Point","coordinates":[19.1273125,50.7932127]},"__memberLines":{}},{"type":"Feature","properties":{"station_id":"n906057786","station_name":"Rondo Mickiewicza","station_name_local":"Rondo Mickiewicza","station_name_en":null,"city":"Czestochowa","country":"Poland","lines":["1","2","3"],"wikipedia":null,"is_terminus":false,"routes":[{"ref":"1","name":"Tram 1","route_color":null},{"ref":"2","name":"Tram 2","route_color":null},{"ref":"3","name":"Tram 3","route_color":null}],"pass_count":3,"station_degree":2,"codes":null,"merged_from":null,"merged_names":null,"is_interchange":false,"station_role":"normal"},"geometry":{"type":"Point","coordinates":[19.1179829,50.8016374]},"__memberLines":{}},{"type":"Feature","properties":{"station_id":"n2777217591","station_name":"Orkana - Szkoła","station_name_local":"Orkana - Szkoła","station_name_en":null,"city":"Czestochowa","country":"Poland","lines":["3"],"wikipedia":null,"is_terminus":false,"routes":[{"ref":"3","name":"Tram 3","route_color":null}],"pass_count":1,"station_degree":2,"codes":null,"merged_from":null,"merged_names":null,"is_interchange":false,"station_role":"normal"},"geometry":{"type":"Point","coordinates":[19.131512,50.7795373]},"__memberLines":{}},{"type":"Feature","properties":{"station_id":"n2779362683","station_name":"Bohaterów Katynia","station_name_local":"Bohaterów Katynia","station_name_en":null,"city":"Czestochowa","country":"Poland","lines":["3"],"wikipedia":null,"is_terminus":false,"routes":[{"ref":"3","name":"Tram 3","route_color":null}],"pass_count":1,"station_degree":2,"codes":null,"merged_from":null,"merged_names":null,"is_interchange":false,"station_role":"normal"},"geometry":{"type":"Point","coordinates":[19.1498217,50.7703517]},"__memberLines":{}},{"type":"Feature","properties":{"station_id":"n2962443557","station_name":"Jesienna","station_name_local":"Jesienna","station_name_en":null,"city":"Czestochowa","country":"Poland","lines":["3"],"wikipedia":null,"is_terminus":false,"routes":[{"ref":"3","name":"Tram 3","route_color":null}],"pass_count":1,"station_degree":2,"codes":null,"merged_from":null,"merged_names":null,"is_interchange":false,"station_role":"normal"},"geometry":{"type":"Point","coordinates":[19.1403904,50.770688]},"__memberLines":{}},{"type":"Feature","properties":{"station_id":"n2962443564","station_name":"Jesienna - Szkoła","station_name_local":"Jesienna - Szkoła","station_name_en":null,"city":"Czestochowa","country":"Poland","lines":["3"],"wikipedia":null,"is_terminus":false,"routes":[{"ref":"3","name":"Tram 3","route_color":null}],"pass_count":1,"station_degree":2,"codes":null,"merged_from":null,"merged_names":null,"is_interchange":false,"station_role":"normal"},"geometry":{"type":"Point","coordinates":[19.1450036,50.7696396]},"__memberLines":{}},{"type":"Feature","properties":{"station_id":"n3321733779","station_name":"Baczyńskiego","station_name_local":"Baczyńskiego","station_name_en":null,"city":"Czestochowa","country":"Poland","lines":["1","2","3"],"wikipedia":null,"is_terminus":false,"routes":[{"ref":"1","name":"Tram 1","route_color":null},{"ref":"2","name":"Tram 2","route_color":null},{"ref":"3","name":"Tram 3","route_color":null}],"pass_count":3,"station_degree":2,"codes":null,"merged_from":null,"merged_names":null,"is_interchange":false,"station_role":"normal"},"geometry":{"type":"Point","coordinates":[19.1260956,50.8383503]},"__memberLines":{}},{"type":"Feature","properties":{"station_id":"n3321733780","station_name":"Dworzec Główny PKP","station_name_local":"Dworzec Główny PKP","station_name_en":null,"city":"Czestochowa","country":"Poland","lines":["1","2","3"],"wikipedia":null,"is_terminus":false,"routes":[{"ref":"1","name":"Tram 1","route_color":null},{"ref":"2","name":"Tram 2","route_color":null},{"ref":"3","name":"Tram 3","route_color":null}],"pass_count":3,"station_degree":2,"codes":null,"merged_from":null,"merged_names":null,"is_interchange":false,"station_role":"normal"},"geometry":{"type":"Point","coordinates":[19.1182745,50.8089951]},"__memberLines":{}},{"type":"Feature","properties":{"station_id":"n3321733783","station_name":"II Al. Najświętszej Maryi Panny","station_name_local":"II Al. Najświętszej Maryi Panny","station_name_en":null,"city":"Czestochowa","country":"Poland","lines":["1","2","3"],"wikipedia":null,"merged_from":2,"merged_names":null,"is_terminus":false,"routes":[{"ref":"1","name":"Tram 1","route_color":null},{"ref":"2","name":"Tram 2","route_color":null},{"ref":"3","name":"Tram 3","route_color":null}],"pass_count":3,"station_degree":2,"codes":null,"is_interchange":false,"station_role":"normal"},"geometry":{"type":"Point","coordinates":[19.11838745,50.811914]},"__memberLines":{}},{"type":"Feature","properties":{"station_id":"n3321733784","station_name":"Politechnika","station_name_local":"Politechnika","station_name_en":null,"city":"Czestochowa","country":"Poland","lines":["1","2","3"],"wikipedia":null,"is_terminus":false,"routes":[{"ref":"1","name":"Tram 1","route_color":null},{"ref":"2","name":"Tram 2","route_color":null},{"ref":"3","name":"Tram 3","route_color":null}],"pass_count":3,"station_degree":2,"codes":null,"merged_from":null,"merged_names":null,"is_interchange":false,"station_role":"normal"},"geometry":{"type":"Point","coordinates":[19.1180808,50.8215497]},"__memberLines":{}},{"type":"Feature","properties":{"station_id":"n3321733787","station_name":"Polskiego Czerwonego Krzyża","station_name_local":"Polskiego Czerwonego Krzyża","station_name_en":null,"city":"Czestochowa","country":"Poland","lines":["1","2","3"],"wikipedia":null,"is_terminus":false,"routes":[{"ref":"1","name":"Tram 1","route_color":null},{"ref":"2","name":"Tram 2","route_color":null},{"ref":"3","name":"Tram 3","route_color":null}],"pass_count":3,"station_degree":2,"codes":null,"merged_from":null,"merged_names":null,"is_interchange":false,"station_role":"normal"},"geometry":{"type":"Point","coordinates":[19.1158082,50.8302095]},"__memberLines":{}},{"type":"Feature","properties":{"station_id":"n3321733788","station_name":"Powstańców Śląskich","station_name_local":"Powstańców Śląskich","station_name_en":null,"city":"Czestochowa","country":"Poland","lines":["1","2","3"],"wikipedia":null,"is_terminus":false,"routes":[{"ref":"1","name":"Tram 1","route_color":null},{"ref":"2","name":"Tram 2","route_color":null},{"ref":"3","name":"Tram 3","route_color":null}],"pass_count":3,"station_degree":2,"codes":null,"merged_from":null,"merged_names":null,"is_interchange":false,"station_role":"normal"},"geometry":{"type":"Point","coordinates":[19.1379421,50.7864367]},"__memberLines":{}},{"type":"Feature","properties":{"station_id":"n3321733790","station_name":"Równoległa","station_name_local":"Równoległa","station_name_en":null,"city":"Czestochowa","country":"Poland","lines":["1","2","3"],"wikipedia":null,"is_terminus":false,"routes":[{"ref":"1","name":"Tram 1","route_color":null},{"ref":"2","name":"Tram 2","route_color":null},{"ref":"3","name":"Tram 3","route_color":null}],"pass_count":3,"station_degree":2,"codes":null,"merged_from":null,"merged_names":null,"is_interchange":false,"station_role":"normal"},"geometry":{"type":"Point","coordinates":[19.1331754,50.7894794]},"__memberLines":{}},{"type":"Feature","properties":{"station_id":"n3321733852","station_name":"Raków - Dworzec PKP","station_name_local":"Raków - Dworzec PKP","station_name_en":null,"city":"Czestochowa","country":"Poland","lines":["2"],"wikipedia":null,"is_terminus":true,"routes":[{"ref":"2","name":"Tram 2","route_color":null}],"pass_count":1,"station_degree":1,"codes":null,"merged_from":null,"merged_names":null,"is_interchange":false,"station_role":"terminus"},"geometry":{"type":"Point","coordinates":[19.1521695,50.7880543]},"__memberLines":{}},{"type":"Feature","properties":{"station_id":"n3322009308","station_name":"Kasztanowa","station_name_local":"Kasztanowa","station_name_en":null,"city":"Czestochowa","country":"Poland","lines":["3"],"wikipedia":null,"is_terminus":false,"routes":[{"ref":"3","name":"Tram 3","route_color":null}],"pass_count":1,"station_degree":2,"codes":null,"merged_from":null,"merged_names":null,"is_interchange":false,"station_role":"normal"},"geometry":{"type":"Point","coordinates":[19.1357859,50.7826544]},"__memberLines":{}},{"type":"Feature","properties":{"station_id":"n3322009310","station_name":"D.H. Sezam","station_name_local":"D.H. Sezam","station_name_en":null,"city":"Czestochowa","country":"Poland","lines":["3"],"wikipedia":null,"is_terminus":false,"routes":[{"ref":"3","name":"Tram 3","route_color":null}],"pass_count":1,"station_degree":2,"codes":null,"merged_from":null,"merged_names":null,"is_interchange":false,"station_role":"normal"},"geometry":{"type":"Point","coordinates":[19.1403052,50.7837697]},"__memberLines":{}},{"type":"Feature","properties":{"station_id":"n3322030631","station_name":"Wrzosowiak","station_name_local":"Wrzosowiak","station_name_en":null,"city":"Czestochowa","country":"Poland","lines":["3"],"wikipedia":null,"is_terminus":false,"routes":[{"ref":"3","name":"Tram 3","route_color":null}],"pass_count":1,"station_degree":2,"codes":null,"merged_from":null,"merged_names":null,"is_interchange":false,"station_role":"normal"},"geometry":{"type":"Point","coordinates":[19.1354942,50.7766449]},"__memberLines":{}},{"type":"Feature","properties":{"station_id":"n3322126651","station_name":"Rakowska","station_name_local":"Rakowska","station_name_en":null,"city":"Czestochowa","country":"Poland","lines":["3"],"wikipedia":null,"is_terminus":false,"routes":[{"ref":"3","name":"Tram 3","route_color":null}],"pass_count":1,"station_degree":2,"codes":null,"merged_from":null,"merged_names":null,"is_interchange":false,"station_role":"normal"},"geometry":{"type":"Point","coordinates":[19.1539857,50.7718756]},"__memberLines":{}},{"type":"Feature","properties":{"station_id":"n3322126653","station_name":"Stadion Raków","station_name_local":"Stadion Raków","station_name_en":null,"city":"Czestochowa","country":"Poland","lines":["3"],"wikipedia":null,"is_terminus":true,"routes":[{"ref":"3","name":"Tram 3","route_color":null}],"pass_count":1,"station_degree":1,"codes":null,"merged_from":null,"merged_names":null,"is_interchange":false,"station_role":"terminus"},"geometry":{"type":"Point","coordinates":[19.1576598,50.7757053]},"__memberLines":{}},{"type":"Feature","properties":{"station_id":"n3322128952","station_name":"Żarecka","station_name_local":"Żarecka","station_name_en":null,"city":"Czestochowa","country":"Poland","lines":["3"],"wikipedia":null,"is_terminus":false,"routes":[{"ref":"3","name":"Tram 3","route_color":null}],"pass_count":1,"station_degree":2,"codes":null,"merged_from":null,"merged_names":null,"is_interchange":false,"station_role":"normal"},"geometry":{"type":"Point","coordinates":[19.157283,50.7744105]},"__memberLines":{}},{"type":"Feature","properties":{"station_id":"n3322151545","station_name":"Dąbie","station_name_local":"Dąbie","station_name_en":null,"city":"Czestochowa","country":"Poland","lines":["1"],"wikipedia":null,"is_terminus":false,"routes":[{"ref":"1","name":"Tram 1","route_color":null}],"pass_count":1,"station_degree":2,"codes":null,"merged_from":null,"merged_names":null,"is_interchange":false,"station_role":"normal"},"geometry":{"type":"Point","coordinates":[19.161,50.7923994]},"__memberLines":{}},{"type":"Feature","properties":{"station_id":"n3322151548","station_name":"Rejtana","station_name_local":"Rejtana","station_name_en":null,"city":"Czestochowa","country":"Poland","lines":["1"],"wikipedia":null,"is_terminus":false,"routes":[{"ref":"1","name":"Tram 1","route_color":null}],"pass_count":1,"station_degree":2,"codes":null,"merged_from":null,"merged_names":null,"is_interchange":false,"station_role":"normal"},"geometry":{"type":"Point","coordinates":[19.155342,50.789369]},"__memberLines":{}},{"type":"Feature","properties":{"station_id":"n3323049772","station_name":"Aleja Pokoju","station_name_local":"Aleja Pokoju","station_name_en":null,"city":"Czestochowa","country":"Poland","lines":["1","2"],"wikipedia":null,"is_terminus":false,"routes":[{"ref":"1","name":"Tram 1","route_color":null},{"ref":"2","name":"Tram 2","route_color":null}],"pass_count":2,"station_degree":2,"codes":null,"merged_from":null,"merged_names":null,"is_interchange":false,"station_role":"normal"},"geometry":{"type":"Point","coordinates":[19.14364,50.7848626]},"__memberLines":{}},{"type":"Feature","properties":{"station_id":"n3380257573","station_name":"Promenada Niemena","station_name_local":"Promenada Niemena","station_name_en":null,"city":"Czestochowa","country":"Poland","lines":["1","2","3"],"wikipedia":null,"is_terminus":false,"routes":[{"ref":"1","name":"Tram 1","route_color":null},{"ref":"2","name":"Tram 2","route_color":null},{"ref":"3","name":"Tram 3","route_color":null}],"pass_count":3,"station_degree":2,"codes":null,"merged_from":null,"merged_names":null,"is_interchange":false,"station_role":"normal"},"geometry":{"type":"Point","coordinates":[19.1165043,50.8328381]},"__memberLines":{}},{"type":"Feature","properties":{"station_id":"n9136272423","station_name":"Jasnogórska","station_name_local":"Jasnogórska","station_name_en":null,"city":"Czestochowa","country":"Poland","lines":["2"],"wikipedia":null,"is_terminus":false,"routes":[{"ref":"2","name":"Tram 2","route_color":null},{"ref":"1","name":"Tram 1","route_color":null,"pass":true},{"ref":"3","name":"Tram 3","route_color":null,"pass":true}],"pass_count":3,"station_degree":2,"codes":null,"merged_from":null,"merged_names":null,"is_interchange":false,"station_role":"normal"},"geometry":{"type":"Point","coordinates":[19.1185817,50.8163232]},"__memberLines":{}},{"type":"Feature","properties":{"station_id":"n10713044415","station_name":"Bukowa","station_name_local":"Bukowa","station_name_en":null,"city":"Czestochowa","country":"Poland","lines":["3"],"wikipedia":null,"is_terminus":false,"routes":[{"ref":"3","name":"Tram 3","route_color":null}],"pass_count":1,"station_degree":2,"codes":null,"merged_from":null,"merged_names":null,"is_interchange":false,"station_role":"normal"},"geometry":{"type":"Point","coordinates":[19.1298498,50.7835245]},"__memberLines":{}},{"type":"Feature","properties":{"station_id":"n10731236276","station_name":"Plac Orląt Lwowskich","station_name_local":"Plac Orląt Lwowskich","station_name_en":"Plac Orląt Lwowskich","city":"Czestochowa","country":"Poland","lines":["1","2"],"wikipedia":null,"is_terminus":false,"routes":[{"ref":"1","name":"Tram 1","route_color":null},{"ref":"2","name":"Tram 2","route_color":null}],"pass_count":2,"station_degree":3,"codes":null,"merged_from":null,"merged_names":null,"is_interchange":true,"station_role":"interchange"},"geometry":{"type":"Point","coordinates":[19.1486136,50.786509]},"__memberLines":{}},{"type":"Feature","properties":{"station_id":"n12122799535","station_name":"Aleja Jana Pawła II - Uniwersytet","station_name_local":"Aleja Jana Pawła II - Uniwersytet","station_name_en":"Aleja Jana Pawła II - Uniwersytet","city":"Czestochowa","country":"Poland","lines":["1","2","3"],"wikipedia":null,"is_terminus":false,"routes":[{"ref":"1","name":"Tram 1","route_color":null},{"ref":"2","name":"Tram 2","route_color":null},{"ref":"3","name":"Tram 3","route_color":null}],"pass_count":3,"station_degree":2,"codes":null,"merged_from":null,"merged_names":null,"is_interchange":false,"station_role":"normal"},"geometry":{"type":"Point","coordinates":[19.118547,50.8179694]},"__memberLines":{}},{"type":"Feature","properties":{"station_id":"junc:19.15070:50.78721","station_name":"","station_name_local":null,"station_name_en":null,"city":"Czestochowa","country":"Poland","lines":null,"station_role":"junction","is_junction":true,"is_interchange":false,"is_terminus":false,"merged_from":null,"merged_names":null,"codes":null},"geometry":{"type":"Point","coordinates":[19.1507011,50.7872061]}}]}