{"type":"FeatureCollection","metro_system":{"continent":"europe","country":"Finland","city":"Tampere","official_website":"https://reittiopas.tampere.fi/linjat/tampere:1/","official_map":null,"wikipedia":null,"line_count":2,"segment_count":5,"station_count":33,"modes":["tram"],"audit":{"strategies_tried":[],"passed":true,"checks":[{"id":"has_lines","ok":true,"detail":"2 lines","level":"error"},{"id":"has_stations","ok":true,"detail":"33 stations","level":"error"},{"id":"stations_have_lines","ok":true,"detail":"33/33 站皆有所屬路線","level":"error"},{"id":"line_geometry_stations","ok":true,"detail":"37 個折點/端點皆為車站","level":"error"},{"id":"route_stations_match_geometry","ok":true,"detail":"各線車站列表與圖面一致","level":"error"},{"id":"interchange_rule","ok":true,"detail":"所有車站紅/藍點符合骨架＋路線色規則（藍＝端點、紅＝交叉）","level":"error"},{"id":"stations_named","ok":true,"detail":"33/33 站皆有名稱","level":"error"},{"id":"station_order","ok":true,"detail":"所有線路站序合理","level":"warn"},{"id":"line_wiki_stations","ok":true,"detail":"各線站數與 wiki 線路條目相符（營運中站數）","level":"error"},{"id":"line_wiki_coverage","ok":false,"detail":"2 條線無 wiki 站數對照：Light rail line 1、Light rail line 3","level":"warn"}],"reasons":[],"warnings":["2 條線無 wiki 站數對照：Light rail line 1、Light rail line 3"],"audited_at":"2026-07-27T02:39:14.808Z"}},"features":[{"type":"Feature","properties":{"seg_id":"tampere-0","routes":[{"route_id":"rm13072753","route_name":"Light rail line 1","route_name_local":"Raitiolinja 1","route_name_en":"Light rail line 1","route_ref":"1","route_color":"#da2128","wikipedia":null,"osm_route_ids":[13072751,13072752],"status":null,"order_suspect":0,"span_suspect":0,"stations":[{"station_id":"n12384252832","station_name":"Pyhällönpuisto"},{"station_id":"n12384252831","station_name":"Lentävänniemi"},{"station_id":"n12384252830","station_name":"Niemenranta"},{"station_id":"n12384258901","station_name":"Niemen kartano"},{"station_id":"n12384234500","station_name":"Tehdas"},{"station_id":"n12384234495","station_name":"Hiedanranta"},{"station_id":"n11096838385","station_name":"Santalahti"},{"station_id":"n11096838386","station_name":"Tikkutehdas"},{"station_id":"n11096838384","station_name":"Särkänniemi"},{"station_id":"n8778646386","station_name":"Pyynikintori"},{"station_id":"n8778646387","station_name":"Tuulensuu"},{"station_id":"n8778646388","station_name":"Keskustori"},{"station_id":"n8778646389","station_name":"Koskipuisto"},{"station_id":"n5300553035","station_name":"Rautatieasema A"},{"station_id":"n8778646392","station_name":"Tulli"},{"station_id":"n8778646393","station_name":"Sammonaukio"},{"station_id":"junc:23.78785:61.49907","station_name":""},{"station_id":"n9014147600","station_name":"Kalevan kirkko"},{"station_id":"n9014147601","station_name":"Hippos"},{"station_id":"n9014147602","station_name":"TAYS"},{"station_id":"n9014147603","station_name":"Kaupin kampus"}]}],"route_count":1,"route_refs":["1"],"route_colors":["#da2128"],"city":"Tampere","country":"Finland"},"geometry":{"type":"MultiLineString","coordinates":[[[23.704343666666663,61.529118866666664],[23.702054833333335,61.5267653],[23.6953568,61.52254726666666],[23.68410953333333,61.52071733333333],[23.681972166666668,61.51718236666667],[23.686018466666667,61.512014300000004],[23.715452933333335,61.505680866666665],[23.722212966666664,61.503720566666665],[23.7372853,61.500686400000006],[23.741994200000004,61.49790883333333],[23.754117433333334,61.4972447],[23.759228633333333,61.497617],[23.7664413,61.4981419]]]}},{"type":"Feature","properties":{"seg_id":"tampere-1","routes":[{"route_id":"rm13072753","route_name":"Light rail line 1","route_name_local":"Raitiolinja 1","route_name_en":"Light rail line 1","route_ref":"1","route_color":"#da2128","wikipedia":null,"osm_route_ids":[13072751,13072752],"status":null,"order_suspect":0,"span_suspect":0,"stations":[{"station_id":"n12384252832","station_name":"Pyhällönpuisto"},{"station_id":"n12384252831","station_name":"Lentävänniemi"},{"station_id":"n12384252830","station_name":"Niemenranta"},{"station_id":"n12384258901","station_name":"Niemen kartano"},{"station_id":"n12384234500","station_name":"Tehdas"},{"station_id":"n12384234495","station_name":"Hiedanranta"},{"station_id":"n11096838385","station_name":"Santalahti"},{"station_id":"n11096838386","station_name":"Tikkutehdas"},{"station_id":"n11096838384","station_name":"Särkänniemi"},{"station_id":"n8778646386","station_name":"Pyynikintori"},{"station_id":"n8778646387","station_name":"Tuulensuu"},{"station_id":"n8778646388","station_name":"Keskustori"},{"station_id":"n8778646389","station_name":"Koskipuisto"},{"station_id":"n5300553035","station_name":"Rautatieasema A"},{"station_id":"n8778646392","station_name":"Tulli"},{"station_id":"n8778646393","station_name":"Sammonaukio"},{"station_id":"junc:23.78785:61.49907","station_name":""},{"station_id":"n9014147600","station_name":"Kalevan kirkko"},{"station_id":"n9014147601","station_name":"Hippos"},{"station_id":"n9014147602","station_name":"TAYS"},{"station_id":"n9014147603","station_name":"Kaupin kampus"}]}],"route_count":1,"route_refs":["1"],"route_colors":["#da2128"],"city":"Tampere","country":"Finland"},"geometry":{"type":"MultiLineString","coordinates":[[[23.786099833333335,61.499013966666666],[23.7878492,61.4990684],[23.792734466666662,61.5001342],[23.80064976666667,61.501648966666664],[23.812114766666667,61.50392996666667],[23.821112366666668,61.50471713333334]]]}},{"type":"Feature","properties":{"seg_id":"tampere-2","routes":[{"route_id":"rm13072753","route_name":"Light rail line 1","route_name_local":"Raitiolinja 1","route_name_en":"Light rail line 1","route_ref":"1","route_color":"#da2128","wikipedia":null,"osm_route_ids":[13072751,13072752],"status":null,"order_suspect":0,"span_suspect":0,"stations":[{"station_id":"n12384252832","station_name":"Pyhällönpuisto"},{"station_id":"n12384252831","station_name":"Lentävänniemi"},{"station_id":"n12384252830","station_name":"Niemenranta"},{"station_id":"n12384258901","station_name":"Niemen kartano"},{"station_id":"n12384234500","station_name":"Tehdas"},{"station_id":"n12384234495","station_name":"Hiedanranta"},{"station_id":"n11096838385","station_name":"Santalahti"},{"station_id":"n11096838386","station_name":"Tikkutehdas"},{"station_id":"n11096838384","station_name":"Särkänniemi"},{"station_id":"n8778646386","station_name":"Pyynikintori"},{"station_id":"n8778646387","station_name":"Tuulensuu"},{"station_id":"n8778646388","station_name":"Keskustori"},{"station_id":"n8778646389","station_name":"Koskipuisto"},{"station_id":"n5300553035","station_name":"Rautatieasema A"},{"station_id":"n8778646392","station_name":"Tulli"},{"station_id":"n8778646393","station_name":"Sammonaukio"},{"station_id":"junc:23.78785:61.49907","station_name":""},{"station_id":"n9014147600","station_name":"Kalevan kirkko"},{"station_id":"n9014147601","station_name":"Hippos"},{"station_id":"n9014147602","station_name":"TAYS"},{"station_id":"n9014147603","station_name":"Kaupin kampus"}]},{"route_id":"rm12758107","route_name":"Light rail line 3","route_name_local":"Raitiolinja 3","route_name_en":"Light rail line 3","route_ref":"3","route_color":"#da2128","wikipedia":null,"osm_route_ids":[16321254,16321255],"status":null,"order_suspect":0,"span_suspect":0,"stations":[{"station_id":"n8993469568","station_name":"Sorin aukio"},{"station_id":"n8778646389","station_name":"Koskipuisto"},{"station_id":"n5300553035","station_name":"Rautatieasema A"},{"station_id":"n8778646392","station_name":"Tulli"},{"station_id":"n8778646393","station_name":"Sammonaukio"},{"station_id":"n8778646394","station_name":"Kaleva"},{"station_id":"n8778646395","station_name":"Uintikeskus"},{"station_id":"n8778646396","station_name":"Kalevanrinne"},{"station_id":"n8778646397","station_name":"Hakametsä"},{"station_id":"n8778646408","station_name":"Turtola"},{"station_id":"n8778646409","station_name":"Hallila"},{"station_id":"n8778646411","station_name":"Pohjois-Hervanta"},{"station_id":"n8778646412","station_name":"Opiskelija"},{"station_id":"n8778646413","station_name":"Hervantakeskus"},{"station_id":"n8778646414","station_name":"Hervannan kampus"},{"station_id":"n8778646415","station_name":"Etelä-Hervanta"},{"station_id":"n8778672917","station_name":"Hervantajärvi"}]}],"route_count":2,"route_refs":["1","3"],"route_colors":["#da2128","#da2128"],"city":"Tampere","country":"Finland"},"geometry":{"type":"MultiLineString","coordinates":[[[23.7664413,61.4981419],[23.770775766666663,61.49845406666666],[23.7787987,61.498888300000004],[23.786099833333335,61.499013966666666]]]}},{"type":"Feature","properties":{"seg_id":"tampere-3","routes":[{"route_id":"rm12758107","route_name":"Light rail line 3","route_name_local":"Raitiolinja 3","route_name_en":"Light rail line 3","route_ref":"3","route_color":"#da2128","wikipedia":null,"osm_route_ids":[16321254,16321255],"status":null,"order_suspect":0,"span_suspect":0,"stations":[{"station_id":"n8993469568","station_name":"Sorin aukio"},{"station_id":"n8778646389","station_name":"Koskipuisto"},{"station_id":"n5300553035","station_name":"Rautatieasema A"},{"station_id":"n8778646392","station_name":"Tulli"},{"station_id":"n8778646393","station_name":"Sammonaukio"},{"station_id":"n8778646394","station_name":"Kaleva"},{"station_id":"n8778646395","station_name":"Uintikeskus"},{"station_id":"n8778646396","station_name":"Kalevanrinne"},{"station_id":"n8778646397","station_name":"Hakametsä"},{"station_id":"n8778646408","station_name":"Turtola"},{"station_id":"n8778646409","station_name":"Hallila"},{"station_id":"n8778646411","station_name":"Pohjois-Hervanta"},{"station_id":"n8778646412","station_name":"Opiskelija"},{"station_id":"n8778646413","station_name":"Hervantakeskus"},{"station_id":"n8778646414","station_name":"Hervannan kampus"},{"station_id":"n8778646415","station_name":"Etelä-Hervanta"},{"station_id":"n8778672917","station_name":"Hervantajärvi"}]}],"route_count":1,"route_refs":["3"],"route_colors":["#da2128"],"city":"Tampere","country":"Finland"},"geometry":{"type":"MultiLineString","coordinates":[[[23.769608133333335,61.49489403333334],[23.7664413,61.4981419]]]}},{"type":"Feature","properties":{"seg_id":"tampere-4","routes":[{"route_id":"rm12758107","route_name":"Light rail line 3","route_name_local":"Raitiolinja 3","route_name_en":"Light rail line 3","route_ref":"3","route_color":"#da2128","wikipedia":null,"osm_route_ids":[16321254,16321255],"status":null,"order_suspect":0,"span_suspect":0,"stations":[{"station_id":"n8993469568","station_name":"Sorin aukio"},{"station_id":"n8778646389","station_name":"Koskipuisto"},{"station_id":"n5300553035","station_name":"Rautatieasema A"},{"station_id":"n8778646392","station_name":"Tulli"},{"station_id":"n8778646393","station_name":"Sammonaukio"},{"station_id":"n8778646394","station_name":"Kaleva"},{"station_id":"n8778646395","station_name":"Uintikeskus"},{"station_id":"n8778646396","station_name":"Kalevanrinne"},{"station_id":"n8778646397","station_name":"Hakametsä"},{"station_id":"n8778646408","station_name":"Turtola"},{"station_id":"n8778646409","station_name":"Hallila"},{"station_id":"n8778646411","station_name":"Pohjois-Hervanta"},{"station_id":"n8778646412","station_name":"Opiskelija"},{"station_id":"n8778646413","station_name":"Hervantakeskus"},{"station_id":"n8778646414","station_name":"Hervannan kampus"},{"station_id":"n8778646415","station_name":"Etelä-Hervanta"},{"station_id":"n8778672917","station_name":"Hervantajärvi"}]}],"route_count":1,"route_refs":["3"],"route_colors":["#da2128"],"city":"Tampere","country":"Finland"},"geometry":{"type":"MultiLineString","coordinates":[[[23.786099833333335,61.499013966666666],[23.795999766666664,61.497583166666665],[23.804484266666666,61.49617129999999],[23.81218103333333,61.49455773333333],[23.817763033333335,61.49281613333333],[23.832451433333333,61.477781900000004],[23.839623900000003,61.467017199999994],[23.845408366666664,61.457302],[23.8468421,61.454224866666664],[23.84975776666667,61.450325533333334],[23.853532666666666,61.44682996666666],[23.858357966666663,61.44277496666666],[23.869903033333333,61.438311266666666]]]}},{"type":"Feature","properties":{"station_id":"n8778646397","station_name":"Hakametsä","station_name_local":"Hakametsä","station_name_en":null,"city":"Tampere","country":"Finland","lines":["3"],"wikipedia":null,"merged_from":3,"merged_names":null,"is_terminus":false,"codes":["0821","0822"],"routes":[{"ref":"3","name":"Light rail line 3","route_color":"#da2128"}],"pass_count":1,"station_degree":2,"is_interchange":false,"station_role":"normal"},"geometry":{"type":"Point","coordinates":[23.817763033333335,61.49281613333333]},"__memberLines":{}},{"type":"Feature","properties":{"station_id":"n8778646396","station_name":"Kalevanrinne","station_name_local":"Kalevanrinne","station_name_en":null,"city":"Tampere","country":"Finland","lines":["3"],"wikipedia":null,"merged_from":3,"merged_names":null,"is_terminus":false,"codes":["0819","0820"],"routes":[{"ref":"3","name":"Light rail line 3","route_color":"#da2128"}],"pass_count":1,"station_degree":2,"is_interchange":false,"station_role":"normal"},"geometry":{"type":"Point","coordinates":[23.81218103333333,61.49455773333333]},"__memberLines":{}},{"type":"Feature","properties":{"station_id":"n8778646394","station_name":"Kaleva","station_name_local":"Kaleva","station_name_en":null,"city":"Tampere","country":"Finland","lines":["3"],"wikipedia":null,"merged_from":3,"merged_names":null,"is_terminus":false,"codes":["0815","0816"],"routes":[{"ref":"3","name":"Light rail line 3","route_color":"#da2128"}],"pass_count":1,"station_degree":2,"is_interchange":false,"station_role":"normal"},"geometry":{"type":"Point","coordinates":[23.795999766666664,61.497583166666665]},"__memberLines":{}},{"type":"Feature","properties":{"station_id":"n8778646388","station_name":"Keskustori","station_name_local":"Keskustori","station_name_en":null,"city":"Tampere","country":"Finland","lines":["1"],"wikipedia":null,"merged_from":3,"merged_names":null,"is_terminus":false,"codes":["0805","0806"],"routes":[{"ref":"1","name":"Light rail line 1","route_color":"#da2128"}],"pass_count":1,"station_degree":2,"is_interchange":false,"station_role":"normal"},"geometry":{"type":"Point","coordinates":[23.759228633333333,61.497617]},"__memberLines":{}},{"type":"Feature","properties":{"station_id":"n8778646386","station_name":"Pyynikintori","station_name_local":"Pyynikintori","station_name_en":null,"city":"Tampere","country":"Finland","lines":["1"],"wikipedia":null,"merged_from":3,"merged_names":null,"is_terminus":false,"codes":["0801","0802"],"routes":[{"ref":"1","name":"Light rail line 1","route_color":"#da2128"}],"pass_count":1,"station_degree":2,"is_interchange":false,"station_role":"normal"},"geometry":{"type":"Point","coordinates":[23.741994200000004,61.49790883333333]},"__memberLines":{}},{"type":"Feature","properties":{"station_id":"n8778646393","station_name":"Sammonaukio","station_name_local":"Sammonaukio","station_name_en":null,"city":"Tampere","country":"Finland","lines":["1","3"],"wikipedia":null,"merged_from":3,"merged_names":null,"is_terminus":false,"codes":["0813","0814"],"routes":[{"ref":"1","name":"Light rail line 1","route_color":"#da2128"},{"ref":"3","name":"Light rail line 3","route_color":"#da2128"}],"pass_count":2,"station_degree":3,"is_interchange":true,"station_role":"interchange"},"geometry":{"type":"Point","coordinates":[23.786099833333335,61.499013966666666]},"__memberLines":{}},{"type":"Feature","properties":{"station_id":"n8778646409","station_name":"Hallila","station_name_local":"Hallila","station_name_en":null,"city":"Tampere","country":"Finland","lines":["3"],"wikipedia":null,"merged_from":3,"merged_names":null,"is_terminus":false,"codes":["0827","0828"],"routes":[{"ref":"3","name":"Light rail line 3","route_color":"#da2128"}],"pass_count":1,"station_degree":2,"is_interchange":false,"station_role":"normal"},"geometry":{"type":"Point","coordinates":[23.839623900000003,61.467017199999994]},"__memberLines":{}},{"type":"Feature","properties":{"station_id":"n5300553035","station_name":"Rautatieasema A / Rautatieasema B / Railway station","station_name_local":"Rautatieasema A / Rautatieasema B / Railway station","station_name_en":null,"city":"Tampere","country":"Finland","lines":["1","3"],"wikipedia":null,"merged_from":3,"merged_names":[{"station_id":"n5300553035","station_name":"Rautatieasema A","station_name_local":"Rautatieasema A","lines":["1","3"]},{"station_id":"n8768452316","station_name":"Rautatieasema B","station_name_local":"Rautatieasema B","lines":["1","3"]},{"station_id":"n8778646390","station_name":"Railway station","station_name_local":"Rautatieasema","lines":["1","3"]}],"is_terminus":false,"codes":["0809","0810"],"routes":[{"ref":"1","name":"Light rail line 1","route_color":"#da2128"},{"ref":"3","name":"Light rail line 3","route_color":"#da2128"}],"pass_count":2,"station_degree":2,"is_interchange":false,"station_role":"normal"},"geometry":{"type":"Point","coordinates":[23.770775766666663,61.49845406666666]},"__memberLines":{}},{"type":"Feature","properties":{"station_id":"n8993469568","station_name":"Sorin aukio","station_name_local":"Sorin aukio","station_name_en":null,"city":"Tampere","country":"Finland","lines":["3"],"wikipedia":null,"merged_from":3,"merged_names":null,"is_terminus":true,"codes":["0950","0951"],"routes":[{"ref":"3","name":"Light rail line 3","route_color":"#da2128"}],"pass_count":1,"station_degree":1,"is_interchange":false,"station_role":"terminus"},"geometry":{"type":"Point","coordinates":[23.769608133333335,61.49489403333334]},"__memberLines":{}},{"type":"Feature","properties":{"station_id":"n8778646413","station_name":"Hervantakeskus","station_name_local":"Hervantakeskus","station_name_en":null,"city":"Tampere","country":"Finland","lines":["3"],"wikipedia":null,"merged_from":3,"merged_names":null,"is_terminus":false,"codes":["0833","0834"],"routes":[{"ref":"3","name":"Light rail line 3","route_color":"#da2128"}],"pass_count":1,"station_degree":2,"is_interchange":false,"station_role":"normal"},"geometry":{"type":"Point","coordinates":[23.84975776666667,61.450325533333334]},"__memberLines":{}},{"type":"Feature","properties":{"station_id":"n8778646411","station_name":"Pohjois-Hervanta","station_name_local":"Pohjois-Hervanta","station_name_en":null,"city":"Tampere","country":"Finland","lines":["3"],"wikipedia":null,"merged_from":3,"merged_names":null,"is_terminus":false,"codes":["0829","0830"],"routes":[{"ref":"3","name":"Light rail line 3","route_color":"#da2128"}],"pass_count":1,"station_degree":2,"is_interchange":false,"station_role":"normal"},"geometry":{"type":"Point","coordinates":[23.845408366666664,61.457302]},"__memberLines":{}},{"type":"Feature","properties":{"station_id":"n9014147601","station_name":"Hippos","station_name_local":"Hippos","station_name_en":null,"city":"Tampere","country":"Finland","lines":["1"],"wikipedia":null,"merged_from":3,"merged_names":null,"is_terminus":false,"codes":["0903","0904"],"routes":[{"ref":"1","name":"Light rail line 1","route_color":"#da2128"}],"pass_count":1,"station_degree":2,"is_interchange":false,"station_role":"normal"},"geometry":{"type":"Point","coordinates":[23.80064976666667,61.501648966666664]},"__memberLines":{}},{"type":"Feature","properties":{"station_id":"n9014147603","station_name":"Kaupin kampus","station_name_local":"Kaupin kampus","station_name_en":null,"city":"Tampere","country":"Finland","lines":["1"],"wikipedia":null,"merged_from":3,"merged_names":null,"is_terminus":true,"codes":["0907","0908"],"routes":[{"ref":"1","name":"Light rail line 1","route_color":"#da2128"}],"pass_count":1,"station_degree":1,"is_interchange":false,"station_role":"terminus"},"geometry":{"type":"Point","coordinates":[23.821112366666668,61.50471713333334]},"__memberLines":{}},{"type":"Feature","properties":{"station_id":"n11096838384","station_name":"Särkänniemi","station_name_local":"Särkänniemi","station_name_en":null,"city":"Tampere","country":"Finland","lines":["1"],"wikipedia":null,"merged_from":3,"merged_names":null,"is_terminus":false,"codes":["0850","0851"],"routes":[{"ref":"1","name":"Light rail line 1","route_color":"#da2128"}],"pass_count":1,"station_degree":2,"is_interchange":false,"station_role":"normal"},"geometry":{"type":"Point","coordinates":[23.7372853,61.500686400000006]},"__memberLines":{}},{"type":"Feature","properties":{"station_id":"n12384252831","station_name":"Lentävänniemi","station_name_local":"Lentävänniemi","station_name_en":null,"city":"Tampere","country":"Finland","lines":["1"],"wikipedia":null,"merged_from":3,"merged_names":null,"is_terminus":false,"codes":["0870","0871"],"routes":[{"ref":"1","name":"Light rail line 1","route_color":"#da2128"}],"pass_count":1,"station_degree":2,"is_interchange":false,"station_role":"normal"},"geometry":{"type":"Point","coordinates":[23.702054833333335,61.5267653]},"__memberLines":{}},{"type":"Feature","properties":{"station_id":"n8778672917","station_name":"Hervantajärvi","station_name_local":"Hervantajärvi","station_name_en":null,"city":"Tampere","country":"Finland","lines":["3"],"wikipedia":null,"merged_from":3,"merged_names":null,"is_terminus":true,"codes":["0839","0840"],"routes":[{"ref":"3","name":"Light rail line 3","route_color":"#da2128"}],"pass_count":1,"station_degree":1,"is_interchange":false,"station_role":"terminus"},"geometry":{"type":"Point","coordinates":[23.869903033333333,61.438311266666666]},"__memberLines":{}},{"type":"Feature","properties":{"station_id":"n8778646415","station_name":"Etelä-Hervanta","station_name_local":"Etelä-Hervanta","station_name_en":null,"city":"Tampere","country":"Finland","lines":["3"],"wikipedia":null,"merged_from":3,"merged_names":null,"is_terminus":false,"codes":["0837","0838"],"routes":[{"ref":"3","name":"Light rail line 3","route_color":"#da2128"}],"pass_count":1,"station_degree":2,"is_interchange":false,"station_role":"normal"},"geometry":{"type":"Point","coordinates":[23.858357966666663,61.44277496666666]},"__memberLines":{}},{"type":"Feature","properties":{"station_id":"n8778646414","station_name":"Hervannan kampus","station_name_local":"Hervannan kampus","station_name_en":null,"city":"Tampere","country":"Finland","lines":["3"],"wikipedia":null,"merged_from":3,"merged_names":null,"is_terminus":false,"codes":["0835","0836"],"routes":[{"ref":"3","name":"Light rail line 3","route_color":"#da2128"}],"pass_count":1,"station_degree":2,"is_interchange":false,"station_role":"normal"},"geometry":{"type":"Point","coordinates":[23.853532666666666,61.44682996666666]},"__memberLines":{}},{"type":"Feature","properties":{"station_id":"n8778646412","station_name":"Opiskelija","station_name_local":"Opiskelija","station_name_en":null,"city":"Tampere","country":"Finland","lines":["3"],"wikipedia":null,"merged_from":3,"merged_names":null,"is_terminus":false,"codes":["0831","0832"],"routes":[{"ref":"3","name":"Light rail line 3","route_color":"#da2128"}],"pass_count":1,"station_degree":2,"is_interchange":false,"station_role":"normal"},"geometry":{"type":"Point","coordinates":[23.8468421,61.454224866666664]},"__memberLines":{}},{"type":"Feature","properties":{"station_id":"n8778646408","station_name":"Turtola","station_name_local":"Turtola","station_name_en":null,"city":"Tampere","country":"Finland","lines":["3"],"wikipedia":null,"merged_from":3,"merged_names":null,"is_terminus":false,"codes":["0825","0826"],"routes":[{"ref":"3","name":"Light rail line 3","route_color":"#da2128"}],"pass_count":1,"station_degree":2,"is_interchange":false,"station_role":"normal"},"geometry":{"type":"Point","coordinates":[23.832451433333333,61.477781900000004]},"__memberLines":{}},{"type":"Feature","properties":{"station_id":"n8778646395","station_name":"Uintikeskus","station_name_local":"Uintikeskus","station_name_en":null,"city":"Tampere","country":"Finland","lines":["3"],"wikipedia":null,"merged_from":3,"merged_names":null,"is_terminus":false,"codes":["0817","0818"],"routes":[{"ref":"3","name":"Light rail line 3","route_color":"#da2128"}],"pass_count":1,"station_degree":2,"is_interchange":false,"station_role":"normal"},"geometry":{"type":"Point","coordinates":[23.804484266666666,61.49617129999999]},"__memberLines":{}},{"type":"Feature","properties":{"station_id":"n9014147600","station_name":"Kalevan kirkko","station_name_local":"Kalevan kirkko","station_name_en":null,"city":"Tampere","country":"Finland","lines":["1"],"wikipedia":null,"merged_from":3,"merged_names":null,"is_terminus":false,"codes":["0901","0902"],"routes":[{"ref":"1","name":"Light rail line 1","route_color":"#da2128"}],"pass_count":1,"station_degree":2,"is_interchange":false,"station_role":"normal"},"geometry":{"type":"Point","coordinates":[23.792734466666662,61.5001342]},"__memberLines":{}},{"type":"Feature","properties":{"station_id":"n8778646392","station_name":"Tulli","station_name_local":"Tulli","station_name_en":null,"city":"Tampere","country":"Finland","lines":["1","3"],"wikipedia":null,"merged_from":3,"merged_names":null,"is_terminus":false,"codes":["0811","0812"],"routes":[{"ref":"1","name":"Light rail line 1","route_color":"#da2128"},{"ref":"3","name":"Light rail line 3","route_color":"#da2128"}],"pass_count":2,"station_degree":2,"is_interchange":false,"station_role":"normal"},"geometry":{"type":"Point","coordinates":[23.7787987,61.498888300000004]},"__memberLines":{}},{"type":"Feature","properties":{"station_id":"n8778646389","station_name":"Koskipuisto","station_name_local":"Koskipuisto","station_name_en":null,"city":"Tampere","country":"Finland","lines":["1","3"],"wikipedia":null,"merged_from":3,"merged_names":null,"is_terminus":false,"codes":["0807","0808"],"routes":[{"ref":"1","name":"Light rail line 1","route_color":"#da2128"},{"ref":"3","name":"Light rail line 3","route_color":"#da2128"}],"pass_count":2,"station_degree":3,"is_interchange":true,"station_role":"interchange"},"geometry":{"type":"Point","coordinates":[23.7664413,61.4981419]},"__memberLines":{}},{"type":"Feature","properties":{"station_id":"n8778646387","station_name":"Tuulensuu","station_name_local":"Tuulensuu","station_name_en":null,"city":"Tampere","country":"Finland","lines":["1"],"wikipedia":null,"merged_from":3,"merged_names":null,"is_terminus":false,"codes":["0803","0804"],"routes":[{"ref":"1","name":"Light rail line 1","route_color":"#da2128"}],"pass_count":1,"station_degree":2,"is_interchange":false,"station_role":"normal"},"geometry":{"type":"Point","coordinates":[23.754117433333334,61.4972447]},"__memberLines":{}},{"type":"Feature","properties":{"station_id":"n9014147602","station_name":"TAYS","station_name_local":"TAYS","station_name_en":null,"city":"Tampere","country":"Finland","lines":["1"],"wikipedia":null,"merged_from":3,"merged_names":null,"is_terminus":false,"codes":["0905","0906"],"routes":[{"ref":"1","name":"Light rail line 1","route_color":"#da2128"}],"pass_count":1,"station_degree":2,"is_interchange":false,"station_role":"normal"},"geometry":{"type":"Point","coordinates":[23.812114766666667,61.50392996666667]},"__memberLines":{}},{"type":"Feature","properties":{"station_id":"n12384252832","station_name":"Pyhällönpuisto","station_name_local":"Pyhällönpuisto","station_name_en":null,"city":"Tampere","country":"Finland","lines":["1"],"wikipedia":null,"merged_from":3,"merged_names":null,"is_terminus":true,"codes":["0872","0873"],"routes":[{"ref":"1","name":"Light rail line 1","route_color":"#da2128"}],"pass_count":1,"station_degree":1,"is_interchange":false,"station_role":"terminus"},"geometry":{"type":"Point","coordinates":[23.704343666666663,61.529118866666664]},"__memberLines":{}},{"type":"Feature","properties":{"station_id":"n11096838386","station_name":"Tikkutehdas","station_name_local":"Tikkutehdas","station_name_en":null,"city":"Tampere","country":"Finland","lines":["1"],"wikipedia":null,"merged_from":3,"merged_names":null,"is_terminus":false,"codes":["0852","0853"],"routes":[{"ref":"1","name":"Light rail line 1","route_color":"#da2128"}],"pass_count":1,"station_degree":2,"is_interchange":false,"station_role":"normal"},"geometry":{"type":"Point","coordinates":[23.722212966666664,61.503720566666665]},"__memberLines":{}},{"type":"Feature","properties":{"station_id":"n11096838385","station_name":"Santalahti","station_name_local":"Santalahti","station_name_en":null,"city":"Tampere","country":"Finland","lines":["1"],"wikipedia":null,"merged_from":3,"merged_names":null,"is_terminus":false,"codes":["0854","0855"],"routes":[{"ref":"1","name":"Light rail line 1","route_color":"#da2128"}],"pass_count":1,"station_degree":2,"is_interchange":false,"station_role":"normal"},"geometry":{"type":"Point","coordinates":[23.715452933333335,61.505680866666665]},"__memberLines":{}},{"type":"Feature","properties":{"station_id":"n12384234495","station_name":"Hiedanranta","station_name_local":"Hiedanranta","station_name_en":null,"city":"Tampere","country":"Finland","lines":["1"],"wikipedia":null,"merged_from":3,"merged_names":null,"is_terminus":false,"codes":["0860","0861"],"routes":[{"ref":"1","name":"Light rail line 1","route_color":"#da2128"}],"pass_count":1,"station_degree":2,"is_interchange":false,"station_role":"normal"},"geometry":{"type":"Point","coordinates":[23.686018466666667,61.512014300000004]},"__memberLines":{}},{"type":"Feature","properties":{"station_id":"n12384234500","station_name":"Tehdas","station_name_local":"Tehdas","station_name_en":null,"city":"Tampere","country":"Finland","lines":["1"],"wikipedia":null,"merged_from":3,"merged_names":null,"is_terminus":false,"codes":["0864","0865"],"routes":[{"ref":"1","name":"Light rail line 1","route_color":"#da2128"}],"pass_count":1,"station_degree":2,"is_interchange":false,"station_role":"normal"},"geometry":{"type":"Point","coordinates":[23.681972166666668,61.51718236666667]},"__memberLines":{}},{"type":"Feature","properties":{"station_id":"n12384258901","station_name":"Niemen kartano","station_name_local":"Niemen kartano","station_name_en":null,"city":"Tampere","country":"Finland","lines":["1"],"wikipedia":null,"merged_from":3,"merged_names":null,"is_terminus":false,"codes":["0866","0867"],"routes":[{"ref":"1","name":"Light rail line 1","route_color":"#da2128"}],"pass_count":1,"station_degree":2,"is_interchange":false,"station_role":"normal"},"geometry":{"type":"Point","coordinates":[23.68410953333333,61.52071733333333]},"__memberLines":{}},{"type":"Feature","properties":{"station_id":"n12384252830","station_name":"Niemenranta","station_name_local":"Niemenranta","station_name_en":null,"city":"Tampere","country":"Finland","lines":["1"],"wikipedia":null,"merged_from":3,"merged_names":null,"is_terminus":false,"codes":["0868","0869"],"routes":[{"ref":"1","name":"Light rail line 1","route_color":"#da2128"}],"pass_count":1,"station_degree":2,"is_interchange":false,"station_role":"normal"},"geometry":{"type":"Point","coordinates":[23.6953568,61.52254726666666]},"__memberLines":{}},{"type":"Feature","properties":{"station_id":"junc:23.78785:61.49907","station_name":"","station_name_local":null,"station_name_en":null,"city":"Tampere","country":"Finland","lines":null,"station_role":"junction","is_junction":true,"is_interchange":false,"is_terminus":false,"merged_from":null,"merged_names":null,"codes":null},"geometry":{"type":"Point","coordinates":[23.7878492,61.4990684]}}]}