{"type":"FeatureCollection","metro_system":{"continent":"asia","country":"Armenia","city":"Yerevan","official_website":null,"official_map":"https://en.wikipedia.org/wiki/Yerevan_Metro","wikipedia":"en:Yerevan Metro","wiki":true,"wikipedia_zh":"zh:埃里温地铁","line_count":2,"segment_count":2,"station_count":10,"modes":["metro"],"audit":{"strategies_tried":[],"passed":true,"checks":[{"id":"system_exists","ok":true,"detail":"matched OSM system metro-maps/asia/armenia/as-arm-yerevan/as-arm-yerevan.geojson","level":"error"},{"id":"has_lines","ok":true,"detail":"2 lines","level":"error"},{"id":"has_stations","ok":true,"detail":"10 stations","level":"error"},{"id":"station_count_info","ok":true,"detail":"OSM 10 站（wiki List 記 10，計法含轉乘重複，僅參考）","level":"warn"},{"id":"stations_have_lines","ok":true,"detail":"10/10 站皆有所屬路線","level":"error"},{"id":"line_geometry_stations","ok":true,"detail":"11 個折點/端點皆為車站","level":"error"},{"id":"route_stations_match_geometry","ok":true,"detail":"各線車站列表與圖面一致","level":"error"},{"id":"interchange_rule","ok":true,"detail":"所有車站紅/藍點符合骨架＋路線色規則（藍＝端點、紅＝交叉）","level":"error"},{"id":"stations_named","ok":true,"detail":"10/10 站皆有名稱","level":"error"},{"id":"station_order","ok":true,"detail":"所有線路站序合理","level":"warn"},{"id":"line_wiki_stations","ok":true,"detail":"各線站數與 wiki 線路條目相符（營運中站數）","level":"error"},{"id":"line_wiki_coverage","ok":false,"detail":"2 條線無 wiki 站數對照：Yerevan Metro Line 1、Yerevan Metro Shuttle Service Charbakh","level":"warn"}],"reasons":[],"warnings":["2 條線無 wiki 站數對照：Yerevan Metro Line 1、Yerevan Metro Shuttle Service Charbakh"],"audited_at":"2026-07-27T02:38:22.403Z"}},"features":[{"type":"Feature","properties":{"seg_id":"yerevan-0","routes":[{"route_id":"rm7963913","route_name":"Yerevan Metro Line 1","route_name_local":"Երևանի մետրո","route_name_en":"Yerevan Metro Line 1","route_ref":"1","route_color":"#e6194b","wikipedia":null,"osm_route_ids":[444608,7963911,7963912],"status":null,"order_suspect":0,"span_suspect":0,"stations":[{"station_id":"n386606120","station_name":"Garegin Nzhdeh Square"},{"station_id":"n386620230","station_name":"Shengavit"},{"station_id":"n292963794","station_name":"Gortsaranayin"},{"station_id":"n662023472","station_name":"Sasuntsi David"},{"station_id":"n386887818","station_name":"General Andranik"},{"station_id":"n662023477","station_name":"Republic Square"},{"station_id":"n4721163146","station_name":"Yeritasardakan"},{"station_id":"n5377634306","station_name":"Marshal Baghramyan"},{"station_id":"n662024035","station_name":"Barekamutyun"}]}],"route_count":1,"route_refs":["1"],"route_colors":["#e6194b"],"city":"Yerevan","country":"Armenia"},"geometry":{"type":"MultiLineString","coordinates":[[[44.4828542,40.150453066666664],[44.48585166666667,40.14491606666667],[44.4986608,40.14106933333333],[44.507152033333334,40.154603066666674],[44.512203,40.171250199999996],[44.5155417,40.1775649],[44.51988793333334,40.186201133333334],[44.507895100000006,40.191494266666666],[44.49505896666667,40.1969393]]]}},{"type":"Feature","properties":{"seg_id":"yerevan-1","routes":[{"route_id":"r7692726","route_name":"Yerevan Metro Shuttle Service Charbakh","route_name_local":"Երևանի մետրո","route_name_en":"Yerevan Metro Shuttle Service Charbakh","route_ref":"1","route_color":"#e6194b","wikipedia":null,"osm_route_ids":[7692726],"status":null,"order_suspect":0,"span_suspect":0,"stations":[{"station_id":"n2511450211","station_name":"Charbakh"},{"station_id":"n386620230","station_name":"Shengavit"}]}],"route_count":1,"route_refs":["1"],"route_colors":["#e6194b"],"city":"Yerevan","country":"Armenia"},"geometry":{"type":"MultiLineString","coordinates":[[[44.4708241,40.14068545],[44.48585166666667,40.14491606666667]]]}},{"type":"Feature","properties":{"station_id":"n292963794","station_name":"Gortsaranayin","station_name_local":"Գործարանային","station_name_en":"Gortsaranayin","city":"Yerevan","country":"Armenia","lines":["1"],"wikipedia":"en:Gortsaranayin (Yerevan Metro)","merged_from":3,"merged_names":null,"is_terminus":false,"routes":[{"ref":"1","name":"Yerevan Metro Line 1","route_color":"#e6194b"}],"pass_count":1,"station_degree":2,"codes":null,"is_interchange":false,"station_role":"normal"},"geometry":{"type":"Point","coordinates":[44.4986608,40.14106933333333]},"__memberLines":{}},{"type":"Feature","properties":{"station_id":"n386606120","station_name":"Garegin Nzhdeh Square","station_name_local":"Գարեգին Նժդեհի հրապարակ","station_name_en":"Garegin Nzhdeh Square","city":"Yerevan","country":"Armenia","lines":["1"],"wikipedia":"en:Garegin Nzhdeh Square (Yerevan Metro)","merged_from":3,"merged_names":null,"is_terminus":true,"routes":[{"ref":"1","name":"Yerevan Metro Line 1","route_color":"#e6194b"}],"pass_count":1,"station_degree":1,"codes":null,"is_interchange":false,"station_role":"terminus"},"geometry":{"type":"Point","coordinates":[44.4828542,40.150453066666664]},"__memberLines":{}},{"type":"Feature","properties":{"station_id":"n386620230","station_name":"Shengavit","station_name_local":"Շենգավիթ","station_name_en":"Shengavit","city":"Yerevan","country":"Armenia","lines":["1","1"],"wikipedia":null,"merged_from":3,"merged_names":null,"is_terminus":false,"routes":[{"ref":"1","name":"Yerevan Metro Line 1","route_color":"#e6194b"},{"ref":"1","name":"Yerevan Metro Shuttle Service Charbakh","route_color":"#e6194b"}],"pass_count":2,"station_degree":3,"codes":null,"is_interchange":true,"station_role":"interchange"},"geometry":{"type":"Point","coordinates":[44.48585166666667,40.14491606666667]},"__memberLines":{}},{"type":"Feature","properties":{"station_id":"n386887818","station_name":"General Andranik","station_name_local":"Զորավար Անդրանիկ","station_name_en":"General Andranik","city":"Yerevan","country":"Armenia","lines":["1"],"wikipedia":"en:General Andranik (Yerevan Metro)","merged_from":3,"merged_names":null,"is_terminus":false,"routes":[{"ref":"1","name":"Yerevan Metro Line 1","route_color":"#e6194b"}],"pass_count":1,"station_degree":2,"codes":null,"is_interchange":false,"station_role":"normal"},"geometry":{"type":"Point","coordinates":[44.512203,40.171250199999996]},"__memberLines":{}},{"type":"Feature","properties":{"station_id":"n662023472","station_name":"Sasuntsi David","station_name_local":"Սասունցի Դավիթ","station_name_en":"Sasuntsi David","city":"Yerevan","country":"Armenia","lines":["1"],"wikipedia":"en:David of Sasun (Yerevan Metro)","merged_from":3,"merged_names":null,"is_terminus":false,"routes":[{"ref":"1","name":"Yerevan Metro Line 1","route_color":"#e6194b"}],"pass_count":1,"station_degree":2,"codes":null,"is_interchange":false,"station_role":"normal"},"geometry":{"type":"Point","coordinates":[44.507152033333334,40.154603066666674]},"__memberLines":{}},{"type":"Feature","properties":{"station_id":"n662023477","station_name":"Republic Square","station_name_local":"Հանրապետության Հրապարակ","station_name_en":"Republic Square","city":"Yerevan","country":"Armenia","lines":["1"],"wikipedia":"en:Republic Square (Yerevan Metro)","merged_from":3,"merged_names":null,"is_terminus":false,"routes":[{"ref":"1","name":"Yerevan Metro Line 1","route_color":"#e6194b"}],"pass_count":1,"station_degree":2,"codes":null,"is_interchange":false,"station_role":"normal"},"geometry":{"type":"Point","coordinates":[44.5155417,40.1775649]},"__memberLines":{}},{"type":"Feature","properties":{"station_id":"n662024035","station_name":"Barekamutyun","station_name_local":"Բարեկամություն","station_name_en":"Barekamutyun","city":"Yerevan","country":"Armenia","lines":["1"],"wikipedia":"en:Barekamutyun (Yerevan Metro)","merged_from":3,"merged_names":null,"is_terminus":true,"routes":[{"ref":"1","name":"Yerevan Metro Line 1","route_color":"#e6194b"}],"pass_count":1,"station_degree":1,"codes":null,"is_interchange":false,"station_role":"terminus"},"geometry":{"type":"Point","coordinates":[44.49505896666667,40.1969393]},"__memberLines":{}},{"type":"Feature","properties":{"station_id":"n2511450211","station_name":"Charbakh","station_name_local":"Չարբախ","station_name_en":"Charbakh","city":"Yerevan","country":"Armenia","lines":["1","1"],"wikipedia":"en:Charbakh (Yerevan Metro)","merged_from":2,"merged_names":null,"is_terminus":true,"routes":[{"ref":"1","name":"Yerevan Metro Shuttle Service Charbakh","route_color":"#e6194b"},{"ref":"1","name":"Yerevan Metro Line 1","route_color":"#e6194b"}],"pass_count":2,"station_degree":1,"codes":null,"is_interchange":false,"station_role":"terminus"},"geometry":{"type":"Point","coordinates":[44.4708241,40.14068545]},"__memberLines":{}},{"type":"Feature","properties":{"station_id":"n4721163146","station_name":"Yeritasardakan","station_name_local":"Երիտասարդական","station_name_en":"Yeritasardakan","city":"Yerevan","country":"Armenia","lines":["1"],"wikipedia":"en:Yeritasardakan (Yerevan Metro)","merged_from":3,"merged_names":null,"is_terminus":false,"routes":[{"ref":"1","name":"Yerevan Metro Line 1","route_color":"#e6194b"}],"pass_count":1,"station_degree":2,"codes":null,"is_interchange":false,"station_role":"normal"},"geometry":{"type":"Point","coordinates":[44.51988793333334,40.186201133333334]},"__memberLines":{}},{"type":"Feature","properties":{"station_id":"n5377634306","station_name":"Marshal Baghramyan","station_name_local":"Մարշալ Բաղրամյան","station_name_en":"Marshal Baghramyan","city":"Yerevan","country":"Armenia","lines":["1"],"wikipedia":"en:Marshal Baghramyan (Yerevan Metro)","merged_from":3,"merged_names":null,"is_terminus":false,"routes":[{"ref":"1","name":"Yerevan Metro Line 1","route_color":"#e6194b"}],"pass_count":1,"station_degree":2,"codes":null,"is_interchange":false,"station_role":"normal"},"geometry":{"type":"Point","coordinates":[44.507895100000006,40.191494266666666]},"__memberLines":{}}]}