{"type":"FeatureCollection","features":[{"type":"Feature","properties":{"way_id":864100832,"route_colors":["#009640","#e30613"],"route_refs":["T3","T1"]},"geometry":{"type":"LineString","coordinates":[[4.3784834,45.4658534],[4.3784891,45.465594]]}},{"type":"Feature","properties":{"way_id":864100830,"route_colors":["#009640","#e30613"],"route_refs":["T3","T1"]},"geometry":{"type":"LineString","coordinates":[[4.3803756,45.4630546],[4.3805065,45.462771]]}},{"type":"Feature","properties":{"way_id":864100828,"route_colors":["#009640","#e30613"],"route_refs":["T3","T1"]},"geometry":{"type":"LineString","coordinates":[[4.3814954,45.4594285],[4.3814034,45.4597402]]}},{"type":"Feature","properties":{"way_id":847465215,"route_colors":["#009640"],"route_refs":["T3"]},"geometry":{"type":"LineString","coordinates":[[4.3891392,45.4592259],[4.389631,45.4591439]]}},{"type":"Feature","properties":{"way_id":847465217,"route_colors":["#009640"],"route_refs":["T3"]},"geometry":{"type":"LineString","coordinates":[[4.3953553,45.4590671],[4.3950274,45.4592672],[4.3949947,45.4592409],[4.3953226,45.4590408],[4.3953553,45.4590671]]}},{"type":"Feature","properties":{"way_id":847465219,"route_colors":["#009640"],"route_refs":["T3"]},"geometry":{"type":"LineString","coordinates":[[4.3943914,45.4547474],[4.3944044,45.4544094]]}},{"type":"Feature","properties":{"way_id":1469242621,"route_colors":["#009640"],"route_refs":["T3"]},"geometry":{"type":"LineString","coordinates":[[4.3994334,45.4522494],[4.399775,45.4520237]]}},{"type":"Feature","properties":{"way_id":847465221,"route_colors":["#009640"],"route_refs":["T3"]},"geometry":{"type":"LineString","coordinates":[[4.4026755,45.4494355],[4.4029368,45.4491272]]}},{"type":"Feature","properties":{"way_id":847465222,"route_colors":["#009640"],"route_refs":["T3"]},"geometry":{"type":"LineString","coordinates":[[4.4045435,45.4465028],[4.4050431,45.4466735]]}},{"type":"Feature","properties":{"way_id":847465226,"route_colors":["#009640"],"route_refs":["T3"]},"geometry":{"type":"LineString","coordinates":[[4.4000151,45.4455531],[4.4005599,45.4455239]]}},{"type":"Feature","properties":{"way_id":848840425,"route_colors":["#009640","#02509e"],"route_refs":["T3","T2"]},"geometry":{"type":"LineString","coordinates":[[4.3997094,45.4428662],[4.4001258,45.4427953]]}},{"type":"Feature","properties":{"way_id":864198995,"route_colors":["#009640","#02509e"],"route_refs":["T3","T2"]},"geometry":{"type":"LineString","coordinates":[[4.401393,45.4412551],[4.4008482,45.4411082]]}},{"type":"Feature","properties":{"way_id":864198993,"route_colors":["#009640","#02509e"],"route_refs":["T3","T2"]},"geometry":{"type":"LineString","coordinates":[[4.3963249,45.4397362],[4.3960521,45.4396114]]}},{"type":"Feature","properties":{"way_id":864198991,"route_colors":["#009640","#02509e"],"route_refs":["T3","T2"]},"geometry":{"type":"LineString","coordinates":[[4.3933282,45.437762],[4.3929825,45.4375056]]}},{"type":"Feature","properties":{"way_id":864134077,"route_colors":["#009640","#02509e"],"route_refs":["T3","T2"]},"geometry":{"type":"LineString","coordinates":[[4.3888314,45.436872],[4.3888063,45.4368594],[4.3887318,45.436822],[4.3885666,45.4367391],[4.3884136,45.4366643]]}},{"type":"Feature","properties":{"way_id":864136730,"route_colors":["#009640","#e30613"],"route_refs":["T3","T1"]},"geometry":{"type":"LineString","coordinates":[[4.3880275,45.4331009],[4.3881134,45.4327795]]}},{"type":"Feature","properties":{"way_id":864189878,"route_colors":["#009640","#e30613"],"route_refs":["T3","T1"]},"geometry":{"type":"LineString","coordinates":[[4.389854,45.4296603],[4.3899301,45.4293877]]}},{"type":"Feature","properties":{"way_id":864189879,"route_colors":["#009640","#e30613"],"route_refs":["T3","T1"]},"geometry":{"type":"LineString","coordinates":[[4.3906978,45.4268607],[4.3907793,45.426578]]}},{"type":"Feature","properties":{"way_id":864189881,"route_colors":["#009640","#e30613"],"route_refs":["T3","T1"]},"geometry":{"type":"LineString","coordinates":[[4.3917415,45.4231762],[4.3918371,45.4228365]]}},{"type":"Feature","properties":{"way_id":864189883,"route_colors":["#009640","#e30613"],"route_refs":["T3","T1"]},"geometry":{"type":"LineString","coordinates":[[4.3927481,45.4196071],[4.3928302,45.4193031]]}},{"type":"Feature","properties":{"way_id":864189885,"route_colors":["#009640","#e30613"],"route_refs":["T3","T1"]},"geometry":{"type":"LineString","coordinates":[[4.3933135,45.4158927],[4.3932857,45.415899],[4.3931319,45.415556],[4.3931591,45.4155491],[4.3933135,45.4158927]]}},{"type":"Feature","properties":{"way_id":56185815,"route_colors":["#009640","#e30613"],"route_refs":["T3","T1"]},"geometry":{"type":"LineString","coordinates":[[4.3784988,45.4657114],[4.3785028,45.4655741],[4.3785193,45.4653754],[4.3785496,45.4652573]]}},{"type":"Feature","properties":{"way_id":56185813,"route_colors":["#009640","#e30613"],"route_refs":["T3","T1"]},"geometry":{"type":"LineString","coordinates":[[4.3785496,45.4652573],[4.3785831,45.4651638],[4.3786421,45.4650744]]}},{"type":"Feature","properties":{"way_id":747393480,"route_colors":["#009640","#e30613"],"route_refs":["T3","T1"]},"geometry":{"type":"LineString","coordinates":[[4.3786421,45.4650744],[4.3787324,45.46499],[4.3788096,45.4649345],[4.3789697,45.4648529],[4.3797705,45.4644449],[4.3799357,45.4643114],[4.3799975,45.4642386],[4.3800502,45.4641637],[4.3800885,45.4640848],[4.3801169,45.4640144],[4.3802927,45.4634016],[4.3803332,45.4632523],[4.380366,45.4631697],[4.3804738,45.4629314],[4.3806016,45.4626333],[4.3808975,45.4616025],[4.3814735,45.4595937],[4.3815568,45.4592848]]}},{"type":"Feature","properties":{"way_id":498068444,"route_colors":["#009640"],"route_refs":["T3"]},"geometry":{"type":"LineString","coordinates":[[4.3815568,45.4592848],[4.3815807,45.4592487],[4.3816046,45.4592207],[4.3816307,45.4591995],[4.3816552,45.4591774],[4.3816757,45.4591669],[4.3817039,45.4591533],[4.3817359,45.4591364],[4.3817583,45.4591271],[4.381777,45.4591186],[4.3818074,45.4591054],[4.3818397,45.4590958],[4.381867,45.4590898],[4.3819063,45.4590821],[4.381967,45.4590767],[4.3820635,45.4590832],[4.3825068,45.4591462],[4.3825748,45.4591564],[4.3827748,45.4591862],[4.3834884,45.4592864],[4.3835515,45.4592952],[4.3844932,45.4594303],[4.3853741,45.4595565],[4.3854085,45.4595614]]}},{"type":"Feature","properties":{"way_id":722851114,"route_colors":["#009640"],"route_refs":["T3"]},"geometry":{"type":"LineString","coordinates":[[4.3854085,45.4595614],[4.3856525,45.4595965]]}},{"type":"Feature","properties":{"way_id":722851113,"route_colors":["#009640"],"route_refs":["T3"]},"geometry":{"type":"LineString","coordinates":[[4.3856525,45.4595965],[4.3859069,45.4596309],[4.3861027,45.4596599],[4.3861991,45.4596723],[4.3862412,45.4596751],[4.3863357,45.4596733],[4.3864187,45.459665],[4.3864693,45.4596602],[4.3873589,45.4595228],[4.3882001,45.4593868],[4.3887444,45.4593031],[4.3888101,45.4592915],[4.388887,45.4592798],[4.3893677,45.4592018],[4.3898017,45.4591348],[4.3899272,45.459115],[4.3900488,45.4590819],[4.3901732,45.4590231],[4.3904579,45.4588597],[4.3905046,45.4588329],[4.3905795,45.4587865],[4.3907111,45.4587178],[4.3907678,45.4586872],[4.3908013,45.458674],[4.3909017,45.4586346],[4.3910403,45.458592],[4.3911966,45.4585667],[4.3912511,45.4585578],[4.3913899,45.4585491],[4.3914967,45.4585479],[4.3915965,45.4585499],[4.3917827,45.4585756],[4.3919595,45.458618],[4.3920811,45.4586592],[4.3921677,45.4586971],[4.3923501,45.4587952],[4.3925016,45.4589096],[4.3927802,45.4591354],[4.3928945,45.459228],[4.3935323,45.459741],[4.3935983,45.4597902],[4.3936809,45.4598311],[4.3937643,45.4598537],[4.3938217,45.4598634],[4.3938838,45.4598663],[4.393939,45.459867],[4.3939502,45.4598658],[4.3940042,45.45986],[4.3940547,45.4598483],[4.3941162,45.4598289],[4.3941672,45.4598066],[4.3943048,45.4597239],[4.394389,45.4596758],[4.395197,45.4591757],[4.3954443,45.459018],[4.3955662,45.4589473],[4.3964029,45.4584409],[4.3964377,45.4584198],[4.3965195,45.458362],[4.3965962,45.4582999],[4.3966518,45.4582475],[4.3967819,45.4581129]]}},{"type":"Feature","properties":{"way_id":722855082,"route_colors":["#009640"],"route_refs":["T3"]},"geometry":{"type":"LineString","coordinates":[[4.3967819,45.4581129],[4.3970373,45.4578311],[4.397242,45.4576132],[4.3972729,45.4575691],[4.3972869,45.4575332],[4.3972901,45.457504],[4.3972893,45.4574674]]}},{"type":"Feature","properties":{"way_id":722855083,"route_colors":["#009640"],"route_refs":["T3"]},"geometry":{"type":"LineString","coordinates":[[4.3972893,45.4574674],[4.3972769,45.457415],[4.39726,45.4573827],[4.397239,45.4573524],[4.3960708,45.4563854],[4.3958576,45.4562122],[4.3954673,45.455895],[4.3952406,45.4557097],[4.3951439,45.4556306],[4.3950678,45.4555672],[4.3947981,45.4553423],[4.3946271,45.4552012],[4.3945456,45.4551357],[4.3944949,45.4550934],[4.3944835,45.4550839],[4.3944547,45.4550429],[4.3944454,45.4550218],[4.3944343,45.4549967],[4.3944249,45.4549755],[4.3944217,45.4549683],[4.3944183,45.4549549],[4.3944102,45.4549262],[4.3944078,45.4548953],[4.3944204,45.4545752],[4.3944346,45.4543553],[4.3944471,45.4542832],[4.3944718,45.4542341],[4.3944907,45.4542121],[4.3945106,45.4541899],[4.3945328,45.454171],[4.3945427,45.4541632],[4.3945725,45.4541424],[4.3946024,45.4541271],[4.394622,45.454117],[4.394675,45.4540983],[4.39474,45.4540887],[4.3948054,45.4540854],[4.3967824,45.4541751],[4.39695,45.4541778],[4.3970865,45.4541741],[4.3972338,45.4541615],[4.3974099,45.454132],[4.3975502,45.4540958],[4.397684,45.4540539],[4.3977983,45.4540111],[4.3979151,45.4539588],[4.3982904,45.453788],[4.3983916,45.4537401],[4.3984615,45.453696],[4.3985688,45.4536148],[4.3986134,45.4535671],[4.398655,45.4535137],[4.398685,45.4534489],[4.3986953,45.4534158],[4.3987041,45.4533904],[4.398715,45.4533293],[4.398708,45.4532212],[4.3986818,45.4530447],[4.3986771,45.4529886],[4.3986817,45.4529291],[4.3986998,45.4528635],[4.3987256,45.4527998],[4.3987515,45.4527592],[4.398756,45.4527543],[4.398782,45.4527262],[4.3988042,45.4527031],[4.3988207,45.4526859],[4.3988983,45.452624],[4.3996213,45.4521475],[4.4000066,45.4518936],[4.4008006,45.4513736],[4.4009727,45.4512552],[4.4010339,45.4512124],[4.4012755,45.4510181],[4.4015515,45.4507768],[4.4018001,45.4505112],[4.4019283,45.4503591],[4.4019548,45.4503277],[4.4022811,45.4499326],[4.4024758,45.4497049],[4.4024837,45.4496956],[4.4025689,45.4495942],[4.4025772,45.4495844],[4.4026739,45.4494716],[4.4028159,45.4493059],[4.4028938,45.4492112],[4.4029727,45.4491181],[4.4029992,45.4490862],[4.4032193,45.4488212],[4.4033694,45.4486537],[4.4035171,45.4484934]]}},{"type":"Feature","properties":{"way_id":723701716,"route_colors":["#009640"],"route_refs":["T3"]},"geometry":{"type":"LineString","coordinates":[[4.4035171,45.4484934],[4.4037274,45.4483059],[4.4038653,45.4481806],[4.4041184,45.447988],[4.4045705,45.447641]]}},{"type":"Feature","properties":{"way_id":723701715,"route_colors":["#009640"],"route_refs":["T3"]},"geometry":{"type":"LineString","coordinates":[[4.4045705,45.447641],[4.4047062,45.4475383],[4.4050424,45.4472717],[4.4052927,45.4470915],[4.4053196,45.4470591],[4.4053339,45.4470388],[4.4053524,45.4470137],[4.4053649,45.44699],[4.405376,45.446939],[4.4053776,45.4468959],[4.4053664,45.4468638],[4.4053567,45.4468445],[4.4053414,45.4468188],[4.4053095,45.446778],[4.4052639,45.4467488],[4.4052032,45.4467185],[4.4050754,45.4466737],[4.4048409,45.4465916],[4.4045217,45.4464828],[4.4044065,45.4464424],[4.4043387,45.4464149],[4.4042921,45.4463889],[4.404278,45.446381],[4.4029127,45.4453752],[4.4028733,45.445351],[4.4028384,45.4453297],[4.4028238,45.4453208],[4.4027549,45.4452822],[4.402675,45.4452508],[4.4026243,45.445234],[4.4025387,45.4452177],[4.4024378,45.4452058],[4.4023003,45.4452125],[4.4016867,45.4452716],[4.4014672,45.4452975]]}},{"type":"Feature","properties":{"way_id":632000023,"route_colors":["#009640"],"route_refs":["T3"]},"geometry":{"type":"LineString","coordinates":[[4.4014672,45.4452975],[4.4013717,45.4453141],[4.4012945,45.4453362],[4.4011661,45.4453768],[4.4009577,45.4454467],[4.4008639,45.4454749],[4.4007791,45.4454904],[4.4007108,45.4454989],[4.4006691,45.4455017],[4.4001725,45.4455281],[4.3998185,45.4455508],[4.3995748,45.4455647],[4.3994957,45.4455665],[4.3994477,45.4455657],[4.3993919,45.445563],[4.39933,45.4455555],[4.3992684,45.4455405],[4.3992289,45.445525],[4.3991732,45.4455009]]}},{"type":"Feature","properties":{"way_id":846336981,"route_colors":["#009640"],"route_refs":["T3"]},"geometry":{"type":"LineString","coordinates":[[4.3991732,45.4455009],[4.3989875,45.4453947],[4.3986431,45.4451986],[4.3984044,45.4450654],[4.3979864,45.444815],[4.3979705,45.4448048],[4.3978621,45.4447304],[4.3978054,45.4446849],[4.397698,45.4445936],[4.3976159,45.4445099],[4.3974529,45.4443229]]}},{"type":"Feature","properties":{"way_id":722851110,"route_colors":["#009640"],"route_refs":["T3"]},"geometry":{"type":"LineString","coordinates":[[4.3974529,45.4443229],[4.3972158,45.444051]]}},{"type":"Feature","properties":{"way_id":722851109,"route_colors":["#009640"],"route_refs":["T3"]},"geometry":{"type":"LineString","coordinates":[[4.3972158,45.444051],[4.3971596,45.443985],[4.3971018,45.4439044],[4.3970666,45.4438305],[4.3970365,45.4437572],[4.3970188,45.4436781],[4.3970126,45.4436148],[4.3970172,45.4435294],[4.3970307,45.4434615],[4.3970715,45.4433723],[4.3971041,45.4433146],[4.3971597,45.4432498],[4.3972053,45.4431998],[4.3972087,45.4431964],[4.3972665,45.4431535],[4.3973529,45.4430967],[4.3974249,45.4430566],[4.3975504,45.443004],[4.3976006,45.4429868],[4.3977223,45.4429548],[4.3977822,45.4429408],[4.397851,45.4429291],[4.3979752,45.4429094],[4.3981024,45.4429006],[4.3981551,45.4429008],[4.398217,45.4429031],[4.3982875,45.4429103],[4.3983457,45.4429176],[4.3983659,45.4429211],[4.3984465,45.4429342],[4.3985706,45.4429615],[4.398693,45.4429849],[4.3987686,45.4429993],[4.398835,45.4430085],[4.3988945,45.4430128],[4.3989667,45.4430106],[4.3991485,45.4429856]]}},{"type":"Feature","properties":{"way_id":747393479,"route_colors":["#009640"],"route_refs":["T3"]},"geometry":{"type":"LineString","coordinates":[[4.3991485,45.4429856],[4.3992609,45.4429701],[4.3995773,45.4429145],[4.3999627,45.4428469]]}},{"type":"Feature","properties":{"way_id":50238271,"route_colors":["#009640","#02509e"],"route_refs":["T3","T2"]},"geometry":{"type":"LineString","coordinates":[[4.3999627,45.4428469],[4.4003639,45.4427778],[4.4025667,45.4423947],[4.40261,45.4423873],[4.4029618,45.4423288],[4.4030673,45.4423006],[4.4031572,45.4422655],[4.4032186,45.4422263],[4.4032783,45.442169],[4.4033195,45.4421042],[4.4033452,45.4420368],[4.4033488,45.4419617],[4.4033282,45.4418883],[4.4032872,45.4418236],[4.4032283,45.4417614],[4.4031518,45.4417086],[4.4030071,45.4416497],[4.4018864,45.44135],[4.4018718,45.4413461],[4.4011632,45.4411579],[4.4007446,45.4410457],[4.3996422,45.4407497],[4.3987131,45.4405056],[4.3977915,45.4402656],[4.3975276,45.4401965],[4.3974429,45.4401743],[4.397356,45.4401464],[4.3972844,45.4401234],[4.3969309,45.4399759],[4.3966853,45.4398633],[4.3965795,45.4398148],[4.3965399,45.4397968],[4.3965132,45.4397847],[4.3962848,45.4396833],[4.3962195,45.4396547],[4.3960264,45.4395686],[4.3955663,45.439355],[4.3954155,45.4392717],[4.3952541,45.4391819],[4.3950911,45.4390778],[4.3948874,45.4389344],[4.3948117,45.4388764],[4.394798,45.4388659],[4.3947426,45.438823],[4.3943934,45.438553],[4.3937971,45.4380973],[4.3937577,45.4380672],[4.3934233,45.4378121],[4.393124,45.4375877],[4.3929723,45.4374779],[4.392933,45.4374545],[4.3929227,45.4374484],[4.3928696,45.4374218],[4.3928112,45.4373998],[4.3927422,45.4373842],[4.3926605,45.4373716],[4.3922348,45.4373248],[4.3921745,45.4373183],[4.3916279,45.4372556],[4.3914846,45.4372394],[4.3907625,45.4371575],[4.3905901,45.4371372],[4.3903336,45.4371092],[4.3900116,45.4370729],[4.389303,45.4369959],[4.3892143,45.4369836],[4.3891883,45.4369798],[4.3891633,45.4369765],[4.3891086,45.4369651],[4.3890603,45.4369516],[4.3890144,45.436935],[4.3889583,45.4369118],[4.3889291,45.4368974],[4.3888712,45.4368688],[4.388688,45.436777],[4.3883936,45.4366259]]}},{"type":"Feature","properties":{"way_id":54589385,"route_colors":["#009640"],"route_refs":["T3"]},"geometry":{"type":"LineString","coordinates":[[4.3883936,45.4366259],[4.3882353,45.4365446],[4.3880857,45.4364704],[4.3879689,45.436407],[4.3879474,45.436392],[4.387928,45.4363765],[4.3879063,45.4363565],[4.387901,45.4363509],[4.387885,45.436333],[4.3878207,45.4362451],[4.3877511,45.436114]]}},{"type":"Feature","properties":{"way_id":1298120849,"route_colors":["#009640","#e30613"],"route_refs":["T3","T1"]},"geometry":{"type":"LineString","coordinates":[[4.3877511,45.436114],[4.387664,45.4358818]]}},{"type":"Feature","properties":{"way_id":1298120852,"route_colors":["#009640","#e30613"],"route_refs":["T3","T1"]},"geometry":{"type":"LineString","coordinates":[[4.387664,45.4358818],[4.3876475,45.4358378],[4.3876136,45.4357534]]}},{"type":"Feature","properties":{"way_id":1298120848,"route_colors":["#009640","#e30613"],"route_refs":["T3","T1"]},"geometry":{"type":"LineString","coordinates":[[4.3876136,45.4357534],[4.3875568,45.4355845],[4.3875225,45.4354786],[4.3875116,45.4354127],[4.3875054,45.4353754]]}},{"type":"Feature","properties":{"way_id":1396298721,"route_colors":["#009640","#e30613"],"route_refs":["T3","T1"]},"geometry":{"type":"LineString","coordinates":[[4.3875054,45.4353754],[4.3875031,45.4352841],[4.3875034,45.4352264],[4.3875077,45.4351731],[4.387519,45.4351117],[4.3876295,45.4347344],[4.3877441,45.4343451],[4.3879623,45.4335018],[4.3881023,45.4329552],[4.3881737,45.4326886],[4.3881891,45.43263],[4.3883511,45.432011],[4.3883721,45.4319423],[4.388424,45.4317353],[4.3884405,45.4316769],[4.3884536,45.4316308],[4.3884883,45.4315611],[4.3885301,45.4314843],[4.388575,45.4314271],[4.388631,45.4313619],[4.3886541,45.4313208],[4.3887083,45.4312355],[4.3887431,45.4311702],[4.3888792,45.4308593],[4.3889065,45.4307954],[4.3889158,45.4307738],[4.38894,45.4307253],[4.3889677,45.4306671],[4.3890197,45.4305989],[4.3890675,45.4305482],[4.3891193,45.4305071],[4.3891762,45.4304685],[4.3892481,45.4304322],[4.3893337,45.4303983],[4.38947,45.4303599],[4.389554,45.430334],[4.3896161,45.4303067],[4.3896738,45.4302626]]}},{"type":"Feature","properties":{"way_id":1396298720,"route_colors":["#009640","#e30613"],"route_refs":["T3","T1"]},"geometry":{"type":"LineString","coordinates":[[4.3896738,45.4302626],[4.3897074,45.4302188],[4.3897139,45.4301979],[4.3897217,45.4301767],[4.3898531,45.4297436],[4.3899118,45.4295371],[4.3900261,45.4291443]]}},{"type":"Feature","properties":{"way_id":46347859,"route_colors":["#009640","#e30613"],"route_refs":["T3","T1"]},"geometry":{"type":"LineString","coordinates":[[4.3900261,45.4291443],[4.3901989,45.4285497],[4.3903116,45.428141],[4.390511,45.4274239],[4.3905295,45.4273684],[4.3905418,45.4273316],[4.3905782,45.4272402],[4.3906412,45.4270998],[4.3906912,45.4269637],[4.3907234,45.4268604],[4.3907593,45.4267289],[4.3908159,45.4265214],[4.3908288,45.426474],[4.390839,45.426438],[4.3909416,45.4260759],[4.3909869,45.4259213],[4.3910663,45.4256361],[4.3911131,45.4254711],[4.3912879,45.4248574],[4.391445,45.4243056],[4.3914691,45.4242212],[4.3914945,45.4241333],[4.3916973,45.4234333],[4.3917231,45.4233442],[4.3917473,45.4232551],[4.3918129,45.4230171],[4.3918902,45.4227286],[4.3919246,45.4226022],[4.3922645,45.421403],[4.3925406,45.4204292],[4.3926681,45.4199795],[4.3927418,45.4197148],[4.392819,45.4194377],[4.3930117,45.4187691],[4.3931989,45.4181171],[4.3932371,45.4179935],[4.3932696,45.4178752],[4.393404,45.417393],[4.3934669,45.4171718],[4.3935554,45.4168717],[4.3935913,45.4167044],[4.3935977,45.4166647],[4.3935993,45.4166187],[4.3935984,45.4165805],[4.3935919,45.4165336],[4.3935724,45.4164603],[4.3935402,45.4163664],[4.3934372,45.4161347]]}},{"type":"Feature","properties":{"way_id":1362952394,"route_colors":["#009640","#e30613"],"route_refs":["T3","T1"]},"geometry":{"type":"LineString","coordinates":[[4.3934372,45.4161347],[4.3933338,45.4159023],[4.3932884,45.4158003]]}},{"type":"Feature","properties":{"way_id":864189887,"route_colors":["#009640"],"route_refs":["T3"]},"geometry":{"type":"LineString","coordinates":[[4.3935756,45.4152102],[4.3941383,45.4153009],[4.3941392,45.4152986],[4.3941429,45.4152892],[4.3935812,45.4151921],[4.3935764,45.4152077],[4.3935756,45.4152102]]}},{"type":"Feature","properties":{"way_id":864189884,"route_colors":["#009640","#e30613"],"route_refs":["T3","T1"]},"geometry":{"type":"LineString","coordinates":[[4.3928468,45.4196177],[4.3929292,45.4193141]]}},{"type":"Feature","properties":{"way_id":864189882,"route_colors":["#009640","#e30613"],"route_refs":["T3","T1"]},"geometry":{"type":"LineString","coordinates":[[4.3919212,45.4228463],[4.391823,45.4231872]]}},{"type":"Feature","properties":{"way_id":864189880,"route_colors":["#009640","#e30613"],"route_refs":["T3","T1"]},"geometry":{"type":"LineString","coordinates":[[4.3907813,45.4268712],[4.390858,45.4265878]]}},{"type":"Feature","properties":{"way_id":864136732,"route_colors":["#009640","#e30613"],"route_refs":["T3","T1"]},"geometry":{"type":"LineString","coordinates":[[4.3896164,45.4307952],[4.3897054,45.4304857]]}},{"type":"Feature","properties":{"way_id":864136731,"route_colors":["#009640","#e30613"],"route_refs":["T3","T1"]},"geometry":{"type":"LineString","coordinates":[[4.3886183,45.4342948],[4.3887071,45.4339769]]}},{"type":"Feature","properties":{"way_id":864134078,"route_colors":["#009640","#e30613"],"route_refs":["T3","T1"]},"geometry":{"type":"LineString","coordinates":[[4.3881811,45.435818],[4.3882506,45.4355849]]}},{"type":"Feature","properties":{"way_id":864198990,"route_colors":["#009640","#02509e"],"route_refs":["T3","T2"]},"geometry":{"type":"LineString","coordinates":[[4.390146,45.437046],[4.3901492,45.437032],[4.3901522,45.4370183],[4.3905765,45.4370652],[4.3905734,45.437079],[4.3905703,45.4370929],[4.390146,45.437046]]}},{"type":"Feature","properties":{"way_id":864198992,"route_colors":["#009640","#02509e"],"route_refs":["T3","T2"]},"geometry":{"type":"LineString","coordinates":[[4.3930492,45.437463],[4.3934066,45.43773]]}},{"type":"Feature","properties":{"way_id":864198994,"route_colors":["#009640","#02509e"],"route_refs":["T3","T2"]},"geometry":{"type":"LineString","coordinates":[[4.3961154,45.4395416],[4.3964031,45.4396657]]}},{"type":"Feature","properties":{"way_id":864198996,"route_colors":["#009640","#02509e"],"route_refs":["T3","T2"]},"geometry":{"type":"LineString","coordinates":[[4.4014407,45.4411795],[4.4008909,45.4410305]]}},{"type":"Feature","properties":{"way_id":848840424,"route_colors":["#009640","#02509e"],"route_refs":["T3","T2"]},"geometry":{"type":"LineString","coordinates":[[4.4001533,45.4428707],[4.3999608,45.4429032],[4.3997343,45.4429415]]}},{"type":"Feature","properties":{"way_id":847465227,"route_colors":["#009640"],"route_refs":["T3"]},"geometry":{"type":"LineString","coordinates":[[4.4000061,45.4454944],[4.4005605,45.4454623]]}},{"type":"Feature","properties":{"way_id":847465223,"route_colors":["#009640"],"route_refs":["T3"]},"geometry":{"type":"LineString","coordinates":[[4.4050798,45.4466249],[4.4045753,45.4464492]]}},{"type":"Feature","properties":{"way_id":847465220,"route_colors":["#009640"],"route_refs":["T3"]},"geometry":{"type":"LineString","coordinates":[[4.4021636,45.4501533],[4.4024146,45.4498562]]}},{"type":"Feature","properties":{"way_id":1469242620,"route_colors":["#009640"],"route_refs":["T3"]},"geometry":{"type":"LineString","coordinates":[[4.399493,45.4522909],[4.3998346,45.4520652]]}},{"type":"Feature","properties":{"way_id":847465218,"route_colors":["#009640"],"route_refs":["T3"]},"geometry":{"type":"LineString","coordinates":[[4.3944758,45.4547478],[4.3944973,45.4544193]]}},{"type":"Feature","properties":{"way_id":847465216,"route_colors":["#009640"],"route_refs":["T3"]},"geometry":{"type":"LineString","coordinates":[[4.3953983,45.4591056],[4.3954306,45.4591321],[4.3951042,45.4593284],[4.3950719,45.4593019],[4.3953983,45.4591056]]}},{"type":"Feature","properties":{"way_id":847465214,"route_colors":["#009640"],"route_refs":["T3"]},"geometry":{"type":"LineString","coordinates":[[4.3891536,45.4592751],[4.3896605,45.4592015]]}},{"type":"Feature","properties":{"way_id":864100827,"route_colors":["#009640","#e30613"],"route_refs":["T3","T1"]},"geometry":{"type":"LineString","coordinates":[[4.3815756,45.459439],[4.3814878,45.4597507]]}},{"type":"Feature","properties":{"way_id":864100829,"route_colors":["#009640","#e30613"],"route_refs":["T3","T1"]},"geometry":{"type":"LineString","coordinates":[[4.3804826,45.4630776],[4.3806145,45.462789]]}},{"type":"Feature","properties":{"way_id":864100833,"route_colors":["#009640"],"route_refs":["T3"]},"geometry":{"type":"LineString","coordinates":[[4.3790393,45.4658757],[4.3787302,45.4655861]]}},{"type":"Feature","properties":{"way_id":152302471,"route_colors":["#009640"],"route_refs":["T3"]},"geometry":{"type":"LineString","coordinates":[[4.3939292,45.4152834],[4.3941552,45.4153237],[4.3941812,45.4153282],[4.3942123,45.4153375],[4.3942438,45.4153521],[4.3942635,45.4153637],[4.3942844,45.4153787],[4.394297,45.4153889],[4.3943208,45.4154111],[4.394338,45.4154355],[4.3943551,45.4154566],[4.3943711,45.4154978],[4.3943765,45.4155234],[4.3943771,45.415554],[4.3943709,45.4155822],[4.394358,45.4156082],[4.3943377,45.4156424],[4.3942805,45.415711],[4.3941815,45.4158296],[4.3938695,45.4162036],[4.3938258,45.4162561]]}},{"type":"Feature","properties":{"way_id":1080589457,"route_colors":["#009640"],"route_refs":["T3"]},"geometry":{"type":"LineString","coordinates":[[4.3938258,45.4162561],[4.3937541,45.4163472],[4.3937394,45.4163659]]}},{"type":"Feature","properties":{"way_id":1080589456,"route_colors":["#009640"],"route_refs":["T3"]},"geometry":{"type":"LineString","coordinates":[[4.3937394,45.4163659],[4.3937131,45.4164434],[4.3936886,45.4165205],[4.3936371,45.416706]]}},{"type":"Feature","properties":{"way_id":53187072,"route_colors":["#009640","#e30613"],"route_refs":["T3","T1"]},"geometry":{"type":"LineString","coordinates":[[4.3936371,45.416706],[4.393585,45.4168768]]}},{"type":"Feature","properties":{"way_id":46347860,"route_colors":["#009640","#e30613"],"route_refs":["T3","T1"]},"geometry":{"type":"LineString","coordinates":[[4.393585,45.4168768],[4.3934998,45.4171763],[4.393437,45.4173977]]}},{"type":"Feature","properties":{"way_id":50238278,"route_colors":["#009640","#e30613"],"route_refs":["T3","T1"]},"geometry":{"type":"LineString","coordinates":[[4.393437,45.4173977],[4.3933037,45.4178807],[4.393272,45.4179967],[4.393233,45.4181226],[4.3930512,45.4187751],[4.3928752,45.4194474],[4.392795,45.4197227],[4.3927182,45.4199861],[4.3925809,45.4204346],[4.3923037,45.4214088],[4.3919648,45.4226],[4.3919264,45.4227339],[4.3918461,45.4230212],[4.3917758,45.4232592],[4.3917516,45.4233454],[4.3917254,45.4234372],[4.3915297,45.4241386],[4.3915053,45.4242259],[4.3914811,45.4243106],[4.3913232,45.4248625],[4.3911477,45.4254758],[4.3910999,45.4256409],[4.3910168,45.425925],[4.3909714,45.4260802],[4.3908764,45.4264425],[4.3908668,45.4264791],[4.3908539,45.4265259],[4.3907953,45.4267329],[4.3907607,45.426865],[4.3907289,45.4269702],[4.3906831,45.4271072],[4.3906213,45.4272489],[4.3905841,45.4273372],[4.3905712,45.4273742],[4.3905532,45.4274265],[4.3903512,45.4281466],[4.3902321,45.4285621],[4.3898928,45.4297507],[4.3897619,45.4302034],[4.3897517,45.4302387],[4.3897089,45.4303454],[4.3896826,45.4304145],[4.3896654,45.4304596],[4.3895906,45.4307179],[4.3895487,45.4308679],[4.3894566,45.4311871],[4.3893605,45.4315337],[4.3892854,45.4317839],[4.3892124,45.4320606],[4.3890131,45.4327608],[4.3888661,45.4332648],[4.3888527,45.4333109],[4.3888428,45.4333472],[4.3886672,45.4339752],[4.3886243,45.4341367],[4.3885555,45.4344036],[4.3884499,45.4347412],[4.3883307,45.4351869],[4.3883206,45.4352219],[4.3881829,45.4357027],[4.3881226,45.4359006],[4.3881095,45.4359413]]}},{"type":"Feature","properties":{"way_id":46155739,"route_colors":["#009640"],"route_refs":["T3"]},"geometry":{"type":"LineString","coordinates":[[4.3881095,45.4359413],[4.3880988,45.4360552],[4.3880955,45.4360908],[4.3880922,45.4361641],[4.38809,45.4362314],[4.3880857,45.4362943],[4.3880917,45.436327],[4.3881068,45.4363765],[4.3881359,45.4364198],[4.3881678,45.4364598],[4.3882173,45.4364995],[4.388253,45.4365211],[4.3882785,45.4365329],[4.3883651,45.4365791],[4.3884862,45.4366399]]}},{"type":"Feature","properties":{"way_id":50238284,"route_colors":["#009640","#02509e"],"route_refs":["T3","T2"]},"geometry":{"type":"LineString","coordinates":[[4.3884862,45.4366399],[4.3886318,45.4367134],[4.3888902,45.4368445],[4.388952,45.436875],[4.3889784,45.436888],[4.3890855,45.4369251],[4.3891683,45.4369451],[4.3891792,45.4369481],[4.3892223,45.4369568],[4.38931,45.4369664],[4.3900179,45.4370445],[4.3904123,45.4370881],[4.3905973,45.4371085],[4.3908046,45.4371318],[4.3914907,45.4372109],[4.3916619,45.4372307],[4.3921804,45.4372889],[4.3922551,45.4372969],[4.3926686,45.4373427],[4.39275,45.4373554],[4.3927594,45.4373569],[4.3928407,45.437376],[4.3928997,45.4373977],[4.3929504,45.4374234],[4.3929642,45.4374321],[4.3929837,45.4374445],[4.3930137,45.437466],[4.3931267,45.4375439],[4.3932056,45.4376024],[4.3934536,45.437792],[4.3937889,45.4380512],[4.3938253,45.4380791],[4.3944234,45.4385362],[4.3947711,45.4388051],[4.394829,45.4388499],[4.3948405,45.4388591],[4.3949178,45.4389171],[4.3949915,45.4389716],[4.3951234,45.4390585],[4.395278,45.4391593],[4.3954394,45.4392517],[4.3955885,45.4393309],[4.3960733,45.4395578],[4.3963302,45.4396716],[4.3965535,45.4397694],[4.3965939,45.4397867],[4.3967077,45.4398386],[4.3969513,45.4399496],[4.3973037,45.4400994],[4.3973711,45.4401208],[4.3974599,45.440149],[4.3975403,45.4401704],[4.397815,45.4402457]]}},{"type":"Feature","properties":{"way_id":209495995,"route_colors":["#009640","#02509e"],"route_refs":["T3","T2"]},"geometry":{"type":"LineString","coordinates":[[4.397815,45.4402457],[4.3987254,45.4404816],[4.3996614,45.4407255],[4.4007587,45.4410177],[4.4011063,45.4411113],[4.4012967,45.4411632],[4.4018772,45.4413189],[4.4018909,45.4413225],[4.4030241,45.441625],[4.4030761,45.4416412],[4.4031843,45.4416844],[4.4032727,45.4417461],[4.403337,45.4418154],[4.4033755,45.4418853],[4.4033976,45.441959],[4.4033917,45.4420432],[4.4033661,45.4421133],[4.4033173,45.4421838],[4.4032552,45.4422411],[4.4031838,45.4422885],[4.4030915,45.4423291],[4.4029668,45.4423612],[4.402617,45.4424174],[4.4025758,45.4424245],[4.4003744,45.4428084],[4.3999731,45.4428755]]}},{"type":"Feature","properties":{"way_id":747393484,"route_colors":["#009640"],"route_refs":["T3"]},"geometry":{"type":"LineString","coordinates":[[4.3999731,45.4428755],[4.3995864,45.4429427],[4.3992734,45.4429971],[4.3990844,45.4430336]]}},{"type":"Feature","properties":{"way_id":709713063,"route_colors":["#009640"],"route_refs":["T3"]},"geometry":{"type":"LineString","coordinates":[[4.3990844,45.4430336],[4.3989782,45.443045],[4.3989046,45.4430455],[4.3988383,45.4430393],[4.398767,45.443031],[4.398702,45.4430206],[4.3986078,45.4430013],[4.3985779,45.4429952],[4.3983589,45.4429486],[4.3982737,45.4429381],[4.3982495,45.442935],[4.3981132,45.4429333],[4.3979881,45.4429407],[4.3978769,45.4429537],[4.3977311,45.4429818],[4.3977261,45.4429828],[4.3975951,45.4430217],[4.3975159,45.4430559],[4.397457,45.4430813],[4.3973839,45.4431197],[4.3973232,45.4431608],[4.3972693,45.4432016],[4.3972506,45.4432167],[4.3971725,45.4432983]]}},{"type":"Feature","properties":{"way_id":722851108,"route_colors":["#009640"],"route_refs":["T3"]},"geometry":{"type":"LineString","coordinates":[[4.3971725,45.4432983],[4.3971146,45.4433853],[4.3970775,45.4434646],[4.3970565,45.4435635],[4.3970561,45.4436511],[4.397081,45.4437596],[4.3971356,45.4438644],[4.3971877,45.4439365],[4.3972595,45.4440291]]}},{"type":"Feature","properties":{"way_id":722851111,"route_colors":["#009640"],"route_refs":["T3"]},"geometry":{"type":"LineString","coordinates":[[4.3972595,45.4440291],[4.3974917,45.4443107]]}},{"type":"Feature","properties":{"way_id":722851112,"route_colors":["#009640"],"route_refs":["T3"]},"geometry":{"type":"LineString","coordinates":[[4.3974917,45.4443107],[4.3977055,45.4445473],[4.397795,45.4446263],[4.3978791,45.4446953],[4.3979756,45.444767],[4.3980129,45.4447953],[4.3980711,45.4448335],[4.398364,45.4450084],[4.3986767,45.4451835],[4.3990923,45.4454319],[4.3991678,45.4454716],[4.3992174,45.4454911],[4.3992801,45.4455148],[4.3993362,45.4455256],[4.3993869,45.4455341],[4.3994334,45.4455367],[4.399494,45.4455365],[4.3995828,45.4455338],[4.3997641,45.4455239],[4.4001597,45.4455035],[4.4006616,45.4454742],[4.4007196,45.4454711],[4.400811,45.4454594],[4.400918,45.4454326],[4.4010091,45.4454038],[4.4011235,45.4453642],[4.4012712,45.4453167],[4.4013807,45.4452835],[4.4014439,45.4452711],[4.4016351,45.4452505],[4.4022508,45.4451907],[4.4024322,45.4451827],[4.4025615,45.4451973],[4.4026356,45.44521],[4.4027076,45.4452294],[4.4028063,45.4452728],[4.4028336,45.4452876],[4.402867,45.4453076],[4.4029018,45.4453285],[4.4029114,45.4453343],[4.4030101,45.4454092],[4.4042604,45.4463314],[4.4043225,45.4463668],[4.4043418,45.4463777],[4.404394,45.4464016],[4.4044672,45.4464299],[4.4045394,45.4464546],[4.404571,45.4464653],[4.4048632,45.4465682],[4.4050939,45.446647],[4.4051238,45.4466573],[4.4052707,45.4467103],[4.4053151,45.4467345],[4.4053542,45.446766],[4.4053861,45.4468086],[4.4053995,45.4468337],[4.4054208,45.4468888],[4.4054289,45.4469141],[4.4054312,45.4469388],[4.4054265,45.4469733],[4.4054158,45.4470077],[4.4053926,45.4470438],[4.4053693,45.4470674],[4.4053428,45.4470969],[4.4052674,45.4471573],[4.4041424,45.4480138],[4.4039818,45.4481336],[4.4038024,45.4482766],[4.4035633,45.4485036],[4.4034027,45.4486716],[4.4032539,45.4488339],[4.4030356,45.4490952],[4.4027092,45.4494859],[4.4027004,45.4494964]]}},{"type":"Feature","properties":{"way_id":722855077,"route_colors":["#009640"],"route_refs":["T3"]},"geometry":{"type":"LineString","coordinates":[[4.4027004,45.4494964],[4.4026111,45.4496007],[4.4025909,45.4496243],[4.4025066,45.4497181],[4.4022892,45.4499771],[4.4021846,45.4500978],[4.4019585,45.450369],[4.4018267,45.4505271],[4.401624,45.4507501],[4.4015146,45.4508525],[4.4014181,45.450941],[4.4012864,45.4510555],[4.4010634,45.4512291],[4.4009987,45.4512717],[4.4008178,45.4513971],[4.4001958,45.451807],[4.3996477,45.452168],[4.3989222,45.4526457],[4.3988486,45.4527044],[4.3988214,45.4527323],[4.3988133,45.4527431],[4.3988104,45.452747],[4.3987974,45.4527641],[4.398777,45.4527902],[4.398752,45.4528437],[4.3987426,45.4528587],[4.3987346,45.4528861],[4.3987196,45.4529367],[4.3987128,45.4530012],[4.3987177,45.4530723],[4.398747,45.4532609],[4.3987476,45.4533237],[4.3987429,45.4533923],[4.3987274,45.4534469],[4.3987161,45.4534859],[4.3986944,45.4535255],[4.3986744,45.4535545],[4.3986483,45.4535899],[4.3986052,45.4536325],[4.3985348,45.4536893],[4.3984218,45.4537574],[4.3983297,45.4538022],[4.3981732,45.4538722],[4.3980601,45.4539247],[4.3978586,45.4540164],[4.3977307,45.4540665],[4.3976326,45.454102],[4.3975463,45.4541309],[4.3974193,45.4541637],[4.3972683,45.4541872],[4.3971329,45.4542029],[4.3969908,45.4542091],[4.3968312,45.4542063],[4.3965162,45.4541909],[4.3948508,45.4541176],[4.3947603,45.4541191],[4.3946935,45.454131],[4.3946386,45.4541503],[4.3946029,45.4541704],[4.3945953,45.4541747],[4.3945605,45.4541928],[4.3945351,45.4542141],[4.3945167,45.454237],[4.3945028,45.4542584],[4.3944911,45.4542807],[4.3944789,45.4543235],[4.394462,45.4545697],[4.3944501,45.4549195],[4.3944573,45.4549504],[4.3944609,45.4549658],[4.394464,45.4549722],[4.3944733,45.4549912],[4.3944973,45.4550324],[4.3945222,45.4550644],[4.3945284,45.4550698],[4.394569,45.455105],[4.3948281,45.4553199],[4.3951012,45.4555466],[4.3951951,45.4556246],[4.3952754,45.4556899],[4.3954969,45.4558702],[4.3958936,45.4561931],[4.3961048,45.456365],[4.3972622,45.4573246],[4.39731,45.4573817],[4.3973317,45.4574252],[4.3973397,45.4574856],[4.3973361,45.4575175],[4.3973249,45.457566],[4.3972727,45.4576363],[4.3970762,45.4578501],[4.3968548,45.4580833],[4.3967016,45.4582399],[4.3966428,45.4582976],[4.3965697,45.4583649],[4.3964641,45.4584429],[4.3964301,45.4584634],[4.3955944,45.4589679],[4.3953586,45.4591139],[4.3952253,45.4591982],[4.3944162,45.4596922],[4.3943312,45.4597444],[4.3942194,45.459815],[4.3941466,45.459854],[4.3940667,45.4598819],[4.394007,45.4598964],[4.3939747,45.4599028],[4.3939562,45.4599036],[4.3939017,45.4599058],[4.3938154,45.4599037],[4.3937255,45.459885],[4.3936528,45.4598625],[4.3935911,45.4598286],[4.3932802,45.4595823],[4.3929932,45.4593516],[4.3929017,45.4592779],[4.3927489,45.4591563],[4.3926125,45.4590478],[4.3923746,45.4588566],[4.3922528,45.4587768],[4.3921191,45.4587074],[4.3919917,45.4586561],[4.3918682,45.4586232],[4.3917305,45.4585936],[4.3915425,45.4585738],[4.3913802,45.4585749],[4.3912427,45.4585849],[4.391203,45.4585904],[4.3911178,45.4586023],[4.3909428,45.4586466],[4.3908084,45.4587005],[4.3907792,45.4587122],[4.3907213,45.4587366],[4.3906333,45.4587877],[4.3905145,45.4588632],[4.3903123,45.4589825],[4.3902838,45.4589993],[4.3901548,45.4590716],[4.3900616,45.4591113],[4.3899822,45.4591351],[4.3898781,45.4591527],[4.3893716,45.4592264],[4.3888844,45.4593051],[4.38881,45.4593168],[4.3887427,45.4593268],[4.3881978,45.4594185],[4.3873577,45.4595474],[4.3865106,45.4596846],[4.3864282,45.4596951],[4.3863548,45.4597007],[4.3862644,45.4597025]]}},{"type":"Feature","properties":{"way_id":973497641,"route_colors":["#009640"],"route_refs":["T3"]},"geometry":{"type":"LineString","coordinates":[[4.3862644,45.4597025],[4.3861858,45.4596968],[4.3861394,45.4596908],[4.3856364,45.4596209]]}},{"type":"Feature","properties":{"way_id":722855081,"route_colors":["#009640"],"route_refs":["T3"]},"geometry":{"type":"LineString","coordinates":[[4.3856364,45.4596209],[4.3853921,45.4595832]]}},{"type":"Feature","properties":{"way_id":973497642,"route_colors":["#009640"],"route_refs":["T3"]},"geometry":{"type":"LineString","coordinates":[[4.3853921,45.4595832],[4.3853578,45.4595784],[4.3845359,45.4594618],[4.3844462,45.459449],[4.3844108,45.4594439]]}},{"type":"Feature","properties":{"way_id":722855078,"route_colors":["#009640"],"route_refs":["T3"]},"geometry":{"type":"LineString","coordinates":[[4.3844108,45.4594439],[4.3835396,45.4593194],[4.3834815,45.4593113],[4.3827694,45.4592119],[4.3825675,45.4591801],[4.3824795,45.4591662],[4.3821319,45.4591186],[4.3820657,45.4591127],[4.3819877,45.4591116],[4.3819307,45.4591156],[4.3818353,45.4591317],[4.3817785,45.4591585],[4.381723,45.4591859],[4.3816968,45.4592038],[4.3816714,45.4592215],[4.3816414,45.4592477],[4.3815984,45.4592961]]}},{"type":"Feature","properties":{"way_id":747393483,"route_colors":["#009640","#e30613"],"route_refs":["T3","T1"]},"geometry":{"type":"LineString","coordinates":[[4.3815984,45.4592961],[4.3815109,45.4595973],[4.3809332,45.4616079],[4.3806363,45.4626394],[4.3805097,45.4629388],[4.3804001,45.4631766],[4.3803672,45.4632646],[4.3803363,45.4633676],[4.3802734,45.4636069],[4.3801513,45.4640262],[4.3801267,45.4640942],[4.3801052,45.4641402],[4.3800817,45.4641823],[4.3800263,45.4642627],[4.3799575,45.4643354],[4.3797988,45.4644603],[4.3788395,45.4649553]]}},{"type":"Feature","properties":{"way_id":1361985573,"route_colors":["#009640","#e30613"],"route_refs":["T3","T1"]},"geometry":{"type":"LineString","coordinates":[[4.3788395,45.4649553],[4.3787636,45.4650027],[4.3787257,45.4650392]]}},{"type":"Feature","properties":{"way_id":56185820,"route_colors":["#009640","#e30613"],"route_refs":["T3","T1"]},"geometry":{"type":"LineString","coordinates":[[4.3787257,45.4650392],[4.3786876,45.4650779],[4.3786527,45.4651344],[4.3786258,45.4651889],[4.3785944,45.465263]]}},{"type":"Feature","properties":{"way_id":56185814,"route_colors":["#009640","#e30613"],"route_refs":["T3","T1"]},"geometry":{"type":"LineString","coordinates":[[4.3785944,45.465263],[4.3785645,45.4653796]]}},{"type":"Feature","properties":{"way_id":747393482,"route_colors":["#009640"],"route_refs":["T3"]},"geometry":{"type":"LineString","coordinates":[[4.3785645,45.4653796],[4.3785797,45.4654448],[4.3786069,45.4654944],[4.3786541,45.4655395],[4.3787132,45.4655949],[4.3789053,45.4657754]]}},{"type":"Feature","properties":{"way_id":864100841,"route_colors":["#009640","#e30613"],"route_refs":["T3","T1"]},"geometry":{"type":"LineString","coordinates":[[4.3645733,45.4804812],[4.3645988,45.4804689],[4.3644136,45.4802901],[4.3644005,45.4802934],[4.3643751,45.4802698],[4.3643604,45.4802561],[4.3643681,45.4802507],[4.3641649,45.4800705],[4.3641517,45.480076],[4.3641099,45.4800359],[4.3640907,45.480045],[4.3642811,45.4802237],[4.3643084,45.4802482],[4.364516,45.4804343],[4.3645733,45.4804812]]}},{"type":"Feature","properties":{"way_id":864100840,"route_colors":["#009640","#e30613"],"route_refs":["T3","T1"]},"geometry":{"type":"LineString","coordinates":[[4.3644016,45.4771417],[4.3644934,45.476866]]}},{"type":"Feature","properties":{"way_id":864100842,"route_colors":["#009640","#e30613"],"route_refs":["T3","T1"]},"geometry":{"type":"LineString","coordinates":[[4.3672666,45.4744942],[4.3669233,45.4747531]]}},{"type":"Feature","properties":{"way_id":864100838,"route_colors":["#009640","#e30613"],"route_refs":["T3","T1"]},"geometry":{"type":"LineString","coordinates":[[4.3698469,45.4730046],[4.3702614,45.4727802]]}},{"type":"Feature","properties":{"way_id":864100836,"route_colors":["#009640","#e30613"],"route_refs":["T3","T1"]},"geometry":{"type":"LineString","coordinates":[[4.3738212,45.4706539],[4.3741505,45.4703766]]}},{"type":"Feature","properties":{"way_id":47291872,"route_colors":["#009640","#e30613"],"route_refs":["T3","T1"]},"geometry":{"type":"LineString","coordinates":[[4.364259,45.4802284],[4.3640494,45.4800339],[4.3640173,45.4799998],[4.3639626,45.4799418],[4.3639491,45.4799255],[4.3639109,45.4798763],[4.3638629,45.4798092],[4.3638235,45.4797303],[4.3638029,45.4796949],[4.3637832,45.4796376],[4.3637637,45.4795784],[4.3637415,45.4794717],[4.3637382,45.4794365],[4.3637393,45.4793767],[4.3637415,45.4793225],[4.3637428,45.4792899],[4.3637436,45.4792701],[4.3637504,45.479229],[4.3637618,45.4791792],[4.363784,45.4790978],[4.3644749,45.4770142],[4.3645571,45.476748],[4.3646148,45.4765753],[4.3646221,45.4765535],[4.3646462,45.4764815],[4.3646708,45.4764249],[4.3646843,45.4764014],[4.3647078,45.4763691],[4.3647332,45.4763391],[4.3647671,45.476311],[4.3648018,45.4762859],[4.3649913,45.4761698],[4.36515,45.4760879],[4.3652913,45.4759909],[4.365352,45.4759465],[4.3655121,45.4758294],[4.3666398,45.4750013],[4.3669468,45.4747723],[4.367121,45.4746423],[4.3672952,45.4745124],[4.3676551,45.4742438],[4.3678112,45.4741469],[4.36787,45.4741115],[4.3680406,45.474009],[4.3686043,45.473702],[4.3700544,45.4729206],[4.3712129,45.4722964],[4.3728161,45.4714272],[4.3731598,45.4712102],[4.3733496,45.4710696],[4.3734169,45.471016],[4.3735508,45.4709068],[4.3739257,45.4706005],[4.3740204,45.4705212],[4.3742218,45.4703526],[4.3753357,45.4694202],[4.3775806,45.4675365],[4.3776723,45.467454],[4.3777203,45.4674082],[4.3779021,45.4672351],[4.3783888,45.4667745],[4.378448,45.4666937],[4.3784731,45.4666049],[4.3784864,45.4661432]]}},{"type":"Feature","properties":{"way_id":747393481,"route_colors":["#009640","#e30613"],"route_refs":["T3","T1"]},"geometry":{"type":"LineString","coordinates":[[4.3784864,45.4661432],[4.3784921,45.4659455],[4.3784988,45.4657114]]}},{"type":"Feature","properties":{"way_id":864100831,"route_colors":["#009640","#e30613"],"route_refs":["T3","T1"]},"geometry":{"type":"LineString","coordinates":[[4.3785638,45.4658422],[4.3785675,45.4655848]]}},{"type":"Feature","properties":{"way_id":864100835,"route_colors":["#009640","#e30613"],"route_refs":["T3","T1"]},"geometry":{"type":"LineString","coordinates":[[4.3739178,45.4706973],[4.3742461,45.4704229]]}},{"type":"Feature","properties":{"way_id":864100837,"route_colors":["#009640","#e30613"],"route_refs":["T3","T1"]},"geometry":{"type":"LineString","coordinates":[[4.3699286,45.4730725],[4.3703373,45.4728506]]}},{"type":"Feature","properties":{"way_id":864100843,"route_colors":["#009640","#e30613"],"route_refs":["T3","T1"]},"geometry":{"type":"LineString","coordinates":[[4.3673595,45.4745532],[4.3670094,45.4748171]]}},{"type":"Feature","properties":{"way_id":864100839,"route_colors":["#009640","#e30613"],"route_refs":["T3","T1"]},"geometry":{"type":"LineString","coordinates":[[4.3645062,45.4771549],[4.3645947,45.4768813]]}},{"type":"Feature","properties":{"way_id":152292530,"route_colors":["#009640","#e30613"],"route_refs":["T3","T1"]},"geometry":{"type":"LineString","coordinates":[[4.3785645,45.4653796],[4.3785486,45.4655638]]}},{"type":"Feature","properties":{"way_id":56185810,"route_colors":["#009640","#e30613"],"route_refs":["T3","T1"]},"geometry":{"type":"LineString","coordinates":[[4.3785486,45.4655638],[4.3785428,45.4657367],[4.3785233,45.4661837],[4.3785229,45.4661944],[4.3785059,45.4666084],[4.3784823,45.4667038],[4.3784164,45.4667991],[4.377933,45.4672538],[4.3777514,45.467425],[4.3777076,45.4674664],[4.3776105,45.4675579],[4.3753759,45.4694374],[4.3742568,45.4703747],[4.3740619,45.4705389],[4.3739553,45.4706282],[4.3735871,45.4709311],[4.3734768,45.4710218],[4.373385,45.4710959],[4.3731876,45.4712404],[4.3728477,45.4714552],[4.3712464,45.4723282],[4.3700867,45.472948],[4.3686405,45.4737254],[4.368077,45.4740292],[4.3679026,45.4741352],[4.3678131,45.4741895],[4.367691,45.4742659],[4.3673325,45.4745361],[4.3671575,45.4746655],[4.3669834,45.4747992],[4.3666781,45.4750294],[4.3655512,45.4758561],[4.3653375,45.4760133],[4.3651863,45.4761036],[4.3650204,45.4761894],[4.3648659,45.4762843],[4.364822,45.4763124],[4.3647868,45.4763397],[4.3647578,45.4763649],[4.3647299,45.4763975],[4.3647096,45.4764364],[4.3646931,45.4764763],[4.3646773,45.4765201],[4.3646001,45.4767524],[4.3645783,45.4768192],[4.3645144,45.4770209],[4.3638238,45.4791038],[4.363814,45.4791441],[4.3637997,45.4791988],[4.3637921,45.4792388],[4.3637874,45.4792704],[4.3637866,45.4792895],[4.3637845,45.4793223],[4.3637881,45.4793865],[4.3637935,45.4794134],[4.3638004,45.4794479],[4.363818,45.4795046],[4.3638474,45.4795564],[4.3638843,45.4796122],[4.3639233,45.4796587],[4.363971,45.4797067],[4.3640193,45.4797452],[4.3640772,45.4797866],[4.3641439,45.4798237],[4.3642003,45.4798524],[4.364247,45.4798702],[4.364286,45.479885],[4.3647718,45.4800449],[4.364846,45.4800691],[4.3648792,45.4800787],[4.364987,45.4801159],[4.3650298,45.4801337],[4.365062,45.4801532],[4.3650964,45.4801793],[4.3651206,45.4802071],[4.365141,45.4802374],[4.3651532,45.4802686],[4.3651623,45.480299],[4.3651648,45.4803297],[4.3651622,45.4803597],[4.3651544,45.4803927],[4.3651439,45.4804204],[4.3651277,45.4804497],[4.3651013,45.4804779],[4.3650691,45.4805042],[4.3650306,45.4805279],[4.3649822,45.4805499],[4.3649306,45.4805657],[4.3648833,45.4805747],[4.364826,45.4805797],[4.364773,45.480577],[4.3647109,45.4805674],[4.3646654,45.4805545],[4.3646253,45.4805393],[4.3645931,45.4805233],[4.3645548,45.4804968],[4.3645152,45.4804635],[4.364291,45.480258],[4.364259,45.4802284]]}},{"type":"Feature","properties":{"way_id":864134061,"route_colors":["#e30613"],"route_refs":["T1"]},"geometry":{"type":"LineString","coordinates":[[4.3825814,45.4556203],[4.3826766,45.4552844]]}},{"type":"Feature","properties":{"way_id":864134063,"route_colors":["#e30613"],"route_refs":["T1"]},"geometry":{"type":"LineString","coordinates":[[4.3831123,45.4537864],[4.3832109,45.4534017]]}},{"type":"Feature","properties":{"way_id":864134064,"route_colors":["#e30613","#02509e"],"route_refs":["T1","T2"]},"geometry":{"type":"LineString","coordinates":[[4.3839303,45.4505406],[4.3840343,45.4501689]]}},{"type":"Feature","properties":{"way_id":864134067,"route_colors":["#e30613","#02509e"],"route_refs":["T1","T2"]},"geometry":{"type":"LineString","coordinates":[[4.3847878,45.447609],[4.3848383,45.4474374]]}},{"type":"Feature","properties":{"way_id":864134071,"route_colors":["#e30613","#02509e"],"route_refs":["T1","T2"]},"geometry":{"type":"LineString","coordinates":[[4.3856071,45.4447096],[4.3857144,45.4443408]]}},{"type":"Feature","properties":{"way_id":864134073,"route_colors":["#e30613","#02509e"],"route_refs":["T1","T2"]},"geometry":{"type":"LineString","coordinates":[[4.3864276,45.4417728],[4.3865303,45.4414128]]}},{"type":"Feature","properties":{"way_id":864134075,"route_colors":["#e30613","#02509e"],"route_refs":["T1","T2"]},"geometry":{"type":"LineString","coordinates":[[4.3872735,45.4387979],[4.3873288,45.4385888]]}},{"type":"Feature","properties":{"way_id":864134076,"route_colors":["#e30613","#02509e"],"route_refs":["T1","T2"]},"geometry":{"type":"LineString","coordinates":[[4.387696,45.437112],[4.3877725,45.4368431]]}},{"type":"Feature","properties":{"way_id":864189888,"route_colors":["#e30613"],"route_refs":["T1"]},"geometry":{"type":"LineString","coordinates":[[4.391128,45.4126791],[4.3907581,45.4123773]]}},{"type":"Feature","properties":{"way_id":864189890,"route_colors":["#e30613"],"route_refs":["T1"]},"geometry":{"type":"LineString","coordinates":[[4.3870861,45.4097055],[4.3867862,45.4095521]]}},{"type":"Feature","properties":{"way_id":864189892,"route_colors":["#e30613"],"route_refs":["T1"]},"geometry":{"type":"LineString","coordinates":[[4.3829003,45.4085657],[4.3832932,45.4084265]]}},{"type":"Feature","properties":{"way_id":51344454,"route_colors":["#e30613"],"route_refs":["T1"]},"geometry":{"type":"LineString","coordinates":[[4.3815568,45.4592848],[4.3816235,45.4590571],[4.3816399,45.4590004],[4.3822641,45.4568426],[4.3825834,45.455725],[4.3826658,45.4554418],[4.3830553,45.4540655],[4.3830903,45.4539315],[4.3831878,45.453591],[4.3834001,45.4528068],[4.3836275,45.4519986],[4.3837013,45.4517125],[4.3837213,45.4516374],[4.3837812,45.4512459],[4.3837899,45.4512091],[4.3838016,45.451159],[4.3838073,45.4511347],[4.3840256,45.4503336]]}},{"type":"Feature","properties":{"way_id":747402021,"route_colors":["#e30613","#02509e"],"route_refs":["T1","T2"]},"geometry":{"type":"LineString","coordinates":[[4.3840256,45.4503336],[4.3840755,45.4501571],[4.3843635,45.4491553],[4.3845949,45.4483407],[4.3846057,45.4483026],[4.3848295,45.4475336],[4.3849449,45.4471203],[4.3849495,45.4471039],[4.3849745,45.4470153]]}},{"type":"Feature","properties":{"way_id":1296018096,"route_colors":["#e30613","#02509e"],"route_refs":["T1","T2"]},"geometry":{"type":"LineString","coordinates":[[4.3849745,45.4470153],[4.3849974,45.446938]]}},{"type":"Feature","properties":{"way_id":1296018093,"route_colors":["#e30613","#02509e"],"route_refs":["T1","T2"]},"geometry":{"type":"LineString","coordinates":[[4.3849974,45.446938],[4.3850367,45.446798],[4.3852955,45.4459028]]}},{"type":"Feature","properties":{"way_id":271703885,"route_colors":["#e30613","#02509e"],"route_refs":["T1","T2"]},"geometry":{"type":"LineString","coordinates":[[4.3852955,45.4459028],[4.3853659,45.4456558],[4.3856859,45.4445238],[4.3857562,45.4442781],[4.3858193,45.4440489],[4.3860394,45.4432492],[4.3864161,45.4419197]]}},{"type":"Feature","properties":{"way_id":152292120,"route_colors":["#e30613","#02509e"],"route_refs":["T1","T2"]},"geometry":{"type":"LineString","coordinates":[[4.3864161,45.4419197],[4.3864217,45.4419006],[4.3864388,45.4418392],[4.3865043,45.441605],[4.3865659,45.4413848],[4.3866031,45.4412519],[4.3867464,45.4407392],[4.3867504,45.4407236]]}},{"type":"Feature","properties":{"way_id":571801460,"route_colors":["#e30613","#02509e"],"route_refs":["T1","T2"]},"geometry":{"type":"LineString","coordinates":[[4.3867504,45.4407236],[4.3867611,45.4406863],[4.3869734,45.4399464],[4.3870723,45.4396013],[4.3870889,45.4395427]]}},{"type":"Feature","properties":{"way_id":46155748,"route_colors":["#e30613","#02509e"],"route_refs":["T1","T2"]},"geometry":{"type":"LineString","coordinates":[[4.3870889,45.4395427],[4.3871163,45.439446],[4.3872181,45.4390858],[4.3873335,45.4386465],[4.3873724,45.4385011],[4.3874054,45.438377]]}},{"type":"Feature","properties":{"way_id":571801456,"route_colors":["#e30613","#02509e"],"route_refs":["T1","T2"]},"geometry":{"type":"LineString","coordinates":[[4.3874054,45.438377],[4.3874277,45.4382892],[4.3875561,45.4378116],[4.38757,45.4377566]]}},{"type":"Feature","properties":{"way_id":511438007,"route_colors":["#e30613","#02509e"],"route_refs":["T1","T2"]},"geometry":{"type":"LineString","coordinates":[[4.38757,45.4377566],[4.3876603,45.4374286],[4.3877164,45.4371601]]}},{"type":"Feature","properties":{"way_id":267046211,"route_colors":["#e30613","#02509e"],"route_refs":["T1","T2"]},"geometry":{"type":"LineString","coordinates":[[4.3877164,45.4371601],[4.3877629,45.4369984],[4.3877722,45.436967],[4.3878549,45.4366852]]}},{"type":"Feature","properties":{"way_id":46155755,"route_colors":["#e30613"],"route_refs":["T1"]},"geometry":{"type":"LineString","coordinates":[[4.3878549,45.4366852],[4.3878674,45.4366286],[4.3878728,45.4366055],[4.3878805,45.4365688],[4.3878804,45.4365269],[4.387875,45.4364776],[4.3878636,45.4364277],[4.3878437,45.4363703],[4.3878374,45.4363534],[4.3878199,45.4363047],[4.3877511,45.436114]]}},{"type":"Feature","properties":{"way_id":1459289520,"route_colors":["#e30613"],"route_refs":["T1"]},"geometry":{"type":"LineString","coordinates":[[4.3932884,45.4158003],[4.3931807,45.4155454],[4.3931734,45.4155281]]}},{"type":"Feature","properties":{"way_id":57743093,"route_colors":["#e30613"],"route_refs":["T1"]},"geometry":{"type":"LineString","coordinates":[[4.3931734,45.4155281],[4.3931632,45.4155069],[4.3930729,45.4153191],[4.3930527,45.4152812],[4.3929943,45.4151787],[4.3929463,45.4151092],[4.3929108,45.4150616]]}},{"type":"Feature","properties":{"way_id":1362952396,"route_colors":["#e30613"],"route_refs":["T1"]},"geometry":{"type":"LineString","coordinates":[[4.3929108,45.4150616],[4.3928856,45.4150287],[4.3927953,45.4149111],[4.3927799,45.4148911],[4.3927376,45.4148191],[4.3927127,45.414766],[4.3924674,45.4142084],[4.3921964,45.4135772],[4.3921197,45.4134119],[4.3920788,45.4133428],[4.3920286,45.4132737],[4.3919728,45.4132108],[4.3919076,45.4131528],[4.3917984,45.4130686],[4.3916797,45.4129918],[4.3915171,45.4129037],[4.3914042,45.4128362],[4.3913429,45.412796],[4.3912035,45.4126978],[4.3910046,45.4125344],[4.3905003,45.4121125],[4.3901303,45.411803],[4.3878866,45.410212],[4.3871934,45.4097296],[4.3869616,45.4096109],[4.386819,45.409538]]}},{"type":"Feature","properties":{"way_id":294408315,"route_colors":["#e30613"],"route_refs":["T1"]},"geometry":{"type":"LineString","coordinates":[[4.386819,45.409538],[4.3867931,45.4095277],[4.3867699,45.4095206],[4.3867463,45.4095142],[4.3867146,45.4095096],[4.3866817,45.4095059],[4.3866355,45.4095039]]}},{"type":"Feature","properties":{"way_id":57743091,"route_colors":["#e30613"],"route_refs":["T1"]},"geometry":{"type":"LineString","coordinates":[[4.3866355,45.4095039],[4.3864729,45.409507],[4.3862507,45.4095112],[4.3846472,45.4095408],[4.383671,45.4095588],[4.3836018,45.4095552],[4.3835479,45.4095487],[4.383492,45.4095396],[4.3834412,45.4095278],[4.3833812,45.4095061]]}},{"type":"Feature","properties":{"way_id":1080459729,"route_colors":["#e30613"],"route_refs":["T1"]},"geometry":{"type":"LineString","coordinates":[[4.3833812,45.4095061],[4.3832423,45.409437],[4.3831026,45.4093615],[4.3829676,45.4092859],[4.3828457,45.4092145],[4.3827153,45.4091323],[4.3826161,45.4090639]]}},{"type":"Feature","properties":{"way_id":1080459727,"route_colors":["#e30613"],"route_refs":["T1"]},"geometry":{"type":"LineString","coordinates":[[4.3826161,45.4090639],[4.3825825,45.4090303],[4.3825658,45.4090084],[4.382541,45.408962],[4.3825322,45.4089275],[4.3825281,45.4088889],[4.3825333,45.4088486],[4.3825458,45.4088159],[4.3825648,45.4087823],[4.3825867,45.4087522],[4.3826102,45.4087304],[4.382647,45.4087044],[4.3826912,45.4086751],[4.3827424,45.4086494],[4.3827972,45.4086272]]}},{"type":"Feature","properties":{"way_id":294408316,"route_colors":["#e30613"],"route_refs":["T1"]},"geometry":{"type":"LineString","coordinates":[[4.3827972,45.4086272],[4.3831087,45.4085102]]}},{"type":"Feature","properties":{"way_id":864189891,"route_colors":["#e30613"],"route_refs":["T1"]},"geometry":{"type":"LineString","coordinates":[[4.3871967,45.4096534],[4.3868711,45.4094807]]}},{"type":"Feature","properties":{"way_id":864189889,"route_colors":["#e30613"],"route_refs":["T1"]},"geometry":{"type":"LineString","coordinates":[[4.3908466,45.4123189],[4.3912182,45.4126319]]}},{"type":"Feature","properties":{"way_id":864189886,"route_colors":["#e30613"],"route_refs":["T1"]},"geometry":{"type":"LineString","coordinates":[[4.393421,45.4158687],[4.3932733,45.4155291],[4.393261,45.4155314],[4.3932456,45.4155343],[4.3933936,45.4158752],[4.393421,45.4158687]]}},{"type":"Feature","properties":{"way_id":864134074,"route_colors":["#e30613","#02509e"],"route_refs":["T1","T2"]},"geometry":{"type":"LineString","coordinates":[[4.3873684,45.4388096],[4.387429,45.4385996]]}},{"type":"Feature","properties":{"way_id":864134072,"route_colors":["#e30613","#02509e"],"route_refs":["T1","T2"]},"geometry":{"type":"LineString","coordinates":[[4.3865171,45.4417846],[4.3866178,45.441423]]}},{"type":"Feature","properties":{"way_id":864134070,"route_colors":["#e30613","#02509e"],"route_refs":["T1","T2"]},"geometry":{"type":"LineString","coordinates":[[4.3858062,45.4443535],[4.3857057,45.4447214]]}},{"type":"Feature","properties":{"way_id":864134066,"route_colors":["#e30613","#02509e"],"route_refs":["T1","T2"]},"geometry":{"type":"LineString","coordinates":[[4.3849234,45.4474443],[4.3848538,45.4476753]]}},{"type":"Feature","properties":{"way_id":864134065,"route_colors":["#e30613","#02509e"],"route_refs":["T1","T2"]},"geometry":{"type":"LineString","coordinates":[[4.3841802,45.4500478],[4.3842956,45.4496395]]}},{"type":"Feature","properties":{"way_id":864134062,"route_colors":["#e30613"],"route_refs":["T1"]},"geometry":{"type":"LineString","coordinates":[[4.3830102,45.4544623],[4.3830825,45.4541896]]}},{"type":"Feature","properties":{"way_id":864134060,"route_colors":["#e30613"],"route_refs":["T1"]},"geometry":{"type":"LineString","coordinates":[[4.3825251,45.4561697],[4.3826083,45.4558846]]}},{"type":"Feature","properties":{"way_id":1459148314,"route_colors":["#e30613"],"route_refs":["T1"]},"geometry":{"type":"LineString","coordinates":[[4.3831087,45.4085102],[4.3834658,45.4083904]]}},{"type":"Feature","properties":{"way_id":294408311,"route_colors":["#e30613"],"route_refs":["T1"]},"geometry":{"type":"LineString","coordinates":[[4.3834658,45.4083904],[4.3836523,45.4083219],[4.3837812,45.4082862],[4.3838472,45.4082692],[4.3839138,45.4082544],[4.3839614,45.4082491],[4.3840385,45.4082486],[4.3840555,45.4082483],[4.3841077,45.4082528],[4.3841574,45.4082603],[4.3842044,45.408272],[4.3842749,45.4082952],[4.3843516,45.408328],[4.3846502,45.4084682],[4.3847144,45.4084983],[4.3856694,45.4089466],[4.386531,45.4093511]]}},{"type":"Feature","properties":{"way_id":294408314,"route_colors":["#e30613"],"route_refs":["T1"]},"geometry":{"type":"LineString","coordinates":[[4.386531,45.4093511],[4.3865668,45.4093695],[4.3866741,45.4094248],[4.3868669,45.409516]]}},{"type":"Feature","properties":{"way_id":51115268,"route_colors":["#e30613"],"route_refs":["T1"]},"geometry":{"type":"LineString","coordinates":[[4.3868669,45.409516],[4.3869568,45.4095634],[4.3869981,45.4095848],[4.3872322,45.4097128],[4.3873169,45.4097727],[4.3879075,45.4101908],[4.3901529,45.4117845],[4.3905266,45.4120969],[4.3910298,45.4125175],[4.3912241,45.4126719],[4.3914003,45.4127908],[4.3914703,45.4128371],[4.3915671,45.4128935],[4.3917084,45.4129743],[4.3918194,45.4130396],[4.3919422,45.4131351],[4.3920092,45.4131963],[4.3920622,45.4132607],[4.3921176,45.413332],[4.3921543,45.4134066],[4.3922363,45.413577],[4.3925086,45.4142017],[4.3927526,45.4147586],[4.3927837,45.4148139],[4.3928211,45.41487],[4.3928407,45.414897],[4.3928889,45.4149633],[4.3929293,45.4150188],[4.3930045,45.4151202],[4.3930537,45.4151882],[4.393101,45.4152662],[4.3931562,45.4153892],[4.3932029,45.415498],[4.3933283,45.41579],[4.393375,45.415893],[4.3934801,45.4161254],[4.3935848,45.416357],[4.3936196,45.4164566],[4.3936299,45.4165052],[4.3936396,45.4165545],[4.3936423,45.4165936],[4.3936438,45.4166377],[4.3936371,45.416706]]}},{"type":"Feature","properties":{"way_id":46155749,"route_colors":["#e30613"],"route_refs":["T1"]},"geometry":{"type":"LineString","coordinates":[[4.3881095,45.4359413],[4.3880356,45.4361962],[4.3879825,45.4363641],[4.3879689,45.436407],[4.3879507,45.436465],[4.387907,45.4366145],[4.3879002,45.4366374],[4.3878728,45.4367548]]}},{"type":"Feature","properties":{"way_id":33635456,"route_colors":["#e30613","#02509e"],"route_refs":["T1","T2"]},"geometry":{"type":"LineString","coordinates":[[4.3878728,45.4367548],[4.387796,45.4370088],[4.3877516,45.4371665],[4.387741,45.4372279],[4.387694,45.437434],[4.3876089,45.437762],[4.3875947,45.4378168],[4.3874624,45.4382941],[4.3874375,45.4383911]]}},{"type":"Feature","properties":{"way_id":1361985575,"route_colors":["#e30613","#02509e"],"route_refs":["T1","T2"]},"geometry":{"type":"LineString","coordinates":[[4.3874375,45.4383911],[4.387408,45.4385057],[4.3873692,45.4386513],[4.3872524,45.4390905],[4.3871504,45.4394509],[4.3871218,45.4395479]]}},{"type":"Feature","properties":{"way_id":1361985576,"route_colors":["#e30613","#02509e"],"route_refs":["T1","T2"]},"geometry":{"type":"LineString","coordinates":[[4.3871218,45.4395479],[4.3871063,45.439606],[4.3870073,45.4399504],[4.3867934,45.4406911],[4.3867827,45.4407283]]}},{"type":"Feature","properties":{"way_id":43860550,"route_colors":["#e30613","#02509e"],"route_refs":["T1","T2"]},"geometry":{"type":"LineString","coordinates":[[4.3867827,45.4407283],[4.3867783,45.4407439],[4.3866373,45.4412563],[4.3866008,45.4413887],[4.3865391,45.4416125],[4.3864753,45.4418441],[4.3864583,45.4419055],[4.3864525,45.4419251]]}},{"type":"Feature","properties":{"way_id":28895524,"route_colors":["#e30613","#02509e"],"route_refs":["T1","T2"]},"geometry":{"type":"LineString","coordinates":[[4.3864525,45.4419251],[4.3862445,45.4426466],[4.3860816,45.443255],[4.3859364,45.4437601],[4.3858555,45.4440538],[4.3857908,45.4442885],[4.3857262,45.4445275],[4.3856347,45.4448505],[4.3855539,45.4451246],[4.3854786,45.4453853],[4.3854218,45.4455831],[4.3853992,45.4456618],[4.385324,45.4459066],[4.3852594,45.4461515],[4.3851711,45.4464584],[4.385068,45.4468168],[4.3850159,45.4470267],[4.3849925,45.4471119],[4.3848753,45.4475404],[4.3846481,45.4483086],[4.3846445,45.4483216],[4.3846377,45.448345],[4.3844023,45.4491604],[4.3843009,45.4495177],[4.3842656,45.4496355],[4.3842236,45.4497885],[4.3842,45.4498707]]}},{"type":"Feature","properties":{"way_id":747402020,"route_colors":["#e30613"],"route_refs":["T1"]},"geometry":{"type":"LineString","coordinates":[[4.3842,45.4498707],[4.3841183,45.4501635],[4.3840558,45.4503866],[4.3840136,45.4505464],[4.3838448,45.4511243],[4.3838333,45.4511628],[4.3838107,45.451238]]}},{"type":"Feature","properties":{"way_id":1361985569,"route_colors":["#e30613"],"route_refs":["T1"]},"geometry":{"type":"LineString","coordinates":[[4.3838107,45.451238],[4.3838054,45.4512556],[4.3837782,45.4514852],[4.3837578,45.4516447],[4.383743,45.4517126],[4.3837257,45.4517821],[4.3836149,45.4521514],[4.38356,45.4523684],[4.3831243,45.4539265],[4.3830194,45.4543311],[4.3826194,45.4557303],[4.3825354,45.4560269],[4.3822995,45.4568477],[4.3818796,45.4583256],[4.3816811,45.4590049],[4.3816643,45.4590624],[4.3816307,45.4591995],[4.3815984,45.4592961]]}},{"type":"Feature","properties":{"way_id":46155754,"route_colors":["#02509e"],"route_refs":["T2"]},"geometry":{"type":"LineString","coordinates":[[4.3878549,45.4366852],[4.3878898,45.4366346],[4.387907,45.4366145],[4.3879271,45.4365943],[4.3879514,45.4365766],[4.3879848,45.4365599],[4.3880332,45.4365408],[4.3880749,45.4365316],[4.3881223,45.4365283],[4.3881729,45.4365311],[4.3882353,45.4365446],[4.3884862,45.4366399]]}},{"type":"Feature","properties":{"way_id":46155747,"route_colors":["#02509e"],"route_refs":["T2"]},"geometry":{"type":"LineString","coordinates":[[4.3883936,45.4366259],[4.3882601,45.4365809],[4.3882169,45.4365703],[4.3882001,45.4365662],[4.3881442,45.4365647],[4.388071,45.4365744],[4.3880229,45.436592],[4.3879845,45.4366119],[4.3879595,45.4366267],[4.3879402,45.4366482],[4.3879333,45.4366548],[4.3879139,45.4366809],[4.3878728,45.4367548]]}}]}