{"type":"FeatureCollection","features":[{"type":"Feature","properties":{"route_ref":"5","route_color":"#ff0000"},"geometry":{"type":"LineString","coordinates":[[137.234008,36.7615342],[137.23444369999999,36.759481900000004],[137.23440541678266,36.758799705853185],[137.23420330419498,36.758132569342926],[137.22872353333332,36.74916043333334],[137.22839569282388,36.7484615516245],[137.22825486194856,36.74776288242064],[137.2247308,36.7211594],[137.2247154133045,36.72037668071735],[137.2251102126167,36.71561888577096],[137.22357496666666,36.705104133333336],[137.22353780177602,36.70320887618117],[137.22338987485747,36.70306721753175],[137.2230575042268,36.70301358650351],[137.22102070622816,36.70304566757635],[137.21839900649405,36.702934772738764],[137.21507565252486,36.70406491487949],[137.21480339530086,36.70393354238319],[137.21409210627468,36.702770493021454],[137.21331617402657,36.702286102902185],[137.2128739,36.70160860000001]]}},{"type":"Feature","properties":{"route_ref":"6","route_color":"#ff0000"},"geometry":{"type":"LineString","coordinates":[[137.234008,36.7615342],[137.23444369999999,36.759481900000004],[137.23440541678266,36.758799705853185],[137.23420330419498,36.758132569342926],[137.22872353333332,36.74916043333334],[137.2284505395838,36.74858581827767],[137.22829045,36.7478809],[137.2247308,36.7211594],[137.2247154133045,36.72037668071735],[137.2251102126167,36.71561888577096],[137.22357496666666,36.705104133333336],[137.2235734729343,36.70318404670361],[137.2232412939337,36.703011836063574],[137.2210168193342,36.70303468920137],[137.21839900649405,36.702934772738764],[137.21507565252486,36.70406491487949],[137.21475005000002,36.703863025],[137.2140610812783,36.70271826704915],[137.2132981549302,36.70224646445817],[137.2128739,36.70160860000001]]}},{"type":"Feature","properties":{"route_ref":"4","route_color":"#ff0000"},"geometry":{"type":"LineString","coordinates":[[137.234008,36.7615342],[137.23444369999999,36.759481900000004],[137.23440541678266,36.758799705853185],[137.23420330419498,36.758132569342926],[137.22872353333332,36.74916043333334],[137.22839569282388,36.7484615516245],[137.22825486194856,36.74776288242064],[137.2247308,36.7211594],[137.2247154133045,36.72037668071735],[137.2251102126167,36.71561888577096],[137.22357496666666,36.705104133333336],[137.22353780177602,36.70320887618117],[137.22338987485747,36.70306721753175],[137.2230575042268,36.70301358650351],[137.22102070622816,36.70304566757635],[137.21839900649405,36.702934772738764],[137.21507565252486,36.70406491487949],[137.21480339530086,36.70393354238319],[137.21409210627468,36.702770493021454],[137.21341877350133,36.70235303414902],[137.2131323811068,36.701895899187306]]}},{"type":"Feature","properties":{"route_ref":"2","route_color":"#ee9503"},"geometry":{"type":"LineString","coordinates":[[137.22066739999997,36.670676900000004],[137.2212840881777,36.67135440733252],[137.22132003386236,36.67157797756524],[137.21658434,36.68098314],[137.21590057569074,36.68329325490886],[137.2156221328907,36.6889644985409],[137.21608454,36.6975972],[137.21609906945292,36.698798300173145],[137.2159856633909,36.699023033979294],[137.2127966666667,36.70038066666666],[137.2123439808848,36.70035290182342],[137.21038006666666,36.69719836666666],[137.20906369999997,36.693819033333334],[137.2089257188651,36.69234894680179],[137.20877035675466,36.69218683392441],[137.2085365813436,36.69214356846429],[137.2052253,36.69238025000001],[137.20331146666666,36.692626733333334],[137.1959229,36.694855966666665],[137.19487285714285,36.69539997142857],[137.19352884285715,36.69632744285714],[137.1926669,36.697063299999996],[137.1910936,36.6986682]]}},{"type":"Feature","properties":{"route_ref":"3","route_color":"#ee9503"},"geometry":{"type":"LineString","coordinates":[[137.2129394,36.7015836],[137.21253729801566,36.70104526535468],[137.21230924460735,36.70035292010989],[137.2106693024018,36.69775044904589],[137.2101665984711,36.6967177004306],[137.2090382,36.69372986666667],[137.20895580470793,36.692336081138244],[137.20923509007022,36.692137342404216],[137.21103052426002,36.691959665922305],[137.21133534716168,36.69180383886187],[137.21149933333334,36.69088833333333],[137.21132515,36.689370675],[137.2115101786598,36.68905841453431],[137.21534445510517,36.68878522181952],[137.21562210657814,36.68896449970818],[137.21609624735157,36.69881287500426],[137.21590423146972,36.69909111294578],[137.21261779155265,36.70045782112339],[137.21243123300883,36.70061531241882],[137.21241644905334,36.700753582829165]]}},{"type":"Feature","properties":{"route_ref":"1","route_color":"#ee9503"},"geometry":{"type":"LineString","coordinates":[[137.22066739999997,36.670676900000004],[137.2212840881777,36.67135440733252],[137.22132003386236,36.67157797756524],[137.21658434,36.68098314],[137.21590057569074,36.68329325490886],[137.2156221328907,36.6889644985409],[137.2159847,36.6956049]]}}]}