{"type":"FeatureCollection","features":[{"type":"Feature","properties":{"way_id":307034746,"route_colors":["#f38230"],"route_refs":["T1"]},"geometry":{"type":"LineString","coordinates":[[-7.5798943,33.5913017],[-7.578581,33.5909906],[-7.5774497,33.5907166],[-7.5769787,33.5906053],[-7.5754623,33.5903358],[-7.5750654,33.5902677],[-7.5749446,33.590247],[-7.5747746,33.5902231],[-7.5744497,33.5902574],[-7.5741909,33.5903106],[-7.5737654,33.5904069],[-7.5727498,33.5906543],[-7.5723928,33.5907584],[-7.5721489,33.5908323],[-7.5720207,33.590875],[-7.5718938,33.5909159],[-7.5718281,33.5909576],[-7.5717418,33.5910337],[-7.5714728,33.591123],[-7.5711464,33.5912067],[-7.5708342,33.591281],[-7.5706325,33.5913276],[-7.5703819,33.5913872],[-7.5701134,33.591443],[-7.5700159,33.5914617],[-7.5699572,33.5914733],[-7.5694627,33.5915763],[-7.5690618,33.5916742],[-7.5689365,33.5916892],[-7.5688477,33.5916887],[-7.5687955,33.5916581],[-7.5687487,33.5916226],[-7.5687145,33.5915722],[-7.5686809,33.5915159],[-7.5682889,33.5903541],[-7.5682651,33.5902826],[-7.5682096,33.5901162],[-7.5680284,33.5895726],[-7.5679808,33.589426],[-7.5679278,33.5892625],[-7.5679138,33.5892196],[-7.5677688,33.5887726],[-7.5676945,33.5885437],[-7.5673511,33.5874267],[-7.5671896,33.5869014],[-7.5670946,33.5866404],[-7.5668037,33.5858413],[-7.5667746,33.5857704],[-7.5667291,33.5856343],[-7.5665263,33.5849331],[-7.5662436,33.5839552],[-7.5662386,33.5839381],[-7.5662195,33.5837916],[-7.5662291,33.5837132],[-7.5665161,33.5833086],[-7.566681,33.5830762],[-7.567005,33.5825437],[-7.5670875,33.5824232],[-7.5671126,33.5823642],[-7.5671175,33.5823021],[-7.5671228,33.5822727],[-7.5671139,33.5822484],[-7.5670985,33.5822099],[-7.566907,33.5821094],[-7.5668726,33.5820966],[-7.5658152,33.5817037],[-7.5656506,33.5816425],[-7.5648952,33.5813295],[-7.5645751,33.5811968],[-7.5641505,33.5810618],[-7.5639503,33.5809994],[-7.5638588,33.5809828],[-7.5637581,33.5809404],[-7.5636818,33.5809243],[-7.5633887,33.5808406],[-7.5614348,33.5802756],[-7.5604655,33.5800115],[-7.560306,33.579968],[-7.5602225,33.5799453],[-7.5601344,33.5799208],[-7.5591618,33.5796499],[-7.5571073,33.5790776],[-7.5569521,33.5790344],[-7.556616,33.5789408],[-7.5548662,33.5784464],[-7.5537823,33.5781402],[-7.5536971,33.5781161],[-7.5534322,33.5780413],[-7.5530907,33.577945],[-7.5517527,33.5775674],[-7.5512902,33.5774369],[-7.5508473,33.5773119],[-7.5502687,33.5771522],[-7.5493492,33.5768985],[-7.5489456,33.5767885],[-7.5488482,33.576762],[-7.5484674,33.5766816],[-7.5467885,33.5763437],[-7.5466832,33.5763221],[-7.5458957,33.5761604],[-7.5444263,33.5758688],[-7.5417739,33.5752885],[-7.5412779,33.57518],[-7.5411901,33.5751608],[-7.5399497,33.5748529],[-7.5394513,33.5747292],[-7.5389042,33.5745936],[-7.5388003,33.5745678],[-7.5384669,33.5744866],[-7.5382946,33.5744446],[-7.5380821,33.5743973],[-7.5377507,33.5743059],[-7.5372548,33.5741691],[-7.5371896,33.5741511],[-7.5334695,33.5731567],[-7.5332289,33.5730918],[-7.532559,33.5729113],[-7.5324204,33.5728742],[-7.5318351,33.5727173],[-7.5314555,33.5726246],[-7.5312383,33.572591],[-7.5310894,33.5725888],[-7.5309933,33.5725962],[-7.5309612,33.572605],[-7.5309109,33.5726215],[-7.5308733,33.5726361],[-7.5307267,33.5727006],[-7.5305604,33.5728108],[-7.5303823,33.57295],[-7.5292457,33.5732717],[-7.5288146,33.5733793],[-7.5277725,33.5736474],[-7.5265531,33.573712],[-7.5257532,33.5737605],[-7.5253112,33.5738087],[-7.5243174,33.5740946],[-7.5227853,33.5745387],[-7.5216663,33.5748776],[-7.5199713,33.5753743],[-7.5194087,33.5755713],[-7.5190692,33.5757323],[-7.5183225,33.5761917],[-7.518219,33.5762555],[-7.5177446,33.5765838],[-7.5154988,33.5780003],[-7.515296,33.5781354],[-7.5152816,33.5781442],[-7.5150783,33.5782826],[-7.5147971,33.578462],[-7.5146451,33.578557],[-7.5144904,33.5786537],[-7.5134964,33.5792752],[-7.5131257,33.5795318],[-7.5127695,33.5797585],[-7.51203,33.580229],[-7.5114174,33.5806189],[-7.5106306,33.5811198],[-7.509517,33.5818287],[-7.5093805,33.5819157],[-7.5086783,33.5823627],[-7.5084616,33.5825024],[-7.5078734,33.5828814],[-7.50499,33.5847022],[-7.5048124,33.5848144],[-7.5047309,33.5848658],[-7.5041756,33.5852348],[-7.5025338,33.5863259],[-7.502035,33.5866574],[-7.5015474,33.5869734],[-7.5010435,33.5873101],[-7.5006063,33.5875984],[-7.5000591,33.5878911],[-7.4997748,33.5880252]]}},{"type":"Feature","properties":{"way_id":700875022,"route_colors":["#f38230"],"route_refs":["T1"]},"geometry":{"type":"LineString","coordinates":[[-7.5845432,33.5946905],[-7.5844007,33.5946108],[-7.58398,33.5943574],[-7.5837098,33.5942133],[-7.5833705,33.5940195],[-7.5828627,33.5937392],[-7.5827571,33.5936802],[-7.5826351,33.5935888],[-7.5825781,33.5935363],[-7.5809283,33.5921851],[-7.5803953,33.5916601],[-7.5801787,33.5914632],[-7.5800634,33.5913829],[-7.5799322,33.5913199],[-7.5798943,33.5913017]]}},{"type":"Feature","properties":{"way_id":700875018,"route_colors":["#f38230"],"route_refs":["T1"]},"geometry":{"type":"LineString","coordinates":[[-7.5848533,33.5948741],[-7.5845432,33.5946905]]}},{"type":"Feature","properties":{"way_id":843243267,"route_colors":["#f38230"],"route_refs":["T1"]},"geometry":{"type":"LineString","coordinates":[[-7.6034371,33.5934946],[-7.6031545,33.5934792],[-7.6011687,33.5933986],[-7.6010796,33.5933936],[-7.600844,33.5933867],[-7.5996852,33.5933402],[-7.5994383,33.5933303],[-7.5985224,33.5932854],[-7.5983205,33.5932842],[-7.5976441,33.5932596],[-7.5974065,33.5932099],[-7.5972668,33.5931487],[-7.5969126,33.5929314],[-7.596472,33.5927024],[-7.5949479,33.5919092],[-7.5948111,33.5918375],[-7.5934538,33.5911306],[-7.5926795,33.5907271],[-7.5925882,33.5906733],[-7.5925077,33.5906337],[-7.5919484,33.5903581],[-7.5918677,33.5903141],[-7.5917493,33.5902575],[-7.5916466,33.5902198],[-7.59157,33.5901952],[-7.5914774,33.5901815],[-7.5914115,33.5901865],[-7.5913349,33.5902082],[-7.5912705,33.5902488],[-7.5911092,33.5903879],[-7.5910627,33.5904317],[-7.5909869,33.5905031],[-7.5904304,33.591027],[-7.589348,33.5920461],[-7.5864897,33.5948302],[-7.5858969,33.5953749],[-7.5858709,33.5953893],[-7.5858473,33.5953963],[-7.5858179,33.5953972],[-7.5857928,33.5953913],[-7.58572,33.5953606],[-7.5852734,33.5951325],[-7.5848934,33.5948983],[-7.5848533,33.5948741]]}},{"type":"Feature","properties":{"way_id":843243268,"route_colors":["#f38230"],"route_refs":["T1"]},"geometry":{"type":"LineString","coordinates":[[-7.6035127,33.5934987],[-7.6034371,33.5934946]]}},{"type":"Feature","properties":{"way_id":322858905,"route_colors":["#f38230"],"route_refs":["T1"]},"geometry":{"type":"LineString","coordinates":[[-7.6260182,33.5698207],[-7.6260098,33.5699929],[-7.6259947,33.5703005],[-7.6259823,33.5705527],[-7.6259745,33.5706932],[-7.625956,33.5716167],[-7.6259539,33.571725],[-7.6259518,33.5718292],[-7.6259509,33.571876],[-7.6259524,33.5719785],[-7.6259447,33.5721857],[-7.6259416,33.5723053],[-7.6259417,33.5723341],[-7.6259158,33.5729041],[-7.6258752,33.5737982],[-7.625849,33.5743763],[-7.625824,33.5749271],[-7.6258169,33.5750687],[-7.6257852,33.5757037],[-7.6257803,33.5758007],[-7.6257755,33.5759113],[-7.6257718,33.5759948],[-7.6257304,33.5768784],[-7.6257222,33.5770761],[-7.6256934,33.57726],[-7.6256692,33.5775238],[-7.6256569,33.5775904],[-7.6256369,33.5776685],[-7.6252359,33.5788412],[-7.6250293,33.5794589],[-7.6249896,33.5795783],[-7.6248387,33.5800157],[-7.6247501,33.5802649],[-7.6244853,33.5810186],[-7.6244688,33.5810588],[-7.6241086,33.5819244],[-7.624057,33.5820485],[-7.6239876,33.5822001],[-7.623931,33.5823235],[-7.6236714,33.5828287],[-7.623503,33.5831536],[-7.6234702,33.5832379],[-7.6234421,33.5833174],[-7.6234072,33.5834397],[-7.623367,33.5835562],[-7.6232159,33.5838584],[-7.623075,33.5841251],[-7.6226948,33.5848447],[-7.6222856,33.5856392],[-7.6221478,33.585894],[-7.62209,33.5859958],[-7.6220377,33.5860955],[-7.6219694,33.5862287],[-7.6213293,33.5873329],[-7.6211439,33.5876512],[-7.6211084,33.5877145],[-7.6210766,33.5877618],[-7.6210458,33.587818],[-7.6210086,33.5878719],[-7.6210209,33.5878622],[-7.6208867,33.5880887],[-7.6208442,33.5881686],[-7.6200092,33.5896378],[-7.6198196,33.5899819],[-7.6197541,33.5900932],[-7.6197062,33.5901739],[-7.6196287,33.5903049],[-7.6193653,33.5908656],[-7.6192648,33.5910794],[-7.6190035,33.5916597],[-7.6189265,33.591831],[-7.6188618,33.5920138],[-7.6187985,33.592251],[-7.618719,33.5925416],[-7.61866,33.5928584],[-7.6186177,33.5930413],[-7.6185344,33.5934556],[-7.6184654,33.5938061],[-7.6184307,33.5939636],[-7.6183187,33.5944261],[-7.6182319,33.5947055],[-7.6181166,33.595121],[-7.6180162,33.5954955],[-7.6179702,33.5956489],[-7.6179566,33.5956829],[-7.6179413,33.5957156],[-7.6179233,33.5957459],[-7.6178999,33.5957708],[-7.6178661,33.5958013],[-7.6178283,33.5958255],[-7.6177825,33.5958467],[-7.6177409,33.5958567],[-7.6176981,33.5958598],[-7.6176396,33.5958605],[-7.6175903,33.5958553],[-7.6175493,33.5958452],[-7.617506,33.5958261],[-7.6174724,33.5958023],[-7.6174413,33.5957812],[-7.6172332,33.595608],[-7.6172055,33.595588],[-7.6171714,33.5955716],[-7.6171129,33.5955537],[-7.6166259,33.5954453],[-7.6161702,33.5953482],[-7.6144421,33.5949744],[-7.6129318,33.5946629],[-7.6126113,33.5946005],[-7.6114709,33.5943551],[-7.6105656,33.5941718],[-7.6105166,33.5941617],[-7.6095484,33.5939616],[-7.6088381,33.593819],[-7.608805,33.5938124],[-7.608776,33.5938065],[-7.6087315,33.5937976],[-7.6086525,33.5937817],[-7.6083545,33.5937613],[-7.6082775,33.593756],[-7.6077746,33.5937216],[-7.6070915,33.5936779],[-7.6061384,33.5936337],[-7.6059248,33.5936238],[-7.6055385,33.5936086],[-7.6054664,33.5936019],[-7.6053318,33.5935948],[-7.6037108,33.5935094],[-7.6035391,33.5935001],[-7.6035127,33.5934987]]}},{"type":"Feature","properties":{"way_id":463281332,"route_colors":["#f38230"],"route_refs":["T1"]},"geometry":{"type":"LineString","coordinates":[[-7.6260182,33.5698207],[-7.6260265,33.5696478],[-7.626031,33.5695574],[-7.6260337,33.5694974],[-7.6260361,33.5694515],[-7.6260397,33.5694095],[-7.6260463,33.5693323],[-7.6260673,33.5690869],[-7.6261057,33.5686408],[-7.6261052,33.5686342],[-7.6261277,33.5684191],[-7.6262578,33.5672741],[-7.6262934,33.5670082],[-7.6263974,33.5665383],[-7.6264339,33.566367],[-7.626445,33.5663164],[-7.6264882,33.5661824],[-7.6265586,33.5659769],[-7.6268294,33.565301],[-7.626854,33.5652367],[-7.6269934,33.5649183],[-7.6272023,33.5644669],[-7.6273987,33.5640296],[-7.6275245,33.5637477],[-7.627584,33.5636418],[-7.6276167,33.5635618],[-7.6276481,33.563481],[-7.6276655,33.5634145],[-7.6276859,33.5633365],[-7.6276635,33.5631581],[-7.6275829,33.5630022],[-7.6271652,33.5623803],[-7.6268872,33.5619329],[-7.6268357,33.5617679],[-7.6268193,33.5616081],[-7.6268545,33.561458],[-7.6269173,33.5612991],[-7.6269951,33.5611854],[-7.6271151,33.5610234],[-7.6272668,33.5609189],[-7.6284253,33.5603952],[-7.6287226,33.5602029],[-7.6288464,33.5600745],[-7.6289272,33.5599694],[-7.6290106,33.5598006],[-7.6291535,33.5594507],[-7.629639,33.5582854],[-7.6298311,33.5578244],[-7.6298597,33.5577534],[-7.629944,33.5575443],[-7.6306359,33.5558274],[-7.6308123,33.5553839],[-7.6310991,33.5546621],[-7.6313118,33.554127],[-7.6313231,33.5540979],[-7.6317732,33.5529315],[-7.6319003,33.5525574],[-7.632036,33.552158],[-7.6321634,33.5515515],[-7.632193,33.5511032],[-7.6321138,33.5502446],[-7.6320156,33.5488436],[-7.6320126,33.548827],[-7.6319955,33.5486005],[-7.6319215,33.547639],[-7.6318846,33.5471668],[-7.6318648,33.5469454],[-7.6318544,33.5468757],[-7.6318548,33.5468354],[-7.6318542,33.546792],[-7.6318566,33.5467505],[-7.6318665,33.54672],[-7.6318801,33.5466793],[-7.6319193,33.5466358],[-7.6319754,33.5465934],[-7.6321791,33.5465109],[-7.6336416,33.5459012],[-7.6340011,33.5458087],[-7.6343785,33.5457583],[-7.6351641,33.5457699],[-7.6363627,33.5457883],[-7.6371685,33.5457996],[-7.6372171,33.5457929],[-7.6372389,33.5457859],[-7.6373878,33.545704],[-7.6378361,33.5450163],[-7.6380962,33.5446113],[-7.6382449,33.5443796],[-7.6383582,33.5442153],[-7.6388813,33.5434508],[-7.6400723,33.5416427],[-7.640389,33.5412033],[-7.6405377,33.5410541],[-7.6406433,33.5409674],[-7.6407266,33.5409078],[-7.6408838,33.5408062],[-7.6411469,33.5407605],[-7.6412474,33.5407512],[-7.6416617,33.5407138],[-7.6419494,33.5407289],[-7.6424139,33.540752],[-7.6428042,33.5407714],[-7.6437949,33.5408451],[-7.6440591,33.5408658],[-7.6442933,33.540884],[-7.6445301,33.5408979],[-7.6446765,33.5409065],[-7.6446892,33.5409047],[-7.6456671,33.540974],[-7.6459762,33.5409934],[-7.647001,33.5410578],[-7.6474798,33.541089],[-7.6491906,33.5415735],[-7.650645,33.5419773],[-7.6513593,33.5421961],[-7.651894,33.5423898],[-7.6522973,33.5426044],[-7.6526134,33.5428997],[-7.6531179,33.5435634],[-7.6532268,33.5436913],[-7.653381,33.5438696],[-7.6534592,33.5439601],[-7.6542123,33.5446503],[-7.655247,33.5455606],[-7.6556831,33.5459399],[-7.6558331,33.54605],[-7.65591,33.5460761],[-7.6559598,33.5460935],[-7.656013,33.5461054],[-7.6561253,33.5461101],[-7.656232,33.5460992],[-7.6571703,33.5458466],[-7.6572969,33.5458117],[-7.6577466,33.5456876],[-7.6581092,33.5455875],[-7.660004,33.5450686],[-7.6601571,33.5450267],[-7.6606327,33.5449041],[-7.6608044,33.5448673],[-7.6609778,33.5448437],[-7.6610857,33.5448363],[-7.6611972,33.5448438],[-7.6612842,33.5448529],[-7.661776,33.5449352],[-7.6618589,33.544947],[-7.6619294,33.5449481],[-7.6619911,33.5449442],[-7.66205,33.5449329],[-7.6621069,33.5449137],[-7.6621289,33.544903],[-7.6621691,33.5448834],[-7.66222,33.5448495],[-7.6622671,33.5448093],[-7.6623109,33.5447571],[-7.6627876,33.5442163],[-7.6634672,33.5434268],[-7.6635359,33.5433526],[-7.663686,33.5431832],[-7.6648254,33.5418815],[-7.6650469,33.5416412],[-7.6657893,33.5407577],[-7.6663597,33.5400945],[-7.6664554,33.5399832],[-7.6665006,33.5399307],[-7.6666233,33.5397881],[-7.6666459,33.5397618],[-7.6669008,33.5394654],[-7.6682131,33.537959],[-7.6692264,33.5368068],[-7.6694319,33.5365685],[-7.669593,33.536331],[-7.6696958,33.5361208],[-7.6699736,33.5353481],[-7.6700775,33.5350512],[-7.6701491,33.5348464],[-7.6703052,33.5344003],[-7.6703356,33.5342621],[-7.6703659,33.5340129]]}},{"type":"Feature","properties":{"way_id":593874916,"route_colors":["#f38230"],"route_refs":["T1"]},"geometry":{"type":"LineString","coordinates":[[-7.6701491,33.5348464],[-7.6700352,33.5350474],[-7.669666,33.5360954],[-7.6695653,33.5363192],[-7.6694208,33.5365301],[-7.6693201,33.5366527],[-7.6691574,33.5368443],[-7.6685172,33.5375716],[-7.6677143,33.5384926],[-7.666679,33.5396869],[-7.6666233,33.5397509],[-7.6665966,33.5397815],[-7.6664694,33.5399276],[-7.6664309,33.5399719],[-7.6663378,33.5400788],[-7.6660981,33.540354],[-7.6651501,33.5414633],[-7.665014,33.5416254],[-7.6640636,33.5427192],[-7.6635154,33.543341],[-7.663441,33.543412],[-7.6625913,33.5443834],[-7.6624578,33.5445359],[-7.6622631,33.5447575],[-7.6622262,33.5447975],[-7.6621928,33.5448266],[-7.6621535,33.5448504],[-7.6620985,33.5448791],[-7.662079,33.5448892],[-7.6619952,33.5449095],[-7.6619111,33.5449178],[-7.6618219,33.5449107],[-7.6612692,33.5448169],[-7.6611694,33.5448094],[-7.6610731,33.5448062],[-7.6609375,33.5448229],[-7.6607041,33.5448598],[-7.6606434,33.5448744],[-7.6603366,33.5449481],[-7.6602223,33.5449736],[-7.6601249,33.5449954],[-7.657731,33.5456585],[-7.6572863,33.5457817],[-7.6571777,33.5458118],[-7.6562373,33.5460739],[-7.6561198,33.5460853],[-7.6560045,33.5460771],[-7.6559505,33.5460571],[-7.6558443,33.5460166],[-7.655759,33.5459592],[-7.6552829,33.545555],[-7.6548182,33.545128],[-7.6542326,33.5446268],[-7.6534872,33.5439418],[-7.6534129,33.5438505],[-7.6532776,33.5436891],[-7.6531697,33.5435393],[-7.6526247,33.5428803],[-7.6523239,33.5425772],[-7.651897,33.5423706],[-7.6513566,33.5421648],[-7.6506577,33.5419432],[-7.6505671,33.5419182],[-7.6499915,33.5417594],[-7.647483,33.5410672],[-7.6470023,33.5410326],[-7.6459799,33.5409623],[-7.6456689,33.5409409],[-7.6446908,33.5408649],[-7.6445382,33.5408544],[-7.6442933,33.5408375],[-7.6440598,33.5408215],[-7.6437965,33.5408033],[-7.642815,33.5407369],[-7.6424173,33.5407175],[-7.6419508,33.5406949],[-7.6416557,33.5406819],[-7.6412294,33.5407151],[-7.6411292,33.5407232],[-7.6408681,33.5407807],[-7.6406682,33.540905],[-7.6406229,33.5409386],[-7.6405029,33.5410291]]}},{"type":"Feature","properties":{"way_id":683540121,"route_colors":["#f38230"],"route_refs":["T1"]},"geometry":{"type":"LineString","coordinates":[[-7.6405029,33.5410291],[-7.6403595,33.5411905],[-7.6400693,33.5415893],[-7.6383375,33.5442084],[-7.6382127,33.5443769],[-7.6380695,33.5445966],[-7.637809,33.5449964],[-7.6373558,33.5456743],[-7.6372442,33.5457411],[-7.6372036,33.5457588],[-7.6371647,33.5457688],[-7.6370423,33.5457717],[-7.6363648,33.5457576],[-7.6351675,33.5457362],[-7.6343396,33.5457205],[-7.6339669,33.5457767],[-7.6335739,33.5458882],[-7.6319554,33.5465795],[-7.6318775,33.5466271],[-7.631863,33.546646],[-7.6318379,33.546678],[-7.6318282,33.5466961],[-7.6318191,33.5467244],[-7.6318146,33.5467563],[-7.6318119,33.5467899],[-7.6318185,33.5468786],[-7.6318613,33.547182],[-7.6318885,33.5476404],[-7.6319405,33.5485172],[-7.6319464,33.5485977],[-7.6319634,33.5488307],[-7.6321299,33.5511048],[-7.6321297,33.5515183],[-7.6320173,33.5521111],[-7.6318607,33.552553],[-7.6316847,33.5530499],[-7.631267,33.5540838],[-7.631175,33.5543116],[-7.6310443,33.5546491],[-7.6307648,33.5553709],[-7.6305922,33.5558166],[-7.629886,33.5575446],[-7.6298042,33.5577449],[-7.6297747,33.557817],[-7.6295885,33.5582744],[-7.6291159,33.5594357],[-7.6289214,33.5599031],[-7.6288285,33.5600275],[-7.6287593,33.5601079],[-7.6286753,33.5601996],[-7.6284493,33.5603413],[-7.627242,33.5609014],[-7.6270865,33.5610075],[-7.6269667,33.5611317],[-7.6268208,33.561343],[-7.6267681,33.5615646],[-7.6267875,33.5617809],[-7.6268651,33.5619822],[-7.6271326,33.5623757],[-7.6276299,33.5631585],[-7.6276469,33.5632718],[-7.6276463,33.5633146],[-7.6276406,33.5634032],[-7.6276304,33.5634557],[-7.6276239,33.563474],[-7.6275497,33.5636302],[-7.6274943,33.5637376],[-7.6271744,33.5644569],[-7.6269397,33.5649528],[-7.6268049,33.5652363],[-7.6267878,33.5652847],[-7.6265134,33.5659793],[-7.6264434,33.5661766],[-7.6264034,33.5663153],[-7.6263929,33.5663654],[-7.6263576,33.5665319],[-7.6262587,33.5670038],[-7.6262106,33.5673081],[-7.6260689,33.568415],[-7.6260441,33.5686314],[-7.626044,33.5686408],[-7.6260105,33.5690869],[-7.6259978,33.5692565],[-7.6259923,33.5693301],[-7.6259864,33.569408],[-7.6259832,33.5694496]]}},{"type":"Feature","properties":{"way_id":700875020,"route_colors":["#f38230"],"route_refs":["T1"]},"geometry":{"type":"LineString","coordinates":[[-7.5848783,33.5948564],[-7.5852942,33.5951048],[-7.5856327,33.5952773],[-7.5857314,33.5953267],[-7.5857527,33.5953348],[-7.5857816,33.5953444],[-7.5858134,33.5953515],[-7.5858352,33.5953507],[-7.5858555,33.5953461],[-7.585874,33.5953401],[-7.585897,33.5953233],[-7.585932,33.5952932],[-7.5864433,33.5947641],[-7.5881634,33.5931155],[-7.5903981,33.591002],[-7.5909494,33.5904794],[-7.591006,33.590427],[-7.5910717,33.5903648],[-7.5912589,33.5901997],[-7.5913311,33.5901628],[-7.5913913,33.5901466],[-7.5914557,33.5901408],[-7.5915114,33.5901437],[-7.5915723,33.5901553],[-7.5916524,33.5901785],[-7.5918108,33.5902394],[-7.5919812,33.5903184],[-7.592529,33.5906038],[-7.5926088,33.5906454],[-7.5926994,33.5907036],[-7.593474,33.5911045],[-7.5948344,33.5918081],[-7.5964942,33.5926723],[-7.5969495,33.5929091],[-7.5972965,33.5930969],[-7.5974282,33.5931735],[-7.5976869,33.5932295],[-7.598333,33.5932497],[-7.5985173,33.5932576],[-7.5996848,33.5933252],[-7.6008471,33.5933664],[-7.6010802,33.5933725],[-7.6011761,33.593371],[-7.6031621,33.5934485],[-7.6034767,33.5934635],[-7.6035414,33.5934666],[-7.6037135,33.5934748],[-7.6053345,33.5935545],[-7.6054667,33.593561],[-7.6057209,33.5935706],[-7.6059301,33.5935848],[-7.6061399,33.5935966],[-7.6077596,33.5936875],[-7.6082612,33.5937208],[-7.6083083,33.5937239],[-7.6086533,33.5937468],[-7.6087278,33.5937622],[-7.6087666,33.5937702],[-7.6088013,33.5937774],[-7.6088367,33.5937847],[-7.6105243,33.5941335],[-7.6105753,33.594144],[-7.6126568,33.5945742],[-7.612946,33.5946353],[-7.614883,33.5950353],[-7.6171299,33.5955338],[-7.6171835,33.59555],[-7.6172229,33.595566],[-7.617244,33.5955846],[-7.6174376,33.5957457],[-7.6174622,33.5957661],[-7.617473,33.5957736],[-7.6175055,33.5957962],[-7.6175402,33.5958156],[-7.6175769,33.5958261],[-7.6176242,33.5958351],[-7.6176682,33.5958362],[-7.6177172,33.5958356],[-7.6177687,33.5958226],[-7.6178133,33.5957987],[-7.6178482,33.5957772],[-7.6178742,33.595754],[-7.617901,33.5957247],[-7.6179182,33.5956932],[-7.6179319,33.5956598],[-7.617983,33.5954893],[-7.6180822,33.5951143],[-7.618202,33.5946991],[-7.6182886,33.5944164],[-7.6183667,33.5940974],[-7.6184333,33.5938011],[-7.6185028,33.5934488],[-7.6185831,33.5930305],[-7.6186206,33.5928457],[-7.618692,33.5925299],[-7.6187665,33.5922479],[-7.6188312,33.592005],[-7.6188986,33.5918192],[-7.6189718,33.5916524],[-7.6192313,33.5910703],[-7.6193303,33.5908534],[-7.6195925,33.590291],[-7.619668,33.5901563],[-7.6197108,33.5900821],[-7.6197795,33.5899629],[-7.6199772,33.5896292],[-7.6209254,33.5879431],[-7.6209299,33.5879374],[-7.6209801,33.5878488],[-7.6210066,33.5878041],[-7.6210374,33.5877504],[-7.6210638,33.5877052],[-7.6210952,33.5876458],[-7.6212873,33.587314],[-7.6219313,33.5862162],[-7.6219978,33.5860917],[-7.6220503,33.5859972],[-7.6221071,33.5858872],[-7.6222487,33.5856337],[-7.6226629,33.5848366],[-7.6230413,33.5841157],[-7.6231776,33.5838497],[-7.6233275,33.5835435],[-7.6233679,33.5834342],[-7.6234104,33.583312],[-7.6234361,33.583232],[-7.6234693,33.5831439],[-7.6236395,33.5828242],[-7.6238982,33.5823173],[-7.6239608,33.5821963],[-7.6240312,33.5820364],[-7.6240806,33.581919],[-7.6244348,33.5810503],[-7.6244525,33.5810076],[-7.6247171,33.5802578],[-7.6248083,33.5800083],[-7.6249577,33.5795681],[-7.624997,33.5794533],[-7.6252062,33.5788335],[-7.6255583,33.5777952],[-7.6256029,33.5776625],[-7.6256222,33.5775838],[-7.6256329,33.5775273],[-7.6256537,33.5772598],[-7.6256799,33.5770692],[-7.6256872,33.5768777],[-7.6257286,33.5759113],[-7.6257333,33.5758009],[-7.6257376,33.5757038],[-7.6257662,33.5750663],[-7.6257729,33.5749154],[-7.6258004,33.5743768],[-7.62583,33.5737977],[-7.6258757,33.5729034],[-7.6258975,33.5724768],[-7.6258999,33.572305],[-7.6259028,33.5721854],[-7.6259057,33.5720571],[-7.6259085,33.5718746],[-7.6259094,33.5718286],[-7.6259113,33.5717247],[-7.6259133,33.5716149],[-7.6259326,33.5705632],[-7.6259371,33.5704798],[-7.6259631,33.5699934],[-7.6259734,33.569801],[-7.6259803,33.569556],[-7.625982,33.5694955],[-7.6259832,33.5694496]]}},{"type":"Feature","properties":{"way_id":700875021,"route_colors":["#f38230"],"route_refs":["T1"]},"geometry":{"type":"LineString","coordinates":[[-7.5845679,33.5946697],[-7.5848783,33.5948564]]}},{"type":"Feature","properties":{"way_id":307034744,"route_colors":["#f38230"],"route_refs":["T1"]},"geometry":{"type":"LineString","coordinates":[[-7.5799101,33.5912613],[-7.5799524,33.5912834],[-7.5800321,33.5913251],[-7.5801136,33.5913838],[-7.580215,33.591463],[-7.5809444,33.5921695],[-7.5814318,33.59257],[-7.5826118,33.5935171],[-7.5826742,33.5935705],[-7.5827848,33.5936531],[-7.5828964,33.5937173],[-7.5833919,33.5940024],[-7.5837392,33.594183],[-7.5844117,33.59458],[-7.5845679,33.5946697]]}},{"type":"Feature","properties":{"way_id":213915583,"route_colors":["#f38230"],"route_refs":["T1"]},"geometry":{"type":"LineString","coordinates":[[-7.4997721,33.5879794],[-7.4999384,33.5878989],[-7.5005607,33.5875816],[-7.5009201,33.5873448],[-7.5014958,33.5869421],[-7.5017496,33.5867607],[-7.5024044,33.5863463],[-7.5025031,33.5862839],[-7.5025462,33.5862566],[-7.5030002,33.5859446],[-7.5041486,33.5852081],[-7.5047111,33.5848473],[-7.504795,33.5847939],[-7.5073797,33.5831486],[-7.5084379,33.5824733],[-7.508656,33.5823341],[-7.5093581,33.5818886],[-7.5094948,33.5818019],[-7.5106086,33.5810952],[-7.5119153,33.5802661],[-7.5120082,33.5802061],[-7.5127439,33.5797313],[-7.5131017,33.5795003],[-7.5134676,33.5792465],[-7.5141898,33.5788091],[-7.5143022,33.5787361],[-7.5144429,33.5786448],[-7.5154405,33.5779972],[-7.5154768,33.5779736],[-7.5158937,33.5777228],[-7.517723,33.5765485],[-7.5181994,33.576228],[-7.5183066,33.5761578],[-7.5190632,33.5756995],[-7.5194278,33.5755329],[-7.5200185,33.5753259],[-7.5215885,33.5748659],[-7.5227641,33.5744958],[-7.5243104,33.5740556],[-7.5252947,33.5737843],[-7.5257366,33.5737298],[-7.5277592,33.5736185],[-7.5285843,33.5734036],[-7.5303714,33.5729152],[-7.5306335,33.5727249],[-7.5307063,33.5726746],[-7.5308972,33.5725903],[-7.5309827,33.5725603],[-7.531025,33.5725494],[-7.5312195,33.5725403],[-7.5314126,33.5725642],[-7.5316111,33.5726163],[-7.5321247,33.5727408],[-7.5324409,33.5728204],[-7.5325919,33.5728584],[-7.5332537,33.573034],[-7.5335096,33.5731019],[-7.5371991,33.5741142],[-7.5372695,33.5741322],[-7.5377681,33.5742606],[-7.5380156,33.5743243],[-7.538183,33.5743574],[-7.5382404,33.5743765],[-7.5384833,33.5744344],[-7.5386829,33.5744819],[-7.5389221,33.5745429],[-7.5394614,33.5746806],[-7.5399767,33.574813],[-7.5411967,33.5751265],[-7.5412879,33.5751464],[-7.5417886,33.5752554],[-7.5444733,33.5758402],[-7.5466955,33.5762804],[-7.5468036,33.5763019],[-7.5485123,33.576635],[-7.5488629,33.5767081],[-7.5489663,33.5767361],[-7.5493739,33.5768467],[-7.5502903,33.577103],[-7.5513129,33.5773889],[-7.5517789,33.5775193],[-7.5528837,33.5778282],[-7.5531084,33.5778917],[-7.5534556,33.5779898],[-7.5537122,33.5780624],[-7.5538017,33.5780877],[-7.5548988,33.5783982],[-7.5564416,33.5788349],[-7.5569335,33.5789719],[-7.55713,33.5790266],[-7.559186,33.5795993],[-7.5601638,33.5798717],[-7.5601747,33.5798747],[-7.5603754,33.5799315],[-7.5605366,33.5799772],[-7.5634191,33.5807938],[-7.5637355,33.5808873],[-7.5638103,33.5809024],[-7.5639244,33.5809419],[-7.5640099,33.5809623],[-7.5641778,33.5810118],[-7.5646058,33.5811452],[-7.5649346,33.5812797],[-7.5656817,33.5815852],[-7.5658516,33.5816502],[-7.5668939,33.5820606],[-7.5671036,33.5821432],[-7.5671272,33.5821687],[-7.5671412,33.5821923],[-7.5671568,33.5822281],[-7.5671657,33.5822475],[-7.5671739,33.5822846],[-7.5671619,33.5823143],[-7.5671443,33.5823877],[-7.5667158,33.5830885],[-7.5665562,33.5833255],[-7.5663108,33.58369],[-7.566285,33.5837877],[-7.5662897,33.5839073],[-7.5663028,33.5839486],[-7.5666089,33.5849161],[-7.5668241,33.585596],[-7.5668706,33.5857485],[-7.566897,33.5858238],[-7.5670876,33.5864065],[-7.5671586,33.5866239],[-7.567416,33.5874125],[-7.5677696,33.5884957],[-7.567846,33.5887336],[-7.5678525,33.5887532],[-7.5680007,33.5892007],[-7.5680145,33.5892425],[-7.5680699,33.58941],[-7.5682986,33.5901004],[-7.5683513,33.5902598],[-7.568758,33.591488],[-7.5687746,33.5915208],[-7.568791,33.5915471],[-7.568808,33.5915641],[-7.5688508,33.5915962],[-7.5689061,33.5916205],[-7.5689674,33.5916271],[-7.569018,33.5916204],[-7.5693289,33.5915624],[-7.5699506,33.5914241],[-7.5715803,33.5910063],[-7.5717314,33.5909482],[-7.5717614,33.5909367],[-7.5719239,33.5908721],[-7.5721843,33.5907743],[-7.5722897,33.5907491],[-7.5726386,33.5906531],[-7.5729906,33.5905587],[-7.5737549,33.5903669],[-7.5744603,33.5902276],[-7.5746429,33.5902144],[-7.5747831,33.5901996],[-7.5749507,33.5902152],[-7.5750677,33.5902366],[-7.575463,33.5903089],[-7.5769893,33.5905736],[-7.5774753,33.590673],[-7.5785868,33.5909456],[-7.5799101,33.5912613]]}},{"type":"Feature","properties":{"way_id":1110894767,"route_colors":["#ffdb2f"],"route_refs":["T2"]},"geometry":{"type":"LineString","coordinates":[[-7.6819168,33.5884305],[-7.6812627,33.5877849],[-7.6811384,33.5876749],[-7.6808534,33.5874191],[-7.6805245,33.587134],[-7.6805147,33.5871255],[-7.6790103,33.5858139],[-7.6789611,33.5857604],[-7.6787083,33.5854851],[-7.6782224,33.5847269],[-7.6779367,33.5842131],[-7.6777013,33.5838226],[-7.6775385,33.5835527],[-7.6774101,33.5834117],[-7.6772456,33.5832628],[-7.6770022,33.5831207],[-7.6769169,33.5830829],[-7.6768558,33.5830596],[-7.6763385,33.582836],[-7.6760795,33.5827162],[-7.6759795,33.5826723],[-7.6755449,33.5824849],[-7.6754111,33.5824125],[-7.6752939,33.5823255],[-7.6751985,33.5822214],[-7.6750847,33.5820716],[-7.6749952,33.5818658],[-7.6748972,33.5812638],[-7.674844,33.5809366],[-7.6747285,33.5803103],[-7.6747092,33.5802288],[-7.6745846,33.5797189],[-7.6744784,33.5793976],[-7.6742963,33.5789324],[-7.674058,33.5783652],[-7.6736452,33.5775049],[-7.6736319,33.5774788]]}},{"type":"Feature","properties":{"way_id":1110894768,"route_colors":["#ffdb2f"],"route_refs":["T2"]},"geometry":{"type":"LineString","coordinates":[[-7.6736319,33.5774788],[-7.6736024,33.5774209]]}},{"type":"Feature","properties":{"way_id":213915585,"route_colors":["#ffdb2f"],"route_refs":["T2"]},"geometry":{"type":"LineString","coordinates":[[-7.6736024,33.5774209],[-7.673582,33.5773905],[-7.6735289,33.5773115],[-7.6734124,33.5771469],[-7.6733496,33.5770628],[-7.6731993,33.5768615],[-7.6729679,33.5765515],[-7.6725679,33.5760303],[-7.6724541,33.5758912],[-7.6722482,33.575607],[-7.672119,33.5754215],[-7.671834,33.5749458],[-7.6712902,33.574144],[-7.6710366,33.573879],[-7.6709737,33.5738132],[-7.6708962,33.5737507],[-7.6703085,33.5732769],[-7.669977,33.5728314],[-7.6697469,33.5724652],[-7.6696944,33.5723817],[-7.6694191,33.5719409],[-7.6692634,33.571697],[-7.6691587,33.571542],[-7.6691208,33.5714785],[-7.6690306,33.5713402],[-7.6686467,33.5707828],[-7.668432,33.5705614],[-7.6682235,33.5703824],[-7.6681981,33.5703647],[-7.6680441,33.5702739],[-7.6679542,33.5702209],[-7.667877,33.5701946],[-7.6676403,33.5700752],[-7.6662487,33.5693732],[-7.6655576,33.5689649],[-7.6655148,33.5689395],[-7.6654675,33.5689116],[-7.6646521,33.5684298],[-7.6646127,33.5684065],[-7.6645657,33.5683787],[-7.6642082,33.5681675],[-7.6638381,33.5679495],[-7.6637884,33.5679202],[-7.6637299,33.5678857],[-7.662531,33.5671795],[-7.6624848,33.5671523],[-7.661665,33.5666693],[-7.6616123,33.5666377],[-7.6612961,33.566452],[-7.6603124,33.565862],[-7.6598203,33.5655664],[-7.6597389,33.5655142],[-7.6596737,33.5654624],[-7.6596607,33.5654431],[-7.6596483,33.5654258],[-7.6596332,33.5654047],[-7.659627,33.5653724],[-7.6596251,33.565359],[-7.6596245,33.5653247],[-7.6596292,33.5652881],[-7.6596537,33.5652181],[-7.6596924,33.5651135],[-7.660312,33.563724],[-7.6606297,33.5630085],[-7.6609173,33.5623151],[-7.6610703,33.5619508],[-7.6611292,33.5618105],[-7.6611458,33.5616955],[-7.6611326,33.561602],[-7.6610825,33.5614953],[-7.6610423,33.5614511],[-7.6609601,33.5613936],[-7.6607527,33.5613144],[-7.6598609,33.5610491],[-7.6595833,33.5609488],[-7.6593733,33.5608483],[-7.6592845,33.5608051],[-7.6591935,33.5607514],[-7.6575044,33.5597251],[-7.6570408,33.5594692],[-7.6570164,33.5594559],[-7.6569316,33.5594108],[-7.6568889,33.5593871],[-7.6555995,33.5586689],[-7.6555197,33.5586362],[-7.6554519,33.5586193],[-7.6553779,33.5586096],[-7.6553042,33.5586128],[-7.6552712,33.5586193],[-7.655233,33.5586269],[-7.6551724,33.5586438],[-7.6551142,33.5586691],[-7.6550655,33.5587062],[-7.6545261,33.5593328],[-7.6544741,33.5593931],[-7.6544098,33.5594718],[-7.6540252,33.5599424],[-7.6539371,33.5600591],[-7.653491,33.5606503],[-7.6529722,33.5612782],[-7.6526127,33.5617107],[-7.6524879,33.5617566],[-7.652462,33.5617593],[-7.6523602,33.561753],[-7.6518816,33.5615296],[-7.6516149,33.5614052],[-7.6506252,33.5609432],[-7.6504326,33.5608576],[-7.6503415,33.5608546],[-7.6503016,33.5608584],[-7.6502765,33.5608693],[-7.6501871,33.5609299],[-7.6501707,33.5609538],[-7.6495092,33.5619173],[-7.6493395,33.5621645],[-7.648288,33.563696],[-7.6478598,33.5643196],[-7.647416,33.5649882],[-7.6473286,33.5650951],[-7.6467541,33.5659512],[-7.6463196,33.5665666],[-7.6462744,33.5666228],[-7.6455384,33.5675791],[-7.6451767,33.5680342],[-7.6446034,33.5687753],[-7.6444472,33.5689863],[-7.6444236,33.5690104],[-7.6443849,33.5690449],[-7.6442904,33.5691339],[-7.6441483,33.5692256],[-7.6440356,33.5692646],[-7.6439822,33.569286],[-7.6439472,33.569293],[-7.6438597,33.5693049],[-7.6437351,33.5693189],[-7.6422465,33.5693341],[-7.6414377,33.5693343],[-7.6407355,33.5693452],[-7.6406762,33.5693483],[-7.6406077,33.5693538],[-7.6404889,33.5693684],[-7.6404293,33.5693787],[-7.6403624,33.5693952],[-7.6403052,33.569411],[-7.6402319,33.5694347],[-7.6401582,33.5694624],[-7.6400819,33.5694919],[-7.6374957,33.5708585],[-7.6373882,33.5709132],[-7.6373169,33.5709436],[-7.6372276,33.5709726],[-7.637165,33.5709863],[-7.6371087,33.5709934],[-7.6370453,33.5709989],[-7.63697,33.5709948],[-7.6363555,33.5709439],[-7.635812,33.5708899],[-7.6356764,33.5708762],[-7.6355368,33.5708591],[-7.6354463,33.5708493],[-7.6353373,33.5708339],[-7.6352487,33.5708191],[-7.6321999,33.5701559],[-7.6316695,33.5700369],[-7.6301688,33.5697112],[-7.6300839,33.5696946],[-7.6300052,33.5696829],[-7.6299023,33.5696698],[-7.6297991,33.5696577],[-7.6297092,33.5696497],[-7.6266601,33.569505]]}},{"type":"Feature","properties":{"way_id":685991362,"route_colors":["#ffdb2f"],"route_refs":["T2"]},"geometry":{"type":"LineString","coordinates":[[-7.6266601,33.569505],[-7.6260992,33.5694546],[-7.6260361,33.5694515]]}},{"type":"Feature","properties":{"way_id":685991359,"route_colors":["#ffdb2f"],"route_refs":["T2"]},"geometry":{"type":"LineString","coordinates":[[-7.6260361,33.5694515],[-7.6259832,33.5694496],[-7.6259115,33.5694475],[-7.6257533,33.569441],[-7.6255737,33.5694331]]}},{"type":"Feature","properties":{"way_id":438265878,"route_colors":["#ffdb2f"],"route_refs":["T2"]},"geometry":{"type":"LineString","coordinates":[[-7.6255737,33.5694331],[-7.624931,33.5694206],[-7.62456,33.5694187],[-7.6242207,33.5694322],[-7.6239805,33.5694418],[-7.6235103,33.5694606],[-7.6231965,33.569484],[-7.6228514,33.5695026],[-7.6224505,33.5694959],[-7.6222452,33.5694908],[-7.6216394,33.5694163],[-7.6212268,33.5693329],[-7.6205478,33.5691893],[-7.6204983,33.5691852],[-7.6203852,33.5691758],[-7.6201054,33.5691472],[-7.6197159,33.5691361],[-7.61928,33.5691523],[-7.6187524,33.5691922],[-7.6183182,33.5692032],[-7.6179068,33.5691964],[-7.617843,33.5691947],[-7.6173744,33.5691651],[-7.6169318,33.5691088],[-7.6164576,33.5690219],[-7.6160194,33.5689271],[-7.6158536,33.5689036],[-7.6156828,33.5689167],[-7.6151921,33.5689735],[-7.6150922,33.5689857],[-7.6149707,33.5689979],[-7.6147477,33.5690224],[-7.6140751,33.569084],[-7.6138392,33.5691115],[-7.6135273,33.5691214],[-7.6127062,33.5690979],[-7.611964,33.5690808],[-7.6117565,33.5690786],[-7.6116829,33.5690662],[-7.6115103,33.5688574],[-7.6107135,33.5679732],[-7.61034,33.5675584],[-7.6097987,33.5669672],[-7.6094349,33.5665369],[-7.6091523,33.5661948],[-7.6090924,33.5661023],[-7.6090378,33.5660342],[-7.6089604,33.5659655],[-7.6088736,33.5659147],[-7.6088175,33.5658871],[-7.6086681,33.5658425],[-7.608516,33.5658235],[-7.6084096,33.5658365],[-7.608317,33.5658704],[-7.6082409,33.5659029],[-7.6077951,33.5661639],[-7.6076581,33.5662441],[-7.6072591,33.5664939],[-7.6066072,33.5668807],[-7.6052204,33.5677343],[-7.6045052,33.5681762],[-7.6044054,33.5682378],[-7.6038662,33.5685596],[-7.6026083,33.5693329],[-7.6021427,33.5696125],[-7.6018572,33.569797],[-7.6015979,33.5699646],[-7.6014966,33.5700257],[-7.5990756,33.5714866],[-7.5989664,33.5715497],[-7.598843,33.5715955],[-7.598672,33.5716336],[-7.5979605,33.5717687],[-7.5972856,33.5718779],[-7.5972094,33.5718901],[-7.5971439,33.5719006],[-7.5970761,33.5719114],[-7.5962466,33.5720481],[-7.5958327,33.5721247],[-7.5944951,33.5723632],[-7.5942034,33.5724179],[-7.5937708,33.5725061],[-7.5916312,33.572912],[-7.5912285,33.5729583],[-7.5909419,33.5729548],[-7.590599,33.5729044],[-7.5903366,33.5728357],[-7.5900648,33.572729],[-7.58981,33.5725933],[-7.5896003,33.5724592],[-7.5888024,33.5718907],[-7.5885943,33.5717642],[-7.588383,33.571668],[-7.5883537,33.5716556],[-7.5881303,33.571561],[-7.5878835,33.5715151],[-7.5876689,33.5714827],[-7.5874499,33.5714749],[-7.5871578,33.5714851],[-7.5868485,33.571545],[-7.5863452,33.5716601],[-7.5828958,33.5724207],[-7.5825555,33.5724863],[-7.5822258,33.5724905],[-7.5819419,33.5724603],[-7.5815953,33.5723912],[-7.5813147,33.5722894],[-7.5811538,33.5722034],[-7.5810092,33.5721265],[-7.5807423,33.5719662],[-7.5804176,33.5717532],[-7.5803858,33.5717326],[-7.5802951,33.5716991],[-7.5802361,33.5716864],[-7.5801842,33.5716822],[-7.5801267,33.5716878],[-7.5800942,33.5717008],[-7.5800353,33.5717335],[-7.5799858,33.571768],[-7.5799314,33.5718241],[-7.5798681,33.5718893],[-7.579812,33.5719462],[-7.5797097,33.5720527],[-7.5782304,33.5734417],[-7.5780856,33.5735869],[-7.5779549,33.5737623],[-7.5779085,33.5738551],[-7.5778614,33.5739688],[-7.5778128,33.5741487],[-7.5777742,33.5743879],[-7.5777302,33.5746485],[-7.5776658,33.5748116],[-7.5775331,33.5749903],[-7.5773732,33.5751141],[-7.5771804,33.5752127],[-7.5765952,33.5755147],[-7.5744115,33.5765751],[-7.5709304,33.5782735],[-7.5699897,33.57872],[-7.5697657,33.5788021],[-7.5694905,33.5788943],[-7.5691931,33.5789722],[-7.5688233,33.5790585],[-7.5681439,33.5792387],[-7.5677337,33.5793401],[-7.5667584,33.5795812],[-7.5662087,33.5797146],[-7.5654427,33.5799006],[-7.5652606,33.5799732],[-7.5650247,33.5800874],[-7.564111,33.5806976],[-7.563877,33.5808539],[-7.5638103,33.5809024],[-7.5637581,33.5809404],[-7.5636984,33.5809837],[-7.5634043,33.5811962],[-7.562845,33.5815799],[-7.5625895,33.5816937],[-7.5621161,33.5818898],[-7.5620124,33.581944],[-7.561955,33.582],[-7.5619158,33.5820878],[-7.5619002,33.5821393],[-7.561913,33.582227],[-7.5619308,33.5822835],[-7.5619826,33.5824484],[-7.5621981,33.5831456],[-7.5626613,33.5845743],[-7.5627206,33.5847668],[-7.5630552,33.5857257],[-7.5633753,33.5865356],[-7.5634022,33.5866073],[-7.5635552,33.5870986],[-7.5641225,33.5888198],[-7.5647326,33.5907222],[-7.5652252,33.5922929],[-7.56524,33.5923575],[-7.5652462,33.5924061],[-7.5652558,33.5924768],[-7.5652167,33.5925267],[-7.5651644,33.5925706],[-7.5650967,33.5925918],[-7.564447,33.5927308],[-7.5634673,33.5929386],[-7.5623703,33.5931892],[-7.5620753,33.5932626],[-7.5620299,33.5932679],[-7.5616904,33.5933073],[-7.5611279,33.5933533],[-7.5610346,33.5933609],[-7.5599247,33.593484],[-7.5583603,33.5936576],[-7.557455,33.5937762],[-7.5569336,33.5938336],[-7.5551179,33.5940334],[-7.5540239,33.5941492],[-7.5531615,33.5942589],[-7.5516139,33.5945223],[-7.5514591,33.5945484],[-7.5514024,33.5945579],[-7.5513278,33.5945645],[-7.5510977,33.5946027],[-7.5500333,33.5947837],[-7.5492758,33.5948712],[-7.5479255,33.595026],[-7.5472078,33.5951281],[-7.5466765,33.5952212]]}},{"type":"Feature","properties":{"way_id":633261813,"route_colors":["#ffdb2f"],"route_refs":["T2"]},"geometry":{"type":"LineString","coordinates":[[-7.5466765,33.5952212],[-7.54621,33.5953315],[-7.5456876,33.5954168]]}},{"type":"Feature","properties":{"way_id":550477782,"route_colors":["#ffdb2f"],"route_refs":["T2"]},"geometry":{"type":"LineString","coordinates":[[-7.5456876,33.5954168],[-7.5454407,33.5954485]]}},{"type":"Feature","properties":{"way_id":550477783,"route_colors":["#ffdb2f"],"route_refs":["T2"]},"geometry":{"type":"LineString","coordinates":[[-7.5454407,33.5954485],[-7.5445453,33.5955772]]}},{"type":"Feature","properties":{"way_id":633261814,"route_colors":["#ffdb2f"],"route_refs":["T2"]},"geometry":{"type":"LineString","coordinates":[[-7.5445453,33.5955772],[-7.5439956,33.5956471],[-7.5437999,33.5956449],[-7.5435582,33.5956357],[-7.5432251,33.5955681],[-7.5428727,33.5954575],[-7.5426471,33.5953449],[-7.5414526,33.5947124],[-7.5413137,33.5946572],[-7.5412857,33.5946453],[-7.5411425,33.5945847],[-7.5410703,33.5945786],[-7.5409608,33.5945617],[-7.5408562,33.5945491],[-7.5407873,33.5945699],[-7.5406059,33.5946062],[-7.5403762,33.5946835],[-7.5384799,33.5954605],[-7.5380233,33.5956476],[-7.5378809,33.5957085],[-7.5376071,33.5958297],[-7.5374892,33.5958819],[-7.5373543,33.5959816],[-7.537239,33.5960853],[-7.5361367,33.5971891],[-7.535893,33.5974085],[-7.53541,33.5978775],[-7.5353342,33.5979509],[-7.5351696,33.5981026],[-7.5350195,33.5982106],[-7.5348633,33.5982953],[-7.5334322,33.5989024],[-7.5332632,33.5989813],[-7.5327628,33.5991917],[-7.5323261,33.5993735],[-7.5313219,33.5998119],[-7.5311801,33.5998664],[-7.5311498,33.5998783],[-7.530994,33.5999572],[-7.5309408,33.5999924],[-7.5309026,33.6000309],[-7.5308752,33.6000736],[-7.5308377,33.6001838],[-7.5308085,33.6003314],[-7.5307948,33.6004005],[-7.5307738,33.6004621],[-7.5307452,33.6004949],[-7.5306342,33.6005668],[-7.5305742,33.6005988],[-7.5305461,33.6006136],[-7.5294951,33.6011188],[-7.5294468,33.6011728],[-7.5294237,33.6012013],[-7.5294153,33.6012424],[-7.5294155,33.6012827],[-7.5294276,33.60134],[-7.5294468,33.6013979],[-7.5298196,33.6019541],[-7.5299302,33.6021198],[-7.5303357,33.602741],[-7.5303738,33.6028587],[-7.5303967,33.6029791],[-7.5303905,33.6031326],[-7.5303626,33.6032239],[-7.5303577,33.6032334],[-7.5302486,33.6034442],[-7.5301784,33.6035439],[-7.5300929,33.6036585],[-7.530008,33.6037244],[-7.5298809,33.6038087],[-7.5296453,33.6039664],[-7.5292995,33.6041753],[-7.5288412,33.6044521],[-7.528426,33.6047249],[-7.5279924,33.605034],[-7.5279151,33.6050934],[-7.5277,33.6052585],[-7.5273462,33.6054938],[-7.5272442,33.6055573],[-7.5262923,33.6061496],[-7.5259971,33.60634],[-7.5247413,33.6071502],[-7.5246573,33.6072044],[-7.5243059,33.6074235],[-7.523966,33.6076406],[-7.5237726,33.6077641],[-7.5236653,33.6078354],[-7.5234315,33.6079907],[-7.5231794,33.6081404],[-7.5228146,33.6083302],[-7.5224069,33.6084844],[-7.5220234,33.6086073],[-7.5219507,33.6086338],[-7.521613,33.6087569],[-7.5208907,33.6089851],[-7.5208234,33.6089873],[-7.5207696,33.608991],[-7.5206611,33.6090041],[-7.5206139,33.6089692],[-7.520533,33.6089062],[-7.5204959,33.6088728],[-7.5196643,33.6075658],[-7.5196248,33.6075036],[-7.5190555,33.6066225],[-7.5190233,33.6065736],[-7.518986,33.6065312],[-7.5189337,33.6064706],[-7.5188905,33.6064396],[-7.518877,33.6064338],[-7.5188255,33.6064018],[-7.5187678,33.6063759],[-7.5186239,33.6063714],[-7.5183566,33.6064671],[-7.5180446,33.6066082],[-7.5175143,33.6068478],[-7.5167746,33.6071723],[-7.5160969,33.6074857],[-7.5158036,33.6076213],[-7.5139689,33.6084343],[-7.5137081,33.6085532],[-7.5124701,33.6091178],[-7.5123013,33.6091948],[-7.5121164,33.6092729],[-7.5116786,33.6094621],[-7.5115088,33.6095224],[-7.5110506,33.6097012],[-7.5108868,33.6097572],[-7.5104701,33.6098904],[-7.5103027,33.6099404],[-7.5102401,33.609958],[-7.5098188,33.6100859],[-7.5093858,33.6102174],[-7.5089874,33.6103378],[-7.5088235,33.6103942],[-7.5087275,33.6104202],[-7.508613,33.6104405],[-7.508485,33.6104591],[-7.5083598,33.6104668],[-7.5082181,33.6104647],[-7.5080767,33.6104535],[-7.5079481,33.6104394]]}},{"type":"Feature","properties":{"way_id":685991353,"route_colors":["#ffdb2f"],"route_refs":["T2"]},"geometry":{"type":"LineString","coordinates":[[-7.5079366,33.6104699],[-7.5080782,33.6104851],[-7.5082074,33.6104956],[-7.5083304,33.610496],[-7.5084471,33.6104907],[-7.5085792,33.6104755],[-7.5087017,33.6104561],[-7.5088248,33.6104237],[-7.5092734,33.6102874],[-7.509399,33.6102475],[-7.5098332,33.61012],[-7.510254,33.6099889],[-7.5102948,33.6099791],[-7.5110869,33.6097274],[-7.5115267,33.6095552],[-7.5116765,33.6095069],[-7.5117946,33.6094526],[-7.5121325,33.6093063],[-7.5123055,33.6092348],[-7.5124931,33.6091509],[-7.5137357,33.6085952],[-7.5139913,33.6084809],[-7.5161216,33.6075229],[-7.5164402,33.6073796],[-7.5172824,33.607011],[-7.5175447,33.6068993],[-7.5180698,33.6066475],[-7.5185231,33.6064545],[-7.5186946,33.606438],[-7.5187833,33.6064435],[-7.5188372,33.6064696],[-7.51886,33.6064868],[-7.5188917,33.6065106],[-7.5189561,33.6065866],[-7.5189964,33.6066481],[-7.5196047,33.6075914],[-7.5198653,33.607995],[-7.5204581,33.608883],[-7.5204951,33.6089195],[-7.5205453,33.608969],[-7.5206303,33.6090148],[-7.52067,33.6090349],[-7.5206915,33.6090382],[-7.5207612,33.609055],[-7.5209178,33.6090279],[-7.5215739,33.6088026],[-7.5221613,33.6086072],[-7.5224,33.6085278],[-7.5228399,33.6083737],[-7.5231886,33.6081905],[-7.523497,33.6080006],[-7.5236921,33.6078695],[-7.5237956,33.6077999],[-7.5239182,33.6077236],[-7.5239953,33.6076736],[-7.5243419,33.6074489],[-7.5247646,33.6071766],[-7.5250876,33.6069686],[-7.5260284,33.6063737],[-7.5272213,33.6056193],[-7.5272709,33.6055881],[-7.5273666,33.605528],[-7.5274144,33.6054964],[-7.5277348,33.605282],[-7.5279491,33.6051267],[-7.5284591,33.604757],[-7.529127,33.6043415],[-7.5293276,33.6042137],[-7.5300524,33.6037517],[-7.5301583,33.6036717],[-7.5301972,33.6036244],[-7.53031,33.6034579],[-7.5303501,33.603363],[-7.5303932,33.603239],[-7.5304037,33.6032089],[-7.5304252,33.603124],[-7.5304332,33.6029855],[-7.5304171,33.6028648],[-7.5303769,33.6027531],[-7.5302374,33.602523],[-7.5299679,33.6021047],[-7.5298673,33.6019489],[-7.5295468,33.6014786],[-7.529477,33.6013613],[-7.5294569,33.6012731],[-7.5294609,33.6012262],[-7.5295092,33.6011502],[-7.5305647,33.6006431],[-7.5305941,33.6006294],[-7.5306585,33.6005995],[-7.5307449,33.600545],[-7.5307792,33.6005155],[-7.5308208,33.600464],[-7.5308436,33.6004029],[-7.5308559,33.6003355],[-7.5308839,33.6001829],[-7.530916,33.6000812],[-7.5309533,33.6000282],[-7.5309957,33.5999936],[-7.5310126,33.599985],[-7.531077,33.5999561],[-7.5311756,33.5999134],[-7.5327936,33.5992189],[-7.5332888,33.599012],[-7.5334804,33.598932],[-7.5344941,33.5984972],[-7.534883,33.5983308],[-7.5350507,33.5982392],[-7.5352022,33.598123],[-7.5354405,33.5978924],[-7.5359219,33.5974264],[-7.5361529,33.5972027],[-7.5372729,33.5961179],[-7.5373909,33.5960084],[-7.5375277,33.5959168],[-7.5376332,33.5958687],[-7.5379072,33.5957437],[-7.5385035,33.5955009],[-7.5400664,33.5948645],[-7.5404622,33.5946873],[-7.5406485,33.5946252],[-7.5407934,33.5945972],[-7.540859,33.5945845],[-7.5409853,33.5945993],[-7.5411288,33.5946158],[-7.5412114,33.5946461],[-7.5412664,33.5946662],[-7.5413176,33.594685],[-7.5414461,33.5947488],[-7.5420901,33.5950902],[-7.5426212,33.595394],[-7.5428599,33.595508],[-7.5431831,33.595613],[-7.5435278,33.5956867],[-7.5437611,33.5957023],[-7.5439891,33.5957001],[-7.5445658,33.5956487]]}},{"type":"Feature","properties":{"way_id":685991352,"route_colors":["#ffdb2f"],"route_refs":["T2"]},"geometry":{"type":"LineString","coordinates":[[-7.5445658,33.5956487],[-7.5454348,33.5955236]]}},{"type":"Feature","properties":{"way_id":685991350,"route_colors":["#ffdb2f"],"route_refs":["T2"]},"geometry":{"type":"LineString","coordinates":[[-7.5454348,33.5955236],[-7.5457165,33.5954834]]}},{"type":"Feature","properties":{"way_id":685991351,"route_colors":["#ffdb2f"],"route_refs":["T2"]},"geometry":{"type":"LineString","coordinates":[[-7.5457165,33.5954834],[-7.5462341,33.595394],[-7.5466794,33.5952778]]}},{"type":"Feature","properties":{"way_id":685991358,"route_colors":["#ffdb2f"],"route_refs":["T2"]},"geometry":{"type":"LineString","coordinates":[[-7.5466794,33.5952778],[-7.5472051,33.5951818],[-7.5479347,33.5950768],[-7.5492945,33.5949181],[-7.5500429,33.5948265],[-7.5505284,33.5947349],[-7.5511205,33.5946425],[-7.551363,33.5945999],[-7.5514613,33.5945862],[-7.5516338,33.5945622],[-7.5531596,33.5943082],[-7.5540286,33.5942054],[-7.5545758,33.5941451],[-7.5551349,33.5940829],[-7.556043,33.593982],[-7.5569424,33.5938804],[-7.5574672,33.5938211],[-7.5588405,33.5936647],[-7.5599313,33.5935426],[-7.5603774,33.5934927],[-7.5610346,33.5934145],[-7.5611333,33.5934051],[-7.5616917,33.5933519],[-7.5620392,33.593304],[-7.5620806,33.5932983],[-7.5623944,33.5932358],[-7.5634781,33.5929855],[-7.5644624,33.592771],[-7.5651117,33.5926303],[-7.5651929,33.5925969],[-7.5652699,33.5925383],[-7.5653031,33.5924649],[-7.565299,33.592393],[-7.5652939,33.5923465],[-7.5652832,33.5922773],[-7.5647789,33.5907088],[-7.5641768,33.5888074],[-7.5635974,33.5870891],[-7.5634567,33.5865945],[-7.5634281,33.5865231],[-7.5631133,33.5857172],[-7.5627807,33.5847542],[-7.5627244,33.5845586],[-7.5622577,33.5831386],[-7.562035,33.5824347],[-7.5619788,33.5822726],[-7.5619599,33.582218],[-7.5619438,33.582151],[-7.5619558,33.5820747],[-7.5619734,33.5820463],[-7.562035,33.5819878],[-7.5621188,33.5819392],[-7.562148,33.5819268],[-7.5626251,33.5817376],[-7.5628853,33.5816214],[-7.5630937,33.5815007],[-7.5634521,33.5812553],[-7.5638093,33.5810162],[-7.5638588,33.5809828],[-7.5639244,33.5809419],[-7.5639937,33.5808957],[-7.5641732,33.5807678],[-7.5643209,33.5806369],[-7.5644782,33.5805119],[-7.5650525,33.5801332],[-7.5652778,33.5800214],[-7.5654656,33.5799477],[-7.5656748,33.5798807],[-7.5662223,33.5797526],[-7.567751,33.5793944],[-7.5681572,33.5792851],[-7.5688415,33.5791117],[-7.5692106,33.5790247],[-7.5695184,33.5789399],[-7.5697866,33.5788505],[-7.5700307,33.5787611],[-7.570948,33.5783209],[-7.5744371,33.5766207],[-7.5766209,33.5755566],[-7.577219,33.5752594],[-7.5774148,33.5751566],[-7.5775838,33.5750292],[-7.5777233,33.5748393],[-7.5777876,33.574656],[-7.5778399,33.5743934],[-7.5778708,33.5741584],[-7.5778896,33.5740705],[-7.577911,33.5739744],[-7.5779566,33.5738761],[-7.5780095,33.5737814],[-7.5781336,33.5736124],[-7.5782731,33.5734716],[-7.5792494,33.5725688],[-7.5795552,33.5722939],[-7.5797698,33.5720816],[-7.5798523,33.5719893],[-7.5799197,33.5719275],[-7.5799878,33.5718575],[-7.580043,33.5718007],[-7.5800919,33.5717708],[-7.580153,33.5717446],[-7.5801858,33.5717389],[-7.580215,33.5717391],[-7.5802473,33.571741],[-7.580304,33.5717532],[-7.5803518,33.5717732],[-7.5803806,33.5717898],[-7.5807193,33.5719967],[-7.581017,33.5721821],[-7.5813013,33.5723229],[-7.5814891,33.5723989],[-7.5817144,33.5724682],[-7.5819451,33.5725151],[-7.5822321,33.5725397],[-7.5825673,33.572533],[-7.582916,33.572466],[-7.5863724,33.5717093],[-7.5868723,33.5715989],[-7.58717,33.571543],[-7.5874543,33.5715296],[-7.5876689,33.571543],[-7.5878701,33.571572],[-7.5881168,33.571619],[-7.5883663,33.5717039],[-7.5884383,33.5717376],[-7.5885621,33.5717955],[-7.5887686,33.5719184],[-7.5895491,33.572495],[-7.5897798,33.5726313],[-7.5900427,33.5727744],[-7.5903323,33.5728839],[-7.5906193,33.5729666],[-7.5909466,33.5730001],[-7.5912684,33.5729956],[-7.59166,33.5729509],[-7.5925358,33.5727922],[-7.5932989,33.5726537],[-7.593782,33.5725605],[-7.5942232,33.5724682],[-7.5945273,33.5724079],[-7.5958496,33.5721699],[-7.5962815,33.5720995],[-7.5965588,33.5720521],[-7.5971007,33.5719593],[-7.5971712,33.5719463],[-7.5972265,33.5719362],[-7.5973031,33.5719221],[-7.5982864,33.5717553],[-7.5986727,33.5716804],[-7.598855,33.5716413],[-7.5989731,33.5715977],[-7.5991045,33.571524],[-7.6015323,33.570058],[-7.6016427,33.5699913],[-7.6018915,33.569836],[-7.6021823,33.5696546],[-7.6026464,33.5693685],[-7.6044354,33.5682779],[-7.6045348,33.5682165],[-7.6052561,33.5677706],[-7.6066348,33.5669191],[-7.6072879,33.5665224],[-7.6076594,33.566291],[-7.6078474,33.566183],[-7.6082468,33.5659536],[-7.6083756,33.5658921],[-7.6084936,33.5658653],[-7.6086143,33.5658776],[-7.608743,33.5659066],[-7.6088301,33.5659402],[-7.608853,33.5659491],[-7.6089308,33.5660005],[-7.6089925,33.5660608],[-7.6090434,33.5661279],[-7.6091158,33.5662463],[-7.6093867,33.5665704],[-7.6097515,33.5669883],[-7.6102933,33.5675985],[-7.6106715,33.568003],[-7.6114601,33.5688902],[-7.6116264,33.5690813],[-7.6116594,33.5691012],[-7.6117337,33.5691204],[-7.6118039,33.5691268],[-7.611967,33.5691294],[-7.6126952,33.5691439],[-7.6135334,33.5691607],[-7.6138419,33.5691472],[-7.6140752,33.5691271],[-7.6147565,33.5690623],[-7.6149561,33.5690389],[-7.615075,33.5690282],[-7.6151857,33.5690176],[-7.6156604,33.5689618],[-7.6158562,33.5689483],[-7.6160118,33.568964],[-7.6164544,33.5690646],[-7.6169318,33.5691472],[-7.617369,33.5692054],[-7.6179041,33.5692378],[-7.6183185,33.5692411],[-7.6187637,33.5692299],[-7.6192921,33.5691897],[-7.6197347,33.5691785],[-7.6201075,33.569183],[-7.6205447,33.5692344],[-7.6212233,33.569364],[-7.6216444,33.5694568],[-7.6221514,33.5695249],[-7.622539,33.5695473],[-7.6228514,33.569554],[-7.6231921,33.5695361],[-7.6235166,33.569516],[-7.6239807,33.5694961],[-7.624222,33.5694857],[-7.6245573,33.5694713],[-7.6249261,33.5694635],[-7.6254612,33.5694769]]}},{"type":"Feature","properties":{"way_id":685991363,"route_colors":["#ffdb2f"],"route_refs":["T2"]},"geometry":{"type":"LineString","coordinates":[[-7.6254612,33.5694769],[-7.6259097,33.5694923],[-7.625982,33.5694955],[-7.6260337,33.5694974],[-7.6260974,33.5695009],[-7.6262915,33.5695095],[-7.626661,33.5695378]]}},{"type":"Feature","properties":{"way_id":243430555,"route_colors":["#ffdb2f"],"route_refs":["T2"]},"geometry":{"type":"LineString","coordinates":[[-7.626661,33.5695378],[-7.6297615,33.5696841],[-7.629836,33.5696909],[-7.6299382,33.5697022],[-7.6300159,33.5697128],[-7.6300857,33.5697248],[-7.6301485,33.5697364],[-7.6302253,33.5697538],[-7.6316641,33.5700683],[-7.6322012,33.5701848],[-7.6352441,33.5708476],[-7.6353354,33.5708631],[-7.6354379,33.5708793],[-7.6355318,33.5708898],[-7.6356686,33.5709042],[-7.6358029,33.5709172],[-7.6363524,33.5709706],[-7.6369637,33.5710207],[-7.637044,33.5710278],[-7.6371147,33.5710248],[-7.6371772,33.5710169],[-7.6372436,33.5710021],[-7.6373245,33.5709752],[-7.6374214,33.5709346],[-7.6375337,33.5708759],[-7.6400944,33.5695228],[-7.6401627,33.5694943],[-7.6402491,33.5694632],[-7.6403163,33.5694414],[-7.640372,33.5694247],[-7.6404423,33.5694103],[-7.640498,33.569399],[-7.6406072,33.569386],[-7.6406807,33.5693809],[-7.6407345,33.569378],[-7.6414291,33.5693665],[-7.6422352,33.5693614],[-7.6437355,33.5693431],[-7.6438602,33.5693322],[-7.6439322,33.5693191],[-7.6440108,33.5693044],[-7.6441733,33.5692457],[-7.6442805,33.5691776],[-7.6443204,33.5691487],[-7.6444107,33.5690651],[-7.644437,33.5690436],[-7.6444571,33.5690249],[-7.6444754,33.5690053],[-7.6446346,33.5687969],[-7.6453629,33.5678633],[-7.6463618,33.5665865],[-7.6468036,33.5659682],[-7.6473833,33.565084],[-7.6474725,33.5649705],[-7.6479197,33.5643393],[-7.6483416,33.563722],[-7.649391,33.5621869],[-7.6495601,33.5619394],[-7.6501968,33.5610079],[-7.6502285,33.5609767],[-7.6502937,33.5609258],[-7.6503203,33.5609114],[-7.6503488,33.5609134],[-7.6504672,33.5609219],[-7.6506003,33.5609776],[-7.6515991,33.5614286],[-7.6518685,33.5615503],[-7.6523693,33.5617764],[-7.6524893,33.5617765],[-7.6525066,33.5617698],[-7.652547,33.5617542],[-7.6526319,33.5617213],[-7.6530017,33.5612793],[-7.6535151,33.5606613],[-7.6539621,33.5600731],[-7.6540504,33.5599568],[-7.6544391,33.5594866],[-7.6545022,33.5594103],[-7.6545541,33.5593494],[-7.6550845,33.5587264],[-7.6551112,33.5587056],[-7.6551652,33.5586777],[-7.6552154,33.5586555],[-7.6552479,33.5586481],[-7.6552898,33.5586385],[-7.6553693,33.5586368],[-7.6554485,33.558644],[-7.6555119,33.5586633],[-7.6555735,33.558691],[-7.6568613,33.5594263],[-7.6569047,33.5594507],[-7.6569855,33.5594942],[-7.657011,33.5595056],[-7.6574725,33.5597662],[-7.6591719,33.5607812],[-7.6592677,33.5608375],[-7.659375,33.5608901],[-7.6595651,33.5609773],[-7.6598548,33.5610835],[-7.6607599,33.5613517],[-7.6608504,33.5613822],[-7.6609626,33.5614344],[-7.6610359,33.561499],[-7.6610643,33.5615363],[-7.6611048,33.5616284],[-7.6611027,33.5617232],[-7.6610945,33.5617917],[-7.6610307,33.5619386],[-7.6608736,33.5623005],[-7.6605859,33.562995],[-7.6602706,33.5637108],[-7.6596557,33.5651054],[-7.6596051,33.5652188],[-7.6595804,33.5653073],[-7.6595808,33.5653437],[-7.6595851,33.5653883],[-7.6595923,33.5654059],[-7.6595974,33.5654184],[-7.659611,33.5654396],[-7.6596418,33.5654785],[-7.6597975,33.5655898],[-7.6602935,33.5658832],[-7.6615654,33.5666514],[-7.6615992,33.5666685],[-7.6624605,33.5671866],[-7.6625032,33.5672122],[-7.6636937,33.5679284],[-7.663754,33.5679647],[-7.6638051,33.5679954],[-7.6641842,33.5682234],[-7.6645337,33.5684254],[-7.6645793,33.5684518],[-7.6646208,33.5684758],[-7.6654384,33.5689483],[-7.665485,33.5689753],[-7.6655284,33.5690004],[-7.6662285,33.569405],[-7.6676133,33.570106],[-7.6678335,33.5702174],[-7.6678836,33.5702519],[-7.6680297,33.5703267],[-7.6681673,33.5703971],[-7.6681891,33.5704094],[-7.668402,33.5705767],[-7.6686552,33.570864],[-7.6689911,33.5713585],[-7.6690835,33.5714967],[-7.6691216,33.571561],[-7.6692192,33.5717181],[-7.6693821,33.5719563],[-7.669652,33.5723944],[-7.6697896,33.5726167],[-7.6699328,33.572848],[-7.6702602,33.5732997],[-7.6708629,33.5737737],[-7.6709106,33.5738112],[-7.6709998,33.5739032],[-7.6711775,33.5740865],[-7.6718008,33.5749626],[-7.6720863,33.5754338],[-7.6725152,33.5760564],[-7.6729263,33.5765668],[-7.6731587,33.5768829],[-7.6733072,33.5770849],[-7.6733669,33.5771661],[-7.6734849,33.5773296],[-7.6735225,33.5773824],[-7.673537,33.5774104],[-7.6740179,33.578381],[-7.6742658,33.5789434],[-7.6744419,33.5794071],[-7.6745488,33.5797278],[-7.6746602,33.5802312],[-7.6746802,33.5803201],[-7.6748004,33.5809428],[-7.6748528,33.5812692],[-7.6749784,33.5819028],[-7.6750562,33.5820801],[-7.6751282,33.5821882],[-7.6752083,33.5822958],[-7.6753339,33.582387],[-7.6754483,33.582458],[-7.6755588,33.5825202],[-7.6759606,33.5827027],[-7.6760612,33.5827488],[-7.6763104,33.5828516],[-7.6768342,33.5830833],[-7.6768903,33.583109],[-7.677022,33.5831666],[-7.6772238,33.5832853],[-7.6773899,33.5834283],[-7.6775021,33.5835678],[-7.6776604,33.5838378],[-7.6781882,33.5847382],[-7.6786848,33.5855113],[-7.678923,33.5857885],[-7.6789906,33.5858536],[-7.6803701,33.5870521],[-7.6804844,33.5871514],[-7.6808073,33.5874318],[-7.6811012,33.5877074],[-7.6814462,33.5880232],[-7.6818942,33.5884539]]}},{"type":"Feature","properties":{"way_id":1316035068,"route_colors":[],"route_refs":["T3"]},"geometry":{"type":"LineString","coordinates":[[-7.6123417,33.5983941],[-7.6119625,33.5982405],[-7.6114945,33.5980401],[-7.611424,33.5980201],[-7.6113508,33.598006],[-7.611274,33.5979958],[-7.6111557,33.5979894],[-7.6110755,33.5979865],[-7.610797,33.5979842],[-7.6105244,33.5979808],[-7.6100733,33.5979621],[-7.6094771,33.5979265],[-7.6093992,33.5979125],[-7.609343,33.5978905],[-7.6093055,33.5978682],[-7.60927,33.5978379],[-7.6092299,33.5977964],[-7.6092114,33.5977589],[-7.609199,33.5977169],[-7.6091994,33.5976612],[-7.6092061,33.5976123],[-7.6093834,33.5971436],[-7.6093891,33.5971034],[-7.6093893,33.5970768],[-7.6093866,33.5970381],[-7.6093856,33.5969929],[-7.6093767,33.5969363],[-7.6092569,33.5967218],[-7.6091557,33.5965621],[-7.6090905,33.5964209],[-7.6090357,33.5959472],[-7.6088922,33.5948237],[-7.6088802,33.5947382],[-7.6088347,33.5942105],[-7.6088021,33.5938348],[-7.608805,33.5938124],[-7.6088013,33.5937774],[-7.6087972,33.593743],[-7.6087343,33.5931626],[-7.6086542,33.5924227],[-7.608566,33.5917501],[-7.6085087,33.5911799],[-7.6084569,33.5906782],[-7.6084402,33.5905651],[-7.6083637,33.5898266],[-7.6083544,33.5897599],[-7.6083683,33.5896521],[-7.6084683,33.589487],[-7.6085688,33.5893341],[-7.6086457,33.5892202],[-7.6087258,33.5890814],[-7.6087827,33.5889915],[-7.6088107,33.588922],[-7.608821,33.588873],[-7.6088227,33.5888032],[-7.6088162,33.5887476],[-7.608802,33.5886915],[-7.6087756,33.5886373],[-7.6087434,33.5885849],[-7.6086833,33.5884919],[-7.6085791,33.5883235],[-7.6083805,33.5880189],[-7.6080271,33.5874722],[-7.6077747,33.587049],[-7.6074588,33.5866461],[-7.6073123,33.5864711],[-7.6068221,33.5859326],[-7.6064542,33.5855256],[-7.6063187,33.5853649],[-7.6062237,33.5852617],[-7.6059461,33.5849179],[-7.6054185,33.5843007],[-7.6050163,33.5838964],[-7.6049402,33.5838309],[-7.6046928,33.5836444],[-7.6037586,33.5829269],[-7.603396,33.5826484],[-7.6028018,33.5821971],[-7.6027418,33.5821515],[-7.6026827,33.5821067],[-7.6026209,33.5820597],[-7.6026029,33.5820402],[-7.602495,33.5819265],[-7.6023416,33.5816996],[-7.6015058,33.5801875],[-7.601202,33.5797013],[-7.6010811,33.5795496],[-7.6007293,33.5789697],[-7.6002571,33.5781155],[-7.5998806,33.5773987],[-7.5994009,33.5765177],[-7.5993499,33.5764342],[-7.599322,33.5763885],[-7.5992551,33.5762503],[-7.5991351,33.576005],[-7.598937,33.5755855],[-7.5982185,33.574094],[-7.5980674,33.5737748],[-7.5980437,33.573705],[-7.5973601,33.5722008],[-7.5972568,33.5719774],[-7.5972265,33.5719362],[-7.5972094,33.5718901],[-7.5971785,33.5718252],[-7.5968214,33.5712092],[-7.5966335,33.5708502],[-7.5963231,33.5702503],[-7.5962138,33.5699544],[-7.5961581,33.5696955],[-7.5961183,33.5695047],[-7.5957666,33.5674402],[-7.5957461,33.567311],[-7.595702,33.5671233],[-7.595604,33.5664626],[-7.5955542,33.5661269],[-7.5954084,33.565405],[-7.5952823,33.5646191],[-7.5952565,33.5644584],[-7.595,33.5628943],[-7.5949877,33.5628086],[-7.5949615,33.5626795],[-7.5949285,33.5625174],[-7.5948867,33.562334],[-7.5947817,33.5617726],[-7.5946026,33.560851],[-7.5944173,33.5596941]]}},{"type":"Feature","properties":{"way_id":1316035069,"route_colors":[],"route_refs":["T3"]},"geometry":{"type":"LineString","coordinates":[[-7.5944173,33.5596941],[-7.594339,33.5592306]]}},{"type":"Feature","properties":{"way_id":1106709415,"route_colors":[],"route_refs":["T3"]},"geometry":{"type":"LineString","coordinates":[[-7.594339,33.5592306],[-7.5942887,33.558922],[-7.594265,33.5587953],[-7.5940847,33.5578321],[-7.594035,33.557592],[-7.5940165,33.5574396],[-7.5939653,33.5571697],[-7.5938369,33.5566124],[-7.59373,33.5563431],[-7.5936616,33.5561725],[-7.5934823,33.5558729],[-7.5934403,33.5558193],[-7.5932363,33.555598],[-7.5926595,33.5549617],[-7.5922665,33.5545281],[-7.5922095,33.5544749],[-7.5919245,33.5541845],[-7.5911241,33.5533421],[-7.5904114,33.5525601],[-7.589705,33.5518112],[-7.5891446,33.5512191],[-7.5888588,33.5508988],[-7.5887805,33.5508213],[-7.5886225,33.550646],[-7.5884849,33.5504795],[-7.5883283,33.5503302],[-7.5882338,33.5502402],[-7.5879161,33.549959],[-7.5876628,33.5497348],[-7.5874135,33.5495102],[-7.5870133,33.5491969],[-7.5865628,33.5489054],[-7.5862003,33.5486709],[-7.5858701,33.548434],[-7.5856695,33.5482337],[-7.5853372,33.5478923],[-7.5852292,33.547765],[-7.5850069,33.547503],[-7.584982,33.5474736],[-7.5846816,33.547145],[-7.5838847,33.5462446],[-7.5832026,33.5455068],[-7.5827207,33.5449584],[-7.5824031,33.5446118],[-7.5823497,33.5445377],[-7.5822928,33.5444732],[-7.5817947,33.5438479],[-7.5814507,33.5434492],[-7.5813852,33.5433945],[-7.5813413,33.5433644],[-7.5812881,33.5433532],[-7.5812596,33.5433426],[-7.5812092,33.5433428],[-7.5811515,33.5433586],[-7.5811331,33.5433673],[-7.58109,33.5433877],[-7.5809783,33.5434406],[-7.5808093,33.5435379],[-7.5799399,33.5440385],[-7.5788534,33.5446823],[-7.5780725,33.545152],[-7.5775887,33.5454414],[-7.5764562,33.5461218],[-7.5759409,33.5464155],[-7.574796,33.5470868],[-7.5732427,33.5480004],[-7.5731861,33.5480342],[-7.572616,33.5483742],[-7.5723394,33.5485436],[-7.5717699,33.5488924],[-7.5715325,33.5490334],[-7.5701932,33.5498287],[-7.5689789,33.5505708],[-7.5687777,33.5506976],[-7.568368,33.5509513],[-7.5682467,33.5510319],[-7.5677105,33.5513856],[-7.5668192,33.5519312],[-7.5659962,33.5524329],[-7.5656224,33.5526543],[-7.5652347,33.5528859],[-7.5641023,33.5535623],[-7.5625842,33.5544853],[-7.5607383,33.5555934],[-7.5593197,33.5564648],[-7.5591245,33.5565911],[-7.5590022,33.5566568],[-7.5588688,33.5567387],[-7.5583917,33.5570152],[-7.5573405,33.5576245],[-7.5561878,33.558312],[-7.5549262,33.5590924],[-7.5535605,33.5599042],[-7.553222,33.5600975],[-7.5527431,33.5603852],[-7.5526822,33.5604195],[-7.5525354,33.5605022],[-7.552445,33.5605603],[-7.5523685,33.5606023],[-7.5521777,33.5607102],[-7.5520581,33.5607706],[-7.5520129,33.5607725],[-7.5519815,33.5607698],[-7.551956,33.5607668],[-7.5519363,33.5607614],[-7.5519171,33.5607574],[-7.5518812,33.5607482],[-7.5518299,33.5607323],[-7.5517866,33.5607106],[-7.5517058,33.5606332],[-7.5512359,33.5600657],[-7.5508402,33.5595839],[-7.5501736,33.5588035],[-7.5494964,33.5580166],[-7.5490308,33.5574809],[-7.5483404,33.5566984],[-7.5476375,33.5558468],[-7.5475653,33.5557593],[-7.5468432,33.5549282],[-7.546807,33.5548488],[-7.5467793,33.5547811],[-7.5467745,33.5547455],[-7.5468058,33.5546712],[-7.5468355,33.5546145],[-7.546951,33.5544831],[-7.5472891,33.5541649],[-7.5476896,33.5538634],[-7.5483404,33.5534578],[-7.5496385,33.5526406],[-7.5503684,33.5521911],[-7.5508633,33.5518863],[-7.5510571,33.5517669],[-7.5512872,33.5516258],[-7.5514195,33.5515332],[-7.5514539,33.5514759],[-7.5514943,33.5513606],[-7.5515002,33.5512498],[-7.5514623,33.5511462],[-7.5513216,33.5510218],[-7.5488324,33.5490972],[-7.5485345,33.5488553],[-7.5469331,33.5476201],[-7.5461849,33.5470225],[-7.5460791,33.5469299],[-7.546051,33.546878],[-7.5460474,33.5468197],[-7.5460427,33.5467894],[-7.5460474,33.5467381],[-7.5460765,33.5466587],[-7.5461558,33.5465838],[-7.5467677,33.5462182],[-7.5475249,33.5456925],[-7.5481248,33.5452794],[-7.548918,33.5447331],[-7.5493294,33.544448]]}},{"type":"Feature","properties":{"way_id":1106709414,"route_colors":[],"route_refs":["T3"]},"geometry":{"type":"LineString","coordinates":[[-7.5492993,33.5444251],[-7.5488921,33.544696],[-7.5478581,33.5454192],[-7.5477334,33.5455063],[-7.5467408,33.546192],[-7.5461892,33.5465184],[-7.5460786,33.5466051],[-7.5460092,33.5467042],[-7.5459977,33.5467854],[-7.5460011,33.5468183],[-7.5460037,33.5468426],[-7.5460059,33.5468638],[-7.5460258,33.546934],[-7.5460703,33.547],[-7.5460935,33.5470234],[-7.5468051,33.5475711],[-7.5482432,33.5486761],[-7.5490159,33.5492953],[-7.5498117,33.5498939],[-7.5508684,33.5506961],[-7.5512003,33.5509617],[-7.5513951,33.5511213],[-7.5514288,33.5511693],[-7.5514496,33.551199],[-7.5514553,33.551281],[-7.5514555,33.5513598],[-7.5514256,33.5514494],[-7.5513837,33.5515221],[-7.551243,33.5516272],[-7.5511217,33.5516962],[-7.5507975,33.5518872],[-7.5503377,33.552157],[-7.5496078,33.552615],[-7.5493692,33.552789],[-7.5488178,33.5531316],[-7.5480896,33.553565],[-7.5475563,33.553909],[-7.5472988,33.554113],[-7.5470988,33.5542979],[-7.546804,33.5546032],[-7.5467786,33.5546386],[-7.5467358,33.5547175],[-7.5467335,33.5547678],[-7.5467489,33.5548254],[-7.5467696,33.5548766],[-7.5472641,33.5554666],[-7.5474952,33.5557459],[-7.5475784,33.5558494],[-7.5481309,33.5565371],[-7.5485585,33.5570324],[-7.5494221,33.5579818],[-7.5501106,33.5588115],[-7.5509922,33.5598048],[-7.5516686,33.5606401],[-7.5517549,33.5607339],[-7.5517876,33.5607637],[-7.5518238,33.560778],[-7.5518482,33.5607839],[-7.5519036,33.5607939],[-7.5519447,33.5608012],[-7.5519703,33.5608058],[-7.5519828,33.560808],[-7.5520165,33.5608141],[-7.5520477,33.560808],[-7.5520779,33.5608021],[-7.5520967,33.5607926],[-7.5522012,33.5607398],[-7.5522821,33.5606999],[-7.5524833,33.5605869],[-7.5527202,33.5604331],[-7.552948,33.5602976],[-7.5536529,33.5599024],[-7.5547065,33.559275],[-7.5563999,33.558221],[-7.5579296,33.5573133],[-7.5584269,33.5570446],[-7.5589071,33.5567551],[-7.5590438,33.556677],[-7.5591554,33.5566065],[-7.5596825,33.5562791],[-7.5611557,33.5553937],[-7.5622807,33.5547141],[-7.5634919,33.5539973],[-7.5647538,33.5532161],[-7.5652724,33.5529246],[-7.5655192,33.5527859],[-7.5664988,33.5521955],[-7.5676343,33.5515094],[-7.5677652,33.551424],[-7.5682697,33.5510598],[-7.568396,33.5509841],[-7.5685304,33.5508945],[-7.5688198,33.5507114],[-7.5689896,33.5506108],[-7.5692088,33.550481],[-7.5692547,33.5504538],[-7.5700304,33.5499967],[-7.5708072,33.5495106],[-7.5715609,33.5490644],[-7.5718042,33.5489203],[-7.5723296,33.5486004],[-7.5723667,33.5485778],[-7.5724887,33.5485036],[-7.5726649,33.5484005],[-7.5732222,33.5480746],[-7.5733666,33.5479901],[-7.5747548,33.5471546],[-7.5752971,33.5468433],[-7.5760274,33.5464144],[-7.5764777,33.5461432],[-7.5770153,33.5458322],[-7.5775824,33.5454802],[-7.5781627,33.5451341],[-7.578968,33.5446491],[-7.5802938,33.5438741],[-7.5808243,33.5435771],[-7.5809751,33.5434926],[-7.58101,33.5434733],[-7.5811068,33.5434195],[-7.5811139,33.5434159],[-7.5811401,33.5434025],[-7.5811652,33.5433925],[-7.5811829,33.5433855],[-7.5812268,33.5433777],[-7.581246,33.5433815],[-7.5812782,33.543388],[-7.5813105,33.5434035],[-7.5813948,33.5434387],[-7.5817181,33.5438189],[-7.582044,33.5442229],[-7.5822993,33.5445293],[-7.5823213,33.5445538],[-7.5823757,33.5446222],[-7.5827093,33.5449855],[-7.5829445,33.5452674],[-7.5832119,33.545571],[-7.5837765,33.5461793],[-7.5843597,33.5468289],[-7.5849763,33.5475195],[-7.5852,33.5477815],[-7.5853045,33.5479188],[-7.5856342,33.5482739],[-7.5858202,33.5484515],[-7.5859978,33.5485996],[-7.5864876,33.5489272],[-7.5865161,33.5489462],[-7.5870428,33.5492824],[-7.5873769,33.5495467],[-7.5876269,33.5497641],[-7.5878755,33.54999],[-7.5882045,33.5502889],[-7.5882702,33.5503563],[-7.5884282,33.5505184],[-7.5887367,33.5508504],[-7.5888098,33.5509315],[-7.5890965,33.5512507],[-7.5895704,33.5517313],[-7.5907017,33.5529558],[-7.5913927,33.5536911],[-7.5918804,33.5542133],[-7.592153,33.5545075],[-7.5923103,33.5546695],[-7.5925944,33.5549753],[-7.59294,33.5553475],[-7.5933099,33.5557455],[-7.593432,33.5559017],[-7.5936398,33.5561787],[-7.5936702,33.556254],[-7.5938028,33.5566217],[-7.5938181,33.5567225],[-7.5939234,33.5571764],[-7.5939405,33.5572728],[-7.5939783,33.5574441],[-7.5940102,33.5575985],[-7.59402,33.557673],[-7.5940476,33.5578354],[-7.5942049,33.558759],[-7.5942129,33.558803],[-7.5942946,33.559253]]}},{"type":"Feature","properties":{"way_id":1316035070,"route_colors":[],"route_refs":["T3"]},"geometry":{"type":"LineString","coordinates":[[-7.5942946,33.559253],[-7.5943758,33.5597015]]}},{"type":"Feature","properties":{"way_id":1316035067,"route_colors":[],"route_refs":["T3"]},"geometry":{"type":"LineString","coordinates":[[-7.5943758,33.5597015],[-7.5944941,33.5604381],[-7.5947433,33.5617449],[-7.5947489,33.5617773],[-7.5948443,33.5623395],[-7.5948955,33.5625229],[-7.5949056,33.5625639],[-7.5949313,33.5626865],[-7.5949573,33.5628106],[-7.5949712,33.5628972],[-7.5950208,33.5632555],[-7.5952371,33.5645937],[-7.595242,33.5646225],[-7.595404,33.5655831],[-7.5955665,33.5665246],[-7.5956707,33.5671287],[-7.5957032,33.5673307],[-7.5957185,33.5674542],[-7.5959002,33.5684121],[-7.5961235,33.5696835],[-7.5961268,33.5697001],[-7.5961759,33.5699622],[-7.5961823,33.5699774],[-7.5963022,33.5702771],[-7.5965044,33.5706827],[-7.5966373,33.5709626],[-7.596787,33.5712144],[-7.5971081,33.5718344],[-7.5971439,33.5719006],[-7.5971712,33.5719463],[-7.5971923,33.5719868],[-7.5973273,33.5722092],[-7.5973786,33.5723342],[-7.5974303,33.57246],[-7.5979896,33.5737225],[-7.5980221,33.573788],[-7.5982466,33.5742394],[-7.5985991,33.5749697],[-7.5991211,33.5760573],[-7.5992238,33.5762622],[-7.5992808,33.5764092],[-7.5993024,33.5764592],[-7.599338,33.5765418],[-7.5998312,33.5774132],[-7.6000646,33.5778444],[-7.6004773,33.5785786],[-7.6006907,33.5789517],[-7.601049,33.5795779],[-7.6011706,33.5797519],[-7.6014716,33.5802068],[-7.6018107,33.5808679],[-7.6024594,33.5819415],[-7.6025723,33.5820618],[-7.6026328,33.5821263],[-7.6026926,33.5821709],[-7.602768,33.5822271],[-7.603736,33.5829492],[-7.6039395,33.583101],[-7.6046746,33.5836593],[-7.6049187,33.5838519],[-7.6049783,33.5838989],[-7.6053864,33.5843181],[-7.605927,33.5849681],[-7.6061899,33.5852842],[-7.6062872,33.5853838],[-7.6064278,33.5855428],[-7.6066316,33.5857766],[-7.6074316,33.5866575],[-7.6077076,33.5870264],[-7.6081621,33.5877663],[-7.6085431,33.5883375],[-7.6086511,33.5885059],[-7.6086966,33.588575],[-7.6087407,33.5886489],[-7.6087559,33.5886893],[-7.6087688,33.5887415],[-7.6087754,33.5888065],[-7.6087724,33.5888653],[-7.6087643,33.5889166],[-7.60874,33.5889805],[-7.6085946,33.5892196],[-7.6085334,33.5893174],[-7.6084391,33.5894541],[-7.6083217,33.5896909],[-7.6083109,33.5897696],[-7.6083153,33.5898387],[-7.6084062,33.5905751],[-7.608416,33.5906835],[-7.6084897,33.5911823],[-7.6085373,33.5917482],[-7.6086165,33.5924201],[-7.6087036,33.5931834],[-7.6087673,33.5937411],[-7.6087666,33.5937702],[-7.608776,33.5938065],[-7.6087754,33.5938305],[-7.608804,33.5942112],[-7.6088521,33.5947416],[-7.6088693,33.5949384],[-7.6089969,33.5959312],[-7.6090363,33.5963987],[-7.6090943,33.5965551],[-7.6092038,33.5967157],[-7.6093052,33.5968837],[-7.6093318,33.5969307],[-7.6093366,33.5969563],[-7.60934,33.5969836],[-7.6093448,33.5970304],[-7.6093443,33.5970955],[-7.6093392,33.5971343],[-7.6091644,33.5976049],[-7.6091524,33.597659],[-7.609156,33.5977127],[-7.6091662,33.5977563],[-7.6091851,33.5978007],[-7.6092194,33.5978465],[-7.6092652,33.5978896],[-7.6092997,33.5979105],[-7.609342,33.5979309],[-7.6094083,33.5979506],[-7.6094735,33.5979621],[-7.6095557,33.5979703],[-7.6100742,33.5979999],[-7.6105159,33.5980125],[-7.6107945,33.5980193],[-7.611027,33.5980203],[-7.6112854,33.5980398],[-7.6113823,33.5980491],[-7.6114776,33.5980769],[-7.6119462,33.5982808],[-7.6123261,33.5984369]]}},{"type":"Feature","properties":{"way_id":808854857,"route_colors":[],"route_refs":["T4"]},"geometry":{"type":"LineString","coordinates":[[-7.5160982,33.5686768],[-7.5171141,33.5689567],[-7.5171956,33.5689728],[-7.5172675,33.5689883],[-7.5178719,33.5691588],[-7.5182281,33.5692574],[-7.5184381,33.5693156],[-7.5189237,33.5694484],[-7.5199987,33.5697528],[-7.5203457,33.5698466],[-7.5208784,33.5699924],[-7.5218349,33.5703339],[-7.5219865,33.5703853],[-7.5222209,33.5704635],[-7.5225948,33.5705726],[-7.5228361,33.5706337],[-7.523075,33.5706848],[-7.5236524,33.5707594]]}},{"type":"Feature","properties":{"way_id":808854856,"route_colors":[],"route_refs":["T4"]},"geometry":{"type":"LineString","coordinates":[[-7.5236524,33.5707594],[-7.523752,33.5707722],[-7.524116,33.5708191],[-7.5241948,33.5708292],[-7.5245497,33.5708761],[-7.5247066,33.5708946],[-7.5248022,33.5709059],[-7.5254024,33.5709988],[-7.5257482,33.5710843],[-7.5260199,33.5711525],[-7.5265257,33.5712921],[-7.5272906,33.5714963],[-7.5275567,33.5715651],[-7.5279374,33.5716636],[-7.5287616,33.5718807],[-7.5292107,33.5719949],[-7.5295077,33.572065],[-7.5300698,33.5722194],[-7.5302721,33.5722826],[-7.5305869,33.5723576],[-7.5307306,33.5723604],[-7.5308019,33.5723367],[-7.5308549,33.572327],[-7.5309145,33.5722888],[-7.5309836,33.5722344],[-7.5310511,33.5721148],[-7.5311345,33.5719045],[-7.5312733,33.5715449],[-7.5312834,33.5715192],[-7.5313258,33.5714113],[-7.5314373,33.5710976],[-7.5315269,33.5708809],[-7.5316198,33.5706422],[-7.5316677,33.5705211],[-7.5317194,33.5704237],[-7.5318075,33.5702798],[-7.5318873,33.5701724],[-7.5320245,33.5700692],[-7.5325718,33.569695]]}},{"type":"Feature","properties":{"way_id":808854855,"route_colors":[],"route_refs":["T4"]},"geometry":{"type":"LineString","coordinates":[[-7.5325718,33.569695],[-7.5328966,33.5694768],[-7.5331223,33.5693166],[-7.533224,33.5692465],[-7.5333124,33.5691999],[-7.5335264,33.5690693],[-7.5337815,33.5689387],[-7.5339823,33.5688528],[-7.5341519,33.5687848],[-7.5344634,33.5686894],[-7.5348554,33.5685962],[-7.5353799,33.5685462],[-7.5356322,33.5685326],[-7.5358971,33.5685016],[-7.5361141,33.5684602],[-7.536277,33.5684312],[-7.5364391,33.5684024],[-7.536809,33.56834],[-7.5371815,33.5682788],[-7.5374794,33.5682389],[-7.5378059,33.5681899],[-7.5381169,33.568137],[-7.5383202,33.5681027],[-7.5384979,33.5680691],[-7.5386441,33.5680461],[-7.5389205,33.5679665],[-7.539331,33.5678257],[-7.5402081,33.5675478],[-7.5407606,33.5673014],[-7.5413602,33.5670136],[-7.5417577,33.5668072],[-7.5422114,33.5665886],[-7.5426283,33.5663661],[-7.5428023,33.5662558],[-7.5430586,33.5660893],[-7.5431226,33.5660477],[-7.5434042,33.5658795],[-7.5436994,33.5657031],[-7.5438829,33.5655993],[-7.544127,33.5654587],[-7.5444123,33.5652957],[-7.5447426,33.5650942],[-7.5451154,33.5648907],[-7.5454211,33.5647068],[-7.5458017,33.5644909],[-7.5463361,33.5641853],[-7.5468414,33.5639068],[-7.5469664,33.5638339],[-7.5471742,33.5637128],[-7.547594,33.5634642],[-7.5479826,33.5632476],[-7.5483989,33.5630145],[-7.5488457,33.562741],[-7.5491506,33.5625785],[-7.5496667,33.5622695],[-7.550094,33.5620211],[-7.5504324,33.5618279],[-7.5505629,33.5617501],[-7.5506363,33.5617042],[-7.5507327,33.5616344],[-7.5508182,33.5615551],[-7.5511785,33.561341],[-7.5516392,33.5610502],[-7.5517299,33.5609958],[-7.551781,33.560966],[-7.5517876,33.5609627],[-7.5518065,33.5609532],[-7.5518343,33.5609478],[-7.5518684,33.5609475],[-7.5519032,33.5609544],[-7.551928,33.5609637],[-7.5519504,33.5609803],[-7.5519697,33.5609974],[-7.5519735,33.5609997],[-7.5519785,33.5610054],[-7.5520616,33.5611064],[-7.5521182,33.5611691],[-7.5522301,33.5612888],[-7.5523684,33.5614395],[-7.5525508,33.5616446],[-7.5530141,33.5621903],[-7.5533503,33.5625934],[-7.5535656,33.562825],[-7.5537138,33.5629997],[-7.5538619,33.5631649],[-7.5540214,33.5633258],[-7.5541549,33.5634795],[-7.5542489,33.5635833],[-7.5544015,33.5637629],[-7.5545394,33.5639126],[-7.5545669,33.5639425],[-7.5546923,33.5640883],[-7.5547918,33.5642067],[-7.5549807,33.5643746],[-7.555091,33.5644892],[-7.5552662,33.5646468],[-7.5553848,33.5647535],[-7.5553977,33.5647651],[-7.5555818,33.5649487],[-7.5558408,33.5652175],[-7.5559785,33.565358],[-7.5561519,33.5655323],[-7.5563066,33.5656872],[-7.5564203,33.5658134],[-7.5565464,33.5659536],[-7.5568836,33.566289],[-7.5571142,33.5665044],[-7.5573849,33.5667486],[-7.5577432,33.5670853],[-7.5579443,33.5672908],[-7.5581136,33.5674661],[-7.5583875,33.5677587],[-7.558614,33.567978],[-7.558675,33.5680341],[-7.5587479,33.5681012],[-7.5588463,33.5681988],[-7.5590796,33.5684444],[-7.5591773,33.568544],[-7.5592446,33.5686062],[-7.5593027,33.568658],[-7.5594037,33.568682],[-7.5594684,33.5686923],[-7.5595304,33.5687038],[-7.5595835,33.5687069],[-7.5596259,33.5687035],[-7.5597806,33.5686779],[-7.5598623,33.5686484],[-7.5600232,33.5685505],[-7.5600701,33.5685207],[-7.5601149,33.5684925],[-7.5601934,33.5684386]]}},{"type":"Feature","properties":{"way_id":808854854,"route_colors":[],"route_refs":["T4"]},"geometry":{"type":"LineString","coordinates":[[-7.5601934,33.5684386],[-7.5603265,33.5683491],[-7.5606581,33.5681584],[-7.5608403,33.5680475],[-7.5613032,33.5677514],[-7.5615064,33.5676157],[-7.5617329,33.5674712],[-7.5619382,33.5673444],[-7.5621194,33.5672294],[-7.5622673,33.567155],[-7.5631346,33.5666066],[-7.5638322,33.5661689],[-7.5640541,33.5660229],[-7.5640993,33.566],[-7.564152,33.5659816],[-7.5642003,33.5659781],[-7.5642677,33.5659811]]}},{"type":"Feature","properties":{"way_id":1316035052,"route_colors":[],"route_refs":["T4"]},"geometry":{"type":"LineString","coordinates":[[-7.5642677,33.5659811],[-7.5643196,33.5659904],[-7.5643609,33.5660061],[-7.5643858,33.5660243],[-7.5644324,33.5660679],[-7.5644899,33.5661531],[-7.5646395,33.5663419],[-7.5647922,33.5665649],[-7.5650282,33.5669343],[-7.5651241,33.5670389],[-7.5651719,33.5670712],[-7.5652162,33.5670852],[-7.5652641,33.5670924],[-7.5653252,33.5670996],[-7.5653587,33.567107],[-7.5654237,33.5670939],[-7.5655189,33.5670688],[-7.5656144,33.5670148],[-7.5658793,33.5668503],[-7.5665149,33.5664608],[-7.5668806,33.5662263],[-7.5669864,33.5661628],[-7.5672481,33.5660056],[-7.5673909,33.5659199],[-7.5678648,33.5656421],[-7.5681622,33.5654537],[-7.5683324,33.5653458],[-7.56862,33.5651772],[-7.568743,33.5650974],[-7.5688674,33.5650129],[-7.5689831,33.564947],[-7.5692448,33.5647678],[-7.5693233,33.5647183],[-7.5694363,33.5646406],[-7.5695233,33.5645901],[-7.5696153,33.5645541],[-7.5696772,33.5645459],[-7.5697551,33.5645355],[-7.5698317,33.5645636],[-7.5698804,33.5645815],[-7.5702835,33.5648649],[-7.5704938,33.56502],[-7.5707242,33.56519],[-7.5709283,33.5653367],[-7.5711309,33.5654824],[-7.5711739,33.5655118],[-7.5715569,33.565774],[-7.5718073,33.56595],[-7.5720077,33.5660948],[-7.572014,33.5660998],[-7.5721679,33.5662207],[-7.5723566,33.5663374],[-7.5725262,33.5664566],[-7.5726603,33.5665461],[-7.5727829,33.5666321],[-7.5731475,33.5669015],[-7.5733165,33.5670213]]}},{"type":"Feature","properties":{"way_id":1316035066,"route_colors":[],"route_refs":["T4"]},"geometry":{"type":"LineString","coordinates":[[-7.5733165,33.5670213],[-7.5736595,33.5672647]]}},{"type":"Feature","properties":{"way_id":1316035065,"route_colors":[],"route_refs":["T4"]},"geometry":{"type":"LineString","coordinates":[[-7.5736595,33.5672647],[-7.573902,33.5674311],[-7.5740332,33.5675304],[-7.5742677,33.5677316]]}},{"type":"Feature","properties":{"way_id":1316035059,"route_colors":[],"route_refs":["T4"]},"geometry":{"type":"LineString","coordinates":[[-7.5742677,33.5677316],[-7.5747787,33.5681544]]}},{"type":"Feature","properties":{"way_id":1316035060,"route_colors":[],"route_refs":["T4"]},"geometry":{"type":"LineString","coordinates":[[-7.5747787,33.5681544],[-7.5751618,33.5684829]]}},{"type":"Feature","properties":{"way_id":1316035056,"route_colors":[],"route_refs":["T4"]},"geometry":{"type":"LineString","coordinates":[[-7.5751618,33.5684829],[-7.5755141,33.5687868]]}},{"type":"Feature","properties":{"way_id":1316035055,"route_colors":[],"route_refs":["T4"]},"geometry":{"type":"LineString","coordinates":[[-7.5755141,33.5687868],[-7.5757605,33.5689844],[-7.5759359,33.5691259],[-7.5761152,33.5692756],[-7.5762603,33.5693943],[-7.5764194,33.5695278],[-7.5765412,33.5696412],[-7.5766618,33.5697359],[-7.5767726,33.5698266],[-7.5770969,33.570046],[-7.5771426,33.5700784],[-7.5774455,33.5702992],[-7.577754,33.5705026],[-7.5780575,33.570714],[-7.5784493,33.570994],[-7.5787503,33.5711865],[-7.5789595,33.5713255],[-7.5791545,33.5714754],[-7.579287,33.5715707],[-7.5794566,33.5716905],[-7.5796068,33.5717883]]}},{"type":"Feature","properties":{"way_id":1316035053,"route_colors":[],"route_refs":["T4"]},"geometry":{"type":"LineString","coordinates":[[-7.5796068,33.5717883],[-7.5798019,33.5719238],[-7.5799162,33.5720016],[-7.5801639,33.5721779]]}},{"type":"Feature","properties":{"way_id":808854853,"route_colors":[],"route_refs":["T4"]},"geometry":{"type":"LineString","coordinates":[[-7.5801639,33.5721779],[-7.58058,33.5724498],[-7.5806009,33.5724635],[-7.5809167,33.5726914],[-7.5812968,33.5729522],[-7.5816769,33.573209],[-7.5820254,33.5734438],[-7.58225,33.5736048],[-7.582643,33.5738718],[-7.5830031,33.5741301],[-7.5832424,33.5742899],[-7.5835136,33.574479],[-7.5837065,33.5746109],[-7.583798,33.5746735],[-7.5840399,33.5748482],[-7.584413,33.5751182],[-7.5850326,33.5755446],[-7.5854215,33.5758263],[-7.5855223,33.575899],[-7.5858602,33.5761382],[-7.5859778,33.5762214],[-7.5863682,33.5764991],[-7.5867583,33.576779],[-7.5871464,33.5770424],[-7.5876033,33.577364],[-7.5880975,33.5777096]]}},{"type":"Feature","properties":{"way_id":808854852,"route_colors":[],"route_refs":["T4"]},"geometry":{"type":"LineString","coordinates":[[-7.5880975,33.5777096],[-7.5897499,33.5788747],[-7.5912219,33.5799246],[-7.5918549,33.5803751],[-7.5923568,33.5807324],[-7.593639,33.5816408],[-7.5957288,33.5831424],[-7.5960434,33.5834009],[-7.5961935,33.5835148],[-7.5962773,33.5835784],[-7.5965116,33.5837653],[-7.5967455,33.5839359],[-7.5970182,33.584116],[-7.5972934,33.5842951],[-7.5976858,33.5845412],[-7.5981295,33.5848047],[-7.5983353,33.5849269],[-7.5985713,33.5850655],[-7.5987502,33.5851758],[-7.5989798,33.5853425],[-7.5992506,33.5855728],[-7.5994971,33.5857943],[-7.5996462,33.5859166],[-7.5998697,33.5861015],[-7.6000634,33.5862652],[-7.6002081,33.5864084],[-7.6003629,33.5865926],[-7.6004941,33.5867937],[-7.6006385,33.5870205],[-7.6007202,33.5871412],[-7.6007903,33.5872449],[-7.6010564,33.5876362],[-7.6011649,33.5877884],[-7.6011989,33.5878359],[-7.6013046,33.5879737],[-7.6013622,33.5880493],[-7.6014094,33.5881046],[-7.6014472,33.5881401],[-7.6015067,33.5881572]]}},{"type":"Feature","properties":{"way_id":808854851,"route_colors":[],"route_refs":["T4"]},"geometry":{"type":"LineString","coordinates":[[-7.6015067,33.5881572],[-7.6015674,33.5881681],[-7.6016135,33.5881762],[-7.6017139,33.5881782],[-7.6021425,33.588188],[-7.6022618,33.5881932],[-7.6023863,33.5881931],[-7.6029626,33.5882216],[-7.6034677,33.5882309],[-7.6036155,33.5882291],[-7.6040002,33.5882421],[-7.6040878,33.5882461],[-7.604171,33.5882603],[-7.6043478,33.5882824],[-7.6045076,33.5882993],[-7.6046432,33.588325],[-7.6048743,33.5883597],[-7.6051088,33.5883927],[-7.6055048,33.5884576],[-7.6058672,33.5885202],[-7.6060172,33.5885428],[-7.6062177,33.5885769],[-7.6067013,33.5886525],[-7.6072405,33.5887463],[-7.6076448,33.5888158],[-7.60771,33.5888244],[-7.6078319,33.5888405],[-7.60855,33.5889505],[-7.6086625,33.5889675]]}},{"type":"Feature","properties":{"way_id":808854850,"route_colors":[],"route_refs":["T4"]},"geometry":{"type":"LineString","coordinates":[[-7.6086625,33.5889675],[-7.60874,33.5889805],[-7.6087827,33.5889915],[-7.6089156,33.589005],[-7.6091144,33.5890075],[-7.6091709,33.5889983],[-7.6092511,33.58898]]}},{"type":"Feature","properties":{"way_id":1106578282,"route_colors":[],"route_refs":["T4"]},"geometry":{"type":"LineString","coordinates":[[-7.6092511,33.58898],[-7.6094573,33.588929],[-7.6097479,33.5888436],[-7.610052,33.5887699],[-7.6104688,33.588644],[-7.6108207,33.5885438],[-7.6111775,33.5884224],[-7.6123947,33.5881001],[-7.6124423,33.5880869],[-7.6130221,33.5879258],[-7.6130522,33.5879163],[-7.6139805,33.58767],[-7.6141593,33.5876144],[-7.6144103,33.5875758],[-7.6145287,33.5875649],[-7.614784,33.5875555],[-7.6150985,33.5875773],[-7.6155059,33.5876255],[-7.6155831,33.5876373],[-7.6167626,33.5878178],[-7.6171071,33.587872],[-7.6172879,33.5879005],[-7.6175005,33.5879161],[-7.6176523,33.5879197],[-7.6176931,33.5879164],[-7.6184256,33.5878655],[-7.6191131,33.5878258],[-7.6194685,33.5878034],[-7.6196315,33.5877919],[-7.6209743,33.5877332]]}},{"type":"Feature","properties":{"way_id":1273792719,"route_colors":[],"route_refs":["T4"]},"geometry":{"type":"LineString","coordinates":[[-7.6209743,33.5877332],[-7.6210374,33.5877504],[-7.6210766,33.5877618],[-7.6211209,33.5877747],[-7.6211904,33.5877949]]}},{"type":"Feature","properties":{"way_id":808854848,"route_colors":[],"route_refs":["T4"]},"geometry":{"type":"LineString","coordinates":[[-7.6211904,33.5877949],[-7.6213701,33.587869],[-7.6216022,33.5879648],[-7.6220418,33.5881461],[-7.6223725,33.5882825],[-7.622423,33.5883034],[-7.6239067,33.5889154],[-7.6246801,33.5892345]]}},{"type":"Feature","properties":{"way_id":1106620644,"route_colors":[],"route_refs":["T4"]},"geometry":{"type":"LineString","coordinates":[[-7.624716,33.5891742],[-7.6239407,33.5888548],[-7.6224685,33.5882407],[-7.6224106,33.5882168],[-7.6220684,33.5880757],[-7.621642,33.5878981],[-7.621437,33.5878127],[-7.6211486,33.5877225],[-7.6211084,33.5877145],[-7.6210638,33.5877052],[-7.6209967,33.587695],[-7.6208621,33.5876932],[-7.6207266,33.5877084]]}},{"type":"Feature","properties":{"way_id":808854849,"route_colors":[],"route_refs":["T4"]},"geometry":{"type":"LineString","coordinates":[[-7.6207266,33.5877084],[-7.6195032,33.5877671],[-7.6191521,33.5877956],[-7.619099,33.5878039],[-7.6188356,33.5878145],[-7.6184399,33.5878418],[-7.6179907,33.5878724],[-7.6177278,33.5878841],[-7.6176936,33.5878856],[-7.6176442,33.5878897],[-7.6174868,33.5878834],[-7.6174192,33.5878807],[-7.6172941,33.5878718],[-7.6171912,33.58786],[-7.6170665,33.587842],[-7.6170446,33.58784],[-7.6168944,33.5878152],[-7.6167132,33.5877928],[-7.6165052,33.5877622],[-7.6162255,33.5877204],[-7.6158803,33.5876673],[-7.6155741,33.5876174],[-7.6155432,33.5876165],[-7.6152019,33.5875698],[-7.6151427,33.5875616],[-7.6150342,33.5875504],[-7.614941,33.5875466],[-7.6147841,33.5875406],[-7.6145537,33.5875436],[-7.614481,33.5875459],[-7.614386,33.5875571],[-7.6143125,33.5875668],[-7.6142058,33.5875855],[-7.614048,33.5876131],[-7.613591,33.5877355],[-7.6133211,33.587811],[-7.6131203,33.5878668],[-7.6130157,33.5878928],[-7.6129534,33.5879131],[-7.6126744,33.5879918],[-7.6124241,33.5880655],[-7.6122432,33.5881187],[-7.6117239,33.5882523],[-7.611237,33.588379],[-7.6108821,33.5885079],[-7.6108167,33.5885258],[-7.6106795,33.5885639],[-7.6102312,33.5886976],[-7.6098567,33.5887942],[-7.6094537,33.588891],[-7.6092394,33.5889477]]}},{"type":"Feature","properties":{"way_id":1106620642,"route_colors":[],"route_refs":["T4"]},"geometry":{"type":"LineString","coordinates":[[-7.6092394,33.5889477],[-7.6091637,33.5889572],[-7.6090809,33.5889585],[-7.6089651,33.5889466],[-7.6088107,33.588922],[-7.6087643,33.5889166],[-7.6086847,33.5889054],[-7.6085638,33.5888876],[-7.6082673,33.5888498],[-7.6077396,33.588768],[-7.6076897,33.5887602],[-7.6071377,33.5886806],[-7.6060258,33.588514],[-7.6043335,33.5882486],[-7.6040885,33.5882112],[-7.6040059,33.5882051],[-7.6023719,33.5881705],[-7.6015819,33.5881414],[-7.6015642,33.5881389],[-7.6014981,33.5881269],[-7.601469,33.5881148],[-7.601416,33.5880549],[-7.6012121,33.5877705],[-7.6007515,33.5871279],[-7.6003792,33.5865817],[-7.6002603,33.5864298],[-7.6000716,33.5862323],[-7.5998623,33.5860474],[-7.5995991,33.585852],[-7.5992822,33.585561],[-7.5990601,33.5853615],[-7.5987309,33.5851222],[-7.5984263,33.5849541],[-7.5982674,33.5848514],[-7.5981333,33.5847669],[-7.5980466,33.5847188],[-7.5979056,33.58463]]}},{"type":"Feature","properties":{"way_id":1316035051,"route_colors":[],"route_refs":["T4"]},"geometry":{"type":"LineString","coordinates":[[-7.5979056,33.58463],[-7.5977225,33.5845151],[-7.5975873,33.5844379],[-7.5972819,33.5842302],[-7.5966048,33.5837893],[-7.5964077,33.5836395],[-7.596236,33.5835041],[-7.5954915,33.5829218],[-7.5949936,33.5825499],[-7.5943368,33.5820783],[-7.593623,33.581574],[-7.5923838,33.5806974],[-7.5919089,33.5803669],[-7.5918678,33.5803383],[-7.5913969,33.5800015],[-7.5906327,33.5794594],[-7.5897963,33.5788635],[-7.5889577,33.5782561],[-7.5881892,33.5777199],[-7.5870995,33.5769531],[-7.5865051,33.5765381],[-7.5858925,33.5761014],[-7.5857692,33.5760135],[-7.5854515,33.5757959],[-7.5853445,33.5757226],[-7.5844438,33.5750907],[-7.5837757,33.5746225],[-7.5837283,33.5745883],[-7.5831732,33.5741878],[-7.5825145,33.5737268],[-7.58203,33.5733879],[-7.5816312,33.5731107],[-7.5809083,33.5726257],[-7.5805767,33.572404],[-7.5801956,33.5721491]]}},{"type":"Feature","properties":{"way_id":1316035054,"route_colors":[],"route_refs":["T4"]},"geometry":{"type":"LineString","coordinates":[[-7.5801956,33.5721491],[-7.579918,33.5719626],[-7.5798202,33.5718931],[-7.5796343,33.571762]]}},{"type":"Feature","properties":{"way_id":1316035057,"route_colors":[],"route_refs":["T4"]},"geometry":{"type":"LineString","coordinates":[[-7.5796343,33.571762],[-7.5792024,33.5714692],[-7.5788847,33.5712469],[-7.5781537,33.5707508],[-7.5777863,33.5704859],[-7.5771213,33.5700241],[-7.5767143,33.5697295],[-7.5765354,33.5695882],[-7.5762455,33.5693372],[-7.5760126,33.5691553],[-7.5756277,33.5688083]]}},{"type":"Feature","properties":{"way_id":1316035058,"route_colors":[],"route_refs":["T4"]},"geometry":{"type":"LineString","coordinates":[[-7.5756277,33.5688083],[-7.5752593,33.5685154]]}},{"type":"Feature","properties":{"way_id":1316035061,"route_colors":[],"route_refs":["T4"]},"geometry":{"type":"LineString","coordinates":[[-7.5752593,33.5685154],[-7.5747809,33.5680879]]}},{"type":"Feature","properties":{"way_id":1316035062,"route_colors":[],"route_refs":["T4"]},"geometry":{"type":"LineString","coordinates":[[-7.5747809,33.5680879],[-7.5743549,33.5677382]]}},{"type":"Feature","properties":{"way_id":1316035063,"route_colors":[],"route_refs":["T4"]},"geometry":{"type":"LineString","coordinates":[[-7.5743549,33.5677382],[-7.5737024,33.5672259]]}},{"type":"Feature","properties":{"way_id":1316035064,"route_colors":[],"route_refs":["T4"]},"geometry":{"type":"LineString","coordinates":[[-7.5737024,33.5672259],[-7.5733651,33.566994]]}},{"type":"Feature","properties":{"way_id":1106585209,"route_colors":[],"route_refs":["T4"]},"geometry":{"type":"LineString","coordinates":[[-7.5733651,33.566994],[-7.5727947,33.5666062],[-7.572163,33.566167],[-7.5720358,33.5660765],[-7.5715032,33.5656976],[-7.5712026,33.565482],[-7.5709571,33.5653058],[-7.5705173,33.5649925],[-7.5704263,33.5649277],[-7.5699757,33.5646025],[-7.5698627,33.564535],[-7.5698523,33.5645288],[-7.5697571,33.5644975],[-7.5696256,33.5645099],[-7.5695801,33.5645221],[-7.5694701,33.5645757],[-7.569273,33.5646964],[-7.5691054,33.564811],[-7.5685635,33.5651378],[-7.5681276,33.5654017],[-7.5676408,33.5656965],[-7.5672179,33.5659676],[-7.5669634,33.5661307],[-7.5665284,33.5664095],[-7.5655877,33.5669802],[-7.5654824,33.5670496],[-7.5653355,33.567071],[-7.5652765,33.5670733],[-7.5652601,33.5670699],[-7.5652229,33.5670556],[-7.5651669,33.5670234],[-7.5650882,33.5669456],[-7.564823,33.5665552],[-7.564543,33.5661613],[-7.5644318,33.5660161],[-7.564354,33.5659746],[-7.5642655,33.5659456],[-7.5641395,33.5659477],[-7.5639921,33.5660212],[-7.5638158,33.5661343],[-7.5627207,33.5668222],[-7.561976,33.5672921],[-7.5612773,33.5677279],[-7.5606769,33.5681051],[-7.5599346,33.5685696],[-7.5598261,33.5686087],[-7.5597475,33.5686325],[-7.5596895,33.5686488]]}},{"type":"Feature","properties":{"way_id":807994700,"route_colors":[],"route_refs":["T4"]},"geometry":{"type":"LineString","coordinates":[[-7.5596895,33.5686488],[-7.5595908,33.5686662],[-7.5594762,33.5686532],[-7.5594289,33.5686478],[-7.5593065,33.5686044],[-7.5591904,33.56852],[-7.5589024,33.5682181],[-7.5587672,33.5680572],[-7.5584603,33.5677963],[-7.5582477,33.5675786],[-7.558135,33.5674298],[-7.5575974,33.5669046],[-7.5575086,33.5668109],[-7.5571253,33.5664436],[-7.5564659,33.5658141],[-7.5559837,33.5653308],[-7.5556646,33.5649808],[-7.5554129,33.5647355],[-7.5553016,33.564627],[-7.5548442,33.5641812],[-7.5545659,33.5638795],[-7.554389,33.5636878],[-7.5537794,33.5630043],[-7.5531655,33.5623105],[-7.552711,33.5617735],[-7.5521071,33.5610992],[-7.5519969,33.5609842],[-7.5519831,33.5609708],[-7.5519569,33.5609497],[-7.5519417,33.5609434],[-7.5519255,33.560937],[-7.5519002,33.5609292],[-7.5518807,33.560926],[-7.5518548,33.5609246],[-7.5518171,33.5609288],[-7.5518026,33.5609307],[-7.5517893,33.5609337],[-7.5517672,33.5609414],[-7.5517448,33.5609543],[-7.5516757,33.5609941],[-7.5515164,33.5610911],[-7.5507371,33.5615626],[-7.5503153,33.5618177],[-7.5495546,33.5622581],[-7.5489475,33.5626337],[-7.548364,33.5630075],[-7.5479507,33.5632396],[-7.5474651,33.5635174],[-7.5469111,33.563811],[-7.5452999,33.5647386],[-7.5436691,33.5656841],[-7.5430075,33.5660792],[-7.5426975,33.5662789],[-7.5421873,33.5665697],[-7.5417037,33.5668],[-7.5413406,33.566991],[-7.5406931,33.567298],[-7.5401985,33.5675231],[-7.5396203,33.5676986],[-7.5386384,33.5680111],[-7.538489,33.5680288],[-7.5383096,33.5680656],[-7.5368354,33.5683032],[-7.5362432,33.5684014],[-7.5361784,33.5684121],[-7.5358615,33.5684749],[-7.5349893,33.5685509],[-7.534685,33.5686062],[-7.5342411,33.5687184],[-7.5338105,33.5688863],[-7.5332843,33.5691585],[-7.5332013,33.5692203],[-7.5330943,33.5692871],[-7.5323887,33.5697656],[-7.5321598,33.5699351],[-7.5318784,33.5701318],[-7.53179,33.5702338],[-7.5316983,33.5703576],[-7.5315843,33.5706237],[-7.5314885,33.5708752],[-7.5313838,33.5711615],[-7.5312582,33.5714922],[-7.5311214,33.5718525],[-7.5309907,33.57215],[-7.5308757,33.5722766],[-7.5308191,33.572296],[-7.5307971,33.5723102],[-7.530753,33.5723228],[-7.5306042,33.572324],[-7.5304715,33.5723015],[-7.5287553,33.5718415],[-7.5275664,33.5715323],[-7.5271568,33.5714258],[-7.5261621,33.5711645],[-7.5253915,33.5709684],[-7.5247734,33.5708637],[-7.5247101,33.5708562],[-7.5241872,33.5707943],[-7.5237585,33.5707435],[-7.5231012,33.5706656],[-7.5225668,33.5705343],[-7.5222874,33.5704513],[-7.5220296,33.5703585],[-7.5218834,33.5703082],[-7.5211143,33.5700321],[-7.5189687,33.5694147],[-7.5182031,33.5692153],[-7.5179683,33.5691541],[-7.517476,33.5690042],[-7.517208,33.5689392],[-7.5171265,33.5689174],[-7.516114,33.5686381]]}}]}