{"type":"FeatureCollection","metro_system":{"continent":"asia","country":"United Arab Emirates","city":"Dubai","official_website":null,"official_map":"https://en.wikipedia.org/wiki/Dubai_Metro","wikipedia":"en:Dubai Metro","wiki":true,"wikipedia_zh":"zh:杜拜地鐵","line_count":3,"segment_count":4,"station_count":52,"modes":["metro"],"audit":{"strategies_tried":[],"passed":true,"checks":[{"id":"system_exists","ok":true,"detail":"matched OSM system metro-maps/asia/united-arab-emirates/as-uae-dubai/as-uae-dubai.geojson","level":"error"},{"id":"has_lines","ok":true,"detail":"3 lines","level":"error"},{"id":"has_stations","ok":true,"detail":"52 stations","level":"error"},{"id":"station_count_info","ok":true,"detail":"OSM 52 站（wiki List 記 53，計法含轉乘重複，僅參考）","level":"warn"},{"id":"stations_have_lines","ok":true,"detail":"52/52 站皆有所屬路線","level":"error"},{"id":"line_geometry_stations","ok":true,"detail":"56 個折點/端點皆為車站","level":"error"},{"id":"route_stations_match_geometry","ok":true,"detail":"各線車站列表與圖面一致","level":"error"},{"id":"interchange_rule","ok":true,"detail":"所有車站紅/藍點符合骨架＋路線色規則（藍＝端點、紅＝交叉）","level":"error"},{"id":"stations_named","ok":true,"detail":"52/52 站皆有名稱","level":"error"},{"id":"station_order","ok":true,"detail":"所有線路站序合理","level":"warn"},{"id":"line_wiki_stations","ok":true,"detail":"各線站數與 wiki 線路條目相符（營運中站數）","level":"error"},{"id":"line_wiki_planned","ok":false,"detail":"1 條線少於 wiki 全線總數（可能含未通車段，待人工確認）：Red1 Line 30/35","level":"warn"},{"id":"line_wiki_coverage","ok":false,"detail":"1 條線無 wiki 站數對照：Red2 Line","level":"warn"}],"reasons":[],"warnings":["1 條線少於 wiki 全線總數（可能含未通車段，待人工確認）：Red1 Line 30/35","1 條線無 wiki 站數對照：Red2 Line"],"audited_at":"2026-07-27T02:39:06.438Z"}},"features":[{"type":"Feature","properties":{"seg_id":"dubai-0","routes":[{"route_id":"r420297","route_name":"Red1 Line","route_name_local":"Red1 Line","route_name_en":null,"route_ref":"Red1","route_color":"#cc0000","wikipedia":"en:Red Line (Dubai Metro)","osm_route_ids":[420297,7734260],"status":null,"order_suspect":0,"span_suspect":0,"stations":[{"station_id":"n6588516078","station_name":"Centrepoint"},{"station_id":"n6588569791","station_name":"Emirates"},{"station_id":"n2017967833","station_name":"Airport Terminal 3"},{"station_id":"n6588569792","station_name":"Airport Terminal 1"},{"station_id":"n6588569793","station_name":"Al Garhoud"},{"station_id":"n6588569799","station_name":"Deira City Centre"},{"station_id":"n6588569794","station_name":"Al Rigga"},{"station_id":"n6584833623","station_name":"Union"},{"station_id":"n6584833632","station_name":"BurJuman"},{"station_id":"n6588569796","station_name":"ADCB"},{"station_id":"n6588569797","station_name":"max"},{"station_id":"n6588569798","station_name":"World Trade Centre"},{"station_id":"n605500214","station_name":"Emirates Towers"},{"station_id":"n6588569790","station_name":"Financial Center"},{"station_id":"n604304348","station_name":"Burj Khalifa / Dubai Mall"},{"station_id":"n2418678459","station_name":"Business Bay"},{"station_id":"n6588569789","station_name":"ONPASSIVE"},{"station_id":"n6588569788","station_name":"Equiti"},{"station_id":"n6588569787","station_name":"Mall of the Emirates"},{"station_id":"n6588569786","station_name":"InsuranceMarket"},{"station_id":"n6588569785","station_name":"Dubai Internet City"},{"station_id":"n6588516084","station_name":"Al Fardan Exchange"},{"station_id":"n6588516083","station_name":"Sobha Realty"},{"station_id":"n6580427441","station_name":"DMCC"},{"station_id":"n8625117828","station_name":"National Paints"},{"station_id":"n8641061625","station_name":"The Gardens"},{"station_id":"n5312499192","station_name":"Discovery Gardens"},{"station_id":"n5312499190","station_name":"Al Furjan"},{"station_id":"n8660767717","station_name":"Dubai Investment Park"},{"station_id":"n8882647591","station_name":"Expo City Dubai"}]},{"route_id":"r12820284","route_name":"Red2 Line","route_name_local":"Red2 Line","route_name_en":null,"route_ref":"Red2","route_color":"#cc0000","wikipedia":null,"osm_route_ids":[12820284,12820285],"status":null,"order_suspect":0,"span_suspect":0,"stations":[{"station_id":"n6588381694","station_name":"Life Pharmacy"},{"station_id":"n6588381691","station_name":"Danube"},{"station_id":"n6588516079","station_name":"Energy"},{"station_id":"n6588516080","station_name":"Ibn Battuta"},{"station_id":"n8625117828","station_name":"National Paints"},{"station_id":"n6580427441","station_name":"DMCC"},{"station_id":"n6588516083","station_name":"Sobha Realty"},{"station_id":"n6588516084","station_name":"Al Fardan Exchange"},{"station_id":"n6588569785","station_name":"Dubai Internet City"},{"station_id":"n6588569786","station_name":"InsuranceMarket"},{"station_id":"n6588569787","station_name":"Mall of the Emirates"},{"station_id":"n6588569788","station_name":"Equiti"},{"station_id":"n6588569789","station_name":"ONPASSIVE"},{"station_id":"n2418678459","station_name":"Business Bay"},{"station_id":"n604304348","station_name":"Burj Khalifa / Dubai Mall"},{"station_id":"n6588569790","station_name":"Financial Centre"},{"station_id":"n605500214","station_name":"Emirates Towers"},{"station_id":"n6588569798","station_name":"World Trade Centre"},{"station_id":"n6588569797","station_name":"max"},{"station_id":"n6588569796","station_name":"ADCB"},{"station_id":"n6584833632","station_name":"BurJuman"},{"station_id":"n6584833623","station_name":"Union"},{"station_id":"n6588569794","station_name":"Al Rigga"},{"station_id":"n6588569799","station_name":"Deira City Centre"},{"station_id":"n6588569793","station_name":"Al Garhoud"},{"station_id":"n6588569792","station_name":"Airport Terminal 1"},{"station_id":"n2017967833","station_name":"Airport Terminal 3"},{"station_id":"n6588569791","station_name":"Emirates"},{"station_id":"n6588516078","station_name":"Centrepoint"}]}],"route_count":2,"route_refs":["Red1","Red2"],"route_colors":["#cc0000","#cc0000"],"city":"Dubai","country":"United Arab Emirates"},"geometry":{"type":"MultiLineString","coordinates":[[[55.3911125,25.230287133333334],[55.3656761,25.241064166666664],[55.3594886,25.245030633333332],[55.35234613333333,25.248482533333334],[55.33997333333334,25.249482233333335],[55.3302568,25.254659466666666],[55.32388223333333,25.263349533333336],[55.313752439999995,25.26618198],[55.30402241666667,25.254695299999998],[55.29822926666666,25.2445663],[55.29217296666667,25.23354706666667],[55.285099800000005,25.2248445],[55.2798765,25.217220866666665],[55.2755189,25.210875633333334],[55.26957813333333,25.201431333333336],[55.2603932,25.1912842],[55.22851930000001,25.1556373],[55.2079242,25.126687399999998],[55.200449066666664,25.121212033333336],[55.1908947,25.114771233333332],[55.173891133333335,25.10218],[55.15818506666667,25.088913666666667],[55.1475748,25.0799517],[55.13870816666667,25.07087543333333],[55.127331659999996,25.057900859999997]]]}},{"type":"Feature","properties":{"seg_id":"dubai-1","routes":[{"route_id":"r420297","route_name":"Red1 Line","route_name_local":"Red1 Line","route_name_en":null,"route_ref":"Red1","route_color":"#cc0000","wikipedia":"en:Red Line (Dubai Metro)","osm_route_ids":[420297,7734260],"status":null,"order_suspect":0,"span_suspect":0,"stations":[{"station_id":"n6588516078","station_name":"Centrepoint"},{"station_id":"n6588569791","station_name":"Emirates"},{"station_id":"n2017967833","station_name":"Airport Terminal 3"},{"station_id":"n6588569792","station_name":"Airport Terminal 1"},{"station_id":"n6588569793","station_name":"Al Garhoud"},{"station_id":"n6588569799","station_name":"Deira City Centre"},{"station_id":"n6588569794","station_name":"Al Rigga"},{"station_id":"n6584833623","station_name":"Union"},{"station_id":"n6584833632","station_name":"BurJuman"},{"station_id":"n6588569796","station_name":"ADCB"},{"station_id":"n6588569797","station_name":"max"},{"station_id":"n6588569798","station_name":"World Trade Centre"},{"station_id":"n605500214","station_name":"Emirates Towers"},{"station_id":"n6588569790","station_name":"Financial Center"},{"station_id":"n604304348","station_name":"Burj Khalifa / Dubai Mall"},{"station_id":"n2418678459","station_name":"Business Bay"},{"station_id":"n6588569789","station_name":"ONPASSIVE"},{"station_id":"n6588569788","station_name":"Equiti"},{"station_id":"n6588569787","station_name":"Mall of the Emirates"},{"station_id":"n6588569786","station_name":"InsuranceMarket"},{"station_id":"n6588569785","station_name":"Dubai Internet City"},{"station_id":"n6588516084","station_name":"Al Fardan Exchange"},{"station_id":"n6588516083","station_name":"Sobha Realty"},{"station_id":"n6580427441","station_name":"DMCC"},{"station_id":"n8625117828","station_name":"National Paints"},{"station_id":"n8641061625","station_name":"The Gardens"},{"station_id":"n5312499192","station_name":"Discovery Gardens"},{"station_id":"n5312499190","station_name":"Al Furjan"},{"station_id":"n8660767717","station_name":"Dubai Investment Park"},{"station_id":"n8882647591","station_name":"Expo City Dubai"}]}],"route_count":1,"route_refs":["Red1"],"route_colors":["#cc0000"],"city":"Dubai","country":"United Arab Emirates"},"geometry":{"type":"MultiLineString","coordinates":[[[55.127331659999996,25.057900859999997],[55.13503456666666,25.043507733333332],[55.14541663333333,25.035258166666665],[55.15223096666667,25.030472466666666],[55.15567023333333,25.005275366666666],[55.1460705,24.963515633333333]]]}},{"type":"Feature","properties":{"seg_id":"dubai-2","routes":[{"route_id":"rm7734263","route_name":"Green Line","route_name_local":"Green Line","route_name_en":"Green Line","route_ref":"Green","route_color":"#00cc00","wikipedia":"en:Green Line (Dubai Metro)","osm_route_ids":[2767663,7734261],"status":null,"order_suspect":0,"span_suspect":0,"stations":[{"station_id":"n6472748545","station_name":"e&"},{"station_id":"n6584833641","station_name":"Al Qusais"},{"station_id":"n6584833643","station_name":"Dubai Airport Free Zone"},{"station_id":"n6581397376","station_name":"Al Nahda"},{"station_id":"n6581397379","station_name":"Stadium"},{"station_id":"n6581397381","station_name":"Al Qiyadah"},{"station_id":"n6581397380","station_name":"Abu Hail"},{"station_id":"n6584833621","station_name":"Abu Baker Al Siddique"},{"station_id":"n6584833624","station_name":"Salah Al Din"},{"station_id":"n6584833623","station_name":"Union"},{"station_id":"n6584833626","station_name":"Baniyas Square"},{"station_id":"n6584833627","station_name":"Gold Souq"},{"station_id":"n6584833628","station_name":"Al Ras"},{"station_id":"n6584833629","station_name":"Al Ghubaiba"},{"station_id":"n6584833631","station_name":"Sharaf DG"},{"station_id":"n6584833632","station_name":"BurJuman"},{"station_id":"n6584833633","station_name":"Oud Metha"},{"station_id":"n6584833635","station_name":"Dubai Healthcare City"},{"station_id":"n6584833637","station_name":"Al Jadaf"},{"station_id":"n6584833640","station_name":"Creek"}]}],"route_count":1,"route_refs":["Green"],"route_colors":["#00cc00"],"city":"Dubai","country":"United Arab Emirates"},"geometry":{"type":"MultiLineString","coordinates":[[[55.401279933333335,25.254712233333333],[55.3872706,25.262742966666668],[55.375154933333334,25.269826199999997],[55.369476533333334,25.273207333333335],[55.361464833333336,25.277911966666665],[55.35262493333334,25.277575933333335],[55.346442700000004,25.2754156],[55.33275526666666,25.270892933333332],[55.32082836666667,25.270314600000003],[55.313752439999995,25.26618198],[55.30760823333333,25.269175933333333],[55.30167343333333,25.276141066666668],[55.2936243,25.268774166666663],[55.288941333333334,25.2650349],[55.2974781,25.258213666666666],[55.30402241666667,25.254695299999998],[55.3158946,25.2439296],[55.3226189,25.230953733333337],[55.3337339,25.2248993],[55.339059066666664,25.21886483333333]]]}},{"type":"Feature","properties":{"seg_id":"dubai-3","routes":[{"route_id":"r12820284","route_name":"Red2 Line","route_name_local":"Red2 Line","route_name_en":null,"route_ref":"Red2","route_color":"#cc0000","wikipedia":null,"osm_route_ids":[12820284,12820285],"status":null,"order_suspect":0,"span_suspect":0,"stations":[{"station_id":"n6588381694","station_name":"Life Pharmacy"},{"station_id":"n6588381691","station_name":"Danube"},{"station_id":"n6588516079","station_name":"Energy"},{"station_id":"n6588516080","station_name":"Ibn Battuta"},{"station_id":"n8625117828","station_name":"National Paints"},{"station_id":"n6580427441","station_name":"DMCC"},{"station_id":"n6588516083","station_name":"Sobha Realty"},{"station_id":"n6588516084","station_name":"Al Fardan Exchange"},{"station_id":"n6588569785","station_name":"Dubai Internet City"},{"station_id":"n6588569786","station_name":"InsuranceMarket"},{"station_id":"n6588569787","station_name":"Mall of the Emirates"},{"station_id":"n6588569788","station_name":"Equiti"},{"station_id":"n6588569789","station_name":"ONPASSIVE"},{"station_id":"n2418678459","station_name":"Business Bay"},{"station_id":"n604304348","station_name":"Burj Khalifa / Dubai Mall"},{"station_id":"n6588569790","station_name":"Financial Centre"},{"station_id":"n605500214","station_name":"Emirates Towers"},{"station_id":"n6588569798","station_name":"World Trade Centre"},{"station_id":"n6588569797","station_name":"max"},{"station_id":"n6588569796","station_name":"ADCB"},{"station_id":"n6584833632","station_name":"BurJuman"},{"station_id":"n6584833623","station_name":"Union"},{"station_id":"n6588569794","station_name":"Al Rigga"},{"station_id":"n6588569799","station_name":"Deira City Centre"},{"station_id":"n6588569793","station_name":"Al Garhoud"},{"station_id":"n6588569792","station_name":"Airport Terminal 1"},{"station_id":"n2017967833","station_name":"Airport Terminal 3"},{"station_id":"n6588569791","station_name":"Emirates"},{"station_id":"n6588516078","station_name":"Centrepoint"}]}],"route_count":1,"route_refs":["Red2"],"route_colors":["#cc0000"],"city":"Dubai","country":"United Arab Emirates"},"geometry":{"type":"MultiLineString","coordinates":[[[55.09106346666667,24.977586966666667],[55.0956986,25.001289766666662],[55.101295066666665,25.026312633333333],[55.1174953,25.046672733333335],[55.127331659999996,25.057900859999997]]]}},{"type":"Feature","properties":{"station_id":"n604304348","station_name":"Burj Khalifa / Dubai Mall","station_name_local":"دبي مول / برج خليفة","station_name_en":"Burj Khalifa / Dubai Mall","city":"Dubai","country":"United Arab Emirates","lines":["Red1","Red2"],"wikipedia":"en:Burj Khalifa/Dubai Mall (Dubai Metro)","merged_from":3,"merged_names":null,"is_terminus":false,"codes":["25"],"routes":[{"ref":"Red1","name":"Red1 Line","route_color":"#cc0000"},{"ref":"Red2","name":"Red2 Line","route_color":"#cc0000"}],"pass_count":2,"station_degree":2,"is_interchange":false,"station_role":"normal"},"geometry":{"type":"Point","coordinates":[55.26957813333333,25.201431333333336]},"__memberLines":{}},{"type":"Feature","properties":{"station_id":"n605500214","station_name":"Emirates Towers","station_name_local":"أبراج الإمارات","station_name_en":"Emirates Towers","city":"Dubai","country":"United Arab Emirates","lines":["Red1","Red2"],"wikipedia":"en:Emirates Towers (Dubai Metro)","merged_from":3,"merged_names":null,"is_terminus":false,"codes":["23"],"routes":[{"ref":"Red1","name":"Red1 Line","route_color":"#cc0000"},{"ref":"Red2","name":"Red2 Line","route_color":"#cc0000"}],"pass_count":2,"station_degree":2,"is_interchange":false,"station_role":"normal"},"geometry":{"type":"Point","coordinates":[55.2798765,25.217220866666665]},"__memberLines":{}},{"type":"Feature","properties":{"station_id":"n2017967833","station_name":"Airport Terminal 3","station_name_local":"المطار - مبنى رقم 3","station_name_en":"Airport Terminal 3","city":"Dubai","country":"United Arab Emirates","lines":["Red1","Red2"],"wikipedia":"en:Airport Terminal 3 (Dubai Metro)","merged_from":3,"merged_names":null,"is_terminus":false,"codes":["13"],"routes":[{"ref":"Red1","name":"Red1 Line","route_color":"#cc0000"},{"ref":"Red2","name":"Red2 Line","route_color":"#cc0000"}],"pass_count":2,"station_degree":2,"is_interchange":false,"station_role":"normal"},"geometry":{"type":"Point","coordinates":[55.3594886,25.245030633333332]},"__memberLines":{}},{"type":"Feature","properties":{"station_id":"n2418678459","station_name":"Business Bay","station_name_local":"الخليج التجاري","station_name_en":"Business Bay","city":"Dubai","country":"United Arab Emirates","lines":["Red1","Red2"],"wikipedia":"en:Business Bay (Dubai Metro)","merged_from":3,"merged_names":null,"is_terminus":false,"codes":["26"],"routes":[{"ref":"Red1","name":"Red1 Line","route_color":"#cc0000"},{"ref":"Red2","name":"Red2 Line","route_color":"#cc0000"}],"pass_count":2,"station_degree":2,"is_interchange":false,"station_role":"normal"},"geometry":{"type":"Point","coordinates":[55.2603932,25.1912842]},"__memberLines":{}},{"type":"Feature","properties":{"station_id":"n5312499190","station_name":"Al Furjan","station_name_local":"الفرجان","station_name_en":"Al Furjan","city":"Dubai","country":"United Arab Emirates","lines":["Red1"],"wikipedia":"en:Al Furjan (Dubai Metro)","merged_from":3,"merged_names":null,"is_terminus":false,"codes":["72"],"routes":[{"ref":"Red1","name":"Red1 Line","route_color":"#cc0000"}],"pass_count":1,"station_degree":2,"is_interchange":false,"station_role":"normal"},"geometry":{"type":"Point","coordinates":[55.15223096666667,25.030472466666666]},"__memberLines":{}},{"type":"Feature","properties":{"station_id":"n5312499192","station_name":"Discovery Gardens","station_name_local":"ديسكفدي جاردنز","station_name_en":"Discovery Gardens","city":"Dubai","country":"United Arab Emirates","lines":["Red1"],"wikipedia":"en:Discovery Gardens (Dubai Metro)","merged_from":3,"merged_names":null,"is_terminus":false,"codes":["71"],"routes":[{"ref":"Red1","name":"Red1 Line","route_color":"#cc0000"}],"pass_count":1,"station_degree":2,"is_interchange":false,"station_role":"normal"},"geometry":{"type":"Point","coordinates":[55.14541663333333,25.035258166666665]},"__memberLines":{}},{"type":"Feature","properties":{"station_id":"n6472748545","station_name":"e&","station_name_local":"اي اند","station_name_en":"e&","city":"Dubai","country":"United Arab Emirates","lines":["Green"],"wikipedia":"en:Etisalat (Dubai Metro)","merged_from":3,"merged_names":null,"is_terminus":true,"codes":["11"],"routes":[{"ref":"Green","name":"Green Line","route_color":"#00cc00"}],"pass_count":1,"station_degree":1,"is_interchange":false,"station_role":"terminus"},"geometry":{"type":"Point","coordinates":[55.401279933333335,25.254712233333333]},"__memberLines":{}},{"type":"Feature","properties":{"station_id":"n6580427441","station_name":"DMCC","station_name_local":"مركز دبي للسلع المتعددة","station_name_en":"DMCC","city":"Dubai","country":"United Arab Emirates","lines":["Red1","Red2"],"wikipedia":null,"merged_from":3,"merged_names":null,"is_terminus":false,"codes":["37"],"routes":[{"ref":"Red1","name":"Red1 Line","route_color":"#cc0000"},{"ref":"Red2","name":"Red2 Line","route_color":"#cc0000"}],"pass_count":2,"station_degree":2,"is_interchange":false,"station_role":"normal"},"geometry":{"type":"Point","coordinates":[55.13870816666667,25.07087543333333]},"__memberLines":{}},{"type":"Feature","properties":{"station_id":"n6581397376","station_name":"Al Nahda","station_name_local":"النهدة","station_name_en":"Al Nahda","city":"Dubai","country":"United Arab Emirates","lines":["Green"],"wikipedia":"en:Al Nahda (Dubai Metro)","merged_from":3,"merged_names":null,"is_terminus":false,"codes":["14"],"routes":[{"ref":"Green","name":"Green Line","route_color":"#00cc00"}],"pass_count":1,"station_degree":2,"is_interchange":false,"station_role":"normal"},"geometry":{"type":"Point","coordinates":[55.369476533333334,25.273207333333335]},"__memberLines":{}},{"type":"Feature","properties":{"station_id":"n6581397379","station_name":"Stadium","station_name_local":"الاستاد","station_name_en":"Stadium","city":"Dubai","country":"United Arab Emirates","lines":["Green"],"wikipedia":"en:Stadium (Dubai Metro)","merged_from":3,"merged_names":null,"is_terminus":false,"codes":["15"],"routes":[{"ref":"Green","name":"Green Line","route_color":"#00cc00"}],"pass_count":1,"station_degree":2,"is_interchange":false,"station_role":"normal"},"geometry":{"type":"Point","coordinates":[55.361464833333336,25.277911966666665]},"__memberLines":{}},{"type":"Feature","properties":{"station_id":"n6581397380","station_name":"Abu Hail","station_name_local":"أبو هيل","station_name_en":"Abu Hail","city":"Dubai","country":"United Arab Emirates","lines":["Green"],"wikipedia":"en:Abu Hail (Dubai Metro)","merged_from":3,"merged_names":null,"is_terminus":false,"codes":["17"],"routes":[{"ref":"Green","name":"Green Line","route_color":"#00cc00"}],"pass_count":1,"station_degree":2,"is_interchange":false,"station_role":"normal"},"geometry":{"type":"Point","coordinates":[55.346442700000004,25.2754156]},"__memberLines":{}},{"type":"Feature","properties":{"station_id":"n6581397381","station_name":"Al Qiyadah","station_name_local":"القيادة","station_name_en":"Al Qiyadah","city":"Dubai","country":"United Arab Emirates","lines":["Green"],"wikipedia":"en:Al Qiyadah (Dubai Metro)","merged_from":3,"merged_names":null,"is_terminus":false,"codes":["16"],"routes":[{"ref":"Green","name":"Green Line","route_color":"#00cc00"}],"pass_count":1,"station_degree":2,"is_interchange":false,"station_role":"normal"},"geometry":{"type":"Point","coordinates":[55.35262493333334,25.277575933333335]},"__memberLines":{}},{"type":"Feature","properties":{"station_id":"n6584833621","station_name":"Abu Baker Al Siddique","station_name_local":"أبو بكر الصديق","station_name_en":"Abu Baker Al Siddique","city":"Dubai","country":"United Arab Emirates","lines":["Green"],"wikipedia":"en:Abu Baker Al Siddique (Dubai Metro)","merged_from":3,"merged_names":null,"is_terminus":false,"codes":["18"],"routes":[{"ref":"Green","name":"Green Line","route_color":"#00cc00"}],"pass_count":1,"station_degree":2,"is_interchange":false,"station_role":"normal"},"geometry":{"type":"Point","coordinates":[55.33275526666666,25.270892933333332]},"__memberLines":{}},{"type":"Feature","properties":{"station_id":"n6584833623","station_name":"Union","station_name_local":"الاتحاد","station_name_en":"Union","city":"Dubai","country":"United Arab Emirates","lines":["Green","Red1","Red2"],"wikipedia":"en:Union (Dubai Metro)","merged_from":5,"merged_names":null,"is_terminus":false,"codes":["18","20"],"routes":[{"ref":"Green","name":"Green Line","route_color":"#00cc00"},{"ref":"Red1","name":"Red1 Line","route_color":"#cc0000"},{"ref":"Red2","name":"Red2 Line","route_color":"#cc0000"}],"pass_count":3,"station_degree":4,"is_interchange":true,"station_role":"interchange"},"geometry":{"type":"Point","coordinates":[55.313752439999995,25.26618198]},"__memberLines":{}},{"type":"Feature","properties":{"station_id":"n6584833624","station_name":"Salah Al Din","station_name_local":"صلاح الدين","station_name_en":"Salah Al Din","city":"Dubai","country":"United Arab Emirates","lines":["Green"],"wikipedia":"en:Salah Al Din (Dubai Metro)","merged_from":3,"merged_names":null,"is_terminus":false,"codes":["19"],"routes":[{"ref":"Green","name":"Green Line","route_color":"#00cc00"}],"pass_count":1,"station_degree":2,"is_interchange":false,"station_role":"normal"},"geometry":{"type":"Point","coordinates":[55.32082836666667,25.270314600000003]},"__memberLines":{}},{"type":"Feature","properties":{"station_id":"n6584833626","station_name":"Baniyas Square","station_name_local":"بني ياس","station_name_en":"Baniyas Square","city":"Dubai","country":"United Arab Emirates","lines":["Green"],"wikipedia":"en:Baniyas Square (Dubai Metro)","merged_from":3,"merged_names":null,"is_terminus":false,"codes":["21"],"routes":[{"ref":"Green","name":"Green Line","route_color":"#00cc00"}],"pass_count":1,"station_degree":2,"is_interchange":false,"station_role":"normal"},"geometry":{"type":"Point","coordinates":[55.30760823333333,25.269175933333333]},"__memberLines":{}},{"type":"Feature","properties":{"station_id":"n6584833627","station_name":"Gold Souq","station_name_local":"سوق الذهب","station_name_en":"Gold Souq","city":"Dubai","country":"United Arab Emirates","lines":["Green"],"wikipedia":"en:Gold Souq (Dubai Metro)","merged_from":3,"merged_names":null,"is_terminus":false,"codes":["22"],"routes":[{"ref":"Green","name":"Green Line","route_color":"#00cc00"}],"pass_count":1,"station_degree":2,"is_interchange":false,"station_role":"normal"},"geometry":{"type":"Point","coordinates":[55.30167343333333,25.276141066666668]},"__memberLines":{}},{"type":"Feature","properties":{"station_id":"n6584833628","station_name":"Al Ras","station_name_local":"الرأس","station_name_en":"Al Ras","city":"Dubai","country":"United Arab Emirates","lines":["Green"],"wikipedia":"en:Al Ras (Dubai Metro)","merged_from":3,"merged_names":null,"is_terminus":false,"codes":["23"],"routes":[{"ref":"Green","name":"Green Line","route_color":"#00cc00"}],"pass_count":1,"station_degree":2,"is_interchange":false,"station_role":"normal"},"geometry":{"type":"Point","coordinates":[55.2936243,25.268774166666663]},"__memberLines":{}},{"type":"Feature","properties":{"station_id":"n6584833629","station_name":"Al Ghubaiba","station_name_local":"الغبيبة","station_name_en":"Al Ghubaiba","city":"Dubai","country":"United Arab Emirates","lines":["Green"],"wikipedia":"en:Al Ghubaiba (Dubai Metro)","merged_from":3,"merged_names":null,"is_terminus":false,"codes":["24"],"routes":[{"ref":"Green","name":"Green Line","route_color":"#00cc00"}],"pass_count":1,"station_degree":2,"is_interchange":false,"station_role":"normal"},"geometry":{"type":"Point","coordinates":[55.288941333333334,25.2650349]},"__memberLines":{}},{"type":"Feature","properties":{"station_id":"n6584833631","station_name":"Sharaf DG","station_name_local":"شرف دي جي","station_name_en":"Sharaf DG","city":"Dubai","country":"United Arab Emirates","lines":["Green"],"wikipedia":"en:Sharaf DG (Dubai Metro)","merged_from":3,"merged_names":null,"is_terminus":false,"codes":["25"],"routes":[{"ref":"Green","name":"Green Line","route_color":"#00cc00"}],"pass_count":1,"station_degree":2,"is_interchange":false,"station_role":"normal"},"geometry":{"type":"Point","coordinates":[55.2974781,25.258213666666666]},"__memberLines":{}},{"type":"Feature","properties":{"station_id":"n6584833632","station_name":"BurJuman","station_name_local":"برجمان","station_name_en":"BurJuman","city":"Dubai","country":"United Arab Emirates","lines":["Green","Red1","Red2"],"wikipedia":"en:BurJuman (Dubai Metro)","merged_from":6,"merged_names":null,"is_terminus":false,"codes":["19","26"],"routes":[{"ref":"Green","name":"Green Line","route_color":"#00cc00"},{"ref":"Red1","name":"Red1 Line","route_color":"#cc0000"},{"ref":"Red2","name":"Red2 Line","route_color":"#cc0000"}],"pass_count":3,"station_degree":4,"is_interchange":true,"station_role":"interchange"},"geometry":{"type":"Point","coordinates":[55.30402241666667,25.254695299999998]},"__memberLines":{}},{"type":"Feature","properties":{"station_id":"n6584833633","station_name":"Oud Metha","station_name_local":"عود ميثاء","station_name_en":"Oud Metha","city":"Dubai","country":"United Arab Emirates","lines":["Green"],"wikipedia":"en:Oud Metha (Dubai Metro)","merged_from":3,"merged_names":null,"is_terminus":false,"codes":["27"],"routes":[{"ref":"Green","name":"Green Line","route_color":"#00cc00"}],"pass_count":1,"station_degree":2,"is_interchange":false,"station_role":"normal"},"geometry":{"type":"Point","coordinates":[55.3158946,25.2439296]},"__memberLines":{}},{"type":"Feature","properties":{"station_id":"n6584833635","station_name":"Dubai Healthcare City","station_name_local":"مدينة دبي الطبية","station_name_en":"Dubai Healthcare City","city":"Dubai","country":"United Arab Emirates","lines":["Green"],"wikipedia":"en:Dubai Healthcare City (Dubai Metro)","merged_from":3,"merged_names":null,"is_terminus":false,"codes":["28"],"routes":[{"ref":"Green","name":"Green Line","route_color":"#00cc00"}],"pass_count":1,"station_degree":2,"is_interchange":false,"station_role":"normal"},"geometry":{"type":"Point","coordinates":[55.3226189,25.230953733333337]},"__memberLines":{}},{"type":"Feature","properties":{"station_id":"n6584833637","station_name":"Al Jadaf","station_name_local":"الجداف","station_name_en":"Al Jadaf","city":"Dubai","country":"United Arab Emirates","lines":["Green"],"wikipedia":"en:Al Jadaf (Dubai Metro)","merged_from":3,"merged_names":null,"is_terminus":false,"codes":["29"],"routes":[{"ref":"Green","name":"Green Line","route_color":"#00cc00"}],"pass_count":1,"station_degree":2,"is_interchange":false,"station_role":"normal"},"geometry":{"type":"Point","coordinates":[55.3337339,25.2248993]},"__memberLines":{}},{"type":"Feature","properties":{"station_id":"n6584833640","station_name":"Creek","station_name_local":"الخور","station_name_en":"Creek","city":"Dubai","country":"United Arab Emirates","lines":["Green"],"wikipedia":"en:Creek (Dubai Metro)","merged_from":3,"merged_names":null,"is_terminus":true,"codes":["30"],"routes":[{"ref":"Green","name":"Green Line","route_color":"#00cc00"}],"pass_count":1,"station_degree":1,"is_interchange":false,"station_role":"terminus"},"geometry":{"type":"Point","coordinates":[55.339059066666664,25.21886483333333]},"__memberLines":{}},{"type":"Feature","properties":{"station_id":"n6584833641","station_name":"Al Qusais","station_name_local":"القصيص","station_name_en":"Al Qusais","city":"Dubai","country":"United Arab Emirates","lines":["Green"],"wikipedia":"en:Al Qusais (Dubai Metro)","merged_from":3,"merged_names":null,"is_terminus":false,"codes":["12"],"routes":[{"ref":"Green","name":"Green Line","route_color":"#00cc00"}],"pass_count":1,"station_degree":2,"is_interchange":false,"station_role":"normal"},"geometry":{"type":"Point","coordinates":[55.3872706,25.262742966666668]},"__memberLines":{}},{"type":"Feature","properties":{"station_id":"n6584833643","station_name":"Dubai Airport Free Zone","station_name_local":"المنطقة الحرة بمطار دبي","station_name_en":"Dubai Airport Free Zone","city":"Dubai","country":"United Arab Emirates","lines":["Green"],"wikipedia":"en:Dubai Airport Free Zone (Dubai Metro)","merged_from":3,"merged_names":null,"is_terminus":false,"codes":["13"],"routes":[{"ref":"Green","name":"Green Line","route_color":"#00cc00"}],"pass_count":1,"station_degree":2,"is_interchange":false,"station_role":"normal"},"geometry":{"type":"Point","coordinates":[55.375154933333334,25.269826199999997]},"__memberLines":{}},{"type":"Feature","properties":{"station_id":"n6588381691","station_name":"Danube","station_name_local":"دانوب","station_name_en":"Danube","city":"Dubai","country":"United Arab Emirates","lines":["Red2"],"wikipedia":"en:Danube (Dubai Metro)","merged_from":3,"merged_names":null,"is_terminus":false,"codes":["41"],"routes":[{"ref":"Red2","name":"Red2 Line","route_color":"#cc0000"}],"pass_count":1,"station_degree":2,"is_interchange":false,"station_role":"normal"},"geometry":{"type":"Point","coordinates":[55.0956986,25.001289766666662]},"__memberLines":{}},{"type":"Feature","properties":{"station_id":"n6588381694","station_name":"Life Pharmacy","station_name_local":"صيدلية لايف","station_name_en":"Life Pharmacy","city":"Dubai","country":"United Arab Emirates","lines":["Red2"],"wikipedia":"en:UAE Exchange (Dubai Metro)","merged_from":3,"merged_names":null,"is_terminus":true,"codes":["42"],"routes":[{"ref":"Red2","name":"Red2 Line","route_color":"#cc0000"}],"pass_count":1,"station_degree":1,"is_interchange":false,"station_role":"terminus"},"geometry":{"type":"Point","coordinates":[55.09106346666667,24.977586966666667]},"__memberLines":{}},{"type":"Feature","properties":{"station_id":"n6588516078","station_name":"Centrepoint","station_name_local":"سنتربوينت","station_name_en":"Centrepoint","city":"Dubai","country":"United Arab Emirates","lines":["Red1","Red2"],"wikipedia":"en:Centrepoint (Dubai Metro)","merged_from":3,"merged_names":null,"is_terminus":true,"codes":["R11"],"routes":[{"ref":"Red1","name":"Red1 Line","route_color":"#cc0000"},{"ref":"Red2","name":"Red2 Line","route_color":"#cc0000"}],"pass_count":2,"station_degree":1,"is_interchange":false,"station_role":"terminus"},"geometry":{"type":"Point","coordinates":[55.3911125,25.230287133333334]},"__memberLines":{}},{"type":"Feature","properties":{"station_id":"n6588516079","station_name":"Energy","station_name_local":"الطاقة","station_name_en":"Energy","city":"Dubai","country":"United Arab Emirates","lines":["Red2"],"wikipedia":"en:Energy (Dubai Metro)","merged_from":3,"merged_names":null,"is_terminus":false,"codes":["40"],"routes":[{"ref":"Red2","name":"Red2 Line","route_color":"#cc0000"}],"pass_count":1,"station_degree":2,"is_interchange":false,"station_role":"normal"},"geometry":{"type":"Point","coordinates":[55.101295066666665,25.026312633333333]},"__memberLines":{}},{"type":"Feature","properties":{"station_id":"n6588516080","station_name":"Ibn Battuta","station_name_local":"ابن بطوطة","station_name_en":"Ibn Battuta","city":"Dubai","country":"United Arab Emirates","lines":["Red2"],"wikipedia":"en:Ibn Battuta (Dubai Metro)","merged_from":3,"merged_names":null,"is_terminus":false,"codes":["39"],"routes":[{"ref":"Red2","name":"Red2 Line","route_color":"#cc0000"}],"pass_count":1,"station_degree":2,"is_interchange":false,"station_role":"normal"},"geometry":{"type":"Point","coordinates":[55.1174953,25.046672733333335]},"__memberLines":{}},{"type":"Feature","properties":{"station_id":"n6588516083","station_name":"Sobha Realty","station_name_local":"شوبا العقارية","station_name_en":"Sobha Realty","city":"Dubai","country":"United Arab Emirates","lines":["Red1","Red2"],"wikipedia":"en:Sobha Realty (Dubai Metro)","merged_from":3,"merged_names":null,"is_terminus":false,"codes":["36"],"routes":[{"ref":"Red1","name":"Red1 Line","route_color":"#cc0000"},{"ref":"Red2","name":"Red2 Line","route_color":"#cc0000"}],"pass_count":2,"station_degree":2,"is_interchange":false,"station_role":"normal"},"geometry":{"type":"Point","coordinates":[55.1475748,25.0799517]},"__memberLines":{}},{"type":"Feature","properties":{"station_id":"n6588516084","station_name":"Al Fardan Exchange","station_name_local":"الفردان للصرافة","station_name_en":"Al Fardan Exchange","city":"Dubai","country":"United Arab Emirates","lines":["Red1","Red2"],"wikipedia":"en:Al Fardan Exchange (Dubai Metro)","merged_from":3,"merged_names":null,"is_terminus":false,"routes":[{"ref":"Red1","name":"Red1 Line","route_color":"#cc0000"},{"ref":"Red2","name":"Red2 Line","route_color":"#cc0000"}],"pass_count":2,"station_degree":2,"codes":null,"is_interchange":false,"station_role":"normal"},"geometry":{"type":"Point","coordinates":[55.15818506666667,25.088913666666667]},"__memberLines":{}},{"type":"Feature","properties":{"station_id":"n6588569785","station_name":"Dubai Internet City","station_name_local":"مدينة دبي للإنترنت","station_name_en":"Dubai Internet City","city":"Dubai","country":"United Arab Emirates","lines":["Red1","Red2"],"wikipedia":"en:Dubai Internet City (Dubai Metro)","merged_from":3,"merged_names":null,"is_terminus":false,"codes":["34"],"routes":[{"ref":"Red1","name":"Red1 Line","route_color":"#cc0000"},{"ref":"Red2","name":"Red2 Line","route_color":"#cc0000"}],"pass_count":2,"station_degree":2,"is_interchange":false,"station_role":"normal"},"geometry":{"type":"Point","coordinates":[55.173891133333335,25.10218]},"__memberLines":{}},{"type":"Feature","properties":{"station_id":"n6588569786","station_name":"InsuranceMarket","station_name_local":"سوق التأمين","station_name_en":"InsuranceMarket","city":"Dubai","country":"United Arab Emirates","lines":["Red1","Red2"],"wikipedia":"en:InsuranceMarket (Dubai Metro)","merged_from":3,"merged_names":null,"is_terminus":false,"codes":["33"],"routes":[{"ref":"Red1","name":"Red1 Line","route_color":"#cc0000"},{"ref":"Red2","name":"Red2 Line","route_color":"#cc0000"}],"pass_count":2,"station_degree":2,"is_interchange":false,"station_role":"normal"},"geometry":{"type":"Point","coordinates":[55.1908947,25.114771233333332]},"__memberLines":{}},{"type":"Feature","properties":{"station_id":"n6588569787","station_name":"Mall of the Emirates","station_name_local":"مول الإمارات","station_name_en":"Mall of the Emirates","city":"Dubai","country":"United Arab Emirates","lines":["Red1","Red2"],"wikipedia":"en:Mall of the Emirates (Dubai Metro)","merged_from":3,"merged_names":null,"is_terminus":false,"codes":["32"],"routes":[{"ref":"Red1","name":"Red1 Line","route_color":"#cc0000"},{"ref":"Red2","name":"Red2 Line","route_color":"#cc0000"}],"pass_count":2,"station_degree":2,"is_interchange":false,"station_role":"normal"},"geometry":{"type":"Point","coordinates":[55.200449066666664,25.121212033333336]},"__memberLines":{}},{"type":"Feature","properties":{"station_id":"n6588569788","station_name":"Equiti","station_name_local":"إكويتي","station_name_en":"Equiti","city":"Dubai","country":"United Arab Emirates","lines":["Red1","Red2"],"wikipedia":"en:Equiti (Dubai Metro)","merged_from":3,"merged_names":null,"is_terminus":false,"codes":["31"],"routes":[{"ref":"Red1","name":"Red1 Line","route_color":"#cc0000"},{"ref":"Red2","name":"Red2 Line","route_color":"#cc0000"}],"pass_count":2,"station_degree":2,"is_interchange":false,"station_role":"normal"},"geometry":{"type":"Point","coordinates":[55.2079242,25.126687399999998]},"__memberLines":{}},{"type":"Feature","properties":{"station_id":"n6588569789","station_name":"ONPASSIVE","station_name_local":"أون باسيف","station_name_en":"ONPASSIVE","city":"Dubai","country":"United Arab Emirates","lines":["Red1","Red2"],"wikipedia":"en:Onpassive (Dubai Metro)","merged_from":3,"merged_names":null,"is_terminus":false,"codes":["29"],"routes":[{"ref":"Red1","name":"Red1 Line","route_color":"#cc0000"},{"ref":"Red2","name":"Red2 Line","route_color":"#cc0000"}],"pass_count":2,"station_degree":2,"is_interchange":false,"station_role":"normal"},"geometry":{"type":"Point","coordinates":[55.22851930000001,25.1556373]},"__memberLines":{}},{"type":"Feature","properties":{"station_id":"n6588569790","station_name":"Financial Centre / Financial Center","station_name_local":"Financial Centre / Financial Center","station_name_en":"Financial Centre","city":"Dubai","country":"United Arab Emirates","lines":["Red1","Red2"],"wikipedia":"en:Financial Centre (Dubai Metro)","merged_from":3,"merged_names":[{"station_id":"n6588569790","station_name":"Financial Centre","station_name_local":"المركز المالي","lines":["Red2"]},{"station_id":"n574351614","station_name":"Financial Center","station_name_local":"Financial Center","lines":["Red1","Red2"]}],"is_terminus":false,"codes":["24"],"routes":[{"ref":"Red1","name":"Red1 Line","route_color":"#cc0000"},{"ref":"Red2","name":"Red2 Line","route_color":"#cc0000"}],"pass_count":2,"station_degree":2,"is_interchange":false,"station_role":"normal"},"geometry":{"type":"Point","coordinates":[55.2755189,25.210875633333334]},"__memberLines":{}},{"type":"Feature","properties":{"station_id":"n6588569791","station_name":"Emirates","station_name_local":"طيران الإمارات","station_name_en":"Emirates","city":"Dubai","country":"United Arab Emirates","lines":["Red1","Red2"],"wikipedia":"en:Emirates (Dubai Metro)","merged_from":3,"merged_names":null,"is_terminus":false,"codes":["12"],"routes":[{"ref":"Red1","name":"Red1 Line","route_color":"#cc0000"},{"ref":"Red2","name":"Red2 Line","route_color":"#cc0000"}],"pass_count":2,"station_degree":2,"is_interchange":false,"station_role":"normal"},"geometry":{"type":"Point","coordinates":[55.3656761,25.241064166666664]},"__memberLines":{}},{"type":"Feature","properties":{"station_id":"n6588569792","station_name":"Airport Terminal 1","station_name_local":"المطار - مبنى رقم 1","station_name_en":"Airport Terminal 1","city":"Dubai","country":"United Arab Emirates","lines":["Red1","Red2"],"wikipedia":"en:Airport Terminal 1 (Dubai Metro)","merged_from":3,"merged_names":null,"is_terminus":false,"codes":["14"],"routes":[{"ref":"Red1","name":"Red1 Line","route_color":"#cc0000"},{"ref":"Red2","name":"Red2 Line","route_color":"#cc0000"}],"pass_count":2,"station_degree":2,"is_interchange":false,"station_role":"normal"},"geometry":{"type":"Point","coordinates":[55.35234613333333,25.248482533333334]},"__memberLines":{}},{"type":"Feature","properties":{"station_id":"n6588569793","station_name":"Al Garhoud","station_name_local":"القرهود","station_name_en":"Al Garhoud","city":"Dubai","country":"United Arab Emirates","lines":["Red1","Red2"],"wikipedia":"en:GGICO (Dubai Metro)","merged_from":3,"merged_names":null,"is_terminus":false,"codes":["15"],"routes":[{"ref":"Red1","name":"Red1 Line","route_color":"#cc0000"},{"ref":"Red2","name":"Red2 Line","route_color":"#cc0000"}],"pass_count":2,"station_degree":2,"is_interchange":false,"station_role":"normal"},"geometry":{"type":"Point","coordinates":[55.33997333333334,25.249482233333335]},"__memberLines":{}},{"type":"Feature","properties":{"station_id":"n6588569794","station_name":"Al Rigga","station_name_local":"الرقة","station_name_en":"Al Rigga","city":"Dubai","country":"United Arab Emirates","lines":["Red1","Red2"],"wikipedia":"en:Al Rigga (Dubai Metro)","merged_from":3,"merged_names":null,"is_terminus":false,"codes":["17"],"routes":[{"ref":"Red1","name":"Red1 Line","route_color":"#cc0000"},{"ref":"Red2","name":"Red2 Line","route_color":"#cc0000"}],"pass_count":2,"station_degree":2,"is_interchange":false,"station_role":"normal"},"geometry":{"type":"Point","coordinates":[55.32388223333333,25.263349533333336]},"__memberLines":{}},{"type":"Feature","properties":{"station_id":"n6588569796","station_name":"ADCB","station_name_local":"بنك أبو ظبي التجاري","station_name_en":"ADCB","city":"Dubai","country":"United Arab Emirates","lines":["Red1","Red2"],"wikipedia":"en:ADCB (Dubai Metro)","merged_from":3,"merged_names":null,"is_terminus":false,"codes":["20"],"routes":[{"ref":"Red1","name":"Red1 Line","route_color":"#cc0000"},{"ref":"Red2","name":"Red2 Line","route_color":"#cc0000"}],"pass_count":2,"station_degree":2,"is_interchange":false,"station_role":"normal"},"geometry":{"type":"Point","coordinates":[55.29822926666666,25.2445663]},"__memberLines":{}},{"type":"Feature","properties":{"station_id":"n6588569797","station_name":"max","station_name_local":"ماكس","station_name_en":"max","city":"Dubai","country":"United Arab Emirates","lines":["Red1","Red2"],"wikipedia":"en:Max (Dubai Metro)","merged_from":3,"merged_names":null,"is_terminus":false,"codes":["21"],"routes":[{"ref":"Red1","name":"Red1 Line","route_color":"#cc0000"},{"ref":"Red2","name":"Red2 Line","route_color":"#cc0000"}],"pass_count":2,"station_degree":2,"is_interchange":false,"station_role":"normal"},"geometry":{"type":"Point","coordinates":[55.29217296666667,25.23354706666667]},"__memberLines":{}},{"type":"Feature","properties":{"station_id":"n6588569798","station_name":"World Trade Centre","station_name_local":"المركز التجاري العالمي","station_name_en":"World Trade Centre","city":"Dubai","country":"United Arab Emirates","lines":["Red1","Red2"],"wikipedia":"en:World Trade Centre (Dubai Metro)","merged_from":3,"merged_names":null,"is_terminus":false,"codes":["22"],"routes":[{"ref":"Red1","name":"Red1 Line","route_color":"#cc0000"},{"ref":"Red2","name":"Red2 Line","route_color":"#cc0000"}],"pass_count":2,"station_degree":2,"is_interchange":false,"station_role":"normal"},"geometry":{"type":"Point","coordinates":[55.285099800000005,25.2248445]},"__memberLines":{}},{"type":"Feature","properties":{"station_id":"n6588569799","station_name":"Deira City Centre","station_name_local":"ديرة سيتي سنتر","station_name_en":"Deira City Centre","city":"Dubai","country":"United Arab Emirates","lines":["Red1","Red2"],"wikipedia":"en:Deira City Centre (Dubai Metro)","merged_from":3,"merged_names":null,"is_terminus":false,"codes":["16"],"routes":[{"ref":"Red1","name":"Red1 Line","route_color":"#cc0000"},{"ref":"Red2","name":"Red2 Line","route_color":"#cc0000"}],"pass_count":2,"station_degree":2,"is_interchange":false,"station_role":"normal"},"geometry":{"type":"Point","coordinates":[55.3302568,25.254659466666666]},"__memberLines":{}},{"type":"Feature","properties":{"station_id":"n8625117828","station_name":"National Paints","station_name_local":"دهانات ناشونال","station_name_en":"National Paints","city":"Dubai","country":"United Arab Emirates","lines":["Red1","Red2"],"wikipedia":"en:Jabal Ali (Dubai Metro)","merged_from":5,"merged_names":null,"is_terminus":false,"codes":["38"],"routes":[{"ref":"Red1","name":"Red1 Line","route_color":"#cc0000"},{"ref":"Red2","name":"Red2 Line","route_color":"#cc0000"}],"pass_count":2,"station_degree":3,"is_interchange":true,"station_role":"interchange"},"geometry":{"type":"Point","coordinates":[55.127331659999996,25.057900859999997]},"__memberLines":{}},{"type":"Feature","properties":{"station_id":"n8641061625","station_name":"The Gardens","station_name_local":"الحدائق","station_name_en":"The Gardens","city":"Dubai","country":"United Arab Emirates","lines":["Red1"],"wikipedia":"en:The Gardens (Dubai Metro)","merged_from":3,"merged_names":null,"is_terminus":false,"codes":["70"],"routes":[{"ref":"Red1","name":"Red1 Line","route_color":"#cc0000"}],"pass_count":1,"station_degree":2,"is_interchange":false,"station_role":"normal"},"geometry":{"type":"Point","coordinates":[55.13503456666666,25.043507733333332]},"__memberLines":{}},{"type":"Feature","properties":{"station_id":"n8660767717","station_name":"Dubai Investment Park","station_name_local":"مجمع دبي للاستثمار","station_name_en":"Dubai Investment Park","city":"Dubai","country":"United Arab Emirates","lines":["Red1"],"wikipedia":"en:Dubai Investment Park (Dubai Metro)","merged_from":3,"merged_names":null,"is_terminus":false,"codes":["74"],"routes":[{"ref":"Red1","name":"Red1 Line","route_color":"#cc0000"}],"pass_count":1,"station_degree":2,"is_interchange":false,"station_role":"normal"},"geometry":{"type":"Point","coordinates":[55.15567023333333,25.005275366666666]},"__memberLines":{}},{"type":"Feature","properties":{"station_id":"n8882647591","station_name":"Expo City Dubai","station_name_local":"مدينة اكسبو دبي","station_name_en":"Expo City Dubai","city":"Dubai","country":"United Arab Emirates","lines":["Red1"],"wikipedia":"en:Expo 2020 (Dubai Metro)","merged_from":3,"merged_names":null,"is_terminus":true,"codes":["76"],"routes":[{"ref":"Red1","name":"Red1 Line","route_color":"#cc0000"}],"pass_count":1,"station_degree":1,"is_interchange":false,"station_role":"terminus"},"geometry":{"type":"Point","coordinates":[55.1460705,24.963515633333333]},"__memberLines":{}}]}