{"type":"FeatureCollection","features":[{"type":"Feature","properties":{"way_id":454223114,"route_colors":["#fcc908","#00a650"],"route_refs":["1","4"]},"geometry":{"type":"LineString","coordinates":[[9.9385921,49.7742964],[9.93857,49.7743352],[9.938517,49.7742864],[9.9387368,49.774187],[9.9388194,49.7741496],[9.9388634,49.7741901],[9.9388215,49.7741955],[9.9387745,49.7742063],[9.9387601,49.7742114],[9.9387242,49.7742241],[9.9386706,49.7742466],[9.938625,49.77427],[9.9385921,49.7742964]]}},{"type":"Feature","properties":{"way_id":980153813,"route_colors":["#fcc908","#00a650"],"route_refs":["1","4"]},"geometry":{"type":"LineString","coordinates":[[9.9352198,49.7818258],[9.9353798,49.7814696],[9.9354373,49.7814896],[9.9353892,49.781593],[9.9352843,49.7818419],[9.9352198,49.7818258]]}},{"type":"Feature","properties":{"way_id":981249543,"route_colors":["#fcc908","#00a650"],"route_refs":["1","4"]},"geometry":{"type":"LineString","coordinates":[[9.9337516,49.7839541],[9.9337719,49.7839614],[9.933793,49.783969],[9.9335509,49.7842486],[9.9335299,49.7842411],[9.9335095,49.7842337],[9.9337516,49.7839541]]}},{"type":"Feature","properties":{"way_id":35539020,"route_colors":["#fcc908","#00a650","#01adf0"],"route_refs":["1","4","3","54"]},"geometry":{"type":"LineString","coordinates":[[9.9293909,49.7902091],[9.9294888,49.7901351],[9.9295508,49.7900923],[9.9297225,49.7900018]]}},{"type":"Feature","properties":{"way_id":37961977,"route_colors":["#fcc908","#01adf0","#c638a3"],"route_refs":["1","3","5","54"]},"geometry":{"type":"LineString","coordinates":[[9.9310087,49.7940204],[9.9310086,49.7941139],[9.9310084,49.7943397],[9.9310357,49.7943397],[9.9310631,49.7943397],[9.9310633,49.7941137],[9.9310634,49.7940204],[9.9310223,49.7940204],[9.9310087,49.7940204]]}},{"type":"Feature","properties":{"way_id":430131036,"route_colors":["#fcc908","#c638a3"],"route_refs":["1","5"]},"geometry":{"type":"LineString","coordinates":[[9.9359129,49.800379],[9.9363278,49.8003201],[9.9363227,49.8003051],[9.9363182,49.8002918],[9.9361795,49.8003115],[9.9361165,49.8003205],[9.9359033,49.8003508],[9.9359085,49.8003661],[9.9359129,49.800379]]}},{"type":"Feature","properties":{"way_id":991924758,"route_colors":["#fcc908","#c638a3"],"route_refs":["1","5"]},"geometry":{"type":"LineString","coordinates":[[9.9413951,49.7994913],[9.9415044,49.7994515],[9.9416278,49.7994112],[9.9416493,49.7994063],[9.9417257,49.7993874],[9.9416982,49.7993796],[9.9416614,49.7993813],[9.9416368,49.7993859],[9.9415849,49.7993961],[9.9415091,49.7994173],[9.9414361,49.7994463],[9.9414025,49.7994644],[9.9413951,49.7994913]]}},{"type":"Feature","properties":{"way_id":47156556,"route_colors":["#fcc908"],"route_refs":["1"]},"geometry":{"type":"LineString","coordinates":[[9.9481722,49.8017958],[9.9484648,49.8017847],[9.9485241,49.8017817]]}},{"type":"Feature","properties":{"way_id":49799883,"route_colors":["#fcc908","#c638a3"],"route_refs":["1","5"]},"geometry":{"type":"LineString","coordinates":[[9.9510029,49.801643],[9.9510347,49.8016465],[9.9514165,49.8016302]]}},{"type":"Feature","properties":{"way_id":28330382,"route_colors":["#fcc908","#c638a3"],"route_refs":["1","5"]},"geometry":{"type":"LineString","coordinates":[[9.9522769,49.8023323],[9.9518881,49.8023672],[9.9518915,49.8023806],[9.951903,49.8024086],[9.9519067,49.8024188],[9.9518899,49.802433],[9.9518564,49.8024612],[9.9518202,49.802511],[9.9518546,49.8025216],[9.95189,49.8024755],[9.9519168,49.8024557],[9.9519462,49.8024341],[9.9519835,49.8024151],[9.9520308,49.8024004],[9.9520995,49.8023913],[9.9521571,49.8023877],[9.9522411,49.802383],[9.9522661,49.802388],[9.9523036,49.8024397],[9.9523097,49.8024347],[9.9523272,49.8024205],[9.9523025,49.8023776],[9.9522808,49.8023444],[9.9522795,49.8023405],[9.9522769,49.8023323]]}},{"type":"Feature","properties":{"way_id":45671398,"route_colors":["#fcc908","#00a650"],"route_refs":["1","4"]},"geometry":{"type":"LineString","coordinates":[[9.9387316,49.7742374],[9.93877,49.7742205],[9.9388027,49.7742106],[9.9388447,49.7742036],[9.9389085,49.7742044],[9.9389794,49.7742133],[9.9390396,49.774229],[9.9390688,49.7742415],[9.9391013,49.7742606],[9.9391656,49.7743104],[9.9392377,49.7743714],[9.9393157,49.7744389],[9.9394484,49.7745645],[9.9394857,49.7746102],[9.9395146,49.774656],[9.9395341,49.7747008],[9.9395474,49.7747298],[9.9395543,49.7747523],[9.9395589,49.7747756],[9.9395645,49.7748144],[9.9395637,49.7748656],[9.9395656,49.7749124],[9.9395487,49.7749654],[9.9395024,49.7750649],[9.9393493,49.775279],[9.9391879,49.7755028],[9.9391252,49.7755923],[9.939067,49.7756745],[9.9390157,49.7757588],[9.9389666,49.7758461],[9.93892,49.7759236],[9.9388798,49.7759853],[9.9388734,49.7759952],[9.9388174,49.7760762],[9.9387982,49.7761039],[9.9386694,49.7762823]]}},{"type":"Feature","properties":{"way_id":23898716,"route_colors":["#fcc908","#00a650"],"route_refs":["1","4"]},"geometry":{"type":"LineString","coordinates":[[9.9386694,49.7762823],[9.9386658,49.7762889],[9.9385443,49.7764565],[9.9385025,49.7765141],[9.9384056,49.7766475],[9.9379888,49.7772208],[9.9373196,49.778152],[9.9367639,49.7790165],[9.9363903,49.779582],[9.9362854,49.7797359],[9.9359839,49.7802736],[9.9357324,49.7807304],[9.935538,49.7810925],[9.9354587,49.7812512],[9.9353734,49.7814327],[9.9352896,49.7816284],[9.9352015,49.7818359],[9.9350396,49.7822008],[9.9349617,49.7823562],[9.9349213,49.7824721],[9.9348638,49.7825778],[9.9347426,49.7827582],[9.9347167,49.7827968],[9.9346281,49.7829015],[9.9345078,49.7830393],[9.9338054,49.7838372],[9.9337894,49.7838612],[9.9337429,49.7839238],[9.933732,49.7839381],[9.9337207,49.7839531],[9.9336554,49.7840246],[9.9335352,49.7841632],[9.9322692,49.7856226],[9.9321877,49.7857166],[9.9321476,49.7857693],[9.9320981,49.7858291],[9.932073,49.7858856],[9.9320127,49.7860991],[9.931946,49.7863292],[9.9319148,49.7864359],[9.9318925,49.7865066],[9.9318697,49.7865902],[9.9318235,49.7867551]]}},{"type":"Feature","properties":{"way_id":969630659,"route_colors":["#fcc908","#00a650","#01adf0","#c638a3"],"route_refs":["1","4","3","5","54"]},"geometry":{"type":"LineString","coordinates":[[9.9318235,49.7867551],[9.93181,49.7867999],[9.9317925,49.7868653],[9.9316469,49.7873658]]}},{"type":"Feature","properties":{"way_id":187917844,"route_colors":["#fcc908","#00a650","#01adf0","#c638a3"],"route_refs":["1","4","3","5","54"]},"geometry":{"type":"LineString","coordinates":[[9.9316469,49.7873658],[9.9315336,49.7876267],[9.931455,49.7877721],[9.9314227,49.7878318],[9.9312531,49.7880625],[9.9311934,49.7881397],[9.9310658,49.788314],[9.9310446,49.7883523],[9.9309785,49.7884718],[9.9307457,49.7888464],[9.9307152,49.7888971],[9.930451,49.7892422],[9.9303806,49.7893341],[9.9301168,49.7896673],[9.9300067,49.7897988],[9.9299048,49.78987],[9.9298513,49.7899063],[9.9294545,49.7901369],[9.9293837,49.7901841],[9.9293485,49.7902149],[9.9292555,49.7902974],[9.9292125,49.7903311],[9.9291761,49.7903799]]}},{"type":"Feature","properties":{"way_id":1221369171,"route_colors":["#fcc908","#00a650","#01adf0","#c638a3"],"route_refs":["1","4","3","5","54"]},"geometry":{"type":"LineString","coordinates":[[9.9291761,49.7903799],[9.9289884,49.7906839],[9.9289527,49.7907541],[9.9288882,49.7908811],[9.9288224,49.791026]]}},{"type":"Feature","properties":{"way_id":35539016,"route_colors":["#fcc908","#00a650","#01adf0","#c638a3"],"route_refs":["1","4","3","5","54"]},"geometry":{"type":"LineString","coordinates":[[9.9288224,49.791026],[9.9287708,49.7911528],[9.9286292,49.7914475],[9.9285944,49.7915296],[9.9286085,49.7917873],[9.9286281,49.7923594],[9.9286315,49.7925812],[9.9286312,49.7926282],[9.9286311,49.7926351],[9.9286398,49.7927886],[9.9286321,49.7928624],[9.9286019,49.7929539],[9.9285851,49.7930034],[9.9285749,49.7930444],[9.9285791,49.793078],[9.9285932,49.7931086],[9.9286107,49.7931308],[9.9286343,49.7931515],[9.9286588,49.7931662],[9.9286729,49.7931746],[9.9287241,49.7931934],[9.9287628,49.7932015],[9.9288069,49.7932054],[9.9291096,49.7932326],[9.9297177,49.7932677],[9.9300815,49.7932887],[9.9305355,49.7933149],[9.9306629,49.7933231],[9.9307618,49.7933346],[9.9308318,49.7933501],[9.9308461,49.7933552],[9.9308953,49.7933726],[9.9309474,49.793401],[9.9309653,49.7934191],[9.9309767,49.7934306],[9.9310063,49.7934747],[9.9310226,49.793499],[9.9310322,49.7935387],[9.9310129,49.7936422],[9.9309926,49.7937947],[9.9309854,49.7939351],[9.9309836,49.794112],[9.9309808,49.7942674],[9.9309683,49.7944086],[9.9309535,49.7944798],[9.9309531,49.7944832],[9.9309483,49.7945317],[9.93094,49.7946189],[9.930944,49.7947021],[9.930959,49.7948175]]}},{"type":"Feature","properties":{"way_id":236474904,"route_colors":["#fcc908","#00a650","#01adf0","#c638a3"],"route_refs":["1","4","3","5","54"]},"geometry":{"type":"LineString","coordinates":[[9.930959,49.7948175],[9.9309804,49.7949644]]}},{"type":"Feature","properties":{"way_id":236474906,"route_colors":["#fcc908","#00a650","#01adf0","#c638a3"],"route_refs":["1","4","3","5","54"]},"geometry":{"type":"LineString","coordinates":[[9.9309804,49.7949644],[9.9309879,49.7950375],[9.9310251,49.7952764],[9.9310472,49.7954392],[9.931084,49.7956758],[9.931089,49.7957118],[9.9311333,49.7959564],[9.9311451,49.7960199]]}},{"type":"Feature","properties":{"way_id":30082603,"route_colors":["#fcc908","#00a650","#01adf0","#c638a3"],"route_refs":["1","4","3","5","54"]},"geometry":{"type":"LineString","coordinates":[[9.9311451,49.7960199],[9.9311485,49.7960471],[9.9311558,49.7961043],[9.9311926,49.7964167],[9.9312173,49.7966114],[9.9312306,49.796733],[9.9312361,49.7967837],[9.9312346,49.7968202],[9.9312289,49.7968501],[9.9312222,49.7968718],[9.9312124,49.7968955],[9.9311822,49.7969747],[9.9311772,49.7969879]]}},{"type":"Feature","properties":{"way_id":30082155,"route_colors":["#fcc908","#00a650","#01adf0","#c638a3"],"route_refs":["1","4","3","5"]},"geometry":{"type":"LineString","coordinates":[[9.9311772,49.7969879],[9.9311553,49.7970628],[9.9311633,49.7971203],[9.9311812,49.7971506],[9.9312136,49.7971909],[9.9312537,49.7972275],[9.9312889,49.7972507],[9.9313338,49.79727],[9.9314029,49.7972937],[9.9314983,49.7973159]]}},{"type":"Feature","properties":{"way_id":187914904,"route_colors":["#fcc908","#00a650","#01adf0","#c638a3"],"route_refs":["1","4","3","5"]},"geometry":{"type":"LineString","coordinates":[[9.9314983,49.7973159],[9.9319148,49.7973892],[9.9322538,49.7974471],[9.9325856,49.797502],[9.9330151,49.7975752],[9.9331978,49.7976069]]}},{"type":"Feature","properties":{"way_id":1067519209,"route_colors":["#fcc908","#00a650","#01adf0","#c638a3"],"route_refs":["1","4","3","5"]},"geometry":{"type":"LineString","coordinates":[[9.9331978,49.7976069],[9.9332301,49.7976155]]}},{"type":"Feature","properties":{"way_id":211047516,"route_colors":["#fcc908","#00a650","#01adf0","#c638a3"],"route_refs":["1","4","3","5"]},"geometry":{"type":"LineString","coordinates":[[9.9332301,49.7976155],[9.9333344,49.7976491],[9.9333843,49.797675],[9.9334107,49.7976887],[9.9334479,49.7977164],[9.9334873,49.7977599],[9.9335113,49.7978018],[9.9341349,49.7988269],[9.9346296,49.7996748],[9.9347728,49.7999152],[9.9348616,49.8000666],[9.9348825,49.8001022],[9.9349316,49.800186],[9.9349558,49.8002307],[9.9349767,49.8002686],[9.9349788,49.8002725]]}},{"type":"Feature","properties":{"way_id":44028617,"route_colors":["#fcc908","#c638a3"],"route_refs":["1","5"]},"geometry":{"type":"LineString","coordinates":[[9.9349788,49.8002725],[9.9350047,49.8002968],[9.9350104,49.8003038],[9.935029,49.8003293],[9.9350614,49.8003816],[9.9350666,49.8003891],[9.9351122,49.8004245],[9.9351401,49.8004408],[9.9351603,49.8004526],[9.9351872,49.8004597],[9.9352237,49.8004694],[9.9353021,49.8004782],[9.935398,49.800472],[9.9355157,49.8004571],[9.9356811,49.8004284]]}},{"type":"Feature","properties":{"way_id":99859339,"route_colors":["#fcc908","#c638a3"],"route_refs":["1","5"]},"geometry":{"type":"LineString","coordinates":[[9.9356811,49.8004284],[9.9357294,49.8004203],[9.9358128,49.8004063],[9.9360676,49.8003695],[9.9363145,49.8003326]]}},{"type":"Feature","properties":{"way_id":430131035,"route_colors":["#fcc908","#c638a3"],"route_refs":["1","5"]},"geometry":{"type":"LineString","coordinates":[[9.9363145,49.8003326],[9.9368983,49.8002491],[9.9370402,49.8002288],[9.9371949,49.800207],[9.9376953,49.800135],[9.9380569,49.8000821],[9.9387499,49.7999779],[9.9408363,49.7996658],[9.9409298,49.799647],[9.9410252,49.7996251],[9.9411083,49.7995986],[9.9412073,49.7995623],[9.9412425,49.7995509],[9.9413337,49.7995182],[9.9415727,49.7994329],[9.9416515,49.79941],[9.9416851,49.7994017],[9.9417537,49.799387],[9.9418343,49.7993818],[9.9421837,49.7993487],[9.9422656,49.7993444],[9.9427613,49.7993188],[9.9429081,49.7993367],[9.9429951,49.799375],[9.9430458,49.7994126],[9.9430987,49.7994848],[9.9431211,49.7995459],[9.9431701,49.7996812],[9.9432047,49.7998627]]}},{"type":"Feature","properties":{"way_id":1514949490,"route_colors":["#fcc908","#c638a3"],"route_refs":["1","5"]},"geometry":{"type":"LineString","coordinates":[[9.9432047,49.7998627],[9.9432284,49.8000604],[9.9432483,49.8001851],[9.9432598,49.8002546]]}},{"type":"Feature","properties":{"way_id":28512615,"route_colors":["#fcc908","#c638a3"],"route_refs":["1","5"]},"geometry":{"type":"LineString","coordinates":[[9.9432598,49.8002546],[9.9432758,49.8003514],[9.9433015,49.800456],[9.9433288,49.8005446],[9.943401,49.800754],[9.9434684,49.8009691],[9.9435171,49.8010977],[9.9435866,49.8012186]]}},{"type":"Feature","properties":{"way_id":1514949493,"route_colors":["#fcc908","#c638a3"],"route_refs":["1","5"]},"geometry":{"type":"LineString","coordinates":[[9.9435866,49.8012186],[9.9436506,49.8013016]]}},{"type":"Feature","properties":{"way_id":22946643,"route_colors":["#fcc908","#c638a3"],"route_refs":["1","5"]},"geometry":{"type":"LineString","coordinates":[[9.9436506,49.8013016],[9.94378,49.8014695],[9.9438393,49.801546],[9.9440204,49.8017854],[9.9440992,49.8018979],[9.9441839,49.8019987],[9.9442113,49.8020152],[9.9442387,49.8020252],[9.9442799,49.8020377],[9.9443105,49.8020408],[9.9443306,49.8020394],[9.9448717,49.8020078],[9.9452307,49.8019892],[9.9453891,49.801981],[9.9474437,49.801855],[9.9476352,49.8018445],[9.9482082,49.8018204],[9.9483634,49.8018093],[9.9484675,49.8018012],[9.9491532,49.8017586],[9.9492916,49.8017512],[9.9493265,49.8017506],[9.9513609,49.8016429],[9.9514569,49.8016374],[9.9514851,49.8016358],[9.9538759,49.8015227],[9.9539513,49.8015197],[9.9542414,49.8015057],[9.9543151,49.8015162],[9.9544,49.8015529],[9.9546546,49.8017475],[9.9547344,49.8018202],[9.9547727,49.8018661],[9.95478,49.8018942],[9.9547767,49.8019375],[9.954758,49.8019811],[9.9547284,49.8020155],[9.954685,49.8020384],[9.954647,49.8020584]]}},{"type":"Feature","properties":{"way_id":1334625549,"route_colors":["#fcc908","#c638a3"],"route_refs":["1","5"]},"geometry":{"type":"LineString","coordinates":[[9.954647,49.8020584],[9.9545547,49.8020886],[9.9541182,49.8021267],[9.9519722,49.802349]]}},{"type":"Feature","properties":{"way_id":44061513,"route_colors":["#fcc908","#c638a3"],"route_refs":["1","5"]},"geometry":{"type":"LineString","coordinates":[[9.9475211,49.8024825],[9.947848,49.8024421]]}},{"type":"Feature","properties":{"way_id":44111013,"route_colors":["#fcc908"],"route_refs":["1"]},"geometry":{"type":"LineString","coordinates":[[9.9440225,49.8019094],[9.9439769,49.8018335],[9.9438908,49.8017189],[9.9438552,49.8016711]]}},{"type":"Feature","properties":{"way_id":1339845341,"route_colors":["#fcc908"],"route_refs":["1"]},"geometry":{"type":"LineString","coordinates":[[9.9417408,49.7994352],[9.9417037,49.7994428],[9.9416779,49.7994499]]}},{"type":"Feature","properties":{"way_id":991924759,"route_colors":["#fcc908"],"route_refs":["1"]},"geometry":{"type":"LineString","coordinates":[[9.9416779,49.7994499],[9.9416379,49.799461],[9.9416009,49.7994751]]}},{"type":"Feature","properties":{"way_id":37961976,"route_colors":["#fcc908","#01adf0","#c638a3"],"route_refs":["1","3","5"]},"geometry":{"type":"LineString","coordinates":[[9.9309227,49.7939615],[9.9308901,49.7939616],[9.9308696,49.7939617],[9.9308715,49.7941136],[9.9308733,49.794264],[9.9308999,49.7942639],[9.9309264,49.7942638],[9.9309246,49.7941133],[9.9309227,49.7939615]]}},{"type":"Feature","properties":{"way_id":982829587,"route_colors":["#fcc908","#00a650","#01adf0","#c638a3"],"route_refs":["1","4","3","5","54"]},"geometry":{"type":"LineString","coordinates":[[9.9288034,49.7932485],[9.9288014,49.7932631],[9.9287998,49.7932755],[9.9290505,49.7932894],[9.9292886,49.7933027],[9.9292904,49.7932894],[9.9292922,49.7932757],[9.9290561,49.7932626],[9.9288034,49.7932485]]}},{"type":"Feature","properties":{"way_id":35539019,"route_colors":["#fcc908","#00a650","#01adf0","#c638a3"],"route_refs":["1","4","3","5","54"]},"geometry":{"type":"LineString","coordinates":[[9.9290679,49.7903861],[9.9289893,49.790519],[9.9289239,49.7906812],[9.9289402,49.7906855],[9.9291202,49.7903997],[9.9290938,49.7903928],[9.9290679,49.7903861]]}},{"type":"Feature","properties":{"way_id":996273135,"route_colors":["#fcc908","#01adf0","#c638a3"],"route_refs":["1","3","5","54"]},"geometry":{"type":"LineString","coordinates":[[9.9316934,49.7868056],[9.931721,49.7868089],[9.9317437,49.7868103],[9.9317321,49.7868771],[9.9316935,49.7870193],[9.9315535,49.7874555],[9.9315454,49.7874603],[9.9315355,49.7874617],[9.9315259,49.787461],[9.9315182,49.7874579],[9.9315148,49.7874523],[9.931521,49.7874337],[9.9315756,49.7872692],[9.9315772,49.7871925],[9.9315877,49.7871658],[9.9316934,49.7868056]]}},{"type":"Feature","properties":{"way_id":981249542,"route_colors":["#fcc908"],"route_refs":["1"]},"geometry":{"type":"LineString","coordinates":[[9.933427,49.7842034],[9.9334033,49.7841949],[9.9336409,49.7839194],[9.9336525,49.7839236],[9.9336646,49.783928],[9.933427,49.7842034]]}},{"type":"Feature","properties":{"way_id":980153817,"route_colors":["#fcc908","#00a650"],"route_refs":["1","4"]},"geometry":{"type":"LineString","coordinates":[[9.9351249,49.7817998],[9.9352738,49.7814467],[9.9353092,49.7814527],[9.9351597,49.7818061],[9.9351249,49.7817998]]}},{"type":"Feature","properties":{"way_id":210205391,"route_colors":["#fcc908","#c638a3"],"route_refs":["1","5"]},"geometry":{"type":"LineString","coordinates":[[9.9519722,49.802349],[9.9517915,49.8023662],[9.9517659,49.8023686],[9.9499361,49.8025529],[9.9498389,49.8025628],[9.9497165,49.802577],[9.9495379,49.8025975],[9.9494874,49.8026005],[9.9493593,49.802593],[9.9492587,49.8025742],[9.9483672,49.8024072],[9.9482842,49.802395],[9.9482407,49.8023927],[9.948132,49.8023907],[9.9480179,49.8024053],[9.9479974,49.8024074],[9.9475349,49.8024666],[9.9468784,49.8025445],[9.9465718,49.8025823],[9.9463889,49.8026083],[9.9456106,49.8027024],[9.9455726,49.8027064],[9.9454254,49.8027218],[9.9452646,49.8027371],[9.9448383,49.8027472],[9.9443378,49.802759],[9.9443047,49.8027587],[9.9442668,49.8027523],[9.9442263,49.8027414],[9.9441565,49.802721],[9.9441094,49.802695],[9.9440687,49.8026483],[9.9440507,49.8026104],[9.9440392,49.8024605],[9.94404,49.8024424],[9.9440614,49.8020149],[9.9440639,49.8019641],[9.9440589,49.8019237],[9.9440374,49.8018774],[9.9439845,49.8017944]]}},{"type":"Feature","properties":{"way_id":22946640,"route_colors":["#fcc908","#c638a3"],"route_refs":["1","5"]},"geometry":{"type":"LineString","coordinates":[[9.9439845,49.8017944],[9.9439349,49.8017189],[9.9438478,49.8016106],[9.9438041,49.8015562],[9.9436099,49.8013119]]}},{"type":"Feature","properties":{"way_id":1514949494,"route_colors":["#fcc908","#c638a3"],"route_refs":["1","5"]},"geometry":{"type":"LineString","coordinates":[[9.9436099,49.8013119],[9.9435455,49.801231]]}},{"type":"Feature","properties":{"way_id":187493935,"route_colors":["#fcc908","#c638a3"],"route_refs":["1","5"]},"geometry":{"type":"LineString","coordinates":[[9.9435455,49.801231],[9.9434724,49.8010968],[9.9434224,49.8009702],[9.9433483,49.8007551],[9.9432854,49.8005555],[9.9432505,49.8004515],[9.9432243,49.8003559],[9.9432089,49.8002602]]}},{"type":"Feature","properties":{"way_id":1514949491,"route_colors":["#fcc908","#c638a3"],"route_refs":["1","5"]},"geometry":{"type":"LineString","coordinates":[[9.9432089,49.8002602],[9.9432002,49.8002066],[9.943178,49.8000608],[9.9431539,49.7998732]]}},{"type":"Feature","properties":{"way_id":187493941,"route_colors":["#fcc908","#c638a3"],"route_refs":["1","5"]},"geometry":{"type":"LineString","coordinates":[[9.9431539,49.7998732],[9.9431224,49.7996963],[9.9430873,49.7995708],[9.9430558,49.7995075],[9.942991,49.7994322],[9.9429151,49.7993856],[9.9428318,49.7993593],[9.9426614,49.7993485],[9.9422688,49.7993708],[9.9421897,49.7993753],[9.9418475,49.7994048],[9.9417675,49.7994142],[9.9417069,49.7994265],[9.9416678,49.7994386],[9.9415925,49.7994598],[9.9413817,49.7995346],[9.9413281,49.7995536],[9.9412651,49.7995749],[9.9411974,49.7995989],[9.9411237,49.799626],[9.9410427,49.7996533],[9.9409385,49.7996759],[9.9408484,49.799692],[9.9387606,49.8000084],[9.9380706,49.8001068],[9.9377028,49.8001616],[9.937253,49.8002261],[9.9372029,49.8002333],[9.9370514,49.8002561],[9.9360754,49.8003976],[9.9359879,49.8004184],[9.9359339,49.8004383],[9.9359068,49.8004544],[9.9358863,49.8004667],[9.9358679,49.8004802],[9.9358469,49.8004964],[9.9358173,49.8005322],[9.935802,49.8005643],[9.9357958,49.8005855],[9.9357911,49.8006014],[9.9357911,49.800636],[9.9358044,49.8006773],[9.9358359,49.8007647]]}},{"type":"Feature","properties":{"way_id":30082159,"route_colors":["#fcc908","#00a650","#01adf0","#c638a3"],"route_refs":["1","4","3","5"]},"geometry":{"type":"LineString","coordinates":[[9.9358359,49.8007647],[9.9358464,49.8007956],[9.9358567,49.8008259],[9.9358614,49.8008397],[9.935877,49.8008697],[9.9358915,49.8009115],[9.9358994,49.8009429],[9.9358959,49.8009947],[9.9358933,49.8010043],[9.9358822,49.8010448],[9.9358464,49.8011031],[9.9357875,49.8011518],[9.9357223,49.8011831],[9.9356448,49.8012039],[9.9356002,49.8012085],[9.9355567,49.8012129],[9.9354903,49.8012122],[9.9354144,49.8012011],[9.9353596,49.8011864],[9.9353066,49.801162],[9.935262,49.8011304],[9.9352291,49.8010944],[9.9352008,49.8010468],[9.9351788,49.8010006],[9.9351494,49.8009241],[9.9351399,49.8008927],[9.9351351,49.800877],[9.9351337,49.8008721],[9.9351316,49.8008654]]}},{"type":"Feature","properties":{"way_id":45086052,"route_colors":["#fcc908","#00a650","#01adf0","#c638a3"],"route_refs":["1","4","3","5"]},"geometry":{"type":"LineString","coordinates":[[9.9351316,49.8008654],[9.9351108,49.8008106],[9.935084,49.8007372],[9.9350335,49.8005906]]}},{"type":"Feature","properties":{"way_id":1337633293,"route_colors":["#fcc908","#00a650","#01adf0","#c638a3"],"route_refs":["1","4","3","5"]},"geometry":{"type":"LineString","coordinates":[[9.9350335,49.8005906],[9.9350304,49.8005788],[9.9350224,49.8005476]]}},{"type":"Feature","properties":{"way_id":22956453,"route_colors":["#fcc908","#00a650","#01adf0","#c638a3"],"route_refs":["1","4","3","5"]},"geometry":{"type":"LineString","coordinates":[[9.9350224,49.8005476],[9.9350146,49.8005257],[9.935005,49.8004931],[9.9350006,49.8004817],[9.9349929,49.8004588],[9.9349846,49.8004292],[9.9349729,49.800399],[9.934954,49.800337],[9.9349479,49.8003256],[9.9349369,49.8003058],[9.9348791,49.8002017],[9.9348062,49.8000779],[9.9345586,49.7996576],[9.9340773,49.7988406],[9.9334564,49.7978128],[9.9334325,49.7977761],[9.9334007,49.797739],[9.9333859,49.7977277],[9.9333676,49.7977138],[9.9333487,49.7977008],[9.933328,49.7976912],[9.9332649,49.7976675],[9.9331734,49.7976449],[9.932994,49.7976122],[9.932452,49.7975203],[9.9321101,49.7974629],[9.9318262,49.7974147],[9.9317835,49.797407],[9.9317712,49.7974048],[9.931497,49.7973554],[9.931481,49.7973525]]}},{"type":"Feature","properties":{"way_id":187487231,"route_colors":["#fcc908","#00a650","#01adf0","#c638a3"],"route_refs":["1","4","3","5"]},"geometry":{"type":"LineString","coordinates":[[9.931481,49.7973525],[9.9313464,49.7973177],[9.9312774,49.7972926],[9.931252,49.7972779],[9.9312276,49.7972638],[9.9312138,49.7972552],[9.9311923,49.7972419],[9.931155,49.7972053],[9.931122,49.7971593],[9.9311087,49.7971239],[9.9311075,49.7971091],[9.9311066,49.7970975],[9.9311075,49.7970771],[9.9311119,49.7970546],[9.9311138,49.7970448],[9.9311198,49.797016],[9.9311288,49.7969798]]}},{"type":"Feature","properties":{"way_id":187487233,"route_colors":["#fcc908","#00a650","#01adf0","#c638a3"],"route_refs":["1","4","3","5","54"]},"geometry":{"type":"LineString","coordinates":[[9.9311288,49.7969798],[9.9311685,49.7968907],[9.9311815,49.7968633],[9.9311892,49.796835],[9.9311912,49.7968177],[9.9311884,49.7967774],[9.9311792,49.79661],[9.9311426,49.7962942],[9.9311079,49.7960486],[9.9311057,49.7960333],[9.9311024,49.7960095],[9.9310962,49.795966],[9.9310571,49.7956827],[9.9310461,49.7956147],[9.9309572,49.7950627],[9.9309546,49.7950258],[9.93095,49.7949614]]}},{"type":"Feature","properties":{"way_id":236474905,"route_colors":["#fcc908","#00a650","#01adf0","#c638a3"],"route_refs":["1","4","3","5","54"]},"geometry":{"type":"LineString","coordinates":[[9.93095,49.7949614],[9.930946,49.7949077],[9.9309329,49.7948161],[9.9309208,49.7946959]]}},{"type":"Feature","properties":{"way_id":1035464065,"route_colors":["#fcc908","#00a650","#01adf0","#c638a3"],"route_refs":["1","4","3","5","54"]},"geometry":{"type":"LineString","coordinates":[[9.9309208,49.7946959],[9.9309129,49.7945898],[9.9309225,49.7944811],[9.9309354,49.794394],[9.9309454,49.7941127],[9.9309461,49.794058],[9.9309408,49.7939333],[9.9309708,49.7936494],[9.9309829,49.793547],[9.930959,49.7934719],[9.9309143,49.7934261],[9.9308686,49.7933957],[9.930785,49.7933699],[9.9307507,49.793362],[9.930705,49.7933565],[9.9306292,49.7933496],[9.9305244,49.7933457],[9.9296197,49.7932913],[9.9290566,49.7932535],[9.9288975,49.7932435],[9.9287839,49.7932323],[9.9287407,49.7932273],[9.9287202,49.7932228],[9.9286947,49.7932173],[9.9286547,49.7932044],[9.9286471,49.7932011],[9.92863,49.7931938],[9.9286209,49.7931883],[9.9285907,49.7931701],[9.9285643,49.7931471],[9.9285394,49.7931138],[9.9285261,49.793078],[9.9285245,49.7930431],[9.9285395,49.792997],[9.928561,49.7929433],[9.928572,49.7929097],[9.9285834,49.7928582],[9.9285929,49.7927894],[9.928589,49.7926326],[9.928581,49.792359],[9.9285787,49.7922303],[9.9285733,49.7917834],[9.9285628,49.7915456],[9.9286029,49.79144],[9.9287029,49.7912127],[9.9287886,49.7910227],[9.9288569,49.790878],[9.9289234,49.7907558],[9.9289635,49.7906821],[9.9290997,49.7904579],[9.9291497,49.7903756],[9.929183,49.7903285],[9.9292244,49.7902945],[9.9293268,49.7902047],[9.9293622,49.7901763],[9.9294423,49.7901273],[9.9298365,49.7898982],[9.9298786,49.7898711],[9.9299846,49.7897954],[9.9300977,49.7896584],[9.9303582,49.7893312],[9.9304287,49.7892387],[9.9306915,49.7888939],[9.9307211,49.7888402],[9.9309506,49.7884649],[9.9310235,49.7883444],[9.9310457,49.7883076],[9.9311717,49.7881338],[9.9312297,49.7880549],[9.9313893,49.78783],[9.9314273,49.7877659],[9.9315124,49.787622],[9.9316103,49.7873608]]}},{"type":"Feature","properties":{"way_id":969630658,"route_colors":["#fcc908","#00a650","#01adf0","#c638a3"],"route_refs":["1","4","3","5","54"]},"geometry":{"type":"LineString","coordinates":[[9.9316103,49.7873608],[9.9317514,49.78686],[9.9317714,49.7867912],[9.9317836,49.7867498]]}},{"type":"Feature","properties":{"way_id":187917845,"route_colors":["#fcc908","#00a650"],"route_refs":["1","4"]},"geometry":{"type":"LineString","coordinates":[[9.9317836,49.7867498],[9.9318093,49.7866629],[9.9318335,49.7865837],[9.9318578,49.7865032],[9.9318823,49.7864348],[9.931885,49.786423],[9.9319079,49.7863197]]}},{"type":"Feature","properties":{"way_id":45671399,"route_colors":["#fcc908","#00a650"],"route_refs":["1","4"]},"geometry":{"type":"LineString","coordinates":[[9.9319079,49.7863197],[9.9320332,49.7858815],[9.9320733,49.7858186],[9.9321147,49.7857664],[9.9321698,49.7857139],[9.9322533,49.785617],[9.9336311,49.7840175],[9.9337083,49.7839287],[9.9337182,49.7839163],[9.9337627,49.7838519],[9.9337848,49.7838307],[9.9344877,49.7830343],[9.9345977,49.7829027],[9.9346934,49.7827881],[9.9347182,49.7827501],[9.9348351,49.7825708],[9.9349157,49.7823602],[9.9350028,49.7821933],[9.9351678,49.7818288],[9.9352524,49.7816223],[9.9353397,49.7814259],[9.9354187,49.7812516],[9.935691,49.780733],[9.9357309,49.7806478],[9.9359383,49.7802653],[9.9361506,49.7798643],[9.936233,49.7797245],[9.93641,49.7794563],[9.9371236,49.7783579],[9.9372074,49.7782319],[9.9378085,49.7774093],[9.9379523,49.7772149],[9.9382677,49.7767809],[9.9384257,49.7765582],[9.938453,49.7765204],[9.9385067,49.7764452],[9.9385746,49.7763501],[9.9386307,49.7762752],[9.9386545,49.7762427],[9.9387562,49.776097],[9.9387747,49.7760683],[9.9387897,49.7760389],[9.9387986,49.7760168],[9.9388074,49.7759943],[9.9388155,49.775961],[9.9388223,49.7759314],[9.93883,49.7758965],[9.9388401,49.7758609],[9.938854,49.7758243],[9.9388606,49.775807],[9.9388745,49.7757799],[9.9390869,49.7754901],[9.9391642,49.7753935],[9.9392459,49.7752767],[9.9393187,49.7751711],[9.9393937,49.7750601],[9.9394324,49.774997],[9.9394504,49.7749556],[9.9394585,49.7749126],[9.9394641,49.7748659],[9.9394615,49.7748116],[9.9394516,49.7747645],[9.9394357,49.7747177],[9.9394126,49.7746849],[9.9393859,49.7746563],[9.9393382,49.7746198],[9.939281,49.7745938],[9.9392215,49.7745768],[9.9391694,49.7745692],[9.9391114,49.7745703],[9.9390456,49.7745768],[9.9389856,49.7745844],[9.9389374,49.774587],[9.9388934,49.7745885],[9.9388317,49.7745845],[9.9387795,49.7745729],[9.9387357,49.7745577],[9.9386997,49.7745412],[9.9386682,49.7745194],[9.9386471,49.7744992],[9.9386311,49.7744817],[9.9386109,49.7744545],[9.9386013,49.7744305],[9.9385951,49.7744064],[9.9385974,49.7743689],[9.9386192,49.7743248],[9.9386395,49.7742978],[9.9386749,49.7742673],[9.9387316,49.7742374]]}},{"type":"Feature","properties":{"way_id":45671400,"route_colors":["#00a650","#01adf0"],"route_refs":["4","3"]},"geometry":{"type":"LineString","coordinates":[[9.9349788,49.8002725],[9.9349913,49.8002992],[9.9349952,49.8003054],[9.9350116,49.8003302],[9.9350442,49.8003909],[9.9350956,49.8004367],[9.9351063,49.800445],[9.9351329,49.8004657],[9.9351842,49.8004896],[9.9352426,49.8005079],[9.9353248,49.8005206],[9.9353916,49.8005267],[9.9354545,49.8005324],[9.9355433,49.8005461],[9.9355883,49.8005574],[9.9356374,49.8005726],[9.9356937,49.8005979],[9.9357438,49.8006343],[9.9357751,49.8006616],[9.9358068,49.8007069],[9.9358359,49.8007647]]}},{"type":"Feature","properties":{"way_id":37547904,"route_colors":["#00a650"],"route_refs":["4","54"]},"geometry":{"type":"LineString","coordinates":[[9.8983817,49.794286],[9.897877,49.7942857],[9.8978771,49.7942958],[9.8978772,49.7943059],[9.8983814,49.7943051],[9.8983817,49.794286]]}},{"type":"Feature","properties":{"way_id":37547901,"route_colors":["#00a650"],"route_refs":["4","54"]},"geometry":{"type":"LineString","coordinates":[[9.9042705,49.7942636],[9.9036559,49.7942862],[9.9036572,49.7943015],[9.9036586,49.7943167],[9.9042732,49.7942941],[9.9042705,49.7942636]]}},{"type":"Feature","properties":{"way_id":37547899,"route_colors":["#00a650"],"route_refs":["4","54"]},"geometry":{"type":"LineString","coordinates":[[9.9115014,49.7943415],[9.9115054,49.7943301],[9.9115093,49.7943189],[9.9109982,49.794244],[9.9109903,49.7942666],[9.9115014,49.7943415]]}},{"type":"Feature","properties":{"way_id":37547898,"route_colors":["#00a650"],"route_refs":["4","54"]},"geometry":{"type":"LineString","coordinates":[[9.9156143,49.7943757],[9.9156192,49.7943903],[9.9161129,49.7943206],[9.9161104,49.7943135],[9.9161079,49.794306],[9.9156143,49.7943757]]}},{"type":"Feature","properties":{"way_id":997118178,"route_colors":["#00a650"],"route_refs":["4","54"]},"geometry":{"type":"LineString","coordinates":[[9.9176473,49.7968349],[9.9176541,49.7968261],[9.9176649,49.7968134],[9.9181373,49.7969798],[9.9181259,49.7969926],[9.9181161,49.7970033],[9.9176473,49.7968349]]}},{"type":"Feature","properties":{"way_id":997126113,"route_colors":["#00a650"],"route_refs":["4","54"]},"geometry":{"type":"LineString","coordinates":[[9.9203905,49.7978056],[9.9204022,49.7977909],[9.9206124,49.7978638],[9.9206255,49.7978496],[9.9208325,49.7979199],[9.9208221,49.7979319],[9.9208394,49.7979387],[9.9208307,49.7979495],[9.9208233,49.7979586],[9.9203905,49.7978056]]}},{"type":"Feature","properties":{"way_id":997150520,"route_colors":["#00a650"],"route_refs":["4","54"]},"geometry":{"type":"LineString","coordinates":[[9.9251262,49.7980639],[9.9250805,49.7980523],[9.9252863,49.7977132],[9.9253091,49.797719],[9.925332,49.7977247],[9.9251262,49.7980639]]}},{"type":"Feature","properties":{"way_id":45086051,"route_colors":["#00a650"],"route_refs":["4","54"]},"geometry":{"type":"LineString","coordinates":[[9.892558,49.7949649],[9.8925716,49.7947495],[9.8925883,49.794713],[9.8926209,49.7946791],[9.8926878,49.7946522],[9.8927801,49.7946065],[9.892872,49.7945754],[9.8929931,49.7945438],[9.8932747,49.7944907],[9.8935216,49.7944616],[9.893887,49.7944187],[9.8941981,49.7943922],[9.8946417,49.7943655],[9.8953803,49.794324]]}},{"type":"Feature","properties":{"way_id":187487235,"route_colors":["#00a650"],"route_refs":["4","54"]},"geometry":{"type":"LineString","coordinates":[[9.8953803,49.794324],[9.8956608,49.7943167],[9.8958106,49.794315],[9.8962041,49.7943052],[9.8964893,49.7943024],[9.8966331,49.7943034],[9.8967406,49.7943041],[9.8974031,49.7943103],[9.8978513,49.794312],[9.8981806,49.7943145],[9.898858,49.7943215],[9.9006747,49.7943303],[9.9011194,49.7943347],[9.9013443,49.7943357],[9.902224,49.7943398],[9.9028558,49.7943268],[9.9033806,49.7943316],[9.9036345,49.7943292],[9.9039881,49.7943193],[9.9041649,49.7943144],[9.9044118,49.7943026],[9.9048398,49.7942673],[9.9058991,49.7941745],[9.9060772,49.7941566],[9.9062307,49.7941412],[9.9068975,49.7940865],[9.907277,49.7940616],[9.907651,49.7940521],[9.9080157,49.7940485],[9.9084044,49.7940532],[9.9089092,49.7940544],[9.9093163,49.7940639],[9.9096847,49.794083],[9.9097816,49.7940928],[9.9099785,49.7941129],[9.9101251,49.794135],[9.9108615,49.7942494],[9.9113227,49.7943207],[9.9115237,49.7943512],[9.9118854,49.7943957],[9.9122742,49.7944498],[9.9127166,49.7945153],[9.9134679,49.7945928],[9.913702,49.7946082],[9.913995,49.7946124],[9.9142323,49.7945933],[9.9147509,49.7945384],[9.9150112,49.794499],[9.9156152,49.7944061],[9.915974,49.7943518],[9.9161446,49.7943313],[9.9163679,49.7943187],[9.9164547,49.7943389],[9.9165308,49.7943655],[9.9165867,49.7944103],[9.9166162,49.794458],[9.9166233,49.79447],[9.9166492,49.7945498],[9.9169211,49.7962713],[9.9169519,49.7963634],[9.9169828,49.7964344],[9.9170638,49.7965315],[9.917166,49.7966161],[9.9172894,49.796692],[9.9174109,49.7967468],[9.9176175,49.7968448],[9.9178534,49.7969245],[9.9180453,49.7969893],[9.9181245,49.7970161],[9.920687,49.7979218],[9.9208506,49.7979784],[9.9211205,49.7980689],[9.9217552,49.7982907]]}},{"type":"Feature","properties":{"way_id":187693662,"route_colors":["#00a650"],"route_refs":["4","54"]},"geometry":{"type":"LineString","coordinates":[[9.9217552,49.7982907],[9.9239604,49.7990619],[9.9240502,49.7990916],[9.9241387,49.7991121],[9.9241896,49.7991114]]}},{"type":"Feature","properties":{"way_id":187693660,"route_colors":["#00a650"],"route_refs":["4","54"]},"geometry":{"type":"LineString","coordinates":[[9.9241896,49.7991114],[9.9242481,49.7991111],[9.92432,49.7990946],[9.9243813,49.7990626],[9.9244124,49.7990458],[9.924476,49.7989973],[9.9251828,49.7979972],[9.9253547,49.7977132],[9.9253846,49.797638],[9.925411,49.7975866],[9.9259849,49.7967552],[9.9261049,49.7966208],[9.9261281,49.7965955],[9.9261525,49.7965733],[9.9261808,49.7965515],[9.9262161,49.7965288],[9.9262474,49.7965118],[9.9262791,49.7964965],[9.9263458,49.7964654],[9.9263871,49.7964477],[9.9264576,49.7964208],[9.9265158,49.7964025],[9.9265476,49.7963949],[9.9266094,49.7963797],[9.9266621,49.7963702],[9.9266977,49.7963649],[9.9267541,49.7963586],[9.9267835,49.7963563],[9.9268441,49.7963534],[9.9268877,49.796353],[9.9269308,49.7963539],[9.9269704,49.7963573],[9.9269871,49.7963592],[9.9271152,49.796376],[9.9272346,49.7963961],[9.9274165,49.7964357],[9.9279793,49.7965486],[9.9284181,49.7966471],[9.9288242,49.7967383],[9.9290722,49.7967977],[9.9296127,49.7969263],[9.9300339,49.7970257],[9.9300478,49.797029],[9.9301284,49.7970488],[9.9304001,49.7971008],[9.9306343,49.7971481],[9.9306664,49.7971546]]}},{"type":"Feature","properties":{"way_id":187487234,"route_colors":["#00a650"],"route_refs":["4"]},"geometry":{"type":"LineString","coordinates":[[9.9306664,49.7971546],[9.9308719,49.7971942],[9.9309609,49.7972101],[9.9310344,49.7972232],[9.9312138,49.7972552],[9.9314983,49.7973159]]}},{"type":"Feature","properties":{"way_id":997150517,"route_colors":["#00a650"],"route_refs":["4","54"]},"geometry":{"type":"LineString","coordinates":[[9.925208,49.7980886],[9.9251822,49.7980822],[9.9253872,49.7977394],[9.9254001,49.7977426],[9.925413,49.7977458],[9.925208,49.7980886]]}},{"type":"Feature","properties":{"way_id":997126115,"route_colors":["#00a650"],"route_refs":["4","54"]},"geometry":{"type":"LineString","coordinates":[[9.9203271,49.7978636],[9.9203434,49.7978438],[9.9207879,49.7979958],[9.9207803,49.7980051],[9.9207716,49.7980157],[9.9203271,49.7978636]]}},{"type":"Feature","properties":{"way_id":37547897,"route_colors":["#00a650"],"route_refs":["4","54"]},"geometry":{"type":"LineString","coordinates":[[9.9161363,49.7943898],[9.9156349,49.7944599],[9.9156281,49.7944396],[9.9161296,49.7943695],[9.9161329,49.7943796],[9.9161363,49.7943898]]}},{"type":"Feature","properties":{"way_id":37547900,"route_colors":["#00a650"],"route_refs":["4","54"]},"geometry":{"type":"LineString","coordinates":[[9.9106409,49.7942504],[9.9101438,49.7941799],[9.9101397,49.794192],[9.9101355,49.7942041],[9.9106339,49.7942703],[9.9106409,49.7942504]]}},{"type":"Feature","properties":{"way_id":37547902,"route_colors":["#00a650"],"route_refs":["4","54"]},"geometry":{"type":"LineString","coordinates":[[9.9042752,49.7943673],[9.9036705,49.7943897],[9.9036695,49.7943775],[9.9036684,49.7943655],[9.9042731,49.7943431],[9.9042752,49.7943673]]}},{"type":"Feature","properties":{"way_id":37547903,"route_colors":["#00a650"],"route_refs":["4","54"]},"geometry":{"type":"LineString","coordinates":[[9.8983809,49.7943521],[9.8978795,49.7943477],[9.8978793,49.7943579],[9.897879,49.7943681],[9.8983806,49.7943722],[9.8983809,49.7943521]]}},{"type":"Feature","properties":{"way_id":30082602,"route_colors":["#00a650"],"route_refs":["4"]},"geometry":{"type":"LineString","coordinates":[[9.931481,49.7973525],[9.9311462,49.7972797],[9.9309976,49.7972487],[9.9308676,49.7972217],[9.930653,49.7971785]]}},{"type":"Feature","properties":{"way_id":4587364,"route_colors":["#00a650"],"route_refs":["4","54"]},"geometry":{"type":"LineString","coordinates":[[9.930653,49.7971785],[9.9301393,49.7970765],[9.9300597,49.7970587],[9.930023,49.7970496],[9.9295955,49.7969456],[9.9294007,49.7969005],[9.9290606,49.7968217],[9.928814,49.7967621],[9.927968,49.7965714],[9.9274096,49.7964586],[9.9272227,49.7964175],[9.9271036,49.7963996],[9.9269775,49.7963854],[9.9269483,49.7963861],[9.9268318,49.7963848],[9.9267165,49.7963936],[9.9266491,49.7964029],[9.926589,49.796414],[9.9265173,49.7964311],[9.9264835,49.7964404],[9.9264083,49.796465],[9.9263664,49.7964814],[9.9263011,49.7965102],[9.9262643,49.7965263],[9.9262361,49.7965419],[9.9262026,49.7965633],[9.9261738,49.7965848],[9.9261464,49.7966089],[9.9261236,49.7966326],[9.9260082,49.7967642],[9.9254412,49.7975893],[9.9254228,49.7976427],[9.9253801,49.7977187],[9.9252225,49.7979826],[9.9245131,49.7990074],[9.9244552,49.7990587],[9.9244173,49.7990822],[9.9243315,49.7991224],[9.9242593,49.7991375],[9.924168,49.7991377]]}},{"type":"Feature","properties":{"way_id":22972849,"route_colors":["#00a650"],"route_refs":["4","54"]},"geometry":{"type":"LineString","coordinates":[[9.924168,49.7991377],[9.9241266,49.799137],[9.9240312,49.7991134],[9.9239342,49.7990827],[9.9217372,49.7983118]]}},{"type":"Feature","properties":{"way_id":22972847,"route_colors":["#00a650"],"route_refs":["4","54"]},"geometry":{"type":"LineString","coordinates":[[9.9217372,49.7983118],[9.9211076,49.7980919],[9.920832,49.7979994],[9.9206787,49.797944],[9.918112,49.7970321],[9.9177346,49.7969061],[9.9176014,49.7968617],[9.9173914,49.7967754],[9.9172708,49.79672],[9.9171333,49.7966398],[9.9170304,49.7965496],[9.9169433,49.7964517],[9.9169138,49.7963767],[9.9168818,49.7962797],[9.9166156,49.7945563],[9.9165877,49.7944734],[9.9165814,49.794464],[9.9165454,49.7944204],[9.9165051,49.7943884],[9.9164576,49.794361],[9.9164033,49.7943473]]}},{"type":"Feature","properties":{"way_id":47076274,"route_colors":["#00a650"],"route_refs":["4","54"]},"geometry":{"type":"LineString","coordinates":[[9.9164033,49.7943473],[9.9163001,49.7943393],[9.9161511,49.794355],[9.9158448,49.7943972],[9.9156244,49.7944293],[9.9152932,49.7944898]]}},{"type":"Feature","properties":{"way_id":186937295,"route_colors":["#00a650"],"route_refs":["4","54"]},"geometry":{"type":"LineString","coordinates":[[9.9152932,49.7944898],[9.9150531,49.7945286],[9.914765,49.794569],[9.9142483,49.7946271],[9.9139743,49.7946407],[9.913693,49.7946349],[9.9135946,49.7946299],[9.9135037,49.7946253],[9.9127138,49.7945409],[9.9122868,49.7944795],[9.9119833,49.7944399],[9.9118519,49.7944155],[9.9115152,49.7943773],[9.911287,49.7943448],[9.9108476,49.7942775]]}},{"type":"Feature","properties":{"way_id":31619516,"route_colors":["#00a650"],"route_refs":["4","54"]},"geometry":{"type":"LineString","coordinates":[[9.9108476,49.7942775],[9.9104448,49.7942104],[9.9101169,49.7941643],[9.9099686,49.7941422],[9.9097737,49.7941219],[9.9096924,49.7941135],[9.9093234,49.7940891],[9.908916,49.7940782],[9.9084099,49.794075],[9.9080213,49.7940714],[9.9076627,49.7940749],[9.9072831,49.7940819],[9.9069051,49.7941061],[9.9062331,49.7941651],[9.9060811,49.7941801],[9.9059104,49.794197],[9.9048485,49.7942885],[9.9044129,49.7943262],[9.9042134,49.7943323],[9.9038221,49.794349],[9.9036366,49.7943515],[9.9033859,49.7943503]]}},{"type":"Feature","properties":{"way_id":31619514,"route_colors":["#00a650"],"route_refs":["4","54"]},"geometry":{"type":"LineString","coordinates":[[9.9033859,49.7943503],[9.9028593,49.7943513],[9.9022295,49.7943628],[9.9013438,49.7943601],[9.9011196,49.7943594],[9.9006808,49.7943497]]}},{"type":"Feature","properties":{"way_id":45086050,"route_colors":["#00a650"],"route_refs":["4","54"]},"geometry":{"type":"LineString","coordinates":[[9.9006808,49.7943497],[9.8988671,49.7943374],[9.8981819,49.7943337],[9.8978512,49.7943356],[9.8974047,49.7943319],[9.896743,49.7943264],[9.8966331,49.7943264],[9.8964891,49.7943265],[9.8962013,49.7943273],[9.895816,49.7943361],[9.895671,49.7943398],[9.8954336,49.7943499]]}},{"type":"Feature","properties":{"way_id":22972852,"route_colors":["#00a650"],"route_refs":["4","54"]},"geometry":{"type":"LineString","coordinates":[[9.8954336,49.7943499],[9.8953562,49.7943639],[9.8952683,49.794398],[9.8951648,49.7944747],[9.8951273,49.7945479],[9.8950209,49.7956753],[9.8950061,49.795717],[9.8949909,49.7957416],[9.8949741,49.795759],[9.8949221,49.7958036],[9.8948689,49.7958343],[9.8948077,49.7958634],[9.8947502,49.7958624],[9.8946926,49.7958494],[9.8930742,49.7953224],[9.8927192,49.7952046],[9.8926433,49.7951773],[9.8926018,49.7951496],[9.8925728,49.7951176],[9.8925517,49.79505],[9.892558,49.7949649]]}},{"type":"Feature","properties":{"way_id":158912441,"route_colors":["#01adf0","#c638a3"],"route_refs":["3","5"]},"geometry":{"type":"LineString","coordinates":[[9.9577645,49.7371239],[9.9577731,49.7371276],[9.957791,49.737114],[9.9577319,49.7370896],[9.9577391,49.7370821],[9.9576435,49.7370444],[9.9575691,49.737012],[9.9575607,49.7369887],[9.9575371,49.7369776],[9.9575097,49.7369654],[9.9574753,49.7369717],[9.957179,49.7368399],[9.9571535,49.736861],[9.9571415,49.7368709],[9.9572826,49.7369328],[9.9577645,49.7371239]]}},{"type":"Feature","properties":{"way_id":160448069,"route_colors":["#01adf0","#c638a3"],"route_refs":["3","5","54"]},"geometry":{"type":"LineString","coordinates":[[9.9607469,49.7392621],[9.9606924,49.7391567],[9.9606256,49.7390372],[9.9605483,49.7389243],[9.9604687,49.7388149],[9.9603853,49.7386955],[9.960402,49.73869],[9.9604205,49.7386834],[9.9605124,49.7388022],[9.9605896,49.7389119],[9.9606613,49.7390268],[9.9607297,49.7391489],[9.9607859,49.7392542],[9.9607469,49.7392621]]}},{"type":"Feature","properties":{"way_id":187906189,"route_colors":["#01adf0","#c638a3"],"route_refs":["3","5","54"]},"geometry":{"type":"LineString","coordinates":[[9.961112,49.7416866],[9.9610842,49.741844],[9.9610619,49.7419731],[9.9610463,49.7420806],[9.9610028,49.7422885],[9.9609619,49.7422851],[9.9610059,49.7420771],[9.9610451,49.7418415],[9.9610732,49.7416841],[9.961094,49.7416853],[9.961112,49.7416866]]}},{"type":"Feature","properties":{"way_id":960142396,"route_colors":["#01adf0","#c638a3"],"route_refs":["3","5","54"]},"geometry":{"type":"LineString","coordinates":[[9.9577803,49.7463617],[9.9580074,49.7462404],[9.9581901,49.7461404],[9.9582121,49.7461271],[9.9585711,49.7458843],[9.9585872,49.7458933],[9.9586042,49.7459019],[9.958248,49.7461557],[9.9582328,49.7461559],[9.9582237,49.7461609],[9.958023,49.7462739],[9.957814,49.7463847],[9.9577891,49.7463678],[9.9577803,49.7463617]]}},{"type":"Feature","properties":{"way_id":187906187,"route_colors":["#01adf0","#c638a3"],"route_refs":["3","5","54"]},"geometry":{"type":"LineString","coordinates":[[9.9546186,49.7473704],[9.9541405,49.7475043],[9.9537327,49.7476185],[9.9537492,49.7476429],[9.9541702,49.7475249],[9.9545099,49.7474297],[9.954635,49.7473947],[9.9546267,49.7473825],[9.9546186,49.7473704]]}},{"type":"Feature","properties":{"way_id":792102525,"route_colors":["#01adf0","#c638a3"],"route_refs":["3","5","54"]},"geometry":{"type":"LineString","coordinates":[[9.9430485,49.7592902],[9.9430555,49.7593178],[9.9430663,49.7593594],[9.9431044,49.7594782],[9.9431389,49.7596101],[9.9431629,49.7597079],[9.9431677,49.7597273],[9.9431306,49.7597326],[9.9430967,49.7596249],[9.9430522,49.7594737],[9.943018,49.7593325],[9.9430107,49.7592912],[9.9430256,49.7592909],[9.9430485,49.7592902]]}},{"type":"Feature","properties":{"way_id":792102527,"route_colors":["#01adf0","#c638a3"],"route_refs":["3","5","54"]},"geometry":{"type":"LineString","coordinates":[[9.9447218,49.7625148],[9.9447374,49.7625106],[9.9447505,49.7625072],[9.9445545,49.7621988],[9.9445405,49.7622025],[9.9445257,49.7622064],[9.9446497,49.7624014],[9.9447218,49.7625148]]}},{"type":"Feature","properties":{"way_id":196854747,"route_colors":["#01adf0","#c638a3"],"route_refs":["3","5","54"]},"geometry":{"type":"LineString","coordinates":[[9.946561,49.766208],[9.9469281,49.7659553],[9.9468709,49.7659206],[9.9468529,49.7659097],[9.9464857,49.7661623],[9.9465065,49.7661749],[9.946561,49.766208]]}},{"type":"Feature","properties":{"way_id":792102529,"route_colors":["#01adf0","#c638a3"],"route_refs":["3","5"]},"geometry":{"type":"LineString","coordinates":[[9.9410967,49.7676129],[9.9418543,49.7672833],[9.9418983,49.7672589],[9.9418986,49.7672538],[9.9418955,49.7672488],[9.9418894,49.7672449],[9.9418834,49.767244],[9.941836,49.7672657],[9.9410785,49.7675955],[9.9410872,49.7676037],[9.9410967,49.7676129]]}},{"type":"Feature","properties":{"way_id":43152749,"route_colors":["#01adf0","#c638a3"],"route_refs":["3","5"]},"geometry":{"type":"LineString","coordinates":[[9.9371806,49.7693804],[9.9376186,49.7691145],[9.9375996,49.7691014],[9.9375805,49.7690883],[9.9371424,49.7693542],[9.9371617,49.7693674],[9.9371806,49.7693804]]}},{"type":"Feature","properties":{"way_id":37213347,"route_colors":["#01adf0","#c638a3"],"route_refs":["3","5"]},"geometry":{"type":"LineString","coordinates":[[9.9265173,49.7794585],[9.9266281,49.7791392],[9.9266112,49.7791367],[9.9265949,49.7791343],[9.926484,49.7794537],[9.9265173,49.7794585]]}},{"type":"Feature","properties":{"way_id":981249316,"route_colors":["#01adf0","#c638a3"],"route_refs":["3","5"]},"geometry":{"type":"LineString","coordinates":[[9.9253654,49.7831948],[9.9253204,49.7831891],[9.9254109,49.782887],[9.9254351,49.78289],[9.9254559,49.7828926],[9.9253654,49.7831948]]}},{"type":"Feature","properties":{"way_id":978127614,"route_colors":["#01adf0","#c638a3"],"route_refs":["3","5"]},"geometry":{"type":"LineString","coordinates":[[9.9250822,49.7860821],[9.9250973,49.786082],[9.9251153,49.7860818],[9.925115,49.7860652],[9.9251317,49.7860651],[9.9251301,49.7859942],[9.9251117,49.7859943],[9.925107,49.7857876],[9.9250755,49.7857879],[9.9250822,49.7860821]]}},{"type":"Feature","properties":{"way_id":26539484,"route_colors":["#01adf0","#c638a3"],"route_refs":["3","5"]},"geometry":{"type":"LineString","coordinates":[[9.957485,49.7370242],[9.9577533,49.7371327],[9.9578818,49.7371849],[9.958131,49.7372854],[9.9586304,49.7375059],[9.9587787,49.7375697],[9.9588457,49.7375985],[9.9589195,49.7376315],[9.9589892,49.7376624],[9.959053,49.7376902],[9.9591927,49.7377535],[9.9592925,49.7377984]]}},{"type":"Feature","properties":{"way_id":1334631662,"route_colors":["#01adf0","#c638a3"],"route_refs":["3","5"]},"geometry":{"type":"LineString","coordinates":[[9.9592925,49.7377984],[9.9593566,49.7378375],[9.9594527,49.7379001],[9.9596483,49.7380362],[9.9599277,49.7382393],[9.9599983,49.7382936],[9.9600674,49.7383562]]}},{"type":"Feature","properties":{"way_id":187916650,"route_colors":["#01adf0","#c638a3"],"route_refs":["3","5","54"]},"geometry":{"type":"LineString","coordinates":[[9.9600674,49.7383562],[9.9601024,49.73839],[9.9601785,49.7384792],[9.9602408,49.7385478],[9.9602616,49.7385712],[9.9603563,49.7386824],[9.9604443,49.7388031]]}},{"type":"Feature","properties":{"way_id":160448049,"route_colors":["#01adf0","#c638a3"],"route_refs":["3","5","54"]},"geometry":{"type":"LineString","coordinates":[[9.9604443,49.7388031],[9.9605293,49.7389248],[9.9606124,49.7390469],[9.9606879,49.7391779],[9.9607829,49.7393681],[9.9608393,49.7395137],[9.9608966,49.7396858],[9.9609844,49.7400067],[9.9610407,49.7402978],[9.9610683,49.7405265],[9.96109,49.7407556],[9.9610976,49.7410481],[9.9610912,49.7413741],[9.9610764,49.7415428],[9.961059,49.7416644],[9.9610045,49.7419961],[9.9609937,49.7420605],[9.9609762,49.742154],[9.9609469,49.742277],[9.9609353,49.7423222],[9.9609121,49.7424169],[9.96087,49.7425686],[9.9608382,49.7426746],[9.9607878,49.7428303],[9.9606861,49.7431089],[9.9605998,49.7433176],[9.9604809,49.7435716],[9.9603663,49.7437914],[9.9602423,49.7440025],[9.9601869,49.7440936],[9.9601125,49.7442075],[9.9600204,49.744343],[9.9598548,49.7445683],[9.959742,49.7447107],[9.9595952,49.7448887],[9.9594255,49.7450768],[9.9593084,49.7452026],[9.9591912,49.7453191],[9.9590763,49.745433],[9.9589415,49.7455546],[9.9587954,49.7456841],[9.9587465,49.7457277],[9.958588,49.7458555],[9.9584887,49.7459277],[9.9583017,49.7460514],[9.9581798,49.7461327],[9.9581155,49.7461711],[9.9579993,49.7462345],[9.9578055,49.7463367],[9.9576902,49.7463932]]}},{"type":"Feature","properties":{"way_id":181570687,"route_colors":["#01adf0","#c638a3"],"route_refs":["3","5","54"]},"geometry":{"type":"LineString","coordinates":[[9.9576902,49.7463932],[9.9574321,49.7465046],[9.9572121,49.7465906],[9.9569205,49.7466926],[9.9566939,49.7467658],[9.9564689,49.746834],[9.9561566,49.7469247],[9.9557311,49.7470454],[9.9551089,49.747222],[9.9548822,49.7472843],[9.9546354,49.7473533],[9.9541609,49.7474874],[9.9533684,49.7477073],[9.9527487,49.7478822],[9.9525377,49.747945],[9.9523707,49.7479975],[9.9522376,49.7480444],[9.9521287,49.7480859],[9.9520267,49.7481276],[9.9519493,49.7481636],[9.9518766,49.748199],[9.951786,49.7482471],[9.9516781,49.748313],[9.9516027,49.7483614],[9.9514279,49.7484995],[9.9512902,49.748641],[9.9511619,49.7488028],[9.9510895,49.7489192],[9.95104,49.7490224],[9.9509898,49.7491333],[9.9509375,49.7492523],[9.9508259,49.7495689],[9.950755,49.7497569],[9.9506687,49.7499311],[9.9506248,49.7500108],[9.9505751,49.750089],[9.9504803,49.7502105],[9.9503727,49.7503216],[9.9503,49.7503896],[9.950186,49.7504823],[9.9500396,49.7505781],[9.9499437,49.7506333],[9.949833,49.7506911],[9.9497093,49.7507484],[9.9495507,49.7508114],[9.9494437,49.7508474],[9.9493558,49.7508721],[9.9492615,49.7508986],[9.9491523,49.7509227],[9.9489737,49.7509578],[9.948805,49.7509817],[9.9481723,49.7510467],[9.9479226,49.7510783],[9.9477469,49.7511081],[9.9475907,49.7511425],[9.9474312,49.7511853],[9.9472963,49.7512285],[9.9471661,49.7512734],[9.9470533,49.7513192],[9.9469336,49.7513754],[9.9468329,49.7514271],[9.9467107,49.7514977],[9.9465358,49.7516121],[9.9463514,49.7517685],[9.9461776,49.7519557],[9.9460197,49.7521495],[9.9458482,49.7523823],[9.945694,49.7526234],[9.9455451,49.7528525],[9.9454081,49.753124],[9.945357,49.7532456],[9.9453022,49.7533768],[9.9452748,49.7534709],[9.9452454,49.7535984],[9.9452288,49.7536934],[9.9452257,49.7538061],[9.945242,49.7539633],[9.9452715,49.7541283],[9.9453017,49.7542508],[9.9453306,49.7543522],[9.9453851,49.7545142],[9.9454263,49.7546202],[9.9454702,49.7547237],[9.9455831,49.754989],[9.9456369,49.7551553],[9.9456747,49.7553646],[9.9456896,49.7554794],[9.9456953,49.7555895],[9.9456916,49.7556792],[9.945673,49.7558088],[9.945633,49.755953],[9.9455622,49.7561254],[9.9454141,49.7563639],[9.9452705,49.7565274],[9.945166,49.7566328],[9.9450131,49.7567681],[9.9447998,49.7569456],[9.9444846,49.7571928]]}},{"type":"Feature","properties":{"way_id":25779631,"route_colors":["#01adf0","#c638a3"],"route_refs":["3","5","54"]},"geometry":{"type":"LineString","coordinates":[[9.9444846,49.7571928],[9.9442187,49.7574075]]}},{"type":"Feature","properties":{"way_id":24993786,"route_colors":["#01adf0","#c638a3"],"route_refs":["3","5","54"]},"geometry":{"type":"LineString","coordinates":[[9.9442187,49.7574075],[9.9438613,49.7576958],[9.9437653,49.7577584],[9.9436772,49.7578074],[9.9435929,49.7578447],[9.9435016,49.7578787],[9.9432783,49.7579451],[9.9431859,49.7579719],[9.9431238,49.7579922],[9.9430044,49.7580374],[9.9429632,49.7580606],[9.9429181,49.758092],[9.9428904,49.7581177],[9.9428709,49.7581445],[9.9428498,49.7581871],[9.9428389,49.7582251],[9.9428326,49.7582711],[9.9428348,49.7583205],[9.9428387,49.7583574],[9.9428802,49.7586209],[9.9429414,49.7589954],[9.9429749,49.7591931],[9.9429894,49.7592737],[9.9430285,49.7594643],[9.943069,49.7596075],[9.9430979,49.7596986],[9.943157,49.7598351],[9.9432538,49.7600369],[9.9434276,49.7603836],[9.9436202,49.7607426],[9.943829,49.7611178],[9.9440149,49.7614387],[9.9441863,49.7617232],[9.9442773,49.7618685],[9.9444033,49.7620583],[9.9444962,49.7622002],[9.9445305,49.7622484],[9.9445875,49.7623372],[9.9446993,49.7625098],[9.9447389,49.7625674],[9.9447812,49.7626433],[9.9447998,49.7626877],[9.9448106,49.7627269],[9.944817,49.7627668],[9.9448211,49.7628335],[9.94481,49.762907],[9.9447924,49.7629611],[9.9447581,49.7630276],[9.9447067,49.7631163],[9.9446167,49.7632585],[9.9445722,49.7633433],[9.9445532,49.7633887],[9.9445316,49.7634686],[9.9445267,49.7635249],[9.9445425,49.7636152],[9.94456,49.7636733],[9.9446337,49.763837],[9.9447073,49.7640004],[9.9447388,49.7640715],[9.9447532,49.7641058],[9.9448098,49.7641949],[9.9448374,49.7642293],[9.9449,49.7642942],[9.944937,49.7643231],[9.9450743,49.764422],[9.9452106,49.764514],[9.9460805,49.7650721],[9.9463425,49.7652396],[9.946501,49.7653457],[9.9467307,49.7655241],[9.946838,49.7656101],[9.9468836,49.7656575],[9.9468999,49.765684],[9.9469109,49.7657113],[9.9469167,49.7657353],[9.9469177,49.7657789],[9.9469007,49.7658276],[9.9468773,49.7658637],[9.9468538,49.7658879],[9.9468362,49.7659033],[9.9468132,49.7659192],[9.9465122,49.7661269],[9.9464607,49.7661628],[9.9464164,49.7661938],[9.9463981,49.7662056],[9.946359,49.766224],[9.9463337,49.766234],[9.9462996,49.7662435],[9.9462619,49.7662509],[9.9462186,49.7662566],[9.9461635,49.7662586],[9.9461008,49.7662553],[9.9450486,49.7661428],[9.9447149,49.7661105],[9.9444756,49.7660911],[9.9443845,49.7660892],[9.9443318,49.7660908],[9.9442924,49.7660947],[9.9442571,49.7660999],[9.9442197,49.766108],[9.9441545,49.7661269],[9.9441382,49.7661332],[9.9441046,49.766146],[9.9440434,49.7661732],[9.9439837,49.7662036],[9.9438814,49.7662566],[9.9438253,49.7662865],[9.9433089,49.7665519],[9.9431389,49.7666395],[9.9429204,49.7667491],[9.9426946,49.7668589],[9.9425258,49.7669396],[9.9422531,49.7670663],[9.9419434,49.7672061],[9.9417304,49.7673011],[9.9411667,49.7675454],[9.9410444,49.7675995],[9.9409,49.7676593],[9.9400774,49.7679931],[9.9398592,49.7680747],[9.9396594,49.7681433],[9.9394565,49.768206],[9.9389676,49.7683406],[9.938672,49.768433],[9.9384957,49.7684897],[9.9383945,49.768532],[9.9382972,49.7685781],[9.9381618,49.7686549],[9.9380553,49.7687333],[9.9379701,49.7687895],[9.9378905,49.7688434],[9.9377467,49.7689407],[9.9375935,49.7690426],[9.9373438,49.769207],[9.9371133,49.7693601],[9.9366336,49.7696874],[9.9358132,49.7702199],[9.9336963,49.7716759],[9.9334366,49.7718598],[9.9332055,49.7720146],[9.9329664,49.772173],[9.9327767,49.7723142],[9.9327482,49.7723412],[9.932705,49.7723671],[9.9325311,49.7724797],[9.9321925,49.7727059],[9.9318755,49.7729044],[9.9306419,49.7735675],[9.9293936,49.7742213],[9.929067,49.7744037],[9.9288254,49.7745692],[9.9286786,49.7746997],[9.92859,49.7747737],[9.9284379,49.7749377],[9.9283916,49.7750049]]}},{"type":"Feature","properties":{"way_id":806271157,"route_colors":["#01adf0","#c638a3"],"route_refs":["3","5","54"]},"geometry":{"type":"LineString","coordinates":[[9.9283916,49.7750049],[9.9283392,49.7750788]]}},{"type":"Feature","properties":{"way_id":806271156,"route_colors":["#01adf0","#c638a3"],"route_refs":["3","5","54"]},"geometry":{"type":"LineString","coordinates":[[9.9283392,49.7750788],[9.9283184,49.7751081],[9.9282496,49.7752389],[9.9279695,49.776161],[9.9278422,49.7764711],[9.9277175,49.7767105],[9.9275464,49.7769769],[9.9272018,49.7775225],[9.9269406,49.7781008],[9.9268733,49.7783013],[9.9267171,49.7787497],[9.9266142,49.7790467],[9.9265902,49.7791156],[9.9265276,49.7792967],[9.9264768,49.7794469],[9.9263054,49.7800441],[9.9261594,49.7804827],[9.9257433,49.7817068],[9.9254599,49.7826532],[9.9254423,49.7827118],[9.9254008,49.7828664],[9.9253866,49.7829059],[9.9252502,49.7833381],[9.9251612,49.7836233],[9.9251283,49.7837657],[9.9251032,49.7839036],[9.9250668,49.7841541],[9.9250358,49.7844399],[9.9250291,49.7845279],[9.9250258,49.7846032],[9.9250239,49.7846858],[9.9250242,49.7847538],[9.9250252,49.7849935],[9.9250614,49.7860489],[9.9250633,49.7861044],[9.9250639,49.7861383],[9.9250802,49.7861823],[9.9251182,49.7862231],[9.9252036,49.7862624],[9.9252954,49.7862907],[9.9253871,49.7863086]]}},{"type":"Feature","properties":{"way_id":24993789,"route_colors":["#01adf0","#c638a3"],"route_refs":["3","5","54"]},"geometry":{"type":"LineString","coordinates":[[9.9253871,49.7863086],[9.9254734,49.7863178],[9.9281416,49.7864183]]}},{"type":"Feature","properties":{"way_id":187917846,"route_colors":["#01adf0","#c638a3"],"route_refs":["3","5","54"]},"geometry":{"type":"LineString","coordinates":[[9.9281416,49.7864183],[9.9282259,49.7864192],[9.928292,49.7864195],[9.9284095,49.7864202],[9.9285387,49.7864208],[9.9286996,49.7864217],[9.9288744,49.7864268],[9.9312508,49.7864965],[9.9313375,49.7865002],[9.9314704,49.7864989]]}},{"type":"Feature","properties":{"way_id":187247713,"route_colors":["#01adf0","#c638a3"],"route_refs":["3","5","54"]},"geometry":{"type":"LineString","coordinates":[[9.9314704,49.7864989],[9.9314917,49.7864988],[9.9315523,49.7865078],[9.9315668,49.7865115],[9.9316145,49.7865234],[9.9316526,49.7865369],[9.9316956,49.7865575],[9.9317314,49.7865813],[9.9317419,49.7865888],[9.9317537,49.7866001],[9.9317773,49.7866226],[9.9317906,49.7866374],[9.9318093,49.7866629],[9.9318235,49.7867551]]}},{"type":"Feature","properties":{"way_id":980035607,"route_colors":["#01adf0","#c638a3"],"route_refs":["3","5"]},"geometry":{"type":"LineString","coordinates":[[9.9250162,49.7860829],[9.9250025,49.7860831],[9.9249862,49.7860833],[9.9249786,49.7857957],[9.9250086,49.7857954],[9.9250162,49.7860829]]}},{"type":"Feature","properties":{"way_id":981249313,"route_colors":["#01adf0","#c638a3"],"route_refs":["3","5"]},"geometry":{"type":"LineString","coordinates":[[9.9252492,49.7831818],[9.9252221,49.7831787],[9.9253133,49.7828782],[9.9253266,49.7828791],[9.9253397,49.7828808],[9.9252492,49.7831818]]}},{"type":"Feature","properties":{"way_id":37213348,"route_colors":["#01adf0","#c638a3"],"route_refs":["3","5"]},"geometry":{"type":"LineString","coordinates":[[9.9264388,49.7794353],[9.9264923,49.7792824],[9.9265468,49.7791265],[9.9265342,49.7791247],[9.926522,49.7791229],[9.9264676,49.7792786],[9.9264141,49.7794317],[9.9264388,49.7794353]]}},{"type":"Feature","properties":{"way_id":37213349,"route_colors":["#01adf0","#c638a3"],"route_refs":["3","5"]},"geometry":{"type":"LineString","coordinates":[[9.9371425,49.7692831],[9.9375099,49.7690354],[9.9375246,49.7690254],[9.9374891,49.7690027],[9.937108,49.7692593],[9.9371236,49.7692699],[9.9371425,49.7692831]]}},{"type":"Feature","properties":{"way_id":792102530,"route_colors":["#01adf0","#c638a3"],"route_refs":["3","5"]},"geometry":{"type":"LineString","coordinates":[[9.9410344,49.7675584],[9.9418416,49.7672079],[9.9418434,49.7672012],[9.9418405,49.7671947],[9.9418323,49.767191],[9.9418227,49.7671898],[9.9410156,49.7675403],[9.9410261,49.7675504],[9.9410344,49.7675584]]}},{"type":"Feature","properties":{"way_id":196854749,"route_colors":["#01adf0","#c638a3"],"route_refs":["3","5","54"]},"geometry":{"type":"LineString","coordinates":[[9.9463548,49.7661157],[9.9467278,49.7658603],[9.9467431,49.7658696],[9.9467578,49.7658786],[9.9463849,49.766134],[9.9463713,49.7661257],[9.9463548,49.7661157]]}},{"type":"Feature","properties":{"way_id":792102528,"route_colors":["#01adf0","#c638a3"],"route_refs":["3","5","54"]},"geometry":{"type":"LineString","coordinates":[[9.9446192,49.762542],[9.9446364,49.7625374],[9.9446534,49.7625329],[9.9445812,49.7624197],[9.9444569,49.7622252],[9.9444419,49.7622292],[9.9444228,49.7622343],[9.9446192,49.762542]]}},{"type":"Feature","properties":{"way_id":792102526,"route_colors":["#01adf0","#c638a3"],"route_refs":["3","5","54"]},"geometry":{"type":"LineString","coordinates":[[9.9430512,49.7597214],[9.9430117,49.7597285],[9.9429951,49.7597023],[9.942975,49.7596705],[9.9429519,49.7596085],[9.9429178,49.7594356],[9.9429021,49.7593222],[9.9428986,49.7592969],[9.9429198,49.7592956],[9.9429394,49.7592943],[9.9429707,49.759464],[9.9430138,49.7596194],[9.9430512,49.7597214]]}},{"type":"Feature","properties":{"way_id":187906188,"route_colors":["#01adf0","#c638a3"],"route_refs":["3","5","54"]},"geometry":{"type":"LineString","coordinates":[[9.9545909,49.7473261],[9.9541112,49.7474611],[9.9540944,49.7474362],[9.9541046,49.7474334],[9.9544523,49.7473355],[9.9545742,49.7473012],[9.954582,49.7473129],[9.9545909,49.7473261]]}},{"type":"Feature","properties":{"way_id":960142394,"route_colors":["#01adf0","#c638a3"],"route_refs":["3","5","54"]},"geometry":{"type":"LineString","coordinates":[[9.957701,49.7462838],[9.9579117,49.7461769],[9.9581044,49.746072],[9.9581011,49.7460592],[9.9582659,49.7459597],[9.9584658,49.7458249],[9.9584871,49.7458366],[9.9585091,49.7458494],[9.9581589,49.7460923],[9.9579186,49.7462181],[9.9578079,49.7462758],[9.9577313,49.7463126],[9.9577231,49.7463048],[9.957701,49.7462838]]}},{"type":"Feature","properties":{"way_id":187906190,"route_colors":["#01adf0","#c638a3"],"route_refs":["3","5","54"]},"geometry":{"type":"LineString","coordinates":[[9.960967,49.7416763],[9.9609613,49.7417243],[9.9609446,49.7418393],[9.960939,49.7418745],[9.9609198,49.7419947],[9.9609174,49.7420103],[9.9609426,49.7420122],[9.9609541,49.7420131],[9.9609741,49.7418907],[9.9610061,49.7416792],[9.9609892,49.7416781],[9.960967,49.7416763]]}},{"type":"Feature","properties":{"way_id":160448070,"route_colors":["#01adf0","#c638a3"],"route_refs":["3","5","54"]},"geometry":{"type":"LineString","coordinates":[[9.96029,49.7387259],[9.9603048,49.7387222],[9.9603216,49.7387181],[9.9605401,49.7390221],[9.960516,49.7390295],[9.9605082,49.7390319],[9.96029,49.7387259]]}},{"type":"Feature","properties":{"way_id":22980386,"route_colors":["#01adf0","#c638a3"],"route_refs":["3","5","54"]},"geometry":{"type":"LineString","coordinates":[[9.9317836,49.7867498],[9.9317719,49.7867082],[9.9317486,49.7866723],[9.9317233,49.7866381],[9.9316949,49.7866123],[9.9316699,49.7865933],[9.9316237,49.7865705],[9.9315557,49.7865429],[9.9314871,49.78653],[9.9314569,49.7865225]]}},{"type":"Feature","properties":{"way_id":187917847,"route_colors":["#01adf0","#c638a3"],"route_refs":["3","5","54"]},"geometry":{"type":"LineString","coordinates":[[9.9314569,49.7865225],[9.9312493,49.7865142],[9.9288729,49.7864444],[9.9287335,49.7864403],[9.9285687,49.7864395],[9.9283974,49.7864387],[9.9283303,49.7864384],[9.9282248,49.7864382],[9.9281401,49.7864371]]}},{"type":"Feature","properties":{"way_id":187707860,"route_colors":["#01adf0","#c638a3"],"route_refs":["3","5","54"]},"geometry":{"type":"LineString","coordinates":[[9.9281401,49.7864371],[9.925466,49.7863507],[9.9253841,49.7863453]]}},{"type":"Feature","properties":{"way_id":187707859,"route_colors":["#01adf0","#c638a3"],"route_refs":["3","5","54"]},"geometry":{"type":"LineString","coordinates":[[9.9253841,49.7863453],[9.925293,49.7863282],[9.925195,49.7862942],[9.9251203,49.786256],[9.9250829,49.7862299],[9.9250455,49.7861857],[9.92503,49.7861424],[9.9250284,49.7861046],[9.9250214,49.785844],[9.9249988,49.7849965],[9.9249933,49.7847545],[9.9249918,49.7846863],[9.924991,49.7846074],[9.9250001,49.7844555],[9.9250283,49.7841487],[9.925068,49.7838982],[9.9250948,49.7837595],[9.9251257,49.7836202],[9.9252159,49.7833301],[9.9253458,49.7828994],[9.9253582,49.782861],[9.9253985,49.7827099],[9.9254709,49.7824707],[9.9257072,49.7816896],[9.9261197,49.7804713],[9.9262603,49.780027],[9.9264539,49.7794423],[9.9265539,49.7791469],[9.9265667,49.7791122],[9.9265923,49.7790436],[9.9266824,49.7787479],[9.9268188,49.7782957],[9.9268902,49.7780866],[9.9271656,49.7775134],[9.927503,49.7769562],[9.9276696,49.7766968],[9.9277938,49.7764645],[9.92792,49.7761554],[9.9281996,49.7752373],[9.9282759,49.7750893],[9.9282934,49.7750601]]}},{"type":"Feature","properties":{"way_id":806271155,"route_colors":["#01adf0","#c638a3"],"route_refs":["3","5","54"]},"geometry":{"type":"LineString","coordinates":[[9.9282934,49.7750601],[9.928339,49.7749839]]}},{"type":"Feature","properties":{"way_id":806271154,"route_colors":["#01adf0","#c638a3"],"route_refs":["3","5","54"]},"geometry":{"type":"LineString","coordinates":[[9.928339,49.7749839],[9.9283893,49.7749311],[9.9285447,49.7747545],[9.9286407,49.7746719],[9.9288071,49.77455],[9.9290476,49.7743876],[9.9293755,49.774205],[9.9306243,49.7735522],[9.9318563,49.7728893],[9.9321737,49.7726912],[9.9325144,49.7724635],[9.9326663,49.7723609],[9.9327165,49.7723228],[9.9327602,49.7722961],[9.9329402,49.7721599],[9.9331818,49.7720027],[9.9334134,49.7718482],[9.9336753,49.7716593],[9.9357835,49.7702046],[9.9365886,49.7696588],[9.9370793,49.7693453],[9.9373088,49.7691942],[9.9375655,49.7690187],[9.9377286,49.7689097],[9.9379292,49.7687714],[9.938013,49.7687157],[9.9381205,49.7686396],[9.9382556,49.7685619],[9.938362,49.7685122],[9.9384772,49.7684651],[9.938652,49.768409],[9.9389343,49.7683245],[9.9394468,49.7681818],[9.939644,49.7681196],[9.9398441,49.7680483],[9.9400593,49.767972],[9.9408723,49.7676363],[9.9410168,49.7675728],[9.9416207,49.7673166],[9.941716,49.7672736],[9.9419279,49.7671825],[9.9422345,49.7670435],[9.9425014,49.7669199],[9.9426789,49.7668352],[9.9428983,49.7667278],[9.9431084,49.7666232],[9.9432908,49.7665295],[9.9438003,49.7662669],[9.9438577,49.7662376],[9.9439739,49.7661776],[9.9440268,49.766149],[9.9440722,49.7661264],[9.9440996,49.7661133],[9.944124,49.7661036],[9.9441934,49.766083],[9.9442399,49.7660737],[9.9442871,49.7660674],[9.9443304,49.7660618],[9.9443792,49.7660597],[9.9444272,49.7660606],[9.9444761,49.7660637],[9.9447175,49.7660836],[9.9457875,49.7661926],[9.9459612,49.766215],[9.9460319,49.7662212],[9.9460908,49.7662237],[9.9461582,49.7662218],[9.9462187,49.7662142],[9.9462827,49.7661976],[9.9463214,49.7661839],[9.9463509,49.7661706],[9.9463724,49.7661569],[9.9467316,49.7659094],[9.9467733,49.7658786],[9.9467984,49.7658537],[9.9468192,49.7658273],[9.9468319,49.7658042],[9.9468391,49.7657855],[9.9468443,49.7657569],[9.946844,49.7657243],[9.946838,49.7656962],[9.9468284,49.7656739],[9.9468106,49.7656441],[9.9467925,49.7656232],[9.9467541,49.765584],[9.946683,49.7655285],[9.9464606,49.7653566],[9.9463151,49.7652576],[9.9460461,49.7650843],[9.945284,49.7646005],[9.9451653,49.7645253],[9.9449108,49.7643479],[9.9448767,49.7643194],[9.9448018,49.764247],[9.9447691,49.7642059],[9.9447271,49.7641362],[9.944695,49.7640725],[9.9446558,49.7639835],[9.9445924,49.7638365],[9.9445169,49.7636691],[9.9444993,49.7636044],[9.9444887,49.7635172],[9.9444944,49.7634528],[9.9445132,49.7633811],[9.9445379,49.7633243],[9.94458,49.7632491],[9.9446785,49.7630909],[9.9447214,49.7630188],[9.9447544,49.762949],[9.9447694,49.7629042],[9.9447817,49.7628314],[9.9447751,49.7627547],[9.9447623,49.7627019],[9.9447411,49.7626459],[9.9447034,49.7625771],[9.9446943,49.7625621],[9.9445525,49.7623478],[9.9444984,49.7622606],[9.9444616,49.7622094],[9.9443705,49.7620749],[9.9442682,49.7619159],[9.9441491,49.7617294],[9.9439768,49.7614428],[9.9437903,49.7611233],[9.9435811,49.7607467],[9.9433898,49.7603873],[9.9432104,49.7600343],[9.9431158,49.7598354],[9.9430784,49.7597479],[9.9430309,49.7596158],[9.9429981,49.7594932],[9.9429904,49.7594699],[9.9429605,49.7593222],[9.9429513,49.7592752],[9.9429385,49.7591948],[9.9428745,49.7588194],[9.9428415,49.7586204],[9.9427923,49.7583228],[9.9427895,49.7582772],[9.9427965,49.758216],[9.9428078,49.7581769],[9.9428262,49.7581386],[9.942857,49.758094],[9.9428883,49.7580676],[9.9429274,49.7580425],[9.9429556,49.7580252],[9.9429852,49.7580111],[9.9430582,49.7579841],[9.9431084,49.7579689],[9.9431774,49.7579461],[9.9433116,49.7579091],[9.9434869,49.757854],[9.9435678,49.7578217],[9.9436539,49.7577817],[9.9437475,49.757731],[9.9438598,49.7576547],[9.944196,49.7573875]]}},{"type":"Feature","properties":{"way_id":187896717,"route_colors":["#01adf0","#c638a3"],"route_refs":["3","5","54"]},"geometry":{"type":"LineString","coordinates":[[9.944196,49.7573875],[9.944471,49.7571675]]}},{"type":"Feature","properties":{"way_id":187896718,"route_colors":["#01adf0","#c638a3"],"route_refs":["3","5","54"]},"geometry":{"type":"LineString","coordinates":[[9.944471,49.7571675],[9.9447836,49.7569184],[9.9449922,49.7567471],[9.9451345,49.7566216],[9.945253,49.7565041],[9.9453862,49.7563474],[9.9454635,49.7562286],[9.9455312,49.7561068],[9.945598,49.7559447],[9.9456383,49.7557977],[9.9456539,49.7556901],[9.9456578,49.7555885],[9.9456526,49.7554769],[9.9456371,49.7553606],[9.9455966,49.7551599],[9.9455434,49.7549916],[9.9454322,49.7547219],[9.9453893,49.7546239],[9.9453435,49.754505],[9.9452899,49.7543523],[9.9452591,49.7542558],[9.9452295,49.7541281],[9.9451989,49.7539568],[9.9451879,49.7538155],[9.9451884,49.7536939],[9.9452067,49.753593],[9.94523,49.7534652],[9.94526,49.7533661],[9.9453164,49.7532319],[9.9453655,49.7531126],[9.9455085,49.7528388],[9.9456567,49.7526003],[9.9458075,49.7523735],[9.9459796,49.7521366],[9.9461429,49.7519418],[9.9463171,49.7517553],[9.9465069,49.751589],[9.9466889,49.751468],[9.9468293,49.7513924],[9.9470304,49.7512962],[9.9471585,49.7512452],[9.9472838,49.7512031],[9.9474138,49.7511601],[9.94757,49.7511181],[9.9477306,49.7510848],[9.9479006,49.7510562],[9.9481622,49.7510195],[9.9487882,49.750958],[9.9489387,49.750936],[9.9491381,49.7509002],[9.9493264,49.7508525],[9.9494265,49.7508225],[9.9495266,49.7507887],[9.9496607,49.7507371],[9.9497944,49.7506776],[9.9499063,49.7506202],[9.9500177,49.7505569],[9.9501584,49.7504617],[9.9502638,49.7503762],[9.9503482,49.7503016],[9.9504516,49.7501928],[9.9505437,49.7500708],[9.9506375,49.7499154],[9.9507173,49.7497461],[9.9507898,49.74956],[9.9509079,49.7492336],[9.9509524,49.7491276],[9.9510083,49.7490068],[9.9510582,49.7489056],[9.9511341,49.7487895],[9.951265,49.7486187],[9.9514089,49.7484741],[9.951594,49.7483335],[9.9516688,49.7482844],[9.9517773,49.7482191],[9.9518469,49.7481822],[9.9519221,49.7481452],[9.9519991,49.7481091],[9.9521023,49.748067],[9.9522129,49.7480233],[9.9523465,49.7479769],[9.9524988,49.7479257],[9.9527282,49.7478603],[9.9533332,49.747691],[9.9545601,49.7473469],[9.95462,49.7473302],[9.9548742,49.7472573],[9.9550945,49.7471973],[9.9557114,49.7470244],[9.9561428,49.7469012],[9.9564661,49.7468052],[9.956653,49.7467471],[9.9568887,49.7466689],[9.9571771,49.7465649],[9.9573996,49.7464772],[9.9576518,49.746366],[9.9577669,49.7463096],[9.958107,49.7461276],[9.9582806,49.7460275],[9.9584499,49.7459123],[9.9585509,49.7458367],[9.9586424,49.7457681],[9.9586993,49.7457224],[9.95874,49.7456904],[9.9588966,49.7455539],[9.9589702,49.7454858],[9.9590456,49.7454175],[9.9591642,49.7452996],[9.9592823,49.7451817],[9.959564,49.744873],[9.9596883,49.7447232],[9.9598219,49.7445551],[9.9599669,49.7443577],[9.9600684,49.744212],[9.9601478,49.7440879],[9.9602102,49.7439884],[9.9603341,49.7437738],[9.9604436,49.7435622],[9.9605179,49.7434064],[9.9605638,49.743306],[9.9605854,49.7432546],[9.9606083,49.7431998],[9.9606472,49.7430987],[9.9606805,49.7430137],[9.9607483,49.7428241],[9.9608004,49.7426669],[9.9608308,49.7425664],[9.9608692,49.742428],[9.9608963,49.7423119],[9.9609085,49.7422663],[9.9609365,49.7421503],[9.9609574,49.742055],[9.9610149,49.7417091],[9.9610216,49.7416628],[9.9610366,49.7415425],[9.961052,49.7413725],[9.9610624,49.7410445],[9.9610541,49.7407578],[9.9610343,49.7405248],[9.9610023,49.7403006],[9.9609423,49.739987]]}},{"type":"Feature","properties":{"way_id":172775863,"route_colors":["#01adf0","#c638a3"],"route_refs":["3","5","54"]},"geometry":{"type":"LineString","coordinates":[[9.9609423,49.739987],[9.9608624,49.7396853],[9.9608023,49.7395164],[9.9607462,49.7393763],[9.9606532,49.7391889],[9.9605783,49.7390563],[9.9604985,49.7389329],[9.9604106,49.7388138],[9.9603211,49.7386944],[9.9602878,49.7386533],[9.9602285,49.738583],[9.960178,49.7385231],[9.9600382,49.7383745]]}},{"type":"Feature","properties":{"way_id":1334672695,"route_colors":["#01adf0","#c638a3"],"route_refs":["3","5"]},"geometry":{"type":"LineString","coordinates":[[9.9600382,49.7383745],[9.9598792,49.7382436],[9.9597889,49.7381726],[9.9597203,49.7381177],[9.9595554,49.7380015],[9.9594274,49.737919],[9.95928,49.7378273]]}},{"type":"Feature","properties":{"way_id":187916649,"route_colors":["#01adf0","#c638a3"],"route_refs":["3","5"]},"geometry":{"type":"LineString","coordinates":[[9.95928,49.7378273],[9.9592013,49.7377883],[9.9590276,49.7377124],[9.9589507,49.7376781],[9.9589277,49.7376678],[9.958751,49.7375918],[9.9587246,49.7375804],[9.9582987,49.7373896],[9.9579123,49.7372255],[9.9577303,49.7371545],[9.9576869,49.7371401],[9.9576024,49.7371262],[9.9575443,49.7371247],[9.9574741,49.7371301],[9.9573925,49.7371493],[9.9573097,49.7371792],[9.9571317,49.7372556],[9.9570766,49.7372756],[9.9570153,49.7372905],[9.9569479,49.7372966],[9.9568809,49.7372942],[9.9568105,49.737281],[9.9567534,49.7372642],[9.9566942,49.7372346],[9.9566567,49.7372083],[9.9566227,49.7371729],[9.9566032,49.7371441],[9.9565882,49.737105],[9.9565842,49.7370712],[9.9565883,49.7370292],[9.9566055,49.7369913],[9.9566304,49.7369607],[9.9566683,49.7369231],[9.9567225,49.7368907],[9.9567776,49.7368684],[9.9568544,49.7368499],[9.9569283,49.7368478],[9.956997,49.736851],[9.9570662,49.7368619],[9.9571345,49.7368843],[9.957485,49.7370242]]}},{"type":"Feature","properties":{"way_id":160448073,"route_colors":["#c638a3"],"route_refs":["5","54"]},"geometry":{"type":"LineString","coordinates":[[9.9652592,49.7224317],[9.9651427,49.7217561],[9.965129,49.7217242],[9.9651683,49.7217237],[9.9652,49.7217235],[9.9651986,49.7217362],[9.9652561,49.7220895],[9.9652457,49.722134],[9.9652448,49.7221915],[9.9652537,49.7222326],[9.9652877,49.722428],[9.9652737,49.7224299],[9.9652592,49.7224317]]}},{"type":"Feature","properties":{"way_id":160448072,"route_colors":["#c638a3"],"route_refs":["5","54"]},"geometry":{"type":"LineString","coordinates":[[9.967279,49.7236867],[9.9672485,49.7236951],[9.9672183,49.7237031],[9.967261,49.7237746],[9.9672972,49.7238308],[9.9673593,49.723929],[9.967397,49.7239891],[9.9674262,49.7240329],[9.9674595,49.7240889],[9.9674748,49.7241169],[9.9674978,49.7241665],[9.9675117,49.7242129],[9.9675176,49.7242378],[9.9675369,49.7242352],[9.9675472,49.7242089],[9.9675199,49.7241245],[9.9674815,49.7240393],[9.9674999,49.7240352],[9.9674923,49.7240204],[9.9674783,49.7239931],[9.967279,49.7236867]]}},{"type":"Feature","properties":{"way_id":160448090,"route_colors":["#c638a3"],"route_refs":["5","54"]},"geometry":{"type":"LineString","coordinates":[[9.9660571,49.7314297],[9.9662248,49.7311473],[9.9663567,49.7309253],[9.9663985,49.7309324],[9.9661288,49.7313814],[9.9660917,49.7314384],[9.9660748,49.7314348],[9.9660571,49.7314297]]}},{"type":"Feature","properties":{"way_id":760591205,"route_colors":["#c638a3"],"route_refs":["5","54"]},"geometry":{"type":"LineString","coordinates":[[9.9651813,49.7220836],[9.9651936,49.7221563],[9.9652068,49.7222349],[9.9652271,49.722364]]}},{"type":"Feature","properties":{"way_id":29207658,"route_colors":["#c638a3"],"route_refs":["5","54"]},"geometry":{"type":"LineString","coordinates":[[9.9652271,49.722364],[9.9652483,49.7224894],[9.9652607,49.722557],[9.9652721,49.7226132],[9.9652811,49.7226623],[9.9652948,49.7227148],[9.9653171,49.7227703],[9.9653659,49.7228462],[9.9653986,49.7228807],[9.9654168,49.7228999],[9.9654387,49.7229182],[9.9654748,49.7229471],[9.9655114,49.7229691],[9.9655509,49.7229892],[9.9655897,49.7230096],[9.9656469,49.723032],[9.965728,49.7230587],[9.9658179,49.7230805],[9.9659317,49.7231015],[9.9662383,49.7231574],[9.9663538,49.7231778],[9.9664582,49.7231972],[9.966572,49.7232244],[9.9666357,49.7232436],[9.9666836,49.723261],[9.9667693,49.7232974],[9.9668318,49.7233292],[9.9668984,49.7233684],[9.9669436,49.723399],[9.9670134,49.7234578],[9.9670631,49.7235082],[9.9670802,49.723527],[9.9671192,49.7235784],[9.9671363,49.7236016],[9.9671918,49.723687],[9.9673,49.7238622],[9.9674077,49.7240276],[9.9674537,49.7241066],[9.9674733,49.724151],[9.9675108,49.7242667],[9.9675176,49.7243017],[9.9675217,49.7243469],[9.9675242,49.7244162],[9.9675216,49.7244956],[9.9675099,49.724679],[9.9674993,49.7248506],[9.9674918,49.7249413],[9.9674848,49.725052],[9.9674588,49.7254077],[9.9674375,49.7257207],[9.9674212,49.7259542],[9.967403,49.7262257],[9.9673869,49.7264476],[9.9673743,49.7266324],[9.9673656,49.7267423],[9.9673566,49.7268819],[9.9673455,49.7270434],[9.9673351,49.7271813],[9.9673196,49.7274372],[9.9673094,49.7275835],[9.9673073,49.7276144],[9.9673048,49.7276523],[9.9672913,49.7278173],[9.9672767,49.7280099],[9.9672564,49.7282144],[9.9672236,49.7284495],[9.9671965,49.7286059],[9.9671256,49.7289496],[9.9670581,49.7292048],[9.966991,49.7294281],[9.966902,49.7296943],[9.9668061,49.7299462],[9.9667253,49.7301474],[9.9665916,49.7304412],[9.9664295,49.7307652],[9.9663715,49.7308731],[9.9662732,49.7310474],[9.966179,49.7312052],[9.966084,49.7313534],[9.96605,49.7314133],[9.9660304,49.7314427],[9.9659825,49.7315176],[9.9658219,49.7317537],[9.9657686,49.7318277],[9.965677,49.7319537],[9.9655786,49.7320863],[9.9654576,49.7322399],[9.9653793,49.732336],[9.9653248,49.7324026],[9.9652724,49.73247],[9.9652367,49.7325108],[9.9651667,49.7325909],[9.9651231,49.7326422],[9.9650616,49.7327152],[9.964947,49.7328525],[9.9649129,49.7328935],[9.9648632,49.7329503],[9.9647496,49.7330858],[9.9646179,49.7332429],[9.9642766,49.7336457],[9.9641462,49.7338017],[9.9639618,49.7340245],[9.9637954,49.7342178],[9.9637187,49.7343111],[9.9635503,49.7345094],[9.9627275,49.7354849],[9.9626554,49.7355698],[9.9626032,49.7356333],[9.9625165,49.7357372],[9.9624584,49.7358061],[9.9623989,49.7358757],[9.9623108,49.7359812],[9.9622386,49.7360662],[9.9621672,49.7361489],[9.9620819,49.7362503],[9.962013,49.7363282],[9.9619476,49.7364016],[9.9618889,49.7364602],[9.9618282,49.7365212],[9.9617306,49.7366071],[9.9616166,49.7366973],[9.9615242,49.7367689],[9.9613921,49.736866],[9.961313,49.7369207],[9.9611775,49.7370141],[9.9609085,49.7371987],[9.9601829,49.7376976]]}},{"type":"Feature","properties":{"way_id":160448056,"route_colors":["#c638a3"],"route_refs":["5"]},"geometry":{"type":"LineString","coordinates":[[9.9601829,49.7376976],[9.9600764,49.7377659],[9.960036,49.737796],[9.9600035,49.7378193],[9.9599323,49.7378639],[9.9598974,49.7378837],[9.9598204,49.7379181],[9.9597687,49.7379332],[9.9596728,49.7379427],[9.9596224,49.7379401],[9.95956,49.7379313],[9.9594981,49.7379144],[9.9594527,49.7379001],[9.9593413,49.7378491],[9.95928,49.7378273]]}},{"type":"Feature","properties":{"way_id":160448092,"route_colors":["#c638a3"],"route_refs":["5","54"]},"geometry":{"type":"LineString","coordinates":[[9.9659877,49.7314173],[9.9659705,49.7314132],[9.9659497,49.7314077],[9.9661285,49.7311233],[9.9661661,49.7311319],[9.9659877,49.7314173]]}},{"type":"Feature","properties":{"way_id":160448071,"route_colors":["#c638a3"],"route_refs":["5","54"]},"geometry":{"type":"LineString","coordinates":[[9.9674516,49.7242469],[9.9674102,49.724253],[9.9673924,49.7242075],[9.9673728,49.724166],[9.9673612,49.724132],[9.9673293,49.7240694],[9.9672872,49.7240035],[9.967238,49.7239392],[9.9672029,49.7238924],[9.9671781,49.7238382],[9.9671248,49.7237494],[9.9671313,49.7237263],[9.9671417,49.7237233],[9.9671546,49.7237201],[9.9672221,49.7238283],[9.9672648,49.7238936],[9.9673134,49.7239709],[9.9673862,49.724094],[9.9674192,49.7241605],[9.9674516,49.7242469]]}},{"type":"Feature","properties":{"way_id":160447986,"route_colors":["#c638a3"],"route_refs":["5"]},"geometry":{"type":"LineString","coordinates":[[9.9592925,49.7377984],[9.959362,49.7378262],[9.959439,49.7378593],[9.9594772,49.7378751],[9.9595022,49.7378836],[9.9595509,49.7378932],[9.9595897,49.7379001],[9.9596509,49.7379028],[9.9597012,49.7378992],[9.959713,49.7378964],[9.9597534,49.7378879],[9.9597983,49.737877],[9.9598325,49.737862],[9.9598786,49.7378405],[9.9600007,49.7377771],[9.9601095,49.7377091]]}},{"type":"Feature","properties":{"way_id":187914903,"route_colors":["#c638a3"],"route_refs":["5","54"]},"geometry":{"type":"LineString","coordinates":[[9.9601095,49.7377091],[9.9602047,49.7376428],[9.9602868,49.7375882],[9.9603462,49.7375471],[9.9603972,49.7375114],[9.9604932,49.7374456],[9.9605559,49.7374018],[9.9607272,49.7372851],[9.9608353,49.7372104],[9.9609326,49.7371444],[9.9610486,49.7370647],[9.961149,49.7369951],[9.9612198,49.7369485],[9.9612982,49.7368939],[9.9613942,49.7368241],[9.9615138,49.7367361],[9.9616357,49.7366417],[9.9616951,49.7365915],[9.9617583,49.7365353],[9.9618564,49.7364435],[9.9618999,49.736399],[9.9619713,49.736325],[9.9620431,49.7362441],[9.9621617,49.7361046],[9.9623118,49.7359264],[9.9624,49.7358226],[9.96244,49.7357738],[9.9625354,49.7356623],[9.9625898,49.7355957],[9.9627731,49.7353791],[9.96287,49.7352639],[9.9629956,49.7351149],[9.9631565,49.7349225],[9.9631993,49.7348724],[9.9632556,49.7348062],[9.9633258,49.734722],[9.9634054,49.7346294],[9.9635027,49.7345137],[9.963613,49.7343832],[9.9636811,49.7343019],[9.963724,49.7342508],[9.9638122,49.7341467],[9.9639012,49.7340416],[9.9640609,49.73385],[9.9641655,49.7337293],[9.9642381,49.7336385],[9.9642742,49.7335971],[9.9644306,49.7334114],[9.9645352,49.7332877],[9.9646295,49.733175],[9.9646828,49.7331125],[9.9647397,49.7330447],[9.9648373,49.7329281],[9.9649118,49.7328405],[9.9650302,49.7327016],[9.9650906,49.7326297],[9.9651576,49.732549],[9.9652003,49.732499],[9.9652083,49.7324896],[9.9652617,49.7324266],[9.965355,49.7323126],[9.9654337,49.7322139],[9.9654801,49.7321562],[9.9655984,49.7320027],[9.9656958,49.7318684],[9.9658129,49.7317062],[9.9659793,49.7314557],[9.9659937,49.7314333],[9.9661576,49.7311703],[9.9661877,49.7311221],[9.9662507,49.7310123],[9.9663155,49.7308987],[9.966379,49.7307833],[9.9664447,49.7306576],[9.9665047,49.730537],[9.9665484,49.7304446],[9.9666357,49.7302547],[9.9666884,49.730139],[9.966771,49.7299306],[9.9668648,49.7296869],[9.9669026,49.7295758],[9.9669767,49.7293451],[9.9670225,49.7291852],[9.96706,49.7290426],[9.9670858,49.7289435],[9.9671183,49.728799],[9.9671338,49.7287203],[9.9671599,49.7285846],[9.9671871,49.7284233],[9.9672169,49.7282131],[9.967237,49.7280317],[9.9672675,49.7276126],[9.967287,49.7273319],[9.9673202,49.726838],[9.9673332,49.7266558],[9.9673464,49.7264667],[9.967365,49.7261948],[9.9673703,49.7261172],[9.9673808,49.7259684],[9.967388,49.7258892],[9.9673985,49.7257094],[9.9674163,49.7254655],[9.9674362,49.7251638],[9.9674449,49.7250511],[9.9674527,49.7249314],[9.9674589,49.7248494],[9.9674697,49.7246717],[9.9674805,49.7245286],[9.9674842,49.7244751],[9.9674849,49.7244315],[9.9674809,49.7243517],[9.967477,49.7243116],[9.9674735,49.7242868],[9.9674683,49.7242661],[9.9674621,49.7242384],[9.9674537,49.7242118],[9.967426,49.7241361],[9.9674008,49.7240885],[9.9673665,49.7240337],[9.9672958,49.7239158],[9.9672282,49.7238119],[9.9671576,49.7236986],[9.9671005,49.723615],[9.9670574,49.7235558],[9.9670445,49.7235389],[9.9670108,49.7235035]]}},{"type":"Feature","properties":{"way_id":160447970,"route_colors":["#c638a3"],"route_refs":["5","54"]},"geometry":{"type":"LineString","coordinates":[[9.9670108,49.7235035],[9.9669782,49.7234717],[9.96693,49.7234311],[9.966873,49.723391],[9.9668265,49.7233623],[9.9667731,49.7233331],[9.9666892,49.7232947],[9.9665991,49.7232616],[9.966516,49.7232385],[9.9663987,49.7232109],[9.9662882,49.7231907],[9.9661687,49.7231705],[9.96609,49.7231572],[9.9660459,49.7231492],[9.9659523,49.7231326],[9.9659059,49.7231241],[9.9657897,49.7231002],[9.9657041,49.7230799],[9.9656588,49.7230668],[9.9656303,49.7230571],[9.9655869,49.7230411],[9.965559,49.7230297],[9.9655236,49.7230128],[9.9654988,49.7229993],[9.9654696,49.7229824],[9.9654424,49.7229652],[9.9654141,49.7229445],[9.9653871,49.7229218],[9.9653667,49.7229037],[9.9653338,49.7228668],[9.9653177,49.7228478],[9.965303,49.7228267],[9.9652879,49.7227994],[9.9652739,49.7227712],[9.965264,49.7227463],[9.9652543,49.7227174],[9.9652401,49.7226626],[9.9652304,49.7226168],[9.9652228,49.7225685],[9.9652165,49.7225231],[9.9652107,49.7224946],[9.9652043,49.7224566],[9.9651999,49.7224324],[9.9651913,49.7223764],[9.9651852,49.722342],[9.9651768,49.7223064],[9.9651688,49.7222765],[9.965153,49.7222436],[9.9651353,49.7222193],[9.9651158,49.7221992],[9.9650885,49.7221751],[9.9650654,49.7221613],[9.9650387,49.7221466],[9.9650139,49.7221336],[9.9649669,49.7221169],[9.964914,49.722099],[9.9648755,49.7220869],[9.9648134,49.7220676],[9.9646813,49.7220309],[9.9646233,49.7220124],[9.9645714,49.7219913],[9.9645445,49.7219769],[9.9645063,49.7219481],[9.9644763,49.7219197],[9.9644522,49.7218809],[9.9644444,49.7218616],[9.9644417,49.7218316],[9.9644395,49.7218025],[9.964446,49.7217776],[9.9644654,49.7217298],[9.9644907,49.7217],[9.9645263,49.7216679],[9.9645667,49.7216424],[9.9646069,49.7216227],[9.964642,49.7216115],[9.9646898,49.7215991],[9.964739,49.7215908],[9.9648123,49.7215905],[9.9648733,49.7215973],[9.964924,49.7216089],[9.9649816,49.7216297],[9.9650258,49.721654],[9.9650732,49.7216903],[9.9651016,49.7217242],[9.9651246,49.7217642],[9.9651351,49.7218132],[9.9651813,49.7220836]]}},{"type":"Feature","properties":{"way_id":1372756040,"route_colors":[],"route_refs":["54"]},"geometry":{"type":"LineString","coordinates":[[9.9287893,49.7967755],[9.9287939,49.7967674],[9.929314,49.7968898],[9.9293094,49.7968979],[9.9287893,49.7967755]]}},{"type":"Feature","properties":{"way_id":202745197,"route_colors":[],"route_refs":["54"]},"geometry":{"type":"LineString","coordinates":[[9.9180904,49.7970429],[9.9180808,49.7970543],[9.9180713,49.7970657],[9.9175911,49.7968938],[9.9176011,49.796883],[9.9176111,49.7968722],[9.9180904,49.7970429]]}},{"type":"Feature","properties":{"way_id":37923474,"route_colors":[],"route_refs":["54"]},"geometry":{"type":"LineString","coordinates":[[9.8925359,49.7948155],[9.8925139,49.7948118],[9.8925025,49.794811],[9.8924864,49.7948118],[9.8924683,49.7948209],[9.8924528,49.7950447],[9.8924642,49.7950564],[9.8924835,49.7950622],[9.8925025,49.7950581],[9.892522,49.7950462],[9.8925359,49.7948155]]}},{"type":"Feature","properties":{"way_id":160447995,"route_colors":[],"route_refs":["54"]},"geometry":{"type":"LineString","coordinates":[[9.9601829,49.7376976],[9.959988,49.7378593],[9.9599668,49.7378819],[9.9599445,49.737907],[9.9599181,49.7379377],[9.9598957,49.7379663],[9.9598813,49.7379921],[9.9598746,49.7380069],[9.9598675,49.7380332],[9.9598666,49.7380579],[9.9598687,49.7380832],[9.959876,49.7381086],[9.9598817,49.7381213],[9.9598848,49.7381283],[9.9599166,49.7381771],[9.9599404,49.7382055],[9.9599784,49.7382491],[9.9600249,49.7383017],[9.9600674,49.7383562]]}},{"type":"Feature","properties":{"way_id":187487232,"route_colors":[],"route_refs":["54"]},"geometry":{"type":"LineString","coordinates":[[9.9311772,49.7969879],[9.9311433,49.7970512],[9.9311183,49.7970853],[9.9311066,49.7970975],[9.9310955,49.7971068],[9.9310781,49.7971214],[9.9310582,49.7971347],[9.9310106,49.7971593],[9.9309511,49.7971798],[9.9309048,49.7971898],[9.9308719,49.7971942],[9.9307694,49.7971913],[9.9306962,49.7971825],[9.930653,49.7971785]]}},{"type":"Feature","properties":{"way_id":1069138696,"route_colors":[],"route_refs":["54"]},"geometry":{"type":"LineString","coordinates":[[9.9286024,49.7966776],[9.9285945,49.7966437],[9.9285256,49.7966296],[9.9285147,49.7966014],[9.9282889,49.7965492],[9.9282778,49.7965715],[9.9281285,49.7965398],[9.9281143,49.7965673],[9.9286024,49.7966776]]}},{"type":"Feature","properties":{"way_id":26502413,"route_colors":[],"route_refs":["54"]},"geometry":{"type":"LineString","coordinates":[[9.9306664,49.7971546],[9.9307629,49.7971659],[9.930833,49.7971664],[9.9309242,49.7971501],[9.9309728,49.7971311],[9.9310094,49.797112],[9.9310406,49.7970951],[9.9310725,49.7970705],[9.9310946,49.7970416],[9.9311142,49.7970134],[9.9311288,49.7969798]]}},{"type":"Feature","properties":{"way_id":160448018,"route_colors":[],"route_refs":["54"]},"geometry":{"type":"LineString","coordinates":[[9.9600382,49.7383745],[9.9599277,49.7382393],[9.959855,49.7381632],[9.9598304,49.738125],[9.9598156,49.738084],[9.9598089,49.7380598],[9.9598145,49.7380099],[9.959828,49.7379706],[9.9598524,49.7379333],[9.9598974,49.7378837],[9.959968,49.7378203],[9.9601095,49.7377091]]}}]}