{"type":"FeatureCollection","features":[{"type":"Feature","properties":{"route_ref":"1","route_color":"#e32400"},"geometry":{"type":"LineString","coordinates":[[82.6459951,49.95661909999999],[82.64619618228197,49.95658753501064],[82.64643160880549,49.95667760318385],[82.64651902983162,49.95680830939418],[82.64642003231916,49.95696586470588],[82.64617504213783,49.95700508921379],[82.64557606199476,49.95685651209342],[82.6452295188546,49.956879325746065],[82.63811971687036,49.95944124658426],[82.63754287286967,49.959529713504054],[82.6304550875,49.9513605875],[82.62890512578238,49.94940150589437],[82.62855460931316,49.9490642421771],[82.62835866384617,49.94900782665813],[82.62788422755462,49.949092598925205],[82.62269914813336,49.95076793609609],[82.61705126295722,49.95270089845333],[82.61452544007301,49.95632040243387],[82.61476534415979,49.963597295098495],[82.61522619923247,49.96452997408329],[82.62028459090908,49.971662927272725],[82.62044971473938,49.97203520573244],[82.620349911694,49.97218177479816],[82.61991096206897,49.97235998275862],[82.61533561896185,49.973736162493346],[82.6149946408778,49.97391162549899],[82.61488718684978,49.97421909863271],[82.61493639222141,49.9776860999154],[82.61468091428071,49.977993216057996],[82.61435155677631,49.97796007926908],[82.6143121855776,49.977691310017136],[82.61480198694493,49.97741677271917],[82.61494086538825,49.977191201101064],[82.61488635351864,49.97421475809652],[82.61499848952748,49.97391029751045],[82.61549632500001,49.97368476000001],[82.62004305947539,49.972303112312055],[82.62044409160998,49.97204528494874],[82.6203609008397,49.97177125294755],[82.61509373214288,49.96434131428572],[82.61476661147042,49.963602102885744],[82.61451984437538,49.956354223371186],[82.61565244500001,49.95454696],[82.61697572804802,49.95275091095372],[82.62450594615385,49.950178153846146],[82.62835928160291,49.94900797027062],[82.62855871677802,49.94906674310128],[82.62890649453598,49.94940130185926],[82.63085067773979,49.95180767470257],[82.63761280165956,49.959550624982654],[82.63808132228978,49.959453960255786],[82.6459951,49.95661909999999]]}},{"type":"Feature","properties":{"route_ref":"3","route_color":"#e32400"},"geometry":{"type":"LineString","coordinates":[[82.6165265,49.9664006],[82.61509373214288,49.96434131428572],[82.61476661147042,49.963602102885744],[82.61449432500002,49.95749580625],[82.614480075,49.95661649375],[82.61461808501257,49.956111072346445],[82.6170468268489,49.9527040802139],[82.62635480588234,49.949574064705885],[82.62824225922762,49.94899687103901],[82.62855871677802,49.94906674310128],[82.63761280165956,49.959550624982654],[82.63808132228978,49.959453960255786],[82.6459951,49.95661909999999],[82.64619618228197,49.95658753501064],[82.64645533036251,49.956703028176356],[82.64650538653146,49.95690175768357],[82.6463143343725,49.95700445540768],[82.64557606199476,49.95685651209342],[82.6452295188546,49.956879325746065],[82.63811971687036,49.95944124658426],[82.63754287286967,49.959529713504054],[82.6304550875,49.9513605875],[82.62890512578238,49.94940150589437],[82.62855460931316,49.9490642421771],[82.62835866384617,49.94900782665813],[82.62788422755462,49.949092598925205],[82.62269914813336,49.95076793609609],[82.61705126295722,49.95270089845333],[82.6146670185665,49.95602903340948],[82.61448163152588,49.95667556005622],[82.61476534415979,49.963597295098495],[82.61500918691057,49.96419407124523],[82.6162968111111,49.96601470000001],[82.61655414783105,49.96657477413956],[82.61560223076924,49.966912330769226],[82.60793623861152,49.96881497017136],[82.59964807202252,49.97103719863991],[82.59748380827699,49.97180630438904],[82.59157245407138,49.97422040634683],[82.58640864910521,49.97826588889387],[82.5856669468125,49.97873847853513],[82.58517863750001,49.97859963749999],[82.58358061173439,49.97771006595564],[82.58329099286352,49.97772879005879],[82.58274489820641,49.97808185070141],[82.57403496039494,49.98489323625435],[82.56910966373161,49.98906094136374],[82.56287483321371,49.99665272839366],[82.56242343185802,49.99735248847044],[82.56079206919682,50.00193967039036],[82.56082540527326,50.00227823474836],[82.56105078886468,50.002513930903135],[82.56213466951347,50.00314152317399],[82.5622788746417,50.00334245262638],[82.56102905247732,50.0048087961033],[82.56116255669512,50.005014626428554],[82.5620613640019,50.00548207580523],[82.56212201390932,50.005600729127146],[82.5619698717483,50.005779417807375],[82.56161723690144,50.005785109047466],[82.56139332738668,50.00545928278662],[82.5613756,50.0055528],[82.56137195637089,50.00526671111415],[82.5610373291795,50.00477999946033],[82.56224365115743,50.003470739281134],[82.5622677458715,50.00332537234623],[82.56208964176847,50.00310909055146],[82.56091930969019,50.00239080938728],[82.56079162198559,50.00193862351882],[82.56231015631498,49.99765745621272],[82.56287471453014,49.99665045321738],[82.56883938622552,49.98931820791421],[82.57473480000002,49.98432370000001],[82.58290355000003,49.977956758333335],[82.5832931288796,49.97772539347412],[82.58358131328292,49.977709353893275],[82.58508718142355,49.978546401739514],[82.58555504515081,49.97873202681941],[82.58571975307275,49.97871325539642],[82.59154796997237,49.974231240292745],[82.59560143333334,49.972553233333336],[82.59964426071429,49.971038160714286],[82.60832999375,49.9687002125],[82.6161236412864,49.96676514266748],[82.61654817227995,49.96657461568529],[82.61652052909324,49.96640171943296]]}},{"type":"Feature","properties":{"route_ref":"4","route_color":"#e32400"},"geometry":{"type":"MultiLineString","coordinates":[[[82.61627022411595,49.95365437846208],[82.61466779894133,49.95602680675644],[82.614480075,49.95661649375],[82.61476661147042,49.963602102885744],[82.61509373214288,49.96434131428572],[82.62044667524563,49.971945366315595],[82.61522619923247,49.96452997408329],[82.61476534415979,49.963597295098495],[82.61452544007301,49.95632040243387],[82.61649565264244,49.953329956098955],[82.6170468268489,49.9527040802139],[82.62623229411764,49.949613935294124],[82.62835928160291,49.94900797027062],[82.62855871677802,49.94906674310128],[82.62890649453598,49.94940130185926],[82.63085067773979,49.95180767470257],[82.63761280165956,49.959550624982654],[82.63808132228978,49.959453960255786],[82.6459951,49.95661909999999],[82.64619618228197,49.95658753501064],[82.64643160880549,49.95667760318385],[82.64651337601013,49.95688133692384],[82.64621254877021,49.9570072737502],[82.64557606199476,49.95685651209342],[82.6452295188546,49.956879325746065],[82.63811971687036,49.95944124658426],[82.63754287286967,49.959529713504054],[82.6304550875,49.9513605875],[82.62890512578238,49.94940150589437],[82.62855460931316,49.9490642421771],[82.62835866384617,49.94900782665813],[82.62788422755462,49.949092598925205],[82.61816115865653,49.952289177067634],[82.6171711853524,49.952644251714304],[82.61678091598019,49.95292549166791]],[[82.62048707253254,49.97195048358047],[82.6230284399228,49.97547272342039],[82.63084698913043,49.9819328326087],[82.63146391031314,49.98292694633442],[82.63133372091906,49.98312602384475],[82.63097945231587,49.983063476824135],[82.63107403288159,49.98224146517269],[82.63067341098044,49.98182446848549],[82.62301350856085,49.97545755791144],[82.6204426,49.9719449]]]}}]}