{"type":"FeatureCollection","features":[{"type":"Feature","properties":{"route_ref":"2","route_color":"#64748b"},"geometry":{"type":"LineString","coordinates":[[39.5332318,52.57991299999998],[39.53236959069618,52.579940591616484],[39.53176762499999,52.580106837500004],[39.52828640769231,52.582006334615386],[39.52788335971935,52.58231416885052],[39.52799986666666,52.58256959999999],[39.53403659999999,52.58661790000001],[39.53412003750316,52.58695131170151],[39.52153302000001,52.59314182],[39.51976968461538,52.594032330769224],[39.5194658,52.594304900000004],[39.519398833333334,52.59456763333334],[39.5195442956529,52.59492007409429],[39.522163766666665,52.596781199999995],[39.52269072197465,52.59755000647768],[39.52277723333333,52.598025122222225],[39.52254846666667,52.60107806666666],[39.52251926470588,52.603816341176476],[39.52285810000001,52.604202]]}},{"type":"Feature","properties":{"route_ref":"1к","route_color":"#64748b"},"geometry":{"type":"LineString","coordinates":[[39.59981775807984,52.54431785991178],[39.59940350000001,52.544093450000005],[39.581879566666665,52.5427757],[39.581302061595416,52.54279433938012],[39.5712076007497,52.54926595672362],[39.570653995897096,52.549404908360486],[39.569748273207146,52.549103117399156],[39.56879603517305,52.54904503910576],[39.568108699999996,52.549197050000004],[39.567096358333345,52.549667175],[39.56596304545455,52.550451836363635],[39.548356719999994,52.566580586666674],[39.5365704,52.5767834],[39.536394075000004,52.577263475],[39.53670445,52.5781701],[39.53824195967191,52.579736831030765],[39.5381305,52.58018990000001]]}},{"type":"Feature","properties":{"route_ref":"15","route_color":"#64748b"},"geometry":{"type":"LineString","coordinates":[[39.59981775807984,52.54431785991178],[39.59955267624759,52.54412164496028],[39.598132572152934,52.54398097422838],[39.59782701013426,52.54377078097692],[39.598337048387094,52.541065190322584],[39.59857910960774,52.54082267505544],[39.59892145657894,52.540785311842114],[39.609899020987946,52.54160555554642],[39.61075359043789,52.541487838365384],[39.611440072756245,52.54104435980463],[39.61432774602852,52.53557329824058],[39.614242025473075,52.535248422631035],[39.61394219217192,52.5350183004441],[39.60967508208404,52.53416039066554],[39.609246062944216,52.53386216304195],[39.60932559787235,52.53335029361702],[39.61142385110028,52.52941714953718],[39.61167784468313,52.52921952084559],[39.61201396047846,52.529133296854006],[39.61256031449276,52.529175373913034],[39.62204691718168,52.53105108458448],[39.622602314521885,52.531044329243606],[39.62303138294675,52.530903239468834],[39.62321467050749,52.53072711807215],[39.62457868000403,52.52824857906033],[39.624919051077164,52.52794721272045],[39.6317598,52.5257324]]}}]}