{"type":"FeatureCollection","features":[{"type":"Feature","properties":{"way_id":813891116,"route_colors":[],"route_refs":["12","15"]},"geometry":{"type":"LineString","coordinates":[[35.2013351,47.8381035],[35.2008245,47.8363548],[35.2004765,47.8352938],[35.2002777,47.8345661],[35.2001488,47.8341343],[35.1997462,47.8327019],[35.1994748,47.8317768],[35.1993497,47.8313504],[35.1992942,47.8311611],[35.1992485,47.8309797]]}},{"type":"Feature","properties":{"way_id":813891117,"route_colors":[],"route_refs":["12","15"]},"geometry":{"type":"LineString","coordinates":[[35.2014638,47.8385443],[35.2013351,47.8381035]]}},{"type":"Feature","properties":{"way_id":36927755,"route_colors":[],"route_refs":["12","15"]},"geometry":{"type":"LineString","coordinates":[[35.203011,47.8438364],[35.2024905,47.8419527],[35.2020802,47.8405824],[35.20168,47.8392849],[35.2014638,47.8385443]]}},{"type":"Feature","properties":{"way_id":1193078596,"route_colors":[],"route_refs":["12"]},"geometry":{"type":"LineString","coordinates":[[35.202592,47.8441552],[35.2026645,47.8441423],[35.2027532,47.8441266],[35.2028445,47.8441058],[35.202911,47.8440708],[35.2029736,47.8440106],[35.2029941,47.8439532],[35.203011,47.8438364]]}},{"type":"Feature","properties":{"way_id":158445486,"route_colors":[],"route_refs":["12"]},"geometry":{"type":"LineString","coordinates":[[35.1958124,47.8434257],[35.1962085,47.8434708],[35.1969781,47.8435603],[35.1984818,47.8437132],[35.1999252,47.8438761],[35.2013985,47.8440409],[35.202592,47.8441552]]}},{"type":"Feature","properties":{"way_id":1193078598,"route_colors":[],"route_refs":["12"]},"geometry":{"type":"LineString","coordinates":[[35.1954209,47.8436475],[35.1955212,47.8435124],[35.1956228,47.8434756],[35.1956688,47.8434635],[35.1957445,47.8434435],[35.1958124,47.8434257]]}},{"type":"Feature","properties":{"way_id":813891076,"route_colors":[],"route_refs":["12"]},"geometry":{"type":"LineString","coordinates":[[35.1963433,47.8436736],[35.1963151,47.8438095],[35.1962947,47.8438729],[35.1962587,47.8439198],[35.1961869,47.8439781],[35.196092,47.8440276],[35.1959663,47.8440595],[35.1957595,47.8440591],[35.1956581,47.8440384],[35.1955489,47.8440003],[35.1954744,47.843968],[35.1954252,47.843907],[35.1953964,47.8438391],[35.1953958,47.8437552],[35.1954209,47.8436475]]}},{"type":"Feature","properties":{"way_id":1193078597,"route_colors":[],"route_refs":["12"]},"geometry":{"type":"LineString","coordinates":[[35.1965918,47.8435367],[35.1965017,47.8435519],[35.1964393,47.8435749],[35.1963801,47.8436011],[35.1963433,47.8436736]]}},{"type":"Feature","properties":{"way_id":839626415,"route_colors":[],"route_refs":["12"]},"geometry":{"type":"LineString","coordinates":[[35.2025822,47.8441743],[35.2013931,47.844063],[35.1999191,47.8438988],[35.1984726,47.8437408],[35.1969699,47.8435823],[35.1965918,47.8435367]]}},{"type":"Feature","properties":{"way_id":1193078595,"route_colors":[],"route_refs":["12"]},"geometry":{"type":"LineString","coordinates":[[35.2030601,47.8438554],[35.2030352,47.8439543],[35.2030228,47.8440008],[35.2029834,47.8440402],[35.202939,47.844084],[35.2028683,47.8441215],[35.2027711,47.8441519],[35.2026716,47.8441637],[35.2025822,47.8441743]]}},{"type":"Feature","properties":{"way_id":839626414,"route_colors":[],"route_refs":["12","15"]},"geometry":{"type":"LineString","coordinates":[[35.2015272,47.8385371],[35.2021439,47.8405694],[35.2025564,47.8419594],[35.2026301,47.8422046],[35.2030601,47.8438554]]}},{"type":"Feature","properties":{"way_id":813891061,"route_colors":[],"route_refs":["12","15"]},"geometry":{"type":"LineString","coordinates":[[35.2013948,47.8380967],[35.2015272,47.8385371]]}},{"type":"Feature","properties":{"way_id":813891060,"route_colors":[],"route_refs":["12","15"]},"geometry":{"type":"LineString","coordinates":[[35.1993026,47.8309737],[35.1993207,47.8310314],[35.1993634,47.8311699],[35.1993842,47.8312455],[35.199414,47.8313535],[35.1995284,47.8317748],[35.1996041,47.832089],[35.2000955,47.8337761],[35.2003321,47.8345654],[35.2008741,47.8363441],[35.2013948,47.8380967]]}},{"type":"Feature","properties":{"way_id":839626417,"route_colors":[],"route_refs":["12","15","10","14"]},"geometry":{"type":"LineString","coordinates":[[35.1938183,47.8122468],[35.1940761,47.8129863],[35.1942901,47.8136878],[35.1947897,47.8154465],[35.1957006,47.8186535],[35.1957474,47.8188184],[35.1960154,47.8197617],[35.1960331,47.8198242],[35.1960884,47.820019],[35.1962881,47.820744],[35.1972489,47.8239692],[35.197353,47.8243351],[35.1973723,47.8244032],[35.1976003,47.825174],[35.19789,47.8262058],[35.198633,47.8290222],[35.198758,47.8292072],[35.1988403,47.829379],[35.199232,47.8307102],[35.1993026,47.8309737]]}},{"type":"Feature","properties":{"way_id":813891068,"route_colors":[],"route_refs":["12","15","10","14"]},"geometry":{"type":"LineString","coordinates":[[35.1937843,47.8121701],[35.1938183,47.8122468]]}},{"type":"Feature","properties":{"way_id":813891063,"route_colors":[],"route_refs":["12","15","10","14"]},"geometry":{"type":"LineString","coordinates":[[35.1935003,47.8116699],[35.1936102,47.8118097],[35.1937843,47.8121701]]}},{"type":"Feature","properties":{"way_id":813891064,"route_colors":[],"route_refs":["12","15","10","14"]},"geometry":{"type":"LineString","coordinates":[[35.1933998,47.8115937],[35.1935003,47.8116699]]}},{"type":"Feature","properties":{"way_id":813891062,"route_colors":[],"route_refs":["12","15","10","14"]},"geometry":{"type":"LineString","coordinates":[[35.1911335,47.8113896],[35.1913266,47.8114976],[35.1914565,47.8115631],[35.1915756,47.8115961],[35.1924781,47.8115271],[35.1929264,47.8114792],[35.1930462,47.8114914],[35.1931739,47.8115043],[35.1933759,47.8115773],[35.1933998,47.8115937]]}},{"type":"Feature","properties":{"way_id":127575372,"route_colors":[],"route_refs":["12","15","10","14"]},"geometry":{"type":"LineString","coordinates":[[35.1855097,47.8080659],[35.1855689,47.8080183],[35.1856264,47.8079938],[35.1857762,47.8079557],[35.1859118,47.8079237],[35.1859806,47.8079096],[35.1861411,47.8078785],[35.1863758,47.8078389],[35.1864979,47.8078299],[35.1865962,47.8078324],[35.1866642,47.8078542],[35.1867862,47.8079227],[35.1874625,47.80853],[35.1879533,47.8090056],[35.1882914,47.8093274],[35.1884611,47.8094763],[35.1887365,47.8096793],[35.1890235,47.80989],[35.1893644,47.8101392],[35.1895497,47.8102714],[35.1900189,47.8105949],[35.1905578,47.8109618],[35.1908708,47.8111904],[35.190925,47.8112299],[35.1911335,47.8113896]]}},{"type":"Feature","properties":{"way_id":839626410,"route_colors":[],"route_refs":["12","15","10","14","3","16"]},"geometry":{"type":"LineString","coordinates":[[35.177036,47.8150543],[35.1770738,47.8150212],[35.1771659,47.8149373],[35.1773361,47.8147822],[35.1774822,47.8146491],[35.1781906,47.8139273],[35.1787063,47.8134856],[35.1791903,47.8130962],[35.1803091,47.8121288],[35.1805012,47.8119761],[35.1807238,47.8117992],[35.1809277,47.8116372],[35.181679,47.8110401],[35.1825998,47.8103083],[35.1834906,47.8096004],[35.1836077,47.809507],[35.1837865,47.8093734],[35.1854321,47.8081352],[35.1855097,47.8080659]]}},{"type":"Feature","properties":{"way_id":334670109,"route_colors":[],"route_refs":["12","15","10"]},"geometry":{"type":"LineString","coordinates":[[35.1771662,47.8155976],[35.1770689,47.815538],[35.1770211,47.8154921],[35.1770059,47.8154631],[35.1769832,47.815386],[35.1769721,47.8153326],[35.1769699,47.8152956],[35.1769802,47.8152396],[35.1769879,47.8151961],[35.1769936,47.815167],[35.1769975,47.8151343],[35.1770121,47.8150973],[35.177036,47.8150543]]}},{"type":"Feature","properties":{"way_id":334670111,"route_colors":[],"route_refs":["12","15","10","14"]},"geometry":{"type":"LineString","coordinates":[[35.1907247,47.8114835],[35.1899374,47.8121025],[35.1892995,47.812653],[35.1889179,47.8129823],[35.1884835,47.8133572],[35.1883762,47.8134474],[35.1876057,47.814095],[35.1874638,47.8142143],[35.1866602,47.8148899],[35.1865843,47.8149537],[35.1851152,47.8161403],[35.1846041,47.8165751],[35.1844553,47.8166988],[35.1827592,47.818144],[35.1827065,47.8181889],[35.1825581,47.818254],[35.1825469,47.8182563],[35.1825292,47.8182599],[35.1824659,47.8182736],[35.1824271,47.8182809],[35.1822706,47.8182784],[35.1821287,47.8182259],[35.1815988,47.8179055],[35.1809876,47.8175712],[35.1809489,47.8175511],[35.1808868,47.8175189],[35.1807644,47.8174553],[35.1807229,47.8174337],[35.1795288,47.8168138],[35.1794296,47.8167623],[35.1792835,47.8166864],[35.1778837,47.8159826],[35.1777722,47.8159228],[35.1776327,47.8158492],[35.1775377,47.8157966],[35.1775082,47.8157805],[35.1772516,47.8156409],[35.1771662,47.8155976]]}},{"type":"Feature","properties":{"way_id":813891065,"route_colors":[],"route_refs":["12","15","10","14"]},"geometry":{"type":"LineString","coordinates":[[35.1933878,47.8116136],[35.1933538,47.8115902],[35.193167,47.811524],[35.1930132,47.8115091],[35.1929245,47.8115005],[35.192235,47.8115674],[35.1915612,47.8116127],[35.1914505,47.8115834],[35.1912623,47.8114896],[35.1911641,47.8114498],[35.1910575,47.811433],[35.1909354,47.8114301],[35.1908304,47.8114483],[35.1907247,47.8114835]]}},{"type":"Feature","properties":{"way_id":813891066,"route_colors":[],"route_refs":["12","15","10","14"]},"geometry":{"type":"LineString","coordinates":[[35.1934746,47.8116793],[35.1933878,47.8116136]]}},{"type":"Feature","properties":{"way_id":813891069,"route_colors":[],"route_refs":["12","15","10","14"]},"geometry":{"type":"LineString","coordinates":[[35.1937485,47.8121787],[35.1936928,47.8120506],[35.1935777,47.811817],[35.1934807,47.8116838],[35.1934746,47.8116793]]}},{"type":"Feature","properties":{"way_id":813891070,"route_colors":[],"route_refs":["12","15","10","14"]},"geometry":{"type":"LineString","coordinates":[[35.1937823,47.8122564],[35.1937485,47.8121787]]}},{"type":"Feature","properties":{"way_id":839626419,"route_colors":[],"route_refs":["12","15","10","14"]},"geometry":{"type":"LineString","coordinates":[[35.1992485,47.8309797],[35.1992206,47.8308506],[35.1991801,47.8306974],[35.1987956,47.8293966],[35.1987439,47.8293021],[35.1986463,47.8291178],[35.1985947,47.8290377],[35.1984299,47.82839],[35.197957,47.826609],[35.1978997,47.8264128],[35.1978863,47.8263549],[35.196719,47.82231],[35.1961859,47.8206068],[35.1960296,47.8200267],[35.1959768,47.8198307],[35.1959598,47.8197676],[35.1957623,47.8190346],[35.1956994,47.8188194],[35.1956719,47.8187253],[35.1956535,47.8186601],[35.1948432,47.8157843],[35.1947522,47.8154575],[35.1942349,47.8136009],[35.1940045,47.8128297],[35.1937823,47.8122564]]}},{"type":"Feature","properties":{"way_id":1193078593,"route_colors":[],"route_refs":["15"]},"geometry":{"type":"LineString","coordinates":[[35.2032143,47.8444897],[35.2031833,47.8444067],[35.2031434,47.8442997],[35.2030549,47.8440157],[35.2030352,47.8439543],[35.203011,47.8438364]]}},{"type":"Feature","properties":{"way_id":98729587,"route_colors":[],"route_refs":["15"]},"geometry":{"type":"LineString","coordinates":[[35.2210589,47.8472824],[35.2208926,47.8472946],[35.2207553,47.8472863],[35.2206146,47.8472352],[35.2204986,47.8471455],[35.2202208,47.8468422],[35.2201278,47.8467318],[35.2200096,47.8466645],[35.2198587,47.8466225],[35.2196972,47.846621],[35.2194026,47.8466131],[35.2188415,47.8465452],[35.2182001,47.8464486],[35.2174795,47.8463406],[35.2157273,47.8461328],[35.2140275,47.8459456],[35.2125128,47.8457756],[35.2117372,47.8456927],[35.2109657,47.8456068],[35.2094901,47.8454351],[35.2087297,47.8453423],[35.2079758,47.8452164],[35.2065234,47.8449972],[35.2050498,47.8448326],[35.2047056,47.8447922],[35.2043917,47.8447673],[35.2040372,47.8447643],[35.2037519,47.8447757],[35.2035724,47.8447652],[35.2034548,47.844747],[35.2033803,47.8447225],[35.2032983,47.8446638],[35.2032504,47.8445982],[35.2032143,47.8444897]]}},{"type":"Feature","properties":{"way_id":1193078592,"route_colors":[],"route_refs":["15"]},"geometry":{"type":"LineString","coordinates":[[35.2211325,47.8465385],[35.2213595,47.8465301],[35.2214869,47.8465704],[35.2215718,47.8466166],[35.2216755,47.8467084],[35.2216978,47.8467979],[35.2217014,47.8469724],[35.2216753,47.8470766],[35.2216295,47.8471431],[35.2215234,47.8472096],[35.2213394,47.8472619],[35.2210589,47.8472824]]}},{"type":"Feature","properties":{"way_id":813891059,"route_colors":[],"route_refs":["15"]},"geometry":{"type":"LineString","coordinates":[[35.2032381,47.844456],[35.2032872,47.8445974],[35.2033652,47.8446756],[35.2034502,47.8447158],[35.2035653,47.8447353],[35.2037386,47.8447488],[35.204044,47.8447404],[35.2043916,47.8447452],[35.2047026,47.8447691],[35.2050509,47.8448139],[35.2065319,47.8449693],[35.2079795,47.8451992],[35.2087361,47.8453218],[35.2094952,47.845417],[35.2109734,47.8455842],[35.2117453,47.8456636],[35.2125178,47.8457483],[35.2140339,47.8459214],[35.2149606,47.8460098],[35.2157309,47.8461169],[35.2167621,47.8462236],[35.2174824,47.8463278],[35.2175089,47.8463234],[35.2182066,47.8464311],[35.2188512,47.8465269],[35.2192416,47.8465679],[35.2197054,47.8465806],[35.2199282,47.8465715],[35.2211325,47.8465385]]}},{"type":"Feature","properties":{"way_id":1193078594,"route_colors":[],"route_refs":["15"]},"geometry":{"type":"LineString","coordinates":[[35.2030601,47.8438554],[35.2030884,47.8439753],[35.2031955,47.8443368],[35.2032381,47.844456]]}},{"type":"Feature","properties":{"way_id":1005916329,"route_colors":[],"route_refs":["10","14"]},"geometry":{"type":"LineString","coordinates":[[35.1997921,47.8311327],[35.1996244,47.8311176],[35.1995345,47.8311122],[35.1994143,47.8310737],[35.1993207,47.8310314],[35.1992485,47.8309797]]}},{"type":"Feature","properties":{"way_id":1193075798,"route_colors":[],"route_refs":["10","14"]},"geometry":{"type":"LineString","coordinates":[[35.1993026,47.8309737],[35.1993827,47.8310275],[35.1994633,47.8310592],[35.1995177,47.8310775],[35.1997328,47.831102]]}},{"type":"Feature","properties":{"way_id":839626418,"route_colors":[],"route_refs":["10","14"]},"geometry":{"type":"LineString","coordinates":[[35.1997328,47.831102],[35.1997975,47.8311045],[35.2017601,47.8312022],[35.2029194,47.8312559],[35.2029841,47.8312589],[35.2040101,47.8313242],[35.2053278,47.8314044],[35.2053952,47.8314085],[35.2062011,47.8314551],[35.2081118,47.8315956],[35.2085601,47.831623],[35.209859,47.8316925],[35.2103639,47.8317106],[35.2105234,47.8317163],[35.2108336,47.8317328],[35.211244,47.8317614],[35.211515,47.8318184],[35.2118104,47.8319109],[35.2120383,47.8320226],[35.2123407,47.8322482],[35.2128465,47.8326558],[35.2133828,47.8331206],[35.2135216,47.8332358],[35.2136153,47.8332879],[35.2137295,47.8333182],[35.2138435,47.8333306],[35.2139737,47.833328],[35.2141955,47.8332845],[35.2143453,47.8332435]]}},{"type":"Feature","properties":{"way_id":379229747,"route_colors":[],"route_refs":["10","14"]},"geometry":{"type":"LineString","coordinates":[[35.2143453,47.8332435],[35.2147,47.8330458]]}},{"type":"Feature","properties":{"way_id":379229748,"route_colors":[],"route_refs":["10"]},"geometry":{"type":"LineString","coordinates":[[35.2147,47.8330458],[35.2147732,47.8330171],[35.2148647,47.8329878],[35.214942,47.8329728],[35.2150509,47.8329625],[35.2152033,47.8329627],[35.2154495,47.8329765]]}},{"type":"Feature","properties":{"way_id":107473364,"route_colors":[],"route_refs":["10"]},"geometry":{"type":"LineString","coordinates":[[35.2154495,47.8329765],[35.2156301,47.832987],[35.2157916,47.8329988],[35.2160467,47.8330174],[35.2162653,47.833037],[35.2168442,47.833089],[35.2177579,47.8331627],[35.2185253,47.8332125],[35.2187431,47.8332237],[35.2188132,47.8332173],[35.2188855,47.8331914],[35.2189712,47.8331177],[35.2190263,47.8330315],[35.2191261,47.8323834],[35.2192896,47.8313488],[35.219373,47.8309209],[35.2196581,47.8293006],[35.2197576,47.8291304],[35.2199566,47.8287654],[35.2201167,47.8285097],[35.220244,47.828336],[35.2204345,47.8281569],[35.2206853,47.8280175],[35.2208268,47.8279748],[35.221439,47.827768],[35.2237969,47.8269928],[35.2251666,47.8265414],[35.226092,47.8262461],[35.2265218,47.826118],[35.2267466,47.8260516],[35.2267965,47.8260351],[35.2272895,47.8258829]]}},{"type":"Feature","properties":{"way_id":1005916327,"route_colors":[],"route_refs":["10"]},"geometry":{"type":"LineString","coordinates":[[35.2272895,47.8258829],[35.2283128,47.825562],[35.2318151,47.8244399],[35.2352989,47.8233302],[35.235475,47.8232679],[35.2357572,47.823172],[35.2363088,47.8229946],[35.2381469,47.8224005],[35.2384457,47.8222923],[35.2390748,47.8220791],[35.2394033,47.821982],[35.2395591,47.8219554],[35.239696,47.8219615],[35.2397891,47.8219809],[35.2398541,47.8220065],[35.2399359,47.8220563],[35.239999,47.8221344],[35.2400153,47.8222098],[35.2400272,47.8222901],[35.2399868,47.8223723],[35.2399245,47.822437],[35.239864,47.8224803],[35.2397707,47.8225167],[35.2396169,47.8225243]]}},{"type":"Feature","properties":{"way_id":110574336,"route_colors":[],"route_refs":["10"]},"geometry":{"type":"LineString","coordinates":[[35.2396169,47.8225243],[35.2395334,47.8225233],[35.2392339,47.822491],[35.2390065,47.8224548],[35.2385861,47.8223676],[35.2384664,47.8223596],[35.2383129,47.8223846],[35.2375914,47.8226103],[35.2363263,47.8230168],[35.2357383,47.8232038],[35.2353355,47.823344],[35.2337616,47.823853],[35.2318064,47.8244761],[35.2293518,47.8252644],[35.2274654,47.8258632],[35.2268177,47.826064],[35.2267688,47.8260817],[35.2246942,47.8267305],[35.2238209,47.8270276],[35.222146,47.827574],[35.2214488,47.8278021],[35.2207387,47.8280405],[35.2204684,47.8281704],[35.2202844,47.8283486],[35.2201145,47.8285791],[35.2198349,47.8290923],[35.2197441,47.8292302],[35.2197007,47.8292957],[35.2195726,47.8299988],[35.2193142,47.8313507],[35.2190551,47.8330329],[35.2189959,47.833129],[35.2189596,47.8331611],[35.2188997,47.8332079],[35.2188751,47.8332171],[35.2188247,47.833236],[35.2187525,47.8332461],[35.2185206,47.833234],[35.2177546,47.8331798],[35.2168486,47.833111],[35.216287,47.833065],[35.2160646,47.8330468],[35.2158981,47.8330327],[35.2156324,47.8330099],[35.2155204,47.8329998],[35.2154419,47.832994]]}},{"type":"Feature","properties":{"way_id":1193078591,"route_colors":[],"route_refs":["10"]},"geometry":{"type":"LineString","coordinates":[[35.2154419,47.832994],[35.2153261,47.8329861],[35.2151958,47.8329804],[35.2150528,47.8329802],[35.2149421,47.8329926],[35.2148687,47.8330128],[35.2148014,47.8330346],[35.2147317,47.833068]]}},{"type":"Feature","properties":{"way_id":1005916326,"route_colors":[],"route_refs":["10","14"]},"geometry":{"type":"LineString","coordinates":[[35.2147317,47.833068],[35.214368,47.8332607]]}},{"type":"Feature","properties":{"way_id":1005916325,"route_colors":[],"route_refs":["10","14"]},"geometry":{"type":"LineString","coordinates":[[35.214368,47.8332607],[35.2141114,47.8333312],[35.2139836,47.8333503],[35.2138295,47.8333518],[35.2136824,47.8333377],[35.213561,47.8333001],[35.2134653,47.8332405],[35.2132738,47.8330791],[35.2129539,47.8328126],[35.2122394,47.8322138],[35.2120759,47.8320869],[35.2119788,47.8320194],[35.2117995,47.8319305],[35.2116106,47.8318709],[35.2114031,47.8318177],[35.2112547,47.831789],[35.211147,47.831774],[35.2108205,47.831757],[35.2103564,47.8317327],[35.2094435,47.8316894],[35.2085573,47.8316403],[35.2081995,47.8316184],[35.207238,47.8315516],[35.2064351,47.8314929],[35.2053232,47.8314288],[35.2044755,47.8313796],[35.2036319,47.8313251],[35.2029263,47.8312812],[35.2020911,47.8312418],[35.2008247,47.8311777],[35.2002495,47.8311504],[35.1997921,47.8311327]]}},{"type":"Feature","properties":{"way_id":839626420,"route_colors":[],"route_refs":["14"]},"geometry":{"type":"LineString","coordinates":[[35.2154495,47.8329765],[35.2155204,47.8329998],[35.2156336,47.8330419],[35.2158125,47.8331338],[35.216137,47.8333582],[35.2161842,47.8333893],[35.2164441,47.8335775],[35.216751,47.8337916],[35.2174065,47.8342587],[35.2182137,47.8348444],[35.2199289,47.8360907],[35.2211783,47.8370171],[35.2218446,47.8374908],[35.2221156,47.8377],[35.2223209,47.8378403],[35.2226009,47.8380275],[35.2229602,47.8382047],[35.2234712,47.838454],[35.2243806,47.8389112],[35.2258754,47.8396234],[35.2265511,47.8399354],[35.2266574,47.8399879],[35.2269943,47.8401541],[35.2282598,47.8407934],[35.2309299,47.8420829],[35.2340135,47.8435876],[35.2357223,47.8443715],[35.2364696,47.8447143],[35.2365319,47.8447944],[35.2365475,47.8448682],[35.2365366,47.8449427],[35.236492,47.8450172],[35.2364151,47.8450831],[35.2363132,47.8451178],[35.2361926,47.8451379],[35.2360887,47.8451233],[35.235992,47.8450755],[35.235877,47.844966]]}},{"type":"Feature","properties":{"way_id":1006421124,"route_colors":[],"route_refs":["14"]},"geometry":{"type":"LineString","coordinates":[[35.235877,47.844966],[35.2357426,47.8448601],[35.2355682,47.8446946],[35.2353519,47.8444903],[35.2350984,47.8442627],[35.2349573,47.8441457],[35.2347628,47.8440157],[35.2345208,47.8438733],[35.2340831,47.8436704],[35.2339796,47.8436224],[35.2327052,47.8429992],[35.2309044,47.8421063],[35.228582,47.8409848],[35.2270037,47.8401972],[35.2266242,47.8400158],[35.2265191,47.8399655],[35.2258499,47.8396471],[35.2239964,47.8387585],[35.2225791,47.8380574],[35.2221724,47.8377803],[35.2219682,47.8376305],[35.2218091,47.8375137],[35.2211741,47.8370585],[35.2196244,47.8359148],[35.2181773,47.8348683],[35.2173639,47.834275],[35.2167244,47.8338219],[35.2161459,47.833406],[35.2161047,47.8333782],[35.2157853,47.8331459],[35.2156326,47.8330653],[35.2155221,47.8330304],[35.2154419,47.832994]]}},{"type":"Feature","properties":{"way_id":36933710,"route_colors":[],"route_refs":["14","3","16"]},"geometry":{"type":"LineString","coordinates":[[35.1765998,47.8154595],[35.1767158,47.8153306],[35.1768014,47.8152522],[35.1768345,47.8152208],[35.177036,47.8150543]]}},{"type":"Feature","properties":{"way_id":334670110,"route_colors":[],"route_refs":["14","3","16"]},"geometry":{"type":"LineString","coordinates":[[35.1543561,47.8290206],[35.1545329,47.8290497],[35.1549813,47.8291034],[35.1551701,47.8291283],[35.1558107,47.8292411],[35.1563798,47.8294873],[35.1570218,47.8298193],[35.1573494,47.8299861],[35.1576799,47.8300318],[35.1581836,47.8300318],[35.15883,47.8299871],[35.1592286,47.8299014],[35.1594268,47.8297943],[35.1598982,47.829396],[35.1600167,47.8292958],[35.1600946,47.82923],[35.1611296,47.8283554],[35.1612798,47.8282286],[35.1614416,47.8280928],[35.1627283,47.8270146],[35.164407,47.8256044],[35.164463,47.8255583],[35.1645299,47.8255017],[35.1659261,47.8243219],[35.1679975,47.8225715],[35.1693034,47.821468],[35.1694341,47.8213576],[35.1698558,47.8210012],[35.1711756,47.8199027],[35.1731715,47.8182413],[35.1733549,47.8181066],[35.1749725,47.816748],[35.1757765,47.8161715],[35.1765998,47.8154595]]}},{"type":"Feature","properties":{"way_id":1006431809,"route_colors":[],"route_refs":["14","3","16"]},"geometry":{"type":"LineString","coordinates":[[35.1527845,47.8292577],[35.1530386,47.8291584],[35.1533821,47.8290434],[35.1534948,47.8290084],[35.1536434,47.8289828],[35.1537607,47.828967],[35.1539563,47.8289656],[35.1541799,47.8289987],[35.1543561,47.8290206]]}},{"type":"Feature","properties":{"way_id":1006431813,"route_colors":[],"route_refs":["14","3","16"]},"geometry":{"type":"LineString","coordinates":[[35.1495982,47.8307375],[35.1501288,47.8304851],[35.1508707,47.830148],[35.151261,47.8299614],[35.1523058,47.8294687],[35.1525619,47.8293435],[35.1527845,47.8292577]]}},{"type":"Feature","properties":{"way_id":1006431812,"route_colors":[],"route_refs":["14","3","16"]},"geometry":{"type":"LineString","coordinates":[[35.1492832,47.8308863],[35.1495982,47.8307375]]}},{"type":"Feature","properties":{"way_id":1006431811,"route_colors":[],"route_refs":["14","3","16"]},"geometry":{"type":"LineString","coordinates":[[35.1338032,47.8462274],[35.133799,47.8461927],[35.133782,47.8461317],[35.1336942,47.8460366],[35.1329344,47.8453827],[35.131844,47.8444783],[35.1311915,47.8439553],[35.1307726,47.8436195],[35.130666,47.8435277],[35.1305319,47.843419],[35.1298041,47.8427978],[35.1295794,47.8426011],[35.1286506,47.8418098],[35.1285713,47.8417265],[35.1285449,47.8416924],[35.128529,47.8416601],[35.1285342,47.8416082],[35.1285665,47.8415402],[35.1286201,47.8414878],[35.1287095,47.8414209],[35.1289453,47.8412927],[35.1302321,47.8406119],[35.1310635,47.8401534],[35.1311152,47.8401243],[35.1318745,47.8396975],[35.1319902,47.8396341],[35.1321353,47.8395524],[35.1321754,47.8395299],[35.1324599,47.8393553],[35.132647,47.8392188],[35.1327892,47.839081],[35.133021,47.8388177],[35.1333584,47.8384234],[35.1339052,47.8377575],[35.1341695,47.8374342],[35.1345638,47.8369457],[35.1346557,47.8368289],[35.1348787,47.8365296],[35.1349644,47.8364252],[35.1350375,47.8363372],[35.1351188,47.8362717],[35.1352285,47.8361871],[35.1354237,47.836082],[35.1359562,47.8357982],[35.1364299,47.8355485],[35.1366962,47.8354148],[35.1368773,47.8353261],[35.1371068,47.8352387],[35.138037,47.8349143],[35.138072,47.8349024],[35.1384913,47.8347596],[35.1390114,47.8345742],[35.1392818,47.8344869],[35.1395969,47.8344255],[35.1401355,47.8343382],[35.1414243,47.8341076],[35.1424773,47.8339165],[35.1427049,47.8338715],[35.1428919,47.8338155],[35.143018,47.8337623],[35.1436054,47.8335017],[35.1446137,47.8330432],[35.145526,47.8326405],[35.1456821,47.8325593],[35.1458197,47.8324939],[35.1459837,47.8324155],[35.1465488,47.8321521],[35.1474168,47.8317441],[35.1479459,47.8315054],[35.1483338,47.8313215],[35.149093,47.8309787],[35.1492832,47.8308863]]}},{"type":"Feature","properties":{"way_id":839626423,"route_colors":[],"route_refs":["14","3","16"]},"geometry":{"type":"LineString","coordinates":[[35.1334289,47.8467801],[35.1334593,47.8467385],[35.1337224,47.8463779],[35.1338032,47.8462274]]}},{"type":"Feature","properties":{"way_id":839626424,"route_colors":[],"route_refs":["14"]},"geometry":{"type":"LineString","coordinates":[[35.1336629,47.8471939],[35.1335405,47.8471405],[35.133449,47.8470641],[35.1333974,47.8469724],[35.1333942,47.8469237],[35.133396,47.8468357]]}},{"type":"Feature","properties":{"way_id":839626422,"route_colors":[],"route_refs":["14"]},"geometry":{"type":"LineString","coordinates":[[35.1340497,47.8466291],[35.1341799,47.846691],[35.1342711,47.8467789],[35.1343125,47.8468824],[35.134299,47.8469891],[35.1342324,47.8470864],[35.1341204,47.8471628],[35.1339765,47.8472091],[35.1338177,47.8472199],[35.1336629,47.8471939]]}},{"type":"Feature","properties":{"way_id":82534610,"route_colors":[],"route_refs":["14"]},"geometry":{"type":"LineString","coordinates":[[35.1338305,47.8461956],[35.1338318,47.8462309],[35.1338325,47.8462509],[35.133834,47.8462915],[35.133835,47.8463024],[35.1338473,47.8464312],[35.1339148,47.8465292],[35.1340497,47.8466291]]}},{"type":"Feature","properties":{"way_id":162943132,"route_colors":[],"route_refs":["14","3","16"]},"geometry":{"type":"LineString","coordinates":[[35.1492991,47.8308987],[35.1491016,47.8309899],[35.1479588,47.8315179],[35.1460183,47.8324144],[35.1458455,47.8325157],[35.145709,47.832579],[35.1455471,47.8326602],[35.1447338,47.8330243],[35.1429633,47.8338249],[35.1427254,47.8338966],[35.142466,47.8339466],[35.1408587,47.8342376],[35.1393266,47.8345105],[35.1389298,47.8346328],[35.1384954,47.8347947],[35.1381403,47.8349066],[35.1380546,47.8349381],[35.1373779,47.835179],[35.1368921,47.8353475],[35.1366722,47.8354448],[35.135396,47.8361231],[35.1352557,47.8362016],[35.1351155,47.8363089],[35.1349852,47.8364444],[35.1349371,47.8365081],[35.1346712,47.8368496],[35.1345937,47.8369548],[35.13416,47.8374903],[35.133442,47.8383684],[35.1330036,47.8388861],[35.1328466,47.8390672],[35.1327003,47.8392086],[35.1324882,47.8393763],[35.1321578,47.8395714],[35.1320168,47.8396546],[35.1318969,47.8397162],[35.1304036,47.8405551],[35.1289994,47.8413005],[35.1288316,47.8413846],[35.1286842,47.8414797],[35.1286048,47.8415662],[35.128587,47.8415945],[35.1285796,47.8416392],[35.128618,47.8417191],[35.1287575,47.8418452],[35.1296354,47.8425751],[35.1298512,47.8427691],[35.1305816,47.8433861],[35.1307164,47.8435],[35.1308239,47.8435908],[35.1314786,47.8441326],[35.1329688,47.8453658],[35.133311,47.8456605],[35.1337172,47.8460153]]}},{"type":"Feature","properties":{"way_id":839629290,"route_colors":[],"route_refs":["14","3","16"]},"geometry":{"type":"LineString","coordinates":[[35.1337172,47.8460153],[35.1338128,47.8461188],[35.1338305,47.8461956]]}},{"type":"Feature","properties":{"way_id":813891114,"route_colors":[],"route_refs":["14","3","16"]},"geometry":{"type":"LineString","coordinates":[[35.154352,47.8290444],[35.1539915,47.8289988],[35.1538038,47.8289923],[35.1536332,47.8290154],[35.1535122,47.8290326],[35.1532559,47.8291223],[35.1525758,47.8293605],[35.1496141,47.8307533]]}},{"type":"Feature","properties":{"way_id":813891113,"route_colors":[],"route_refs":["14","3","16"]},"geometry":{"type":"LineString","coordinates":[[35.1764287,47.8156792],[35.1758504,47.8161509],[35.1750044,47.8167602],[35.1749626,47.8167903],[35.1740024,47.817599],[35.1733828,47.8181213],[35.173208,47.8182551],[35.1728597,47.8185427],[35.1721087,47.8191659],[35.1712096,47.8199157],[35.1703304,47.8206445],[35.1694655,47.8213716],[35.169334,47.8214812],[35.1680187,47.8225833],[35.1676146,47.8229219],[35.1664662,47.8238902],[35.165939,47.8243317],[35.16573,47.8245068],[35.1645526,47.8255185],[35.1644877,47.8255742],[35.1644335,47.8256208],[35.1644205,47.825632],[35.1626509,47.8271019],[35.1614589,47.8281025],[35.1612976,47.8282379],[35.1611465,47.8283647],[35.1611127,47.828393],[35.160418,47.8289819],[35.1601136,47.829239],[35.1599162,47.8294056],[35.1598625,47.829451],[35.1597416,47.8295531],[35.1594398,47.8298104],[35.159239,47.8299114],[35.1588417,47.8300011],[35.1582064,47.8300545],[35.1576658,47.8300575],[35.157342,47.8300058],[35.1563793,47.8295271],[35.155801,47.829263],[35.1551391,47.8291516],[35.1548171,47.8291061],[35.154352,47.8290444]]}},{"type":"Feature","properties":{"way_id":839626412,"route_colors":[],"route_refs":["14"]},"geometry":{"type":"LineString","coordinates":[[35.1771662,47.8155976],[35.1770029,47.8155628],[35.1768513,47.8155542],[35.1767136,47.8155654],[35.1765998,47.8155895],[35.1764287,47.8156792]]}},{"type":"Feature","properties":{"way_id":162943126,"route_colors":[],"route_refs":["14","3","16"]},"geometry":{"type":"LineString","coordinates":[[35.1496141,47.8307533],[35.1492991,47.8308987]]}},{"type":"Feature","properties":{"way_id":387592708,"route_colors":[],"route_refs":["3","16"]},"geometry":{"type":"LineString","coordinates":[[35.1313384,47.8531785],[35.1313984,47.8528088],[35.131598,47.851895],[35.1316854,47.8515236],[35.1325951,47.8487583],[35.1329143,47.8477879],[35.1329247,47.8477564],[35.1330139,47.8475091],[35.1331105,47.8473183],[35.133396,47.8468357],[35.1334289,47.8467801]]}},{"type":"Feature","properties":{"way_id":448570225,"route_colors":[],"route_refs":["3","16"]},"geometry":{"type":"LineString","coordinates":[[35.131249,47.8537298],[35.1313384,47.8531785]]}},{"type":"Feature","properties":{"way_id":839629293,"route_colors":[],"route_refs":["3","16"]},"geometry":{"type":"LineString","coordinates":[[35.1318002,47.8561458],[35.1317098,47.8560251],[35.1314199,47.8556705],[35.1311846,47.8553153],[35.1311256,47.8552073],[35.1310765,47.8550639],[35.1310693,47.8549139],[35.1310819,47.854731],[35.1311704,47.8542144],[35.131249,47.8537298]]}},{"type":"Feature","properties":{"way_id":82489921,"route_colors":[],"route_refs":["3"]},"geometry":{"type":"LineString","coordinates":[[35.1324763,47.8562664],[35.1323717,47.8562898],[35.1323357,47.8562915],[35.132259,47.8562952],[35.1321678,47.8562898],[35.1320793,47.8562718],[35.1319855,47.8562419],[35.131972,47.8562376],[35.1318002,47.8561458]]}},{"type":"Feature","properties":{"way_id":82398884,"route_colors":[],"route_refs":["3"]},"geometry":{"type":"LineString","coordinates":[[35.1605215,47.8585736],[35.16024,47.8584928],[35.1600601,47.8584441],[35.1574959,47.857987],[35.1535402,47.8576917],[35.1526294,47.8576038],[35.1517335,47.8574693],[35.1489483,47.8569724],[35.1459257,47.8563562],[35.1438596,47.8559065],[35.1424486,47.8556406],[35.1422932,47.8556113],[35.1419284,47.8555537],[35.1415314,47.8555033],[35.1412866,47.855482],[35.1409521,47.8554529],[35.1397451,47.8554097],[35.1381787,47.8553773],[35.1366981,47.8554493],[35.1352175,47.8556401],[35.1340105,47.8558633],[35.133238,47.8560433],[35.1330641,47.8560942],[35.1324763,47.8562664]]}},{"type":"Feature","properties":{"way_id":1193126003,"route_colors":[],"route_refs":["3"]},"geometry":{"type":"LineString","coordinates":[[35.1612981,47.8587952],[35.1605215,47.8585736]]}},{"type":"Feature","properties":{"way_id":82489837,"route_colors":[],"route_refs":["3"]},"geometry":{"type":"LineString","coordinates":[[35.1921693,47.8696256],[35.1918843,47.8693939],[35.1917617,47.8693239],[35.1916339,47.8692696],[35.1914542,47.8692255],[35.1876135,47.8681608],[35.1835815,47.867103],[35.1808786,47.8663562],[35.1781861,47.8653854],[35.1777731,47.8651821],[35.1771491,47.8648749],[35.1762876,47.8645056],[35.1760264,47.8643937],[35.1746559,47.8638724],[35.1718554,47.8627928],[35.171316,47.8625848],[35.1703868,47.8622299],[35.1682858,47.8616738],[35.16768,47.8615085],[35.1670852,47.8613463],[35.1659074,47.8609457],[35.1648232,47.8604984],[35.1638083,47.8599605],[35.1620379,47.8591018],[35.1615856,47.8589039],[35.1612981,47.8587952]]}},{"type":"Feature","properties":{"way_id":813891122,"route_colors":[],"route_refs":["3","16"]},"geometry":{"type":"LineString","coordinates":[[35.1849853,47.8058347],[35.1851716,47.8063693],[35.1852788,47.806663],[35.185375,47.8069084],[35.1854152,47.8070097],[35.1854622,47.8071327],[35.1856061,47.8074976],[35.1856768,47.8076677],[35.1856992,47.807776],[35.185696,47.8078485],[35.1856716,47.8079126],[35.1856264,47.8079938],[35.1856017,47.8080221],[35.1855692,47.8080537],[35.1854928,47.8081209],[35.185436,47.8081697],[35.1853371,47.8082369],[35.1849955,47.8084977],[35.1839894,47.8092421],[35.183757,47.8094188],[35.1836266,47.8095179],[35.1834222,47.8096733],[35.18289,47.8101043],[35.1826173,47.8103191],[35.1824877,47.8104213],[35.1818493,47.8109347],[35.1816982,47.8110524],[35.1813048,47.8113589],[35.1807414,47.8118081],[35.1806114,47.8119118],[35.1797049,47.8126827],[35.1791255,47.8131852],[35.1787363,47.8134951],[35.1781599,47.8140048],[35.1777603,47.8144155],[35.1775131,47.8146681],[35.1772051,47.8149576],[35.1769975,47.8151343]]}},{"type":"Feature","properties":{"way_id":1193126004,"route_colors":[],"route_refs":["3"]},"geometry":{"type":"LineString","coordinates":[[35.1324334,47.8562178],[35.1329945,47.8560545],[35.1332059,47.8559929],[35.1339676,47.8558237],[35.1352068,47.8555933],[35.1367088,47.8553953],[35.138184,47.8553234],[35.1397504,47.8553593],[35.1409789,47.8554061],[35.1412849,47.8554276],[35.1415422,47.8554457],[35.1419391,47.8554925],[35.1423629,47.8555825],[35.1424976,47.8556001],[35.1438864,47.8558453],[35.1459503,47.85629],[35.148974,47.8569315],[35.1517454,47.8574268],[35.1526465,47.8575563],[35.1535456,47.8576334],[35.157512,47.8579258],[35.1600977,47.8583829],[35.1602754,47.85843],[35.1605537,47.8585053]]}},{"type":"Feature","properties":{"way_id":1193126002,"route_colors":[],"route_refs":["3"]},"geometry":{"type":"LineString","coordinates":[[35.1318746,47.8560985],[35.1320847,47.8562034],[35.1321947,47.8562286],[35.132318,47.8562358],[35.1324334,47.8562178]]}},{"type":"Feature","properties":{"way_id":162873706,"route_colors":[],"route_refs":["3","16"]},"geometry":{"type":"LineString","coordinates":[[35.1312902,47.8537307],[35.1312114,47.8544079],[35.1311543,47.8548018],[35.1311521,47.8550119],[35.1312319,47.8552468],[35.1314474,47.8555867],[35.1316474,47.8558225],[35.1317344,47.8559251],[35.1317927,47.8559972],[35.1318746,47.8560985]]}},{"type":"Feature","properties":{"way_id":162873708,"route_colors":[],"route_refs":["3","16"]},"geometry":{"type":"LineString","coordinates":[[35.1313693,47.8531783],[35.1312902,47.8537307]]}},{"type":"Feature","properties":{"way_id":839629292,"route_colors":[],"route_refs":["3","16"]},"geometry":{"type":"LineString","coordinates":[[35.1332108,47.8472541],[35.1331369,47.8473852],[35.1330342,47.8476718],[35.1330065,47.8477483],[35.1328865,47.8480791],[35.1326571,47.8487562],[35.131936,47.8508847],[35.1316378,47.8519013],[35.1315789,47.8521022],[35.1313693,47.8531783]]}},{"type":"Feature","properties":{"way_id":839629291,"route_colors":[],"route_refs":["3","16"]},"geometry":{"type":"LineString","coordinates":[[35.1338325,47.8462509],[35.1337498,47.8463997],[35.1335942,47.846655],[35.1333942,47.8469237],[35.1332108,47.8472541]]}},{"type":"Feature","properties":{"way_id":839626411,"route_colors":[],"route_refs":["3","16"]},"geometry":{"type":"LineString","coordinates":[[35.1855097,47.8080659],[35.185567,47.8079923],[35.185608,47.8079503],[35.1856326,47.8079159],[35.1856606,47.8078372],[35.1856619,47.8077763],[35.1856323,47.8076666],[35.185569,47.8075109],[35.1854155,47.8071382],[35.1853714,47.8070165],[35.1852205,47.8065975],[35.1849436,47.8058403]]}},{"type":"Feature","properties":{"way_id":163288117,"route_colors":[],"route_refs":["3","16"]},"geometry":{"type":"LineString","coordinates":[[35.1849436,47.8058403],[35.1847244,47.8053133]]}},{"type":"Feature","properties":{"way_id":163288118,"route_colors":[],"route_refs":["3","16"]},"geometry":{"type":"LineString","coordinates":[[35.1847244,47.8053133],[35.1845146,47.8048294],[35.1842719,47.8042694],[35.1840338,47.8037444],[35.1838005,47.8032573],[35.1837506,47.8031532],[35.1836821,47.8029859],[35.1836679,47.8029512],[35.1835959,47.8027863],[35.1834685,47.8024679],[35.1831956,47.8015893],[35.1830293,47.8008866],[35.1830186,47.8007785],[35.1830508,47.8003101],[35.1831527,47.7989516],[35.1831742,47.7986994],[35.1832385,47.7985408],[35.1832723,47.7984739],[35.183297,47.798425],[35.1833882,47.798288],[35.1842626,47.7971241],[35.1849069,47.7962634],[35.1854272,47.7955859],[35.1855262,47.7954453],[35.1856044,47.795266],[35.1855949,47.7952071],[35.1855697,47.7951242],[35.1855465,47.795037],[35.1854563,47.7949329],[35.1853425,47.794802],[35.1852356,47.7946879],[35.1851791,47.7946152]]}},{"type":"Feature","properties":{"way_id":1193075796,"route_colors":[],"route_refs":["3","16"]},"geometry":{"type":"LineString","coordinates":[[35.1851791,47.7946152],[35.1851252,47.7945477],[35.1850871,47.7944653],[35.1850861,47.7943931],[35.1851182,47.7943221],[35.1851602,47.7942775],[35.1852148,47.7942341],[35.1853051,47.7941973],[35.1853701,47.7941821],[35.1854393,47.7941778],[35.1855658,47.794178],[35.1857081,47.7942056],[35.1858322,47.7942412],[35.1859154,47.7942705],[35.1859855,47.7943268],[35.1860392,47.7943813],[35.1860793,47.7944183],[35.1861117,47.7945077],[35.1861101,47.7945746],[35.1860591,47.794674],[35.1858429,47.7950472],[35.1857622,47.7951913],[35.1857354,47.7952345],[35.1856892,47.7953019]]}},{"type":"Feature","properties":{"way_id":813891110,"route_colors":[],"route_refs":["3","16"]},"geometry":{"type":"LineString","coordinates":[[35.1856892,47.7953019],[35.1854235,47.7956442],[35.1850536,47.7961339],[35.1843589,47.7970566],[35.183691,47.7979358],[35.1833343,47.7984205],[35.1833071,47.7984822],[35.1832565,47.7985971],[35.1832163,47.7987358],[35.1831975,47.7989646],[35.1831277,47.7997898],[35.1830607,47.8006024],[35.1830553,47.8007952],[35.1831653,47.8013086],[35.1832538,47.8016708],[35.1834984,47.8024577],[35.1836239,47.8027586],[35.1836812,47.8028324],[35.1836963,47.8029401],[35.1837995,47.8031211],[35.1838002,47.8031722],[35.1838407,47.8032562],[35.1838937,47.8033662],[35.1840692,47.80373],[35.184316,47.8042723],[35.1845545,47.8048227],[35.1846244,47.8049839],[35.1847662,47.8053064]]}},{"type":"Feature","properties":{"way_id":813891123,"route_colors":[],"route_refs":["3","16"]},"geometry":{"type":"LineString","coordinates":[[35.1847662,47.8053064],[35.1849853,47.8058347]]}},{"type":"Feature","properties":{"way_id":1193126005,"route_colors":[],"route_refs":["3"]},"geometry":{"type":"LineString","coordinates":[[35.1613115,47.8587232],[35.1616046,47.8588367],[35.16198,47.8589975],[35.1623348,47.8591568],[35.1626452,47.8592951],[35.1630887,47.8595244],[35.1637853,47.8598868],[35.1648236,47.8604416],[35.1653402,47.8606639],[35.1658985,47.860888],[35.1661855,47.8610088],[35.1669446,47.8612643],[35.1675212,47.8614288],[35.1682882,47.8616476],[35.1692874,47.8619102],[35.1703231,47.862185],[35.1705084,47.8622497],[35.1718563,47.862759],[35.1737199,47.863482],[35.1754809,47.8641523],[35.1762785,47.8644815],[35.1767931,47.8647036],[35.1769734,47.8647815],[35.1773723,47.8649539],[35.1778244,47.8651538],[35.1782802,47.8653792],[35.1786376,47.8655228],[35.1805838,47.8662141],[35.1808942,47.8663243],[35.1814995,47.8664924],[35.1817578,47.8665729],[35.1829187,47.8668897],[35.1851676,47.8674882],[35.1874294,47.8680745],[35.1895792,47.868659],[35.1916709,47.8692337]]}},{"type":"Feature","properties":{"way_id":1193126006,"route_colors":[],"route_refs":["3"]},"geometry":{"type":"LineString","coordinates":[[35.1605537,47.8585053],[35.1607778,47.8585697],[35.1611296,47.8586709],[35.1613115,47.8587232]]}},{"type":"Feature","properties":{"way_id":813891111,"route_colors":[],"route_refs":["3","16"]},"geometry":{"type":"LineString","coordinates":[[35.1769975,47.8151343],[35.1768761,47.8152453],[35.1768205,47.8152945],[35.1767611,47.8153504],[35.1766366,47.815483],[35.1764287,47.8156792]]}},{"type":"Feature","properties":{"way_id":312759392,"route_colors":[],"route_refs":["3"]},"geometry":{"type":"LineString","coordinates":[[35.1916709,47.8692337],[35.1929462,47.8695091],[35.193072,47.8695435],[35.1931728,47.8696045],[35.1932366,47.8696849],[35.1932557,47.8697751],[35.1932279,47.8698643],[35.1931565,47.8699418],[35.193086,47.8699984],[35.1929935,47.8700384],[35.1928875,47.870058],[35.1927776,47.8700557],[35.1926737,47.8700315],[35.1925853,47.8699876],[35.1924154,47.8698583],[35.1921693,47.8696256]]}},{"type":"Feature","properties":{"way_id":1180493153,"route_colors":[],"route_refs":["16"]},"geometry":{"type":"LineString","coordinates":[[35.1710354,47.8876516],[35.1710139,47.8874987],[35.1709335,47.887407],[35.1707779,47.8873441]]}},{"type":"Feature","properties":{"way_id":82379376,"route_colors":[],"route_refs":["16"]},"geometry":{"type":"LineString","coordinates":[[35.1707779,47.8873441],[35.1694479,47.8869958],[35.1669825,47.886352],[35.1665266,47.8862307],[35.1664327,47.8862127],[35.1663362,47.8862145],[35.1662665,47.8862294],[35.1662503,47.8862379],[35.1662316,47.8862467],[35.1661344,47.8862925],[35.1660843,47.8863831],[35.1654507,47.8875293],[35.1651168,47.8880787],[35.1649826,47.8883246],[35.1649341,47.8884054],[35.1639992,47.8899639],[35.1639821,47.8899925],[35.1629244,47.891783],[35.162793,47.8920421],[35.1627025,47.8921915],[35.161847,47.8936044],[35.1613095,47.8944617],[35.1611661,47.8946983],[35.1610742,47.8948343],[35.1609114,47.8951362],[35.1608805,47.8952153],[35.1608108,47.8953187],[35.160703,47.8953942],[35.1606751,47.8954085],[35.1606474,47.8954251],[35.1577102,47.8966099],[35.157565,47.8966555],[35.1574235,47.8966603],[35.1573786,47.8966537],[35.157329,47.8966376],[35.156149,47.8963475],[35.1557614,47.8962422],[35.1515714,47.8951296],[35.1513611,47.8950739],[35.1512462,47.8950435],[35.151139,47.8950154],[35.1496041,47.8946135],[35.1491585,47.8944968],[35.1488865,47.8944255],[35.1471043,47.893958],[35.1469515,47.8938735],[35.1469236,47.8938474],[35.1469019,47.8938232],[35.1468812,47.8937825],[35.1468755,47.8937714],[35.1468589,47.8937214],[35.1468505,47.8936798],[35.1468523,47.893638],[35.1468645,47.8935969],[35.1468866,47.8935577],[35.146918,47.8935215],[35.146958,47.8934892],[35.1470053,47.8934619],[35.1470587,47.8934401],[35.1471167,47.8934246],[35.1471778,47.8934157],[35.1472402,47.8934136],[35.1473022,47.8934185],[35.1473622,47.8934303],[35.1474185,47.8934484],[35.1474696,47.8934726],[35.147514,47.8935021],[35.1475521,47.8935379],[35.1475804,47.8935775],[35.147598,47.8936199],[35.1476515,47.8939759],[35.1476556,47.8939849],[35.1476659,47.8940074],[35.1476833,47.8940324],[35.147705,47.8940563],[35.1477373,47.8940802],[35.148302,47.894234],[35.1485567,47.8943044],[35.1489042,47.8943942],[35.1496246,47.8945804],[35.1511608,47.8949774],[35.1512686,47.8950053],[35.151383,47.8950355],[35.1516748,47.8951126],[35.1560668,47.8962774],[35.1561734,47.896309],[35.1573128,47.8965908],[35.157396,47.896607],[35.1574275,47.8966112],[35.1575703,47.896598],[35.1576776,47.8965656],[35.1604993,47.8954219],[35.1605482,47.8953966],[35.1605709,47.895385],[35.1606415,47.895311],[35.160671,47.8952636],[35.1607357,47.8950975],[35.1609781,47.8946684],[35.1609825,47.8946605]]}},{"type":"Feature","properties":{"way_id":82379502,"route_colors":[],"route_refs":["16"]},"geometry":{"type":"LineString","coordinates":[[35.1609825,47.8946605],[35.1609876,47.8946519],[35.1610646,47.8945176],[35.1612671,47.8941883],[35.161647,47.8935394],[35.1624332,47.8922353],[35.1624861,47.8921436],[35.1625835,47.8919873],[35.1637928,47.889937],[35.1638067,47.8899137],[35.1646963,47.8884222],[35.1647296,47.8883573],[35.1647774,47.8882638],[35.16526,47.887479],[35.1654153,47.8872265],[35.1657584,47.8866396],[35.165927,47.8863438],[35.1659392,47.8863224],[35.1660545,47.8862037],[35.1661403,47.8861763],[35.1662289,47.8861479],[35.1663151,47.8861508],[35.1663898,47.8861533],[35.16654,47.8861785],[35.1694795,47.8869465],[35.1708289,47.8872991]]}},{"type":"Feature","properties":{"way_id":839629295,"route_colors":[],"route_refs":["16"]},"geometry":{"type":"LineString","coordinates":[[35.1708289,47.8872991],[35.1709817,47.8873171],[35.1711185,47.8872955],[35.171264,47.8872221]]}},{"type":"Feature","properties":{"way_id":199832656,"route_colors":[],"route_refs":["16"]},"geometry":{"type":"LineString","coordinates":[[35.171264,47.8872221],[35.1720743,47.8857819],[35.1721991,47.8855601],[35.1722067,47.8855465],[35.1722251,47.8855138],[35.1736546,47.883038],[35.1744352,47.881686],[35.1753508,47.8800961],[35.1753906,47.8800269],[35.1754866,47.8798583],[35.1759855,47.8792791],[35.1761304,47.879074],[35.1762616,47.8788295],[35.1762968,47.8787637],[35.1764469,47.8784839],[35.17642,47.8783832],[35.1763342,47.8782645],[35.176243,47.8781565],[35.176125,47.8780396],[35.176007,47.8779227],[35.1753203,47.8770879],[35.1752131,47.8770016],[35.1750682,47.8769368],[35.173137,47.8764295],[35.1725684,47.8762712],[35.1724504,47.8762208],[35.1722787,47.876138],[35.1714633,47.8757098],[35.1709376,47.8753608],[35.1697628,47.874526],[35.1694892,47.8743389],[35.1693068,47.874249],[35.1691352,47.8741914],[35.1688366,47.8741114],[35.1665173,47.8734898],[35.1654713,47.8732199],[35.1649885,47.8731119],[35.1636474,47.8728996],[35.1625426,47.8727737],[35.1621778,47.8727485],[35.1605685,47.8727449],[35.1600117,47.8727772],[35.159576,47.8728025],[35.1582779,47.8728672],[35.157838,47.8728672],[35.1561589,47.8729032],[35.1553274,47.8729392],[35.1545389,47.8729752],[35.1542548,47.8729914],[35.1526345,47.8730616],[35.1516045,47.8731191],[35.1486219,47.8733026],[35.1482132,47.8733273],[35.1476825,47.8733542],[35.1476439,47.8733564],[35.1473774,47.873371],[35.1472272,47.873353],[35.1470823,47.8733134],[35.1469817,47.873242],[35.1469064,47.8731553],[35.1468187,47.8730513],[35.1467337,47.872945],[35.1447112,47.8706902],[35.1411063,47.8666525],[35.1402455,47.8656926],[35.1380707,47.8632674],[35.1358759,47.8607484],[35.1336337,47.8582775],[35.1333969,47.8580067],[35.1325286,47.8570142],[35.1324561,47.8569168],[35.1323264,47.8567723]]}},{"type":"Feature","properties":{"way_id":448570221,"route_colors":[],"route_refs":["16"]},"geometry":{"type":"LineString","coordinates":[[35.1323264,47.8567723],[35.1323004,47.8567461],[35.1318002,47.8561458]]}},{"type":"Feature","properties":{"way_id":839629300,"route_colors":[],"route_refs":["16"]},"geometry":{"type":"LineString","coordinates":[[35.1318746,47.8560985],[35.1319855,47.8562419],[35.1322758,47.8566172],[35.1324214,47.8568054]]}},{"type":"Feature","properties":{"way_id":839629299,"route_colors":[],"route_refs":["16"]},"geometry":{"type":"LineString","coordinates":[[35.1324214,47.8568054],[35.1325168,47.8569116],[35.1334756,47.8579791],[35.1345325,47.8591578],[35.1357837,47.8605552],[35.1359337,47.8607227],[35.1381364,47.8632382],[35.1403096,47.8656647],[35.1468013,47.8729132],[35.1469941,47.8731283],[35.1470638,47.8732039],[35.1471496,47.8732614],[35.1472432,47.8733026],[35.1473267,47.8733226],[35.1473988,47.873335],[35.1476029,47.873322]]}},{"type":"Feature","properties":{"way_id":839629306,"route_colors":[],"route_refs":["16"]},"geometry":{"type":"LineString","coordinates":[[35.1476029,47.873322],[35.1476581,47.8733182],[35.1477132,47.8733149]]}},{"type":"Feature","properties":{"way_id":839629305,"route_colors":[],"route_refs":["16"]},"geometry":{"type":"LineString","coordinates":[[35.1477132,47.8733149],[35.1477406,47.8733132],[35.1483218,47.8732707],[35.1492013,47.8732199],[35.1510359,47.8730939],[35.154291,47.8729437],[35.1562716,47.8728528],[35.1581437,47.8728313],[35.1595682,47.8727561],[35.1605309,47.8727053],[35.1614429,47.8727017],[35.1621939,47.8727125],[35.1626338,47.8727305],[35.1645057,47.8729824],[35.1652299,47.8731119],[35.1659165,47.8732846],[35.1667619,47.8735097],[35.1689337,47.8741033],[35.1692693,47.874195],[35.1694924,47.8742869],[35.1696555,47.8743821],[35.1702113,47.8747727],[35.171179,47.8754832],[35.1716725,47.8757782],[35.1722229,47.8760608],[35.1725233,47.8762084],[35.1731402,47.8763883],[35.1743118,47.8766705],[35.1748805,47.8768325],[35.1751197,47.8769028],[35.1752914,47.8769963],[35.1754437,47.8771527],[35.1762014,47.8780331],[35.1763664,47.8782213],[35.1764844,47.8783796],[35.1765059,47.8784767],[35.1764683,47.8785775],[35.1763618,47.8787812],[35.1763303,47.8788416],[35.1762859,47.8789265],[35.1761282,47.8791839],[35.1754591,47.8800425],[35.1754173,47.8801121],[35.1737377,47.8830631],[35.1723001,47.8855361],[35.172283,47.8855655],[35.1721469,47.8857996],[35.1713358,47.8872433]]}},{"type":"Feature","properties":{"way_id":82380154,"route_colors":[],"route_refs":["16"]},"geometry":{"type":"LineString","coordinates":[[35.1713358,47.8872433],[35.171219,47.8873067],[35.1711534,47.8873423],[35.1710143,47.8873712],[35.1707779,47.8873441]]}}]}