{"type":"FeatureCollection","metro_system":{"continent":"asia","country":"Iran","city":"Shiraz","official_website":null,"official_map":"https://en.wikipedia.org/wiki/Shiraz_Metro","wikipedia":"en:Shiraz Metro","wiki":true,"wikipedia_zh":"zh:設拉子地鐵","line_count":2,"segment_count":2,"station_count":26,"modes":["metro"],"audit":{"strategies_tried":[],"passed":true,"checks":[{"id":"system_exists","ok":true,"detail":"matched OSM system metro-maps/asia/iran/as-iri-shiraz/as-iri-shiraz.geojson","level":"error"},{"id":"has_lines","ok":true,"detail":"2 lines","level":"error"},{"id":"has_stations","ok":true,"detail":"26 stations","level":"error"},{"id":"station_count_info","ok":true,"detail":"OSM 26 站（wiki List 記 24，計法含轉乘重複，僅參考）","level":"warn"},{"id":"stations_have_lines","ok":true,"detail":"26/26 站皆有所屬路線","level":"error"},{"id":"line_geometry_stations","ok":true,"detail":"27 個折點/端點皆為車站","level":"error"},{"id":"route_stations_match_geometry","ok":true,"detail":"各線車站列表與圖面一致","level":"error"},{"id":"interchange_rule","ok":true,"detail":"所有車站紅/藍點符合骨架＋路線色規則（藍＝端點、紅＝交叉）","level":"error"},{"id":"stations_named","ok":true,"detail":"26/26 站皆有名稱","level":"error"},{"id":"station_order","ok":true,"detail":"所有線路站序合理","level":"warn"},{"id":"line_wiki_stations","ok":true,"detail":"各線站數與 wiki 線路條目相符（營運中站數）","level":"error"},{"id":"line_wiki_coverage","ok":false,"detail":"2 條線無 wiki 站數對照：Shiraz Metro Line 1、Line 2","level":"warn"}],"reasons":[],"warnings":["2 條線無 wiki 站數對照：Shiraz Metro Line 1、Line 2"],"audited_at":"2026-07-27T02:38:22.605Z"}},"features":[{"type":"Feature","properties":{"seg_id":"shiraz-0","routes":[{"route_id":"rm7705626","route_name":"Shiraz Metro Line 1","route_name_local":"خط ۱","route_name_en":"Shiraz Metro Line 1","route_ref":"1","route_color":"#ee3c3c","wikipedia":"fa:خط ۱ متروی شیراز","osm_route_ids":[5727259,7705625],"status":null,"order_suspect":0,"span_suspect":0,"stations":[{"station_id":"n815622281","station_name":"Ehsan"},{"station_id":"n815622276","station_name":"Doctor Shari'ati"},{"station_id":"n815622271","station_name":"Mirza-ye Shirazi"},{"station_id":"n815622239","station_name":"Shahed"},{"station_id":"n815613519","station_name":"Qasr Dasht"},{"station_id":"n314366213","station_name":"Shahid Motahhari"},{"station_id":"n5014863146","station_name":"Shahid Avini"},{"station_id":"n3890672475","station_name":"Namazi"},{"station_id":"n3893392082","station_name":"Emam Hossein"},{"station_id":"n3890683367","station_name":"Zandiyeh"},{"station_id":"n3890672464","station_name":"Vakil-Al-Roaya"},{"station_id":"n306435246","station_name":"Valiasr"},{"station_id":"n306435241","station_name":"Shahid Kaveh"},{"station_id":"n306435240","station_name":"Fazilat"},{"station_id":"n5936862196","station_name":"Razi"},{"station_id":"n306435238","station_name":"Ghadir"},{"station_id":"n306434175","station_name":"Janbazan"},{"station_id":"n306434174","station_name":"Forsat Shirazi"},{"station_id":"n306434173","station_name":"Shahid Doran"},{"station_id":"n306435235","station_name":"Shahid Dastgheib"}]}],"route_count":1,"route_refs":["1"],"route_colors":["#ee3c3c"],"city":"Shiraz","country":"Iran"},"geometry":{"type":"MultiLineString","coordinates":[[[52.4546598,29.6782553],[52.465034849999995,29.6827149],[52.4737171,29.6865883],[52.48651535,29.6662462],[52.485433,29.655234450000002],[52.50275405,29.63743895],[52.51228365,29.63180335],[52.51982165,29.63141495],[52.53196246666667,29.624099400000002],[52.5406706,29.6189113],[52.5517745,29.6124093],[52.558506949999995,29.6082318],[52.5628849,29.6028995],[52.567865850000004,29.596132349999998],[52.57421085,29.587457450000002],[52.579184999999995,29.5806759],[52.585315449999996,29.572325],[52.5904283,29.5649466],[52.5945738,29.558689800000003],[52.599160100000006,29.551742400000002]]]}},{"type":"Feature","properties":{"seg_id":"shiraz-1","routes":[{"route_id":"rm15510494","route_name":"Line 2","route_name_local":"خط ۲","route_name_en":"Line 2","route_ref":"2","route_color":"#229954","wikipedia":"fa:خط ۲ متروی شیراز","osm_route_ids":[5744272,15510491],"status":null,"order_suspect":0,"span_suspect":0,"stations":[{"station_id":"n3893392193","station_name":"Ghahramanan"},{"station_id":"n3893392189","station_name":"Shohada-ye Adel Abad"},{"station_id":"n3893392274","station_name":"Dowlat"},{"station_id":"n3893392187","station_name":"Rahmat"},{"station_id":"n11362701839","station_name":"Basij"},{"station_id":"n3893392084","station_name":"Esteqlal"},{"station_id":"n3893392082","station_name":"Emam Hossein"}]}],"route_count":1,"route_refs":["2"],"route_colors":["#229954"],"city":"Shiraz","country":"Iran"},"geometry":{"type":"MultiLineString","coordinates":[[[52.49649755,29.5701422],[52.50636505,29.580362049999998],[52.508164199999996,29.588207150000002],[52.51074215,29.597455500000002],[52.5158273,29.6039128],[52.523762950000005,29.61391495],[52.53196246666667,29.624099400000002]]]}},{"type":"Feature","properties":{"station_id":"n306434173","station_name":"Shahid Doran","station_name_local":"شهید دوران","station_name_en":"Shahid Doran","city":"Shiraz","country":"Iran","lines":["1"],"wikipedia":null,"merged_from":2,"merged_names":null,"is_terminus":false,"routes":[{"ref":"1","name":"Shiraz Metro Line 1","route_color":"#ee3c3c"}],"pass_count":1,"station_degree":2,"codes":null,"is_interchange":false,"station_role":"normal"},"geometry":{"type":"Point","coordinates":[52.5945738,29.558689800000003]},"__memberLines":{}},{"type":"Feature","properties":{"station_id":"n306434174","station_name":"Forsat Shirazi","station_name_local":"فرصت شیرازی","station_name_en":"Forsat Shirazi","city":"Shiraz","country":"Iran","lines":["1"],"wikipedia":null,"merged_from":2,"merged_names":null,"is_terminus":false,"routes":[{"ref":"1","name":"Shiraz Metro Line 1","route_color":"#ee3c3c"}],"pass_count":1,"station_degree":2,"codes":null,"is_interchange":false,"station_role":"normal"},"geometry":{"type":"Point","coordinates":[52.5904283,29.5649466]},"__memberLines":{}},{"type":"Feature","properties":{"station_id":"n306434175","station_name":"Janbazan","station_name_local":"جانبازان","station_name_en":"Janbazan","city":"Shiraz","country":"Iran","lines":["1"],"wikipedia":null,"merged_from":2,"merged_names":null,"is_terminus":false,"routes":[{"ref":"1","name":"Shiraz Metro Line 1","route_color":"#ee3c3c"}],"pass_count":1,"station_degree":2,"codes":null,"is_interchange":false,"station_role":"normal"},"geometry":{"type":"Point","coordinates":[52.585315449999996,29.572325]},"__memberLines":{}},{"type":"Feature","properties":{"station_id":"n306435235","station_name":"Shahid Dastgheib","station_name_local":"شهید دستغیب","station_name_en":"Shahid Dastgheib","city":"Shiraz","country":"Iran","lines":["1"],"wikipedia":null,"merged_from":2,"merged_names":null,"is_terminus":true,"routes":[{"ref":"1","name":"Shiraz Metro Line 1","route_color":"#ee3c3c"}],"pass_count":1,"station_degree":1,"codes":null,"is_interchange":false,"station_role":"terminus"},"geometry":{"type":"Point","coordinates":[52.599160100000006,29.551742400000002]},"__memberLines":{}},{"type":"Feature","properties":{"station_id":"n306435238","station_name":"Ghadir","station_name_local":"غدیر","station_name_en":"Ghadir","city":"Shiraz","country":"Iran","lines":["1"],"wikipedia":null,"merged_from":2,"merged_names":null,"is_terminus":false,"routes":[{"ref":"1","name":"Shiraz Metro Line 1","route_color":"#ee3c3c"}],"pass_count":1,"station_degree":2,"codes":null,"is_interchange":false,"station_role":"normal"},"geometry":{"type":"Point","coordinates":[52.579184999999995,29.5806759]},"__memberLines":{}},{"type":"Feature","properties":{"station_id":"n306435240","station_name":"Fazilat","station_name_local":"فضیلت","station_name_en":"Fazilat","city":"Shiraz","country":"Iran","lines":["1"],"wikipedia":null,"merged_from":2,"merged_names":null,"is_terminus":false,"routes":[{"ref":"1","name":"Shiraz Metro Line 1","route_color":"#ee3c3c"}],"pass_count":1,"station_degree":2,"codes":null,"is_interchange":false,"station_role":"normal"},"geometry":{"type":"Point","coordinates":[52.567865850000004,29.596132349999998]},"__memberLines":{}},{"type":"Feature","properties":{"station_id":"n306435241","station_name":"Shahid Kaveh","station_name_local":"شهید کاوه","station_name_en":"Shahid Kaveh","city":"Shiraz","country":"Iran","lines":["1"],"wikipedia":null,"merged_from":2,"merged_names":null,"is_terminus":false,"routes":[{"ref":"1","name":"Shiraz Metro Line 1","route_color":"#ee3c3c"}],"pass_count":1,"station_degree":2,"codes":null,"is_interchange":false,"station_role":"normal"},"geometry":{"type":"Point","coordinates":[52.5628849,29.6028995]},"__memberLines":{}},{"type":"Feature","properties":{"station_id":"n306435246","station_name":"Valiasr","station_name_local":"ولیعصر","station_name_en":"Valiasr","city":"Shiraz","country":"Iran","lines":["1"],"wikipedia":null,"merged_from":2,"merged_names":null,"is_terminus":false,"routes":[{"ref":"1","name":"Shiraz Metro Line 1","route_color":"#ee3c3c"}],"pass_count":1,"station_degree":2,"codes":null,"is_interchange":false,"station_role":"normal"},"geometry":{"type":"Point","coordinates":[52.558506949999995,29.6082318]},"__memberLines":{}},{"type":"Feature","properties":{"station_id":"n314366213","station_name":"Shahid Motahhari","station_name_local":"شهید مطهری","station_name_en":"Shahid Motahhari","city":"Shiraz","country":"Iran","lines":["1"],"wikipedia":null,"merged_from":2,"merged_names":null,"is_terminus":false,"routes":[{"ref":"1","name":"Shiraz Metro Line 1","route_color":"#ee3c3c"}],"pass_count":1,"station_degree":2,"codes":null,"is_interchange":false,"station_role":"normal"},"geometry":{"type":"Point","coordinates":[52.50275405,29.63743895]},"__memberLines":{}},{"type":"Feature","properties":{"station_id":"n815613519","station_name":"Qasr Dasht","station_name_local":"قصردشت","station_name_en":"Qasr Dasht","city":"Shiraz","country":"Iran","lines":["1"],"wikipedia":null,"merged_from":2,"merged_names":null,"is_terminus":false,"routes":[{"ref":"1","name":"Shiraz Metro Line 1","route_color":"#ee3c3c"}],"pass_count":1,"station_degree":2,"codes":null,"is_interchange":false,"station_role":"normal"},"geometry":{"type":"Point","coordinates":[52.485433,29.655234450000002]},"__memberLines":{}},{"type":"Feature","properties":{"station_id":"n815622239","station_name":"Shahed","station_name_local":"شاهد","station_name_en":"Shahed","city":"Shiraz","country":"Iran","lines":["1"],"wikipedia":null,"merged_from":2,"merged_names":null,"is_terminus":false,"routes":[{"ref":"1","name":"Shiraz Metro Line 1","route_color":"#ee3c3c"}],"pass_count":1,"station_degree":2,"codes":null,"is_interchange":false,"station_role":"normal"},"geometry":{"type":"Point","coordinates":[52.48651535,29.6662462]},"__memberLines":{}},{"type":"Feature","properties":{"station_id":"n815622271","station_name":"Mirza-ye Shirazi","station_name_local":"میرزای شیرازی","station_name_en":"Mirza-ye Shirazi","city":"Shiraz","country":"Iran","lines":["1"],"wikipedia":null,"merged_from":2,"merged_names":null,"is_terminus":false,"routes":[{"ref":"1","name":"Shiraz Metro Line 1","route_color":"#ee3c3c"}],"pass_count":1,"station_degree":2,"codes":null,"is_interchange":false,"station_role":"normal"},"geometry":{"type":"Point","coordinates":[52.4737171,29.6865883]},"__memberLines":{}},{"type":"Feature","properties":{"station_id":"n815622276","station_name":"Doctor Shari'ati","station_name_local":"دکتر شریعتی","station_name_en":"Doctor Shari'ati","city":"Shiraz","country":"Iran","lines":["1"],"wikipedia":null,"merged_from":2,"merged_names":null,"is_terminus":false,"routes":[{"ref":"1","name":"Shiraz Metro Line 1","route_color":"#ee3c3c"}],"pass_count":1,"station_degree":2,"codes":null,"is_interchange":false,"station_role":"normal"},"geometry":{"type":"Point","coordinates":[52.465034849999995,29.6827149]},"__memberLines":{}},{"type":"Feature","properties":{"station_id":"n815622281","station_name":"Ehsan","station_name_local":"احسان","station_name_en":"Ehsan","city":"Shiraz","country":"Iran","lines":["1"],"wikipedia":null,"merged_from":2,"merged_names":null,"is_terminus":true,"routes":[{"ref":"1","name":"Shiraz Metro Line 1","route_color":"#ee3c3c"}],"pass_count":1,"station_degree":1,"codes":null,"is_interchange":false,"station_role":"terminus"},"geometry":{"type":"Point","coordinates":[52.4546598,29.6782553]},"__memberLines":{}},{"type":"Feature","properties":{"station_id":"n3890672464","station_name":"Vakil-Al-Roaya","station_name_local":"وکیل الرعایا","station_name_en":"Vakil-Al-Roaya","city":"Shiraz","country":"Iran","lines":["1"],"wikipedia":null,"merged_from":2,"merged_names":null,"is_terminus":false,"routes":[{"ref":"1","name":"Shiraz Metro Line 1","route_color":"#ee3c3c"}],"pass_count":1,"station_degree":2,"codes":null,"is_interchange":false,"station_role":"normal"},"geometry":{"type":"Point","coordinates":[52.5517745,29.6124093]},"__memberLines":{}},{"type":"Feature","properties":{"station_id":"n3890672475","station_name":"Namazi","station_name_local":"نمازی","station_name_en":"Namazi","city":"Shiraz","country":"Iran","lines":["1"],"wikipedia":null,"merged_from":2,"merged_names":null,"is_terminus":false,"routes":[{"ref":"1","name":"Shiraz Metro Line 1","route_color":"#ee3c3c"}],"pass_count":1,"station_degree":2,"codes":null,"is_interchange":false,"station_role":"normal"},"geometry":{"type":"Point","coordinates":[52.51982165,29.63141495]},"__memberLines":{}},{"type":"Feature","properties":{"station_id":"n3890683367","station_name":"Zandiyeh","station_name_local":"زندیه","station_name_en":"Zandiyeh","city":"Shiraz","country":"Iran","lines":["1"],"wikipedia":null,"merged_from":2,"merged_names":null,"is_terminus":false,"routes":[{"ref":"1","name":"Shiraz Metro Line 1","route_color":"#ee3c3c"}],"pass_count":1,"station_degree":2,"codes":null,"is_interchange":false,"station_role":"normal"},"geometry":{"type":"Point","coordinates":[52.5406706,29.6189113]},"__memberLines":{}},{"type":"Feature","properties":{"station_id":"n3893392082","station_name":"Emam Hossein","station_name_local":"امام حسین","station_name_en":"Emam Hossein","city":"Shiraz","country":"Iran","lines":["1","2"],"wikipedia":null,"merged_from":3,"merged_names":null,"is_terminus":false,"routes":[{"ref":"1","name":"Shiraz Metro Line 1","route_color":"#ee3c3c"},{"ref":"2","name":"Line 2","route_color":"#229954"}],"pass_count":2,"station_degree":3,"codes":null,"is_interchange":true,"station_role":"interchange"},"geometry":{"type":"Point","coordinates":[52.53196246666667,29.624099400000002]},"__memberLines":{}},{"type":"Feature","properties":{"station_id":"n3893392084","station_name":"Esteqlal","station_name_local":"استقلال","station_name_en":"Esteqlal","city":"Shiraz","country":"Iran","lines":["2"],"wikipedia":null,"merged_from":2,"merged_names":null,"is_terminus":false,"routes":[{"ref":"2","name":"Line 2","route_color":"#229954"}],"pass_count":1,"station_degree":2,"codes":null,"is_interchange":false,"station_role":"normal"},"geometry":{"type":"Point","coordinates":[52.523762950000005,29.61391495]},"__memberLines":{}},{"type":"Feature","properties":{"station_id":"n3893392187","station_name":"Rahmat","station_name_local":"رحمت","station_name_en":"Rahmat","city":"Shiraz","country":"Iran","lines":["2"],"wikipedia":null,"merged_from":2,"merged_names":null,"is_terminus":false,"routes":[{"ref":"2","name":"Line 2","route_color":"#229954"}],"pass_count":1,"station_degree":2,"codes":null,"is_interchange":false,"station_role":"normal"},"geometry":{"type":"Point","coordinates":[52.51074215,29.597455500000002]},"__memberLines":{}},{"type":"Feature","properties":{"station_id":"n3893392189","station_name":"Shohada-ye Adel Abad","station_name_local":"شهدای عادل آباد","station_name_en":"Shohada-ye Adel Abad","city":"Shiraz","country":"Iran","lines":["2"],"wikipedia":null,"merged_from":2,"merged_names":null,"is_terminus":false,"routes":[{"ref":"2","name":"Line 2","route_color":"#229954"}],"pass_count":1,"station_degree":2,"codes":null,"is_interchange":false,"station_role":"normal"},"geometry":{"type":"Point","coordinates":[52.50636505,29.580362049999998]},"__memberLines":{}},{"type":"Feature","properties":{"station_id":"n3893392193","station_name":"Ghahramanan","station_name_local":"قهرمانان","station_name_en":"Ghahramanan","city":"Shiraz","country":"Iran","lines":["2"],"wikipedia":null,"merged_from":2,"merged_names":null,"is_terminus":true,"routes":[{"ref":"2","name":"Line 2","route_color":"#229954"}],"pass_count":1,"station_degree":1,"codes":null,"is_interchange":false,"station_role":"terminus"},"geometry":{"type":"Point","coordinates":[52.49649755,29.5701422]},"__memberLines":{}},{"type":"Feature","properties":{"station_id":"n3893392274","station_name":"Dowlat","station_name_local":"دولت","station_name_en":"Dowlat","city":"Shiraz","country":"Iran","lines":["2"],"wikipedia":null,"merged_from":2,"merged_names":null,"is_terminus":false,"routes":[{"ref":"2","name":"Line 2","route_color":"#229954"}],"pass_count":1,"station_degree":2,"codes":null,"is_interchange":false,"station_role":"normal"},"geometry":{"type":"Point","coordinates":[52.508164199999996,29.588207150000002]},"__memberLines":{}},{"type":"Feature","properties":{"station_id":"n5014863146","station_name":"Shahid Avini","station_name_local":"شهید آوینی","station_name_en":"Shahid Avini","city":"Shiraz","country":"Iran","lines":["1"],"wikipedia":null,"merged_from":2,"merged_names":null,"is_terminus":false,"routes":[{"ref":"1","name":"Shiraz Metro Line 1","route_color":"#ee3c3c"}],"pass_count":1,"station_degree":2,"codes":null,"is_interchange":false,"station_role":"normal"},"geometry":{"type":"Point","coordinates":[52.51228365,29.63180335]},"__memberLines":{}},{"type":"Feature","properties":{"station_id":"n5936862196","station_name":"Razi","station_name_local":"رازی","station_name_en":"Razi","city":"Shiraz","country":"Iran","lines":["1"],"wikipedia":null,"merged_from":2,"merged_names":null,"is_terminus":false,"routes":[{"ref":"1","name":"Shiraz Metro Line 1","route_color":"#ee3c3c"}],"pass_count":1,"station_degree":2,"codes":null,"is_interchange":false,"station_role":"normal"},"geometry":{"type":"Point","coordinates":[52.57421085,29.587457450000002]},"__memberLines":{}},{"type":"Feature","properties":{"station_id":"n11362701839","station_name":"Basij","station_name_local":"بسیج","station_name_en":"Basij","city":"Shiraz","country":"Iran","lines":["2"],"wikipedia":"fa:ایستگاه متروی بسیج (شیراز)","is_terminus":false,"routes":[{"ref":"2","name":"Line 2","route_color":"#229954"}],"pass_count":1,"station_degree":2,"codes":null,"merged_from":null,"merged_names":null,"is_interchange":false,"station_role":"normal"},"geometry":{"type":"Point","coordinates":[52.5158273,29.6039128]}}]}