{"type":"FeatureCollection","metro_system":{"continent":"oceania","country":"Australia","city":"Newcastle","official_website":null,"official_map":"https://en.wikipedia.org/wiki/Newcastle_Light_Rail","wikipedia":"en:Newcastle Light Rail","line_count":1,"segment_count":1,"station_count":6,"modes":["tram"],"audit":{"strategies_tried":[],"passed":true,"checks":[{"id":"has_lines","ok":true,"detail":"1 lines","level":"error"},{"id":"has_stations","ok":true,"detail":"6 stations","level":"error"},{"id":"stations_have_lines","ok":true,"detail":"6/6 站皆有所屬路線","level":"error"},{"id":"line_geometry_stations","ok":true,"detail":"6 個折點/端點皆為車站","level":"error"},{"id":"route_stations_match_geometry","ok":true,"detail":"各線車站列表與圖面一致","level":"error"},{"id":"interchange_rule","ok":true,"detail":"所有車站紅/藍點符合骨架＋路線色規則（藍＝端點、紅＝交叉）","level":"error"},{"id":"stations_named","ok":true,"detail":"6/6 站皆有名稱","level":"error"},{"id":"station_order","ok":true,"detail":"所有線路站序合理","level":"warn"},{"id":"line_wiki_stations","ok":true,"detail":"各線站數與 wiki 線路條目相符（營運中站數）","level":"error"},{"id":"line_wiki_coverage","ok":false,"detail":"1 條線無 wiki 站數對照：Newcastle Light Rail","level":"warn"}],"reasons":[],"warnings":["1 條線無 wiki 站數對照：Newcastle Light Rail"],"audited_at":"2026-07-27T02:39:34.743Z"}},"features":[{"type":"Feature","properties":{"seg_id":"newcastle-0","routes":[{"route_id":"rm9678765","route_name":"Newcastle Light Rail","route_name_local":"Newcastle Light Rail","route_name_en":null,"route_ref":"NLR","route_color":"#ee343f","wikipedia":"en:Newcastle Light Rail","osm_route_ids":[9391002,9391003],"status":null,"order_suspect":0,"span_suspect":0,"stations":[{"station_id":"n6539540686","station_name":"Newcastle Beach"},{"station_id":"n6539540687","station_name":"Queens Wharf"},{"station_id":"n6539540688","station_name":"Crown Street"},{"station_id":"n6131757199","station_name":"Civic Light Rail"},{"station_id":"n5094852701","station_name":"Honeysuckle Light Rail"},{"station_id":"n6131757210","station_name":"Newcastle Interchange Light Rail"}]}],"route_count":1,"route_refs":["NLR"],"route_colors":["#ee343f"],"city":"Newcastle","country":"Australia"},"geometry":{"type":"MultiLineString","coordinates":[[[151.7863526,-32.92749310000001],[151.78158826666666,-32.926350299999996],[151.77720886666668,-32.92640226666667],[151.77186316666666,-32.927002333333334],[151.76581703333332,-32.926471033333335],[151.7593182,-32.9242741]]]}},{"type":"Feature","properties":{"station_id":"n5094852701","station_name":"Honeysuckle Light Rail","station_name_local":"Honeysuckle Light Rail","station_name_en":null,"city":"Newcastle","country":"Australia","lines":["NLR"],"wikipedia":null,"merged_from":3,"merged_names":null,"is_terminus":false,"codes":["2300107","2300108"],"routes":[{"ref":"NLR","name":"Newcastle Light Rail","route_color":"#ee343f"}],"pass_count":1,"station_degree":2,"is_interchange":false,"station_role":"normal"},"geometry":{"type":"Point","coordinates":[151.76581703333332,-32.926471033333335]},"__memberLines":{}},{"type":"Feature","properties":{"station_id":"n6131757199","station_name":"Civic Light Rail","station_name_local":"Civic Light Rail","station_name_en":null,"city":"Newcastle","country":"Australia","lines":["NLR"],"wikipedia":null,"merged_from":3,"merged_names":null,"is_terminus":false,"codes":["2300123","2300124"],"routes":[{"ref":"NLR","name":"Newcastle Light Rail","route_color":"#ee343f"}],"pass_count":1,"station_degree":2,"is_interchange":false,"station_role":"normal"},"geometry":{"type":"Point","coordinates":[151.77186316666666,-32.927002333333334]},"__memberLines":{}},{"type":"Feature","properties":{"station_id":"n6539540688","station_name":"Crown Street","station_name_local":"Crown Street","station_name_en":null,"city":"Newcastle","country":"Australia","lines":["NLR"],"wikipedia":null,"merged_from":3,"merged_names":null,"is_terminus":false,"codes":["2300125","2300126"],"routes":[{"ref":"NLR","name":"Newcastle Light Rail","route_color":"#ee343f"}],"pass_count":1,"station_degree":2,"is_interchange":false,"station_role":"normal"},"geometry":{"type":"Point","coordinates":[151.77720886666668,-32.92640226666667]},"__memberLines":{}},{"type":"Feature","properties":{"station_id":"n6539540687","station_name":"Queens Wharf","station_name_local":"Queens Wharf","station_name_en":null,"city":"Newcastle","country":"Australia","lines":["NLR"],"wikipedia":null,"merged_from":3,"merged_names":null,"is_terminus":false,"codes":["2300127","2300128"],"routes":[{"ref":"NLR","name":"Newcastle Light Rail","route_color":"#ee343f"}],"pass_count":1,"station_degree":2,"is_interchange":false,"station_role":"normal"},"geometry":{"type":"Point","coordinates":[151.78158826666666,-32.926350299999996]},"__memberLines":{}},{"type":"Feature","properties":{"station_id":"n6539540686","station_name":"Newcastle Beach","station_name_local":"Newcastle Beach","station_name_en":null,"city":"Newcastle","country":"Australia","lines":["NLR"],"wikipedia":null,"merged_from":2,"merged_names":null,"is_terminus":true,"codes":["2300129"],"routes":[{"ref":"NLR","name":"Newcastle Light Rail","route_color":"#ee343f"}],"pass_count":1,"station_degree":1,"is_interchange":false,"station_role":"terminus"},"geometry":{"type":"Point","coordinates":[151.7863526,-32.92749310000001]},"__memberLines":{}},{"type":"Feature","properties":{"station_id":"n6131757210","station_name":"Newcastle Interchange Light Rail","station_name_local":"Newcastle Interchange Light Rail","station_name_en":null,"city":"Newcastle","country":"Australia","lines":["NLR"],"wikipedia":null,"is_terminus":true,"codes":["229315"],"routes":[{"ref":"NLR","name":"Newcastle Light Rail","route_color":"#ee343f"}],"pass_count":1,"station_degree":1,"merged_from":null,"merged_names":null,"is_interchange":false,"station_role":"terminus"},"geometry":{"type":"Point","coordinates":[151.7593182,-32.9242741]},"__memberLines":{}}]}