{"type":"FeatureCollection","metro_system":{"continent":"asia","country":"Japan","city":"Fukuoka","official_website":null,"official_map":"https://en.wikipedia.org/wiki/Fukuoka_City_Subway","wikipedia":"en:Fukuoka City Subway","wiki":true,"wikipedia_zh":"zh:福岡市地下鐵","line_count":3,"segment_count":3,"station_count":36,"modes":["metro"],"audit":{"strategies_tried":[],"passed":true,"checks":[{"id":"system_exists","ok":true,"detail":"matched OSM system metro-maps/asia/japan/as-jpn-fukuoka/as-jpn-fukuoka.geojson","level":"error"},{"id":"has_lines","ok":true,"detail":"3 lines","level":"error"},{"id":"has_stations","ok":true,"detail":"36 stations","level":"error"},{"id":"station_count_info","ok":true,"detail":"OSM 36 站（wiki List 記 36，計法含轉乘重複，僅參考）","level":"warn"},{"id":"stations_have_lines","ok":true,"detail":"36/36 站皆有所屬路線","level":"error"},{"id":"line_geometry_stations","ok":true,"detail":"38 個折點/端點皆為車站","level":"error"},{"id":"route_stations_match_geometry","ok":true,"detail":"各線車站列表與圖面一致","level":"error"},{"id":"interchange_rule","ok":true,"detail":"所有車站紅/藍點符合骨架＋路線色規則（藍＝端點、紅＝交叉）","level":"error"},{"id":"stations_named","ok":true,"detail":"36/36 站皆有名稱","level":"error"},{"id":"station_order","ok":true,"detail":"所有線路站序合理","level":"warn"},{"id":"line_wiki_stations","ok":true,"detail":"各線站數與 wiki 線路條目相符（營運中站數）","level":"error"},{"id":"line_wiki_coverage","ok":false,"detail":"2 條線無 wiki 站數對照：福岡市地下鉄空港線、福岡市地下鉄箱崎線","level":"warn"}],"reasons":[],"warnings":["2 條線無 wiki 站數對照：福岡市地下鉄空港線、福岡市地下鉄箱崎線"],"audited_at":"2026-07-27T02:38:22.626Z"}},"features":[{"type":"Feature","properties":{"seg_id":"fukuoka-0","routes":[{"route_id":"rm7734239","route_name":"福岡市地下鉄七隈線","route_name_local":"福岡市地下鉄七隈線","route_name_en":"Fukuoka City Subway Nanakuma Line","route_ref":"N","route_color":"#008000","wikipedia":"en:Nanakuma Line","osm_route_ids":[1871203,7734238],"status":null,"order_suspect":0,"span_suspect":0,"stations":[{"station_id":"n3002091447","station_name":"橋本","code":"N01"},{"station_id":"n3002090751","station_name":"次郎丸","code":"N02"},{"station_id":"n3334304848","station_name":"賀茂","code":"N03"},{"station_id":"n3334304851","station_name":"野芥","code":"N04"},{"station_id":"n3334304854","station_name":"梅林","code":"N05"},{"station_id":"n3334304847","station_name":"福大前","code":"N06"},{"station_id":"n3334304850","station_name":"七隈","code":"N07"},{"station_id":"n3334304849","station_name":"金山","code":"N08"},{"station_id":"n3334304846","station_name":"茶山","code":"N09"},{"station_id":"n3334304845","station_name":"別府","code":"N10"},{"station_id":"n3334304852","station_name":"六本松","code":"N11"},{"station_id":"n3334304853","station_name":"桜坂","code":"N12"},{"station_id":"n3334304856","station_name":"薬院大通","code":"N13"},{"station_id":"n495499693","station_name":"薬院","code":"N14"},{"station_id":"n3334304855","station_name":"渡辺通","code":"N15"},{"station_id":"n2560973018","station_name":"天神南","code":"N16"},{"station_id":"n10765652073","station_name":"櫛田神社前","code":"N17"},{"station_id":"n473575925","station_name":"博多","code":"N18"}]}],"route_count":1,"route_refs":["N"],"route_colors":["#008000"],"city":"Fukuoka","country":"Japan"},"geometry":{"type":"MultiLineString","coordinates":[[[130.32107603333336,33.55511153333334],[130.33000143333334,33.55248756666666],[130.33784206666667,33.55051546666667],[130.34651616666667,33.548323399999994],[130.35516446666668,33.545792299999995],[130.36235703333332,33.54731923333333],[130.36170953333334,33.55291326666667],[130.36175653333333,33.55966763333333],[130.36550806666665,33.566274766666666],[130.3695728,33.57412023333333],[130.37708676666668,33.57742913333333],[130.3868685,33.57727153333333],[130.3967767,33.58054513333334],[130.40182183333332,33.58170343333333],[130.4051509,33.583888],[130.4024618,33.58860343333333],[130.41155353333332,33.591322033333334],[130.41957138,33.58988282]]]}},{"type":"Feature","properties":{"seg_id":"fukuoka-1","routes":[{"route_id":"rm7703353","route_name":"福岡市地下鉄空港線","route_name_local":"福岡市地下鉄空港線","route_name_en":"Fukuoka City Subway Kūkō Line","route_ref":"K","route_color":"#ff4500","wikipedia":"en:Kūkō Line","osm_route_ids":[1871204,7703341],"status":null,"order_suspect":0,"span_suspect":0,"stations":[{"station_id":"n2206922913","station_name":"姪浜","code":"K01"},{"station_id":"n252530468","station_name":"室見","code":"K02"},{"station_id":"n252530467","station_name":"藤崎","code":"K03"},{"station_id":"n2580372380","station_name":"西新","code":"K04"},{"station_id":"n3332825599","station_name":"唐人町","code":"K05"},{"station_id":"n3332825684","station_name":"大濠公園","code":"K06"},{"station_id":"n526994811","station_name":"赤坂","code":"K07"},{"station_id":"n526990152","station_name":"天神","code":"K08"},{"station_id":"n252530449","station_name":"中洲川端","code":"K09"},{"station_id":"n3332825597","station_name":"祇園","code":"K10"},{"station_id":"n473575925","station_name":"博多","code":"K11"},{"station_id":"n3332825598","station_name":"東比恵","code":"K12"},{"station_id":"n2560954531","station_name":"福岡空港","code":"K13"}]}],"route_count":1,"route_refs":["K"],"route_colors":["#ff4500"],"city":"Fukuoka","country":"Japan"},"geometry":{"type":"MultiLineString","coordinates":[[[130.44818186666666,33.597321766666674],[130.43129253333333,33.58982976666667],[130.41957138,33.58988282],[130.41435253333333,33.594305766666665],[130.40644514,33.59472182],[130.39862776666666,33.59126456666667],[130.39036366666667,33.58907853333333],[130.3787599,33.59010433333333],[130.37024196666664,33.59022013333333],[130.35945853333334,33.583734],[130.34833496666667,33.581360233333335],[130.34003133333334,33.580912966666666],[130.32447566666667,33.5837393]]]}},{"type":"Feature","properties":{"seg_id":"fukuoka-2","routes":[{"route_id":"rm7702769","route_name":"福岡市地下鉄箱崎線","route_name_local":"福岡市地下鉄箱崎線","route_name_en":"Fukuoka City Subway Hakozaki Line","route_ref":"H","route_color":"#0077cc","wikipedia":"en:Hakozaki Line","osm_route_ids":[1871205,7702762],"status":null,"order_suspect":0,"span_suspect":0,"stations":[{"station_id":"n252530449","station_name":"中洲川端","code":"H01"},{"station_id":"n2872661240","station_name":"呉服町","code":"H02"},{"station_id":"n2662859009","station_name":"千代県庁口","code":"H03"},{"station_id":"n252530561","station_name":"馬出九大病院前","code":"H04"},{"station_id":"n1894363939","station_name":"箱崎宮前","code":"H05"},{"station_id":"n3085866863","station_name":"箱崎九大前","code":"H06"},{"station_id":"n267598864","station_name":"貝塚","code":"H07"}]}],"route_count":1,"route_refs":["H"],"route_colors":["#0077cc"],"city":"Fukuoka","country":"Japan"},"geometry":{"type":"MultiLineString","coordinates":[[[130.40644514,33.59472182],[130.40972243333334,33.59796433333333],[130.41408143333334,33.60223453333333],[130.41986336666665,33.60992163333333],[130.4198581,33.61518976666667],[130.42144423333335,33.62264133333333],[130.42559763333335,33.6320528]]]}},{"type":"Feature","properties":{"station_id":"n252530449","station_name":"中洲川端","station_name_local":"中洲川端","station_name_en":"Nakasu-Kawabata","city":"Fukuoka","country":"Japan","lines":["H","K"],"wikipedia":null,"merged_from":5,"merged_names":null,"is_terminus":false,"codes":["H01","K09"],"routes":[{"ref":"H","name":"福岡市地下鉄箱崎線","route_color":"#0077cc"},{"ref":"K","name":"福岡市地下鉄空港線","route_color":"#ff4500"}],"pass_count":2,"station_degree":3,"is_interchange":true,"station_role":"interchange"},"geometry":{"type":"Point","coordinates":[130.40644514,33.59472182]},"__memberLines":{}},{"type":"Feature","properties":{"station_id":"n252530467","station_name":"藤崎","station_name_local":"藤崎","station_name_en":"Fujisaki","city":"Fukuoka","country":"Japan","lines":["K"],"wikipedia":null,"merged_from":3,"merged_names":null,"is_terminus":false,"codes":["K03"],"routes":[{"ref":"K","name":"福岡市地下鉄空港線","route_color":"#ff4500"}],"pass_count":1,"station_degree":2,"is_interchange":false,"station_role":"normal"},"geometry":{"type":"Point","coordinates":[130.34833496666667,33.581360233333335]},"__memberLines":{}},{"type":"Feature","properties":{"station_id":"n252530468","station_name":"室見","station_name_local":"室見","station_name_en":"Muromi","city":"Fukuoka","country":"Japan","lines":["K"],"wikipedia":null,"merged_from":3,"merged_names":null,"is_terminus":false,"codes":["K02"],"routes":[{"ref":"K","name":"福岡市地下鉄空港線","route_color":"#ff4500"}],"pass_count":1,"station_degree":2,"is_interchange":false,"station_role":"normal"},"geometry":{"type":"Point","coordinates":[130.34003133333334,33.580912966666666]},"__memberLines":{}},{"type":"Feature","properties":{"station_id":"n252530561","station_name":"馬出九大病院前","station_name_local":"馬出九大病院前","station_name_en":"Maidashi-Kyūdai-byōin-mae","city":"Fukuoka","country":"Japan","lines":["H"],"wikipedia":null,"merged_from":3,"merged_names":null,"is_terminus":false,"codes":["H04"],"routes":[{"ref":"H","name":"福岡市地下鉄箱崎線","route_color":"#0077cc"}],"pass_count":1,"station_degree":2,"is_interchange":false,"station_role":"normal"},"geometry":{"type":"Point","coordinates":[130.41986336666665,33.60992163333333]},"__memberLines":{}},{"type":"Feature","properties":{"station_id":"n267598864","station_name":"貝塚","station_name_local":"貝塚","station_name_en":"Kaizuka","city":"Fukuoka","country":"Japan","lines":["H"],"wikipedia":"ja:貝塚駅 (福岡県)","merged_from":3,"merged_names":null,"is_terminus":true,"codes":["H07","NK01"],"routes":[{"ref":"H","name":"福岡市地下鉄箱崎線","route_color":"#0077cc"}],"pass_count":1,"station_degree":1,"is_interchange":false,"station_role":"terminus"},"geometry":{"type":"Point","coordinates":[130.42559763333335,33.6320528]},"__memberLines":{}},{"type":"Feature","properties":{"station_id":"n473575925","station_name":"博多","station_name_local":"博多","station_name_en":"Hakata","city":"Fukuoka","country":"Japan","lines":["K","N"],"wikipedia":null,"merged_from":5,"merged_names":null,"is_terminus":false,"codes":["K11","N18"],"routes":[{"ref":"K","name":"福岡市地下鉄空港線","route_color":"#ff4500"},{"ref":"N","name":"福岡市地下鉄七隈線","route_color":"#008000"}],"pass_count":2,"station_degree":3,"is_interchange":true,"station_role":"interchange"},"geometry":{"type":"Point","coordinates":[130.41957138,33.58988282]},"__memberLines":{}},{"type":"Feature","properties":{"station_id":"n495499693","station_name":"薬院","station_name_local":"薬院","station_name_en":"Yakuin","city":"Fukuoka","country":"Japan","lines":["N"],"wikipedia":null,"merged_from":3,"merged_names":null,"is_terminus":false,"codes":["N14"],"routes":[{"ref":"N","name":"福岡市地下鉄七隈線","route_color":"#008000"}],"pass_count":1,"station_degree":2,"is_interchange":false,"station_role":"normal"},"geometry":{"type":"Point","coordinates":[130.40182183333332,33.58170343333333]},"__memberLines":{}},{"type":"Feature","properties":{"station_id":"n526990152","station_name":"天神","station_name_local":"天神","station_name_en":"Tenjin","city":"Fukuoka","country":"Japan","lines":["K"],"wikipedia":null,"merged_from":3,"merged_names":null,"is_terminus":false,"codes":["K08"],"routes":[{"ref":"K","name":"福岡市地下鉄空港線","route_color":"#ff4500"}],"pass_count":1,"station_degree":2,"is_interchange":false,"station_role":"normal"},"geometry":{"type":"Point","coordinates":[130.39862776666666,33.59126456666667]},"__memberLines":{}},{"type":"Feature","properties":{"station_id":"n526994811","station_name":"赤坂","station_name_local":"赤坂","station_name_en":"Akasaka","city":"Fukuoka","country":"Japan","lines":["K"],"wikipedia":null,"merged_from":3,"merged_names":null,"is_terminus":false,"codes":["K07"],"routes":[{"ref":"K","name":"福岡市地下鉄空港線","route_color":"#ff4500"}],"pass_count":1,"station_degree":2,"is_interchange":false,"station_role":"normal"},"geometry":{"type":"Point","coordinates":[130.39036366666667,33.58907853333333]},"__memberLines":{}},{"type":"Feature","properties":{"station_id":"n1894363939","station_name":"箱崎宮前","station_name_local":"箱崎宮前","station_name_en":"Hakozaki-Miyamae","city":"Fukuoka","country":"Japan","lines":["H"],"wikipedia":null,"merged_from":3,"merged_names":null,"is_terminus":false,"codes":["H05"],"routes":[{"ref":"H","name":"福岡市地下鉄箱崎線","route_color":"#0077cc"}],"pass_count":1,"station_degree":2,"is_interchange":false,"station_role":"normal"},"geometry":{"type":"Point","coordinates":[130.4198581,33.61518976666667]},"__memberLines":{}},{"type":"Feature","properties":{"station_id":"n2206922913","station_name":"姪浜","station_name_local":"姪浜","station_name_en":"Meinohama","city":"Fukuoka","country":"Japan","lines":["K"],"wikipedia":null,"merged_from":3,"merged_names":null,"is_terminus":true,"codes":["K01"],"routes":[{"ref":"K","name":"福岡市地下鉄空港線","route_color":"#ff4500"}],"pass_count":1,"station_degree":1,"is_interchange":false,"station_role":"terminus"},"geometry":{"type":"Point","coordinates":[130.32447566666667,33.5837393]},"__memberLines":{}},{"type":"Feature","properties":{"station_id":"n2560954531","station_name":"福岡空港","station_name_local":"福岡空港","station_name_en":"Fukuokakūkō (Airport)","city":"Fukuoka","country":"Japan","lines":["K"],"wikipedia":null,"merged_from":3,"merged_names":null,"is_terminus":true,"codes":["K13"],"routes":[{"ref":"K","name":"福岡市地下鉄空港線","route_color":"#ff4500"}],"pass_count":1,"station_degree":1,"is_interchange":false,"station_role":"terminus"},"geometry":{"type":"Point","coordinates":[130.44818186666666,33.597321766666674]},"__memberLines":{}},{"type":"Feature","properties":{"station_id":"n2560973018","station_name":"天神南","station_name_local":"天神南","station_name_en":"Tenjin-Minami","city":"Fukuoka","country":"Japan","lines":["N"],"wikipedia":"ja:天神南駅","merged_from":3,"merged_names":null,"is_terminus":false,"codes":["N16"],"routes":[{"ref":"N","name":"福岡市地下鉄七隈線","route_color":"#008000"}],"pass_count":1,"station_degree":2,"is_interchange":false,"station_role":"normal"},"geometry":{"type":"Point","coordinates":[130.4024618,33.58860343333333]},"__memberLines":{}},{"type":"Feature","properties":{"station_id":"n2580372380","station_name":"西新","station_name_local":"西新","station_name_en":"Nishijin","city":"Fukuoka","country":"Japan","lines":["K"],"wikipedia":null,"merged_from":3,"merged_names":null,"is_terminus":false,"codes":["K04"],"routes":[{"ref":"K","name":"福岡市地下鉄空港線","route_color":"#ff4500"}],"pass_count":1,"station_degree":2,"is_interchange":false,"station_role":"normal"},"geometry":{"type":"Point","coordinates":[130.35945853333334,33.583734]},"__memberLines":{}},{"type":"Feature","properties":{"station_id":"n2662859009","station_name":"千代県庁口","station_name_local":"千代県庁口","station_name_en":"Chiyo-Kenchōguchi","city":"Fukuoka","country":"Japan","lines":["H"],"wikipedia":null,"merged_from":3,"merged_names":null,"is_terminus":false,"codes":["H03"],"routes":[{"ref":"H","name":"福岡市地下鉄箱崎線","route_color":"#0077cc"}],"pass_count":1,"station_degree":2,"is_interchange":false,"station_role":"normal"},"geometry":{"type":"Point","coordinates":[130.41408143333334,33.60223453333333]},"__memberLines":{}},{"type":"Feature","properties":{"station_id":"n2872661240","station_name":"呉服町","station_name_local":"呉服町","station_name_en":"Gofukumachi","city":"Fukuoka","country":"Japan","lines":["H"],"wikipedia":null,"merged_from":3,"merged_names":null,"is_terminus":false,"codes":["H02"],"routes":[{"ref":"H","name":"福岡市地下鉄箱崎線","route_color":"#0077cc"}],"pass_count":1,"station_degree":2,"is_interchange":false,"station_role":"normal"},"geometry":{"type":"Point","coordinates":[130.40972243333334,33.59796433333333]},"__memberLines":{}},{"type":"Feature","properties":{"station_id":"n3002090751","station_name":"次郎丸","station_name_local":"次郎丸","station_name_en":"Jirōmaru","city":"Fukuoka","country":"Japan","lines":["N"],"wikipedia":"ja:次郎丸駅","merged_from":3,"merged_names":null,"is_terminus":false,"codes":["N02"],"routes":[{"ref":"N","name":"福岡市地下鉄七隈線","route_color":"#008000"}],"pass_count":1,"station_degree":2,"is_interchange":false,"station_role":"normal"},"geometry":{"type":"Point","coordinates":[130.33000143333334,33.55248756666666]},"__memberLines":{}},{"type":"Feature","properties":{"station_id":"n3002091447","station_name":"橋本","station_name_local":"橋本","station_name_en":"Hashimoto","city":"Fukuoka","country":"Japan","lines":["N"],"wikipedia":"ja:橋本駅 (福岡県)","merged_from":3,"merged_names":null,"is_terminus":true,"codes":["N01"],"routes":[{"ref":"N","name":"福岡市地下鉄七隈線","route_color":"#008000"}],"pass_count":1,"station_degree":1,"is_interchange":false,"station_role":"terminus"},"geometry":{"type":"Point","coordinates":[130.32107603333336,33.55511153333334]},"__memberLines":{}},{"type":"Feature","properties":{"station_id":"n3085866863","station_name":"箱崎九大前","station_name_local":"箱崎九大前","station_name_en":"Hakozaki-Kyūdai-mae","city":"Fukuoka","country":"Japan","lines":["H"],"wikipedia":null,"merged_from":3,"merged_names":null,"is_terminus":false,"codes":["H06"],"routes":[{"ref":"H","name":"福岡市地下鉄箱崎線","route_color":"#0077cc"}],"pass_count":1,"station_degree":2,"is_interchange":false,"station_role":"normal"},"geometry":{"type":"Point","coordinates":[130.42144423333335,33.62264133333333]},"__memberLines":{}},{"type":"Feature","properties":{"station_id":"n3332825597","station_name":"祇園","station_name_local":"祇園","station_name_en":"Gion","city":"Fukuoka","country":"Japan","lines":["K"],"wikipedia":null,"merged_from":3,"merged_names":null,"is_terminus":false,"codes":["K10"],"routes":[{"ref":"K","name":"福岡市地下鉄空港線","route_color":"#ff4500"}],"pass_count":1,"station_degree":2,"is_interchange":false,"station_role":"normal"},"geometry":{"type":"Point","coordinates":[130.41435253333333,33.594305766666665]},"__memberLines":{}},{"type":"Feature","properties":{"station_id":"n3332825598","station_name":"東比恵","station_name_local":"東比恵","station_name_en":"Higashi-Hie","city":"Fukuoka","country":"Japan","lines":["K"],"wikipedia":null,"merged_from":3,"merged_names":null,"is_terminus":false,"codes":["K12"],"routes":[{"ref":"K","name":"福岡市地下鉄空港線","route_color":"#ff4500"}],"pass_count":1,"station_degree":2,"is_interchange":false,"station_role":"normal"},"geometry":{"type":"Point","coordinates":[130.43129253333333,33.58982976666667]},"__memberLines":{}},{"type":"Feature","properties":{"station_id":"n3332825599","station_name":"唐人町","station_name_local":"唐人町","station_name_en":"Tōjinmachi","city":"Fukuoka","country":"Japan","lines":["K"],"wikipedia":null,"merged_from":3,"merged_names":null,"is_terminus":false,"codes":["K05"],"routes":[{"ref":"K","name":"福岡市地下鉄空港線","route_color":"#ff4500"}],"pass_count":1,"station_degree":2,"is_interchange":false,"station_role":"normal"},"geometry":{"type":"Point","coordinates":[130.37024196666664,33.59022013333333]},"__memberLines":{}},{"type":"Feature","properties":{"station_id":"n3332825684","station_name":"大濠公園","station_name_local":"大濠公園","station_name_en":"Ōhorikōen","city":"Fukuoka","country":"Japan","lines":["K"],"wikipedia":null,"merged_from":3,"merged_names":null,"is_terminus":false,"codes":["K06"],"routes":[{"ref":"K","name":"福岡市地下鉄空港線","route_color":"#ff4500"}],"pass_count":1,"station_degree":2,"is_interchange":false,"station_role":"normal"},"geometry":{"type":"Point","coordinates":[130.3787599,33.59010433333333]},"__memberLines":{}},{"type":"Feature","properties":{"station_id":"n3334304845","station_name":"別府","station_name_local":"別府","station_name_en":"Befu","city":"Fukuoka","country":"Japan","lines":["N"],"wikipedia":"ja:別府駅 (福岡県)","merged_from":3,"merged_names":null,"is_terminus":false,"codes":["N10"],"routes":[{"ref":"N","name":"福岡市地下鉄七隈線","route_color":"#008000"}],"pass_count":1,"station_degree":2,"is_interchange":false,"station_role":"normal"},"geometry":{"type":"Point","coordinates":[130.3695728,33.57412023333333]},"__memberLines":{}},{"type":"Feature","properties":{"station_id":"n3334304846","station_name":"茶山","station_name_local":"茶山","station_name_en":"Chayama","city":"Fukuoka","country":"Japan","lines":["N"],"wikipedia":"ja:茶山駅 (福岡県)","merged_from":3,"merged_names":null,"is_terminus":false,"codes":["N09"],"routes":[{"ref":"N","name":"福岡市地下鉄七隈線","route_color":"#008000"}],"pass_count":1,"station_degree":2,"is_interchange":false,"station_role":"normal"},"geometry":{"type":"Point","coordinates":[130.36550806666665,33.566274766666666]},"__memberLines":{}},{"type":"Feature","properties":{"station_id":"n3334304847","station_name":"福大前","station_name_local":"福大前","station_name_en":"Fukudaimae","city":"Fukuoka","country":"Japan","lines":["N"],"wikipedia":"ja:福大前駅","merged_from":3,"merged_names":null,"is_terminus":false,"codes":["N06"],"routes":[{"ref":"N","name":"福岡市地下鉄七隈線","route_color":"#008000"}],"pass_count":1,"station_degree":2,"is_interchange":false,"station_role":"normal"},"geometry":{"type":"Point","coordinates":[130.36235703333332,33.54731923333333]},"__memberLines":{}},{"type":"Feature","properties":{"station_id":"n3334304848","station_name":"賀茂","station_name_local":"賀茂","station_name_en":"Kamo","city":"Fukuoka","country":"Japan","lines":["N"],"wikipedia":"ja:賀茂駅","merged_from":3,"merged_names":null,"is_terminus":false,"codes":["N03"],"routes":[{"ref":"N","name":"福岡市地下鉄七隈線","route_color":"#008000"}],"pass_count":1,"station_degree":2,"is_interchange":false,"station_role":"normal"},"geometry":{"type":"Point","coordinates":[130.33784206666667,33.55051546666667]},"__memberLines":{}},{"type":"Feature","properties":{"station_id":"n3334304849","station_name":"金山","station_name_local":"金山","station_name_en":"Kanayama","city":"Fukuoka","country":"Japan","lines":["N"],"wikipedia":"ja:金山駅 (福岡県)","merged_from":3,"merged_names":null,"is_terminus":false,"codes":["N08"],"routes":[{"ref":"N","name":"福岡市地下鉄七隈線","route_color":"#008000"}],"pass_count":1,"station_degree":2,"is_interchange":false,"station_role":"normal"},"geometry":{"type":"Point","coordinates":[130.36175653333333,33.55966763333333]},"__memberLines":{}},{"type":"Feature","properties":{"station_id":"n3334304850","station_name":"七隈","station_name_local":"七隈","station_name_en":"Nanakuma","city":"Fukuoka","country":"Japan","lines":["N"],"wikipedia":"ja:七隈駅","merged_from":3,"merged_names":null,"is_terminus":false,"codes":["N07"],"routes":[{"ref":"N","name":"福岡市地下鉄七隈線","route_color":"#008000"}],"pass_count":1,"station_degree":2,"is_interchange":false,"station_role":"normal"},"geometry":{"type":"Point","coordinates":[130.36170953333334,33.55291326666667]},"__memberLines":{}},{"type":"Feature","properties":{"station_id":"n3334304851","station_name":"野芥","station_name_local":"野芥","station_name_en":"Noke","city":"Fukuoka","country":"Japan","lines":["N"],"wikipedia":"ja:野芥駅","merged_from":3,"merged_names":null,"is_terminus":false,"codes":["N04"],"routes":[{"ref":"N","name":"福岡市地下鉄七隈線","route_color":"#008000"}],"pass_count":1,"station_degree":2,"is_interchange":false,"station_role":"normal"},"geometry":{"type":"Point","coordinates":[130.34651616666667,33.548323399999994]},"__memberLines":{}},{"type":"Feature","properties":{"station_id":"n3334304852","station_name":"六本松","station_name_local":"六本松","station_name_en":"Ropponmatsu","city":"Fukuoka","country":"Japan","lines":["N"],"wikipedia":"ja:六本松駅","merged_from":3,"merged_names":null,"is_terminus":false,"codes":["N11"],"routes":[{"ref":"N","name":"福岡市地下鉄七隈線","route_color":"#008000"}],"pass_count":1,"station_degree":2,"is_interchange":false,"station_role":"normal"},"geometry":{"type":"Point","coordinates":[130.37708676666668,33.57742913333333]},"__memberLines":{}},{"type":"Feature","properties":{"station_id":"n3334304853","station_name":"桜坂","station_name_local":"桜坂","station_name_en":"Sakurazaka","city":"Fukuoka","country":"Japan","lines":["N"],"wikipedia":"ja:桜坂駅","merged_from":3,"merged_names":null,"is_terminus":false,"codes":["N12"],"routes":[{"ref":"N","name":"福岡市地下鉄七隈線","route_color":"#008000"}],"pass_count":1,"station_degree":2,"is_interchange":false,"station_role":"normal"},"geometry":{"type":"Point","coordinates":[130.3868685,33.57727153333333]},"__memberLines":{}},{"type":"Feature","properties":{"station_id":"n3334304854","station_name":"梅林","station_name_local":"梅林","station_name_en":"Umebayashi","city":"Fukuoka","country":"Japan","lines":["N"],"wikipedia":"ja:梅林駅 (福岡県)","merged_from":3,"merged_names":null,"is_terminus":false,"codes":["N05"],"routes":[{"ref":"N","name":"福岡市地下鉄七隈線","route_color":"#008000"}],"pass_count":1,"station_degree":2,"is_interchange":false,"station_role":"normal"},"geometry":{"type":"Point","coordinates":[130.35516446666668,33.545792299999995]},"__memberLines":{}},{"type":"Feature","properties":{"station_id":"n3334304855","station_name":"渡辺通","station_name_local":"渡辺通","station_name_en":"Watanabe-dōri","city":"Fukuoka","country":"Japan","lines":["N"],"wikipedia":"ja:渡辺通駅","merged_from":3,"merged_names":null,"is_terminus":false,"codes":["N15"],"routes":[{"ref":"N","name":"福岡市地下鉄七隈線","route_color":"#008000"}],"pass_count":1,"station_degree":2,"is_interchange":false,"station_role":"normal"},"geometry":{"type":"Point","coordinates":[130.4051509,33.583888]},"__memberLines":{}},{"type":"Feature","properties":{"station_id":"n3334304856","station_name":"薬院大通","station_name_local":"薬院大通","station_name_en":"Yakuin-ōdōri","city":"Fukuoka","country":"Japan","lines":["N"],"wikipedia":"ja:薬院大通駅","merged_from":3,"merged_names":null,"is_terminus":false,"codes":["N13"],"routes":[{"ref":"N","name":"福岡市地下鉄七隈線","route_color":"#008000"}],"pass_count":1,"station_degree":2,"is_interchange":false,"station_role":"normal"},"geometry":{"type":"Point","coordinates":[130.3967767,33.58054513333334]},"__memberLines":{}},{"type":"Feature","properties":{"station_id":"n10765652073","station_name":"櫛田神社前","station_name_local":"櫛田神社前","station_name_en":"Kushida Shrine","city":"Fukuoka","country":"Japan","lines":["N"],"wikipedia":"ja:櫛田神社前駅","merged_from":3,"merged_names":null,"is_terminus":false,"codes":["N17"],"routes":[{"ref":"N","name":"福岡市地下鉄七隈線","route_color":"#008000"}],"pass_count":1,"station_degree":2,"is_interchange":false,"station_role":"normal"},"geometry":{"type":"Point","coordinates":[130.41155353333332,33.591322033333334]},"__memberLines":{}}]}