{"type":"FeatureCollection","features":[{"type":"Feature","properties":{"way_id":15450298,"route_colors":["#ffe119"],"route_refs":["PRT"]},"geometry":{"type":"LineString","coordinates":[[-79.9600988,39.6550449],[-79.9600827,39.6550955],[-79.9600844,39.6551336],[-79.9601052,39.6551575],[-79.9601325,39.6551766],[-79.9601713,39.6551877],[-79.9602293,39.6551826],[-79.9602705,39.6551594],[-79.960292,39.6551265],[-79.9602986,39.655088],[-79.9603121,39.6550146],[-79.9603306,39.6549537],[-79.9604648,39.6545815],[-79.960737,39.6537667],[-79.9607895,39.6535946],[-79.960824,39.653447],[-79.9608476,39.6532448],[-79.9608549,39.6530362],[-79.9608485,39.6528735],[-79.9608291,39.6527133],[-79.9608033,39.6524543],[-79.9607906,39.6523525],[-79.9607945,39.6522511],[-79.9608029,39.6521655]]}},{"type":"Feature","properties":{"way_id":106922900,"route_colors":["#ffe119"],"route_refs":["PRT"]},"geometry":{"type":"LineString","coordinates":[[-79.9608029,39.6521655],[-79.9608239,39.6520645],[-79.9608517,39.6519935],[-79.9608951,39.6519217],[-79.9609499,39.6518621],[-79.9610035,39.6518111]]}},{"type":"Feature","properties":{"way_id":106922851,"route_colors":["#ffe119"],"route_refs":["PRT"]},"geometry":{"type":"LineString","coordinates":[[-79.9610035,39.6518111],[-79.9610901,39.6517531],[-79.9611763,39.6517089],[-79.9613306,39.6516496],[-79.9615317,39.6515967],[-79.9618296,39.6515233],[-79.9620578,39.6514706],[-79.9622181,39.6514359]]}},{"type":"Feature","properties":{"way_id":243119881,"route_colors":["#ffe119"],"route_refs":["PRT"]},"geometry":{"type":"LineString","coordinates":[[-79.9622181,39.6514359],[-79.9624047,39.6514004],[-79.9625958,39.6513699],[-79.962771,39.6513489],[-79.9630408,39.6513279],[-79.9634231,39.651294],[-79.9637176,39.6512612],[-79.9639378,39.6512215],[-79.9642162,39.6511555],[-79.9644423,39.651089],[-79.9646571,39.6510106],[-79.9649382,39.6508884],[-79.9651425,39.6507832],[-79.9653192,39.6506788],[-79.9654659,39.6505766],[-79.9656132,39.650466],[-79.9657905,39.6503073],[-79.9659638,39.6501327],[-79.9663349,39.6497387]]}},{"type":"Feature","properties":{"way_id":907143090,"route_colors":["#ffe119"],"route_refs":["PRT"]},"geometry":{"type":"LineString","coordinates":[[-79.9663349,39.6497387],[-79.9665102,39.6495459],[-79.9668436,39.6491856],[-79.9671912,39.6488308],[-79.967526,39.6484757],[-79.9677343,39.6482734]]}},{"type":"Feature","properties":{"way_id":106922898,"route_colors":["#ffe119"],"route_refs":["PRT"]},"geometry":{"type":"LineString","coordinates":[[-79.9677343,39.6482734],[-79.9677918,39.6482032],[-79.9678801,39.6481246],[-79.9680047,39.648037],[-79.968125,39.647976],[-79.9682501,39.6479333],[-79.9683995,39.6479011],[-79.9685638,39.6478804],[-79.968778,39.6478562]]}},{"type":"Feature","properties":{"way_id":106922864,"route_colors":["#ffe119"],"route_refs":["PRT"]},"geometry":{"type":"LineString","coordinates":[[-79.968778,39.6478562],[-79.9688973,39.64784],[-79.9689852,39.6478218]]}},{"type":"Feature","properties":{"way_id":907143103,"route_colors":["#ffe119"],"route_refs":["PRT"]},"geometry":{"type":"LineString","coordinates":[[-79.9689852,39.6478218],[-79.9690516,39.6478061]]}},{"type":"Feature","properties":{"way_id":907143102,"route_colors":["#ffe119"],"route_refs":["PRT"]},"geometry":{"type":"LineString","coordinates":[[-79.9690516,39.6478061],[-79.9692401,39.6477643],[-79.9693282,39.6477445]]}},{"type":"Feature","properties":{"way_id":907143101,"route_colors":["#ffe119"],"route_refs":["PRT"]},"geometry":{"type":"LineString","coordinates":[[-79.9693282,39.6477445],[-79.969486,39.6477094]]}},{"type":"Feature","properties":{"way_id":907143100,"route_colors":["#ffe119"],"route_refs":["PRT"]},"geometry":{"type":"LineString","coordinates":[[-79.969486,39.6477094],[-79.9696454,39.6476751]]}},{"type":"Feature","properties":{"way_id":106922879,"route_colors":["#ffe119"],"route_refs":["PRT"]},"geometry":{"type":"LineString","coordinates":[[-79.9696454,39.6476751],[-79.9698621,39.6476252],[-79.9700847,39.6475637],[-79.9703126,39.6474855],[-79.9704471,39.6474372]]}},{"type":"Feature","properties":{"way_id":907143093,"route_colors":["#ffe119"],"route_refs":["PRT"]},"geometry":{"type":"LineString","coordinates":[[-79.9704471,39.6474372],[-79.9705743,39.6473739],[-79.970954,39.6471643],[-79.971183,39.6470379],[-79.9714114,39.6469202]]}},{"type":"Feature","properties":{"way_id":106922842,"route_colors":["#ffe119"],"route_refs":["PRT"]},"geometry":{"type":"LineString","coordinates":[[-79.9714114,39.6469202],[-79.971531,39.6468867],[-79.9716733,39.6468616],[-79.971792,39.6468503],[-79.9719034,39.646854],[-79.9720266,39.6468699]]}},{"type":"Feature","properties":{"way_id":907143107,"route_colors":["#ffe119"],"route_refs":["PRT"]},"geometry":{"type":"LineString","coordinates":[[-79.9720266,39.6468699],[-79.9721821,39.6469108],[-79.9722936,39.6469581],[-79.9724278,39.6470302],[-79.97276,39.64723]]}},{"type":"Feature","properties":{"way_id":907143106,"route_colors":["#ffe119"],"route_refs":["PRT"]},"geometry":{"type":"LineString","coordinates":[[-79.97276,39.64723],[-79.9729212,39.6473329],[-79.9729989,39.647377]]}},{"type":"Feature","properties":{"way_id":907143105,"route_colors":["#ffe119"],"route_refs":["PRT"]},"geometry":{"type":"LineString","coordinates":[[-79.9729989,39.647377],[-79.9731037,39.6474428]]}},{"type":"Feature","properties":{"way_id":907143104,"route_colors":["#ffe119"],"route_refs":["PRT"]},"geometry":{"type":"LineString","coordinates":[[-79.9731037,39.6474428],[-79.9732184,39.647513]]}},{"type":"Feature","properties":{"way_id":335699216,"route_colors":["#ffe119"],"route_refs":["PRT"]},"geometry":{"type":"LineString","coordinates":[[-79.9732184,39.647513],[-79.9733004,39.6475661],[-79.9733718,39.6476064],[-79.9734432,39.647636],[-79.9735275,39.6476648],[-79.9736282,39.6476898],[-79.9737299,39.6477022],[-79.9738472,39.6477035]]}},{"type":"Feature","properties":{"way_id":335699214,"route_colors":["#ffe119"],"route_refs":["PRT"]},"geometry":{"type":"LineString","coordinates":[[-79.9738472,39.6477035],[-79.9739942,39.6476933],[-79.9740599,39.6476808]]}},{"type":"Feature","properties":{"way_id":907143091,"route_colors":["#ffe119"],"route_refs":["PRT"]},"geometry":{"type":"LineString","coordinates":[[-79.9740599,39.6476808],[-79.974226,39.6476741],[-79.9743873,39.6476517],[-79.9744791,39.647629],[-79.9745703,39.6475956],[-79.9746614,39.6475549],[-79.9747358,39.6475188],[-79.9749103,39.6474245]]}},{"type":"Feature","properties":{"way_id":106922861,"route_colors":["#ffe119"],"route_refs":["PRT"]},"geometry":{"type":"LineString","coordinates":[[-79.9749103,39.6474245],[-79.9750992,39.6473273]]}},{"type":"Feature","properties":{"way_id":106922894,"route_colors":["#ffe119"],"route_refs":["PRT"]},"geometry":{"type":"LineString","coordinates":[[-79.9750992,39.6473273],[-79.9753726,39.6471734],[-79.9755126,39.6470992],[-79.9755987,39.6470423],[-79.9756239,39.6470221],[-79.9756686,39.6469862],[-79.9757383,39.6469144],[-79.975786,39.6468481],[-79.9758226,39.6467739],[-79.9758403,39.646697],[-79.97585,39.6466231],[-79.9758435,39.6465451],[-79.9758194,39.6464486],[-79.9757632,39.6463267],[-79.9756919,39.6462134],[-79.9756088,39.6460774],[-79.9755463,39.6459601],[-79.9755063,39.6458295],[-79.975501,39.6457316],[-79.9755087,39.6456463]]}},{"type":"Feature","properties":{"way_id":106922890,"route_colors":["#ffe119"],"route_refs":["PRT"]},"geometry":{"type":"LineString","coordinates":[[-79.9755087,39.6456463],[-79.975523,39.6455659],[-79.9755982,39.6452457],[-79.9756212,39.6451322],[-79.975628,39.6450302],[-79.9756177,39.6449132],[-79.9755819,39.644813],[-79.975509,39.6447061],[-79.9754053,39.6446059],[-79.9752964,39.6445318],[-79.9751261,39.64444]]}},{"type":"Feature","properties":{"way_id":106922850,"route_colors":["#ffe119"],"route_refs":["PRT"]},"geometry":{"type":"LineString","coordinates":[[-79.9751261,39.64444],[-79.9749288,39.6443309],[-79.9747984,39.6442522],[-79.9746978,39.6441886],[-79.9745865,39.6441072],[-79.9743454,39.6439079],[-79.9741056,39.6437295],[-79.9738807,39.6435828],[-79.973592,39.6434128],[-79.9732961,39.6432649],[-79.9729349,39.6431121],[-79.972617,39.6429784],[-79.9723008,39.6428867],[-79.9720803,39.6428456],[-79.9718523,39.642815],[-79.9714605,39.6427641],[-79.9711679,39.6427376],[-79.970889,39.6427243],[-79.9705918,39.6427254],[-79.9703441,39.6427357],[-79.9701026,39.6427541],[-79.9698681,39.6427817],[-79.9694088,39.6428455],[-79.9689224,39.6429088],[-79.9684689,39.642969],[-79.968141,39.6430156],[-79.9677719,39.6430416],[-79.9675848,39.6430625],[-79.9673227,39.6430745],[-79.9670892,39.6430758],[-79.9669226,39.6430657],[-79.9667524,39.6430417],[-79.9665846,39.6429993]]}},{"type":"Feature","properties":{"way_id":587354185,"route_colors":["#ffe119"],"route_refs":["PRT"]},"geometry":{"type":"LineString","coordinates":[[-79.9665846,39.6429993],[-79.9664662,39.6429532],[-79.9662815,39.6428778],[-79.9660083,39.6427476],[-79.96584,39.6426728],[-79.9656791,39.6426116],[-79.9655674,39.6425767],[-79.9651305,39.6424505],[-79.964993,39.6424177],[-79.964861,39.6423973],[-79.9647155,39.6423769],[-79.9645858,39.6423525],[-79.9644908,39.6423213],[-79.9644174,39.6422864],[-79.9643477,39.6422433],[-79.9642967,39.6422046],[-79.9642216,39.6421411],[-79.9640218,39.6419715],[-79.9638925,39.6418579],[-79.9637987,39.6418022],[-79.9636105,39.641691],[-79.9631098,39.6414278],[-79.9627828,39.6412583],[-79.9624785,39.641095],[-79.9621553,39.6409167],[-79.9618242,39.6407158],[-79.9615853,39.6405482],[-79.96133,39.6403555],[-79.9610836,39.6401476],[-79.9608721,39.6399467],[-79.960659,39.6397358],[-79.9603953,39.6394656],[-79.9601214,39.6391924],[-79.9598434,39.6389204],[-79.959559,39.6386033],[-79.959304,39.6383429],[-79.9591796,39.6382201],[-79.959025,39.6380707],[-79.9588611,39.6379002],[-79.9586975,39.6377131],[-79.9585659,39.6375719],[-79.9584256,39.6374385],[-79.9581503,39.6371625],[-79.9580455,39.637037],[-79.9579704,39.6369292],[-79.9578883,39.6367876],[-79.9577356,39.6365049],[-79.9576378,39.6363361],[-79.9574613,39.6361385],[-79.9567862,39.6356259],[-79.9567419,39.6355841]]}},{"type":"Feature","properties":{"way_id":106846298,"route_colors":["#ffe119"],"route_refs":["PRT"]},"geometry":{"type":"LineString","coordinates":[[-79.9567419,39.6355841],[-79.9565587,39.6353972],[-79.9564885,39.6353238],[-79.9564677,39.6352996],[-79.9564563,39.6352546],[-79.9564465,39.6351762]]}},{"type":"Feature","properties":{"way_id":907143119,"route_colors":["#ffe119"],"route_refs":["PRT"]},"geometry":{"type":"LineString","coordinates":[[-79.9564465,39.6351762],[-79.9564388,39.6350827]]}},{"type":"Feature","properties":{"way_id":907143115,"route_colors":["#ffe119"],"route_refs":["PRT"]},"geometry":{"type":"LineString","coordinates":[[-79.9564388,39.6350827],[-79.9564295,39.6349856]]}},{"type":"Feature","properties":{"way_id":907143116,"route_colors":["#ffe119"],"route_refs":["PRT"]},"geometry":{"type":"LineString","coordinates":[[-79.9564295,39.6349856],[-79.9564154,39.6348529],[-79.9563968,39.6347335]]}},{"type":"Feature","properties":{"way_id":907143122,"route_colors":["#ffe119"],"route_refs":["PRT"]},"geometry":{"type":"LineString","coordinates":[[-79.9563968,39.6347335],[-79.9563966,39.6346907],[-79.9563986,39.6346649],[-79.9564113,39.6346442],[-79.9564462,39.6346096],[-79.9565683,39.6344847],[-79.956738,39.6343284]]}},{"type":"Feature","properties":{"way_id":620995130,"route_colors":["#ffe119"],"route_refs":["PRT"]},"geometry":{"type":"LineString","coordinates":[[-79.956738,39.6343284],[-79.9567559,39.6343144],[-79.9569468,39.6341717],[-79.9570671,39.6340871],[-79.9572019,39.6339779],[-79.9572786,39.6338699],[-79.9572997,39.6337673],[-79.9574005,39.6329938],[-79.9574234,39.6328899],[-79.957452,39.6327662],[-79.9575156,39.632594],[-79.9575653,39.6324909],[-79.9578525,39.6320338],[-79.9579985,39.6318081],[-79.9581239,39.6316015],[-79.9582361,39.6314227],[-79.9583536,39.631156],[-79.958378,39.6310711],[-79.9583841,39.6309926],[-79.9583346,39.6309286],[-79.9582975,39.6308905],[-79.9582341,39.6308588],[-79.9581467,39.6308039],[-79.9573588,39.630392],[-79.957322,39.6303754],[-79.9573059,39.6303517],[-79.9572951,39.6303341],[-79.9572864,39.6303088],[-79.9573052,39.6302701],[-79.9575104,39.6300263],[-79.9575372,39.6299855],[-79.9575312,39.629938],[-79.9574976,39.6299055],[-79.9574561,39.6298853]]}},{"type":"Feature","properties":{"way_id":907143126,"route_colors":["#ffe119"],"route_refs":["PRT"]},"geometry":{"type":"LineString","coordinates":[[-79.9574561,39.6298853],[-79.9573736,39.6298962],[-79.9573535,39.6299044],[-79.9573267,39.6299303],[-79.9572904,39.6299902]]}}]}