{"type":"FeatureCollection","metro_system":{"continent":"asia","country":"Kazakhstan","city":"Ust'-Kamenogorsk","official_website":null,"official_map":"https://ru.wikipedia.org/wiki/Усть-Каменогорский_трамвай","wikipedia":"ru:Усть-Каменогорский трамвай","line_count":3,"segment_count":5,"station_count":29,"modes":["tram"],"audit":{"strategies_tried":[],"passed":true,"checks":[{"id":"has_lines","ok":true,"detail":"3 lines","level":"error"},{"id":"has_stations","ok":true,"detail":"29 stations","level":"error"},{"id":"stations_have_lines","ok":true,"detail":"29/29 站皆有所屬路線","level":"error"},{"id":"line_geometry_stations","ok":true,"detail":"33 個折點/端點皆為車站","level":"error"},{"id":"route_stations_match_geometry","ok":true,"detail":"各線車站列表與圖面一致","level":"error"},{"id":"interchange_rule","ok":true,"detail":"所有車站紅/藍點符合骨架＋路線色規則（藍＝端點、紅＝交叉）","level":"error"},{"id":"stations_named","ok":true,"detail":"29/29 站皆有名稱","level":"error"},{"id":"station_order","ok":true,"detail":"所有線路站序合理","level":"warn"},{"id":"line_wiki_stations","ok":true,"detail":"各線站數與 wiki 線路條目相符（營運中站數）","level":"error"}],"reasons":[],"warnings":[],"audited_at":"2026-07-27T04:17:06.394Z"}},"features":[{"type":"Feature","properties":{"seg_id":"ust-kamenogorsk-0","routes":[{"route_id":"rm900000001","route_name":"Tram 1","route_name_local":"Трамвай 1","route_name_en":"Tram 1","route_ref":"1","route_color":"#e32400","wikipedia":null,"osm_route_ids":[19855632,19856172],"status":null,"order_suspect":0,"span_suspect":0,"stations":[{"station_id":"n1259867919","station_name":"Усть-Каменогорский вокзал"},{"station_id":"n13316137562","station_name":"Трамвайный парк"},{"station_id":"n10712208017","station_name":"Библиотека имени Пушкина"},{"station_id":"n13316137577","station_name":"Дом связи"},{"station_id":"n3784833445","station_name":"Кинотеатр Юбилейный"},{"station_id":"n13316137716","station_name":"улица Кирова"},{"station_id":"n13316137733","station_name":"Халык банк"},{"station_id":"n13316294586","station_name":"Дворец спорта"},{"station_id":"n13316316625","station_name":"улица Михаэлиса"},{"station_id":"n10707686313","station_name":"Дом юстиции"},{"station_id":"n13316316670","station_name":"улица Лермонтова"},{"station_id":"n13316316672","station_name":"улица Шолохова"},{"station_id":"n10707675274","station_name":"Союзтеплострой"},{"station_id":"n13316520618","station_name":"Казцинк"}]},{"route_id":"rm900000003","route_name":"Tram 3","route_name_local":"Трамвай 3","route_name_en":"Tram 3","route_ref":"3","route_color":"#ff9300","wikipedia":null,"osm_route_ids":[19861701,19984886],"status":null,"order_suspect":0,"span_suspect":0,"stations":[{"station_id":"n1259867919","station_name":"Усть-Каменогорский вокзал"},{"station_id":"n13316137562","station_name":"Трамвайный парк"},{"station_id":"n10712208017","station_name":"Библиотека имени Пушкина"},{"station_id":"n13316137577","station_name":"Дом связи"},{"station_id":"n3784833445","station_name":"Кинотеатр Юбилейный"},{"station_id":"n13316137716","station_name":"улица Кирова"},{"station_id":"n13316137733","station_name":"Халык банк"},{"station_id":"n13316294586","station_name":"Дворец спорта"},{"station_id":"n13316316625","station_name":"улица Михаэлиса"},{"station_id":"n13392257721","station_name":"Смирнова"},{"station_id":"n13392257754","station_name":"Тургенева"},{"station_id":"n13392257757","station_name":"Казгипроцветмет"},{"station_id":"n13392257759","station_name":"Хлебзавод"},{"station_id":"n13392257761","station_name":"Дом дружбы"},{"station_id":"n13392257779","station_name":"Машзавод"},{"station_id":"n13392257797","station_name":"Гипермаркет Адем"},{"station_id":"n13392257799","station_name":"Училище"},{"station_id":"n13392257801","station_name":"Электротовары"},{"station_id":"n13392257803","station_name":"Пограничная"},{"station_id":"n13392257817","station_name":"Кривонога"},{"station_id":"n13392257839","station_name":"Авроры"},{"station_id":"n2304213515","station_name":"Бажова"}]},{"route_id":"rm900000004","route_name":"Tram 4","route_name_local":"Трамвай 4","route_name_en":"Tram 4","route_ref":"4","route_color":"#0061ff","wikipedia":null,"osm_route_ids":[20007413,20007414],"status":null,"order_suspect":0,"span_suspect":0,"stations":[{"station_id":"n1259867919","station_name":"Усть-Каменогорский вокзал"},{"station_id":"n13316137562","station_name":"Трамвайный парк"},{"station_id":"n10712208017","station_name":"Библиотека имени Пушкина"},{"station_id":"n13316137577","station_name":"Дом связи"},{"station_id":"n3784833445","station_name":"Кинотеатр Юбилейный"},{"station_id":"n13316137716","station_name":"улица Кирова"},{"station_id":"n13316137733","station_name":"Халык банк"},{"station_id":"n13316294586","station_name":"Дворец спорта"},{"station_id":"n13316316625","station_name":"улица Михаэлиса"},{"station_id":"n10707686313","station_name":"Дом юстиции"},{"station_id":"n13316316670","station_name":"улица Лермонтова"},{"station_id":"n13316316672","station_name":"улица Шолохова"},{"station_id":"n13316316694","station_name":"Тракторная улица"},{"station_id":"n10707675299","station_name":"Переезд"}]}],"route_count":3,"route_refs":["1","3","4"],"route_colors":["#e32400","#ff9300","#0061ff"],"city":"Ust'-Kamenogorsk","country":"Kazakhstan"},"geometry":{"type":"MultiLineString","coordinates":[[[82.6459951,49.9566191],[82.63767655,49.9594524],[82.63444965,49.9559034],[82.6323304,49.95348345],[82.628851,49.94936265],[82.62263166666666,49.95081716666667],[82.6177426,49.952441],[82.6145218,49.958425],[82.61480225,49.9637186]]]}},{"type":"Feature","properties":{"seg_id":"ust-kamenogorsk-1","routes":[{"route_id":"rm900000001","route_name":"Tram 1","route_name_local":"Трамвай 1","route_name_en":"Tram 1","route_ref":"1","route_color":"#e32400","wikipedia":null,"osm_route_ids":[19855632,19856172],"status":null,"order_suspect":0,"span_suspect":0,"stations":[{"station_id":"n1259867919","station_name":"Усть-Каменогорский вокзал"},{"station_id":"n13316137562","station_name":"Трамвайный парк"},{"station_id":"n10712208017","station_name":"Библиотека имени Пушкина"},{"station_id":"n13316137577","station_name":"Дом связи"},{"station_id":"n3784833445","station_name":"Кинотеатр Юбилейный"},{"station_id":"n13316137716","station_name":"улица Кирова"},{"station_id":"n13316137733","station_name":"Халык банк"},{"station_id":"n13316294586","station_name":"Дворец спорта"},{"station_id":"n13316316625","station_name":"улица Михаэлиса"},{"station_id":"n10707686313","station_name":"Дом юстиции"},{"station_id":"n13316316670","station_name":"улица Лермонтова"},{"station_id":"n13316316672","station_name":"улица Шолохова"},{"station_id":"n10707675274","station_name":"Союзтеплострой"},{"station_id":"n13316520618","station_name":"Казцинк"}]},{"route_id":"rm900000004","route_name":"Tram 4","route_name_local":"Трамвай 4","route_name_en":"Tram 4","route_ref":"4","route_color":"#0061ff","wikipedia":null,"osm_route_ids":[20007413,20007414],"status":null,"order_suspect":0,"span_suspect":0,"stations":[{"station_id":"n1259867919","station_name":"Усть-Каменогорский вокзал"},{"station_id":"n13316137562","station_name":"Трамвайный парк"},{"station_id":"n10712208017","station_name":"Библиотека имени Пушкина"},{"station_id":"n13316137577","station_name":"Дом связи"},{"station_id":"n3784833445","station_name":"Кинотеатр Юбилейный"},{"station_id":"n13316137716","station_name":"улица Кирова"},{"station_id":"n13316137733","station_name":"Халык банк"},{"station_id":"n13316294586","station_name":"Дворец спорта"},{"station_id":"n13316316625","station_name":"улица Михаэлиса"},{"station_id":"n10707686313","station_name":"Дом юстиции"},{"station_id":"n13316316670","station_name":"улица Лермонтова"},{"station_id":"n13316316672","station_name":"улица Шолохова"},{"station_id":"n13316316694","station_name":"Тракторная улица"},{"station_id":"n10707675299","station_name":"Переезд"}]}],"route_count":2,"route_refs":["1","4"],"route_colors":["#e32400","#0061ff"],"city":"Ust'-Kamenogorsk","country":"Kazakhstan"},"geometry":{"type":"MultiLineString","coordinates":[[[82.61480225,49.9637186],[82.61658373333333,49.9666305],[82.6184471,49.9690952],[82.62045516666667,49.97218213333334]]]}},{"type":"Feature","properties":{"seg_id":"ust-kamenogorsk-2","routes":[{"route_id":"rm900000001","route_name":"Tram 1","route_name_local":"Трамвай 1","route_name_en":"Tram 1","route_ref":"1","route_color":"#e32400","wikipedia":null,"osm_route_ids":[19855632,19856172],"status":null,"order_suspect":0,"span_suspect":0,"stations":[{"station_id":"n1259867919","station_name":"Усть-Каменогорский вокзал"},{"station_id":"n13316137562","station_name":"Трамвайный парк"},{"station_id":"n10712208017","station_name":"Библиотека имени Пушкина"},{"station_id":"n13316137577","station_name":"Дом связи"},{"station_id":"n3784833445","station_name":"Кинотеатр Юбилейный"},{"station_id":"n13316137716","station_name":"улица Кирова"},{"station_id":"n13316137733","station_name":"Халык банк"},{"station_id":"n13316294586","station_name":"Дворец спорта"},{"station_id":"n13316316625","station_name":"улица Михаэлиса"},{"station_id":"n10707686313","station_name":"Дом юстиции"},{"station_id":"n13316316670","station_name":"улица Лермонтова"},{"station_id":"n13316316672","station_name":"улица Шолохова"},{"station_id":"n10707675274","station_name":"Союзтеплострой"},{"station_id":"n13316520618","station_name":"Казцинк"}]}],"route_count":1,"route_refs":["1"],"route_colors":["#e32400"],"city":"Ust'-Kamenogorsk","country":"Kazakhstan"},"geometry":{"type":"MultiLineString","coordinates":[[[82.62045516666667,49.97218213333334],[82.6157403,49.973703799999996],[82.6149364,49.9776861]]]}},{"type":"Feature","properties":{"seg_id":"ust-kamenogorsk-3","routes":[{"route_id":"rm900000003","route_name":"Tram 3","route_name_local":"Трамвай 3","route_name_en":"Tram 3","route_ref":"3","route_color":"#ff9300","wikipedia":null,"osm_route_ids":[19861701,19984886],"status":null,"order_suspect":0,"span_suspect":0,"stations":[{"station_id":"n1259867919","station_name":"Усть-Каменогорский вокзал"},{"station_id":"n13316137562","station_name":"Трамвайный парк"},{"station_id":"n10712208017","station_name":"Библиотека имени Пушкина"},{"station_id":"n13316137577","station_name":"Дом связи"},{"station_id":"n3784833445","station_name":"Кинотеатр Юбилейный"},{"station_id":"n13316137716","station_name":"улица Кирова"},{"station_id":"n13316137733","station_name":"Халык банк"},{"station_id":"n13316294586","station_name":"Дворец спорта"},{"station_id":"n13316316625","station_name":"улица Михаэлиса"},{"station_id":"n13392257721","station_name":"Смирнова"},{"station_id":"n13392257754","station_name":"Тургенева"},{"station_id":"n13392257757","station_name":"Казгипроцветмет"},{"station_id":"n13392257759","station_name":"Хлебзавод"},{"station_id":"n13392257761","station_name":"Дом дружбы"},{"station_id":"n13392257779","station_name":"Машзавод"},{"station_id":"n13392257797","station_name":"Гипермаркет Адем"},{"station_id":"n13392257799","station_name":"Училище"},{"station_id":"n13392257801","station_name":"Электротовары"},{"station_id":"n13392257803","station_name":"Пограничная"},{"station_id":"n13392257817","station_name":"Кривонога"},{"station_id":"n13392257839","station_name":"Авроры"},{"station_id":"n2304213515","station_name":"Бажова"}]}],"route_count":1,"route_refs":["3"],"route_colors":["#ff9300"],"city":"Ust'-Kamenogorsk","country":"Kazakhstan"},"geometry":{"type":"MultiLineString","coordinates":[[[82.61480225,49.9637186],[82.6103659,49.9682098],[82.60657495000001,49.9691738],[82.5992126,49.971184449999996],[82.59557255,49.97258035],[82.5906689,49.974886049999995],[82.58647763333335,49.978082400000005],[82.57822060000001,49.9816519],[82.5758458,49.983487],[82.5724031,49.9862715],[82.5689064,49.98927715],[82.56457755,49.9945466],[82.56211164999999,49.99828275],[82.56114095000001,50.002573999999996]]]}},{"type":"Feature","properties":{"seg_id":"ust-kamenogorsk-4","routes":[{"route_id":"rm900000004","route_name":"Tram 4","route_name_local":"Трамвай 4","route_name_en":"Tram 4","route_ref":"4","route_color":"#0061ff","wikipedia":null,"osm_route_ids":[20007413,20007414],"status":null,"order_suspect":0,"span_suspect":0,"stations":[{"station_id":"n1259867919","station_name":"Усть-Каменогорский вокзал"},{"station_id":"n13316137562","station_name":"Трамвайный парк"},{"station_id":"n10712208017","station_name":"Библиотека имени Пушкина"},{"station_id":"n13316137577","station_name":"Дом связи"},{"station_id":"n3784833445","station_name":"Кинотеатр Юбилейный"},{"station_id":"n13316137716","station_name":"улица Кирова"},{"station_id":"n13316137733","station_name":"Халык банк"},{"station_id":"n13316294586","station_name":"Дворец спорта"},{"station_id":"n13316316625","station_name":"улица Михаэлиса"},{"station_id":"n10707686313","station_name":"Дом юстиции"},{"station_id":"n13316316670","station_name":"улица Лермонтова"},{"station_id":"n13316316672","station_name":"улица Шолохова"},{"station_id":"n13316316694","station_name":"Тракторная улица"},{"station_id":"n10707675299","station_name":"Переезд"}]}],"route_count":1,"route_refs":["4"],"route_colors":["#0061ff"],"city":"Ust'-Kamenogorsk","country":"Kazakhstan"},"geometry":{"type":"MultiLineString","coordinates":[[[82.62045516666667,49.97218213333334],[82.62388039999999,49.97621275],[82.6314788,49.9829228]]]}},{"type":"Feature","properties":{"station_id":"n1259867919","station_name":"Усть-Каменогорский вокзал","station_name_local":"Усть-Каменогорский вокзал","station_name_en":null,"city":"Ust'-Kamenogorsk","country":"Kazakhstan","lines":["1","3","4"],"wikipedia":null,"is_terminus":true,"routes":[{"ref":"1","name":"Tram 1","route_color":"#e32400"},{"ref":"3","name":"Tram 3","route_color":"#ff9300"},{"ref":"4","name":"Tram 4","route_color":"#0061ff"}],"pass_count":3,"station_degree":1,"codes":null,"merged_from":null,"merged_names":null,"is_interchange":false,"station_role":"terminus"},"geometry":{"type":"Point","coordinates":[82.6459951,49.9566191]},"__memberLines":{}},{"type":"Feature","properties":{"station_id":"n2304213515","station_name":"Бажова","station_name_local":"Бажова","station_name_en":null,"city":"Ust'-Kamenogorsk","country":"Kazakhstan","lines":["3"],"wikipedia":null,"merged_from":2,"merged_names":null,"is_terminus":true,"routes":[{"ref":"3","name":"Tram 3","route_color":"#ff9300"}],"pass_count":1,"station_degree":1,"codes":null,"is_interchange":false,"station_role":"terminus"},"geometry":{"type":"Point","coordinates":[82.56114095000001,50.002573999999996]},"__memberLines":{}},{"type":"Feature","properties":{"station_id":"n3784833445","station_name":"Кинотеатр Юбилейный","station_name_local":"Кинотеатр Юбилейный","station_name_en":null,"city":"Ust'-Kamenogorsk","country":"Kazakhstan","lines":["1","3","4"],"wikipedia":null,"merged_from":2,"merged_names":null,"is_terminus":false,"routes":[{"ref":"1","name":"Tram 1","route_color":"#e32400"},{"ref":"3","name":"Tram 3","route_color":"#ff9300"},{"ref":"4","name":"Tram 4","route_color":"#0061ff"}],"pass_count":3,"station_degree":2,"codes":null,"is_interchange":false,"station_role":"normal"},"geometry":{"type":"Point","coordinates":[82.628851,49.94936265]},"__memberLines":{}},{"type":"Feature","properties":{"station_id":"n10707675274","station_name":"Союзтеплострой","station_name_local":"Союзтеплострой","station_name_en":null,"city":"Ust'-Kamenogorsk","country":"Kazakhstan","lines":["1"],"wikipedia":null,"merged_from":2,"merged_names":null,"is_terminus":false,"routes":[{"ref":"1","name":"Tram 1","route_color":"#e32400"}],"pass_count":1,"station_degree":2,"codes":null,"is_interchange":false,"station_role":"normal"},"geometry":{"type":"Point","coordinates":[82.6157403,49.973703799999996]},"__memberLines":{}},{"type":"Feature","properties":{"station_id":"n10707675299","station_name":"Переезд","station_name_local":"Переезд","station_name_en":null,"city":"Ust'-Kamenogorsk","country":"Kazakhstan","lines":["4"],"wikipedia":null,"is_terminus":true,"routes":[{"ref":"4","name":"Tram 4","route_color":"#0061ff"}],"pass_count":1,"station_degree":1,"codes":null,"merged_from":null,"merged_names":null,"is_interchange":false,"station_role":"terminus"},"geometry":{"type":"Point","coordinates":[82.6314788,49.9829228]},"__memberLines":{}},{"type":"Feature","properties":{"station_id":"n10707686313","station_name":"Дом юстиции","station_name_local":"Дом юстиции","station_name_en":null,"city":"Ust'-Kamenogorsk","country":"Kazakhstan","lines":["1","4"],"wikipedia":null,"merged_from":3,"merged_names":null,"is_terminus":false,"routes":[{"ref":"1","name":"Tram 1","route_color":"#e32400"},{"ref":"4","name":"Tram 4","route_color":"#0061ff"}],"pass_count":2,"station_degree":2,"codes":null,"is_interchange":false,"station_role":"normal"},"geometry":{"type":"Point","coordinates":[82.61658373333333,49.9666305]},"__memberLines":{}},{"type":"Feature","properties":{"station_id":"n10712208017","station_name":"Библиотека имени Пушкина","station_name_local":"Библиотека имени Пушкина","station_name_en":null,"city":"Ust'-Kamenogorsk","country":"Kazakhstan","lines":["1","3","4"],"wikipedia":null,"merged_from":2,"merged_names":null,"is_terminus":false,"routes":[{"ref":"1","name":"Tram 1","route_color":"#e32400"},{"ref":"3","name":"Tram 3","route_color":"#ff9300"},{"ref":"4","name":"Tram 4","route_color":"#0061ff"}],"pass_count":3,"station_degree":2,"codes":null,"is_interchange":false,"station_role":"normal"},"geometry":{"type":"Point","coordinates":[82.63444965,49.9559034]},"__memberLines":{}},{"type":"Feature","properties":{"station_id":"n13316137562","station_name":"Трамвайный парк","station_name_local":"Трамвайный парк","station_name_en":null,"city":"Ust'-Kamenogorsk","country":"Kazakhstan","lines":["1","3","4"],"wikipedia":null,"merged_from":2,"merged_names":null,"is_terminus":false,"routes":[{"ref":"1","name":"Tram 1","route_color":"#e32400"},{"ref":"3","name":"Tram 3","route_color":"#ff9300"},{"ref":"4","name":"Tram 4","route_color":"#0061ff"}],"pass_count":3,"station_degree":2,"codes":null,"is_interchange":false,"station_role":"normal"},"geometry":{"type":"Point","coordinates":[82.63767655,49.9594524]},"__memberLines":{}},{"type":"Feature","properties":{"station_id":"n13316137577","station_name":"Дом связи","station_name_local":"Дом связи","station_name_en":null,"city":"Ust'-Kamenogorsk","country":"Kazakhstan","lines":["1","3","4"],"wikipedia":null,"merged_from":2,"merged_names":null,"is_terminus":false,"routes":[{"ref":"1","name":"Tram 1","route_color":"#e32400"},{"ref":"3","name":"Tram 3","route_color":"#ff9300"},{"ref":"4","name":"Tram 4","route_color":"#0061ff"}],"pass_count":3,"station_degree":2,"codes":null,"is_interchange":false,"station_role":"normal"},"geometry":{"type":"Point","coordinates":[82.6323304,49.95348345]},"__memberLines":{}},{"type":"Feature","properties":{"station_id":"n13316137716","station_name":"улица Кирова","station_name_local":"улица Кирова","station_name_en":null,"city":"Ust'-Kamenogorsk","country":"Kazakhstan","lines":["1","3","4"],"wikipedia":null,"merged_from":3,"merged_names":null,"is_terminus":false,"routes":[{"ref":"1","name":"Tram 1","route_color":"#e32400"},{"ref":"3","name":"Tram 3","route_color":"#ff9300"},{"ref":"4","name":"Tram 4","route_color":"#0061ff"}],"pass_count":3,"station_degree":2,"codes":null,"is_interchange":false,"station_role":"normal"},"geometry":{"type":"Point","coordinates":[82.62263166666666,49.95081716666667]},"__memberLines":{}},{"type":"Feature","properties":{"station_id":"n13316137733","station_name":"Халык банк","station_name_local":"Халык банк","station_name_en":null,"city":"Ust'-Kamenogorsk","country":"Kazakhstan","lines":["1","3","4"],"wikipedia":null,"merged_from":2,"merged_names":null,"is_terminus":false,"routes":[{"ref":"1","name":"Tram 1","route_color":"#e32400"},{"ref":"3","name":"Tram 3","route_color":"#ff9300"},{"ref":"4","name":"Tram 4","route_color":"#0061ff"}],"pass_count":3,"station_degree":2,"codes":null,"is_interchange":false,"station_role":"normal"},"geometry":{"type":"Point","coordinates":[82.6177426,49.952441]},"__memberLines":{}},{"type":"Feature","properties":{"station_id":"n13316294586","station_name":"Дворец спорта","station_name_local":"Дворец спорта","station_name_en":null,"city":"Ust'-Kamenogorsk","country":"Kazakhstan","lines":["1","3","4"],"wikipedia":null,"is_terminus":false,"routes":[{"ref":"1","name":"Tram 1","route_color":"#e32400"},{"ref":"3","name":"Tram 3","route_color":"#ff9300"},{"ref":"4","name":"Tram 4","route_color":"#0061ff"}],"pass_count":3,"station_degree":2,"codes":null,"merged_from":null,"merged_names":null,"is_interchange":false,"station_role":"normal"},"geometry":{"type":"Point","coordinates":[82.6145218,49.958425]},"__memberLines":{}},{"type":"Feature","properties":{"station_id":"n13316316625","station_name":"улица Михаэлиса","station_name_local":"улица Михаэлиса","station_name_en":null,"city":"Ust'-Kamenogorsk","country":"Kazakhstan","lines":["1","3","4"],"wikipedia":null,"merged_from":2,"merged_names":null,"is_terminus":false,"routes":[{"ref":"1","name":"Tram 1","route_color":"#e32400"},{"ref":"3","name":"Tram 3","route_color":"#ff9300"},{"ref":"4","name":"Tram 4","route_color":"#0061ff"}],"pass_count":3,"station_degree":3,"codes":null,"is_interchange":true,"station_role":"interchange"},"geometry":{"type":"Point","coordinates":[82.61480225,49.9637186]},"__memberLines":{}},{"type":"Feature","properties":{"station_id":"n13316316670","station_name":"улица Лермонтова","station_name_local":"улица Лермонтова","station_name_en":null,"city":"Ust'-Kamenogorsk","country":"Kazakhstan","lines":["1","4"],"wikipedia":null,"merged_from":2,"merged_names":null,"is_terminus":false,"routes":[{"ref":"1","name":"Tram 1","route_color":"#e32400"},{"ref":"4","name":"Tram 4","route_color":"#0061ff"}],"pass_count":2,"station_degree":2,"codes":null,"is_interchange":false,"station_role":"normal"},"geometry":{"type":"Point","coordinates":[82.6184471,49.9690952]},"__memberLines":{}},{"type":"Feature","properties":{"station_id":"n13316316672","station_name":"улица Шолохова","station_name_local":"улица Шолохова","station_name_en":null,"city":"Ust'-Kamenogorsk","country":"Kazakhstan","lines":["1","4"],"wikipedia":null,"merged_from":3,"merged_names":null,"is_terminus":false,"routes":[{"ref":"1","name":"Tram 1","route_color":"#e32400"},{"ref":"4","name":"Tram 4","route_color":"#0061ff"}],"pass_count":2,"station_degree":3,"codes":null,"is_interchange":true,"station_role":"interchange"},"geometry":{"type":"Point","coordinates":[82.62045516666667,49.97218213333334]},"__memberLines":{}},{"type":"Feature","properties":{"station_id":"n13316316694","station_name":"Тракторная улица","station_name_local":"Тракторная улица","station_name_en":null,"city":"Ust'-Kamenogorsk","country":"Kazakhstan","lines":["4"],"wikipedia":null,"merged_from":2,"merged_names":null,"is_terminus":false,"routes":[{"ref":"4","name":"Tram 4","route_color":"#0061ff"}],"pass_count":1,"station_degree":2,"codes":null,"is_interchange":false,"station_role":"normal"},"geometry":{"type":"Point","coordinates":[82.62388039999999,49.97621275]},"__memberLines":{}},{"type":"Feature","properties":{"station_id":"n13316520618","station_name":"Казцинк","station_name_local":"Казцинк","station_name_en":null,"city":"Ust'-Kamenogorsk","country":"Kazakhstan","lines":["1"],"wikipedia":null,"is_terminus":true,"routes":[{"ref":"1","name":"Tram 1","route_color":"#e32400"}],"pass_count":1,"station_degree":1,"codes":null,"merged_from":null,"merged_names":null,"is_interchange":false,"station_role":"terminus"},"geometry":{"type":"Point","coordinates":[82.6149364,49.9776861]},"__memberLines":{}},{"type":"Feature","properties":{"station_id":"n13392257721","station_name":"Смирнова","station_name_local":"Смирнова","station_name_en":null,"city":"Ust'-Kamenogorsk","country":"Kazakhstan","lines":["3"],"wikipedia":null,"merged_from":2,"merged_names":null,"is_terminus":false,"routes":[{"ref":"3","name":"Tram 3","route_color":"#ff9300"}],"pass_count":1,"station_degree":2,"codes":null,"is_interchange":false,"station_role":"normal"},"geometry":{"type":"Point","coordinates":[82.6103659,49.9682098]},"__memberLines":{}},{"type":"Feature","properties":{"station_id":"n13392257754","station_name":"Тургенева","station_name_local":"Тургенева","station_name_en":null,"city":"Ust'-Kamenogorsk","country":"Kazakhstan","lines":["3"],"wikipedia":null,"merged_from":2,"merged_names":null,"is_terminus":false,"routes":[{"ref":"3","name":"Tram 3","route_color":"#ff9300"}],"pass_count":1,"station_degree":2,"codes":null,"is_interchange":false,"station_role":"normal"},"geometry":{"type":"Point","coordinates":[82.60657495000001,49.9691738]},"__memberLines":{}},{"type":"Feature","properties":{"station_id":"n13392257757","station_name":"Казгипроцветмет","station_name_local":"Казгипроцветмет","station_name_en":null,"city":"Ust'-Kamenogorsk","country":"Kazakhstan","lines":["3"],"wikipedia":null,"merged_from":2,"merged_names":null,"is_terminus":false,"routes":[{"ref":"3","name":"Tram 3","route_color":"#ff9300"}],"pass_count":1,"station_degree":2,"codes":null,"is_interchange":false,"station_role":"normal"},"geometry":{"type":"Point","coordinates":[82.5992126,49.971184449999996]},"__memberLines":{}},{"type":"Feature","properties":{"station_id":"n13392257759","station_name":"Хлебзавод","station_name_local":"Хлебзавод","station_name_en":null,"city":"Ust'-Kamenogorsk","country":"Kazakhstan","lines":["3"],"wikipedia":null,"merged_from":2,"merged_names":null,"is_terminus":false,"routes":[{"ref":"3","name":"Tram 3","route_color":"#ff9300"}],"pass_count":1,"station_degree":2,"codes":null,"is_interchange":false,"station_role":"normal"},"geometry":{"type":"Point","coordinates":[82.59557255,49.97258035]},"__memberLines":{}},{"type":"Feature","properties":{"station_id":"n13392257761","station_name":"Дом дружбы","station_name_local":"Дом дружбы","station_name_en":null,"city":"Ust'-Kamenogorsk","country":"Kazakhstan","lines":["3"],"wikipedia":null,"merged_from":2,"merged_names":null,"is_terminus":false,"routes":[{"ref":"3","name":"Tram 3","route_color":"#ff9300"}],"pass_count":1,"station_degree":2,"codes":null,"is_interchange":false,"station_role":"normal"},"geometry":{"type":"Point","coordinates":[82.5906689,49.974886049999995]},"__memberLines":{}},{"type":"Feature","properties":{"station_id":"n13392257779","station_name":"Машзавод","station_name_local":"Машзавод","station_name_en":null,"city":"Ust'-Kamenogorsk","country":"Kazakhstan","lines":["3"],"wikipedia":null,"merged_from":3,"merged_names":null,"is_terminus":false,"routes":[{"ref":"3","name":"Tram 3","route_color":"#ff9300"}],"pass_count":1,"station_degree":2,"codes":null,"is_interchange":false,"station_role":"normal"},"geometry":{"type":"Point","coordinates":[82.58647763333335,49.978082400000005]},"__memberLines":{}},{"type":"Feature","properties":{"station_id":"n13392257797","station_name":"Гипермаркет Адем","station_name_local":"Гипермаркет Адем","station_name_en":null,"city":"Ust'-Kamenogorsk","country":"Kazakhstan","lines":["3"],"wikipedia":null,"merged_from":2,"merged_names":null,"is_terminus":false,"routes":[{"ref":"3","name":"Tram 3","route_color":"#ff9300"}],"pass_count":1,"station_degree":2,"codes":null,"is_interchange":false,"station_role":"normal"},"geometry":{"type":"Point","coordinates":[82.57822060000001,49.9816519]},"__memberLines":{}},{"type":"Feature","properties":{"station_id":"n13392257799","station_name":"Училище","station_name_local":"Училище","station_name_en":null,"city":"Ust'-Kamenogorsk","country":"Kazakhstan","lines":["3"],"wikipedia":null,"merged_from":2,"merged_names":null,"is_terminus":false,"routes":[{"ref":"3","name":"Tram 3","route_color":"#ff9300"}],"pass_count":1,"station_degree":2,"codes":null,"is_interchange":false,"station_role":"normal"},"geometry":{"type":"Point","coordinates":[82.5758458,49.983487]},"__memberLines":{}},{"type":"Feature","properties":{"station_id":"n13392257801","station_name":"Электротовары","station_name_local":"Электротовары","station_name_en":null,"city":"Ust'-Kamenogorsk","country":"Kazakhstan","lines":["3"],"wikipedia":null,"merged_from":2,"merged_names":null,"is_terminus":false,"routes":[{"ref":"3","name":"Tram 3","route_color":"#ff9300"}],"pass_count":1,"station_degree":2,"codes":null,"is_interchange":false,"station_role":"normal"},"geometry":{"type":"Point","coordinates":[82.5724031,49.9862715]},"__memberLines":{}},{"type":"Feature","properties":{"station_id":"n13392257803","station_name":"Пограничная","station_name_local":"Пограничная","station_name_en":null,"city":"Ust'-Kamenogorsk","country":"Kazakhstan","lines":["3"],"wikipedia":null,"merged_from":2,"merged_names":null,"is_terminus":false,"routes":[{"ref":"3","name":"Tram 3","route_color":"#ff9300"}],"pass_count":1,"station_degree":2,"codes":null,"is_interchange":false,"station_role":"normal"},"geometry":{"type":"Point","coordinates":[82.5689064,49.98927715]},"__memberLines":{}},{"type":"Feature","properties":{"station_id":"n13392257817","station_name":"Кривонога","station_name_local":"Кривонога","station_name_en":null,"city":"Ust'-Kamenogorsk","country":"Kazakhstan","lines":["3"],"wikipedia":null,"merged_from":2,"merged_names":null,"is_terminus":false,"routes":[{"ref":"3","name":"Tram 3","route_color":"#ff9300"}],"pass_count":1,"station_degree":2,"codes":null,"is_interchange":false,"station_role":"normal"},"geometry":{"type":"Point","coordinates":[82.56457755,49.9945466]},"__memberLines":{}},{"type":"Feature","properties":{"station_id":"n13392257839","station_name":"Авроры","station_name_local":"Авроры","station_name_en":null,"city":"Ust'-Kamenogorsk","country":"Kazakhstan","lines":["3"],"wikipedia":null,"merged_from":2,"merged_names":null,"is_terminus":false,"routes":[{"ref":"3","name":"Tram 3","route_color":"#ff9300"}],"pass_count":1,"station_degree":2,"codes":null,"is_interchange":false,"station_role":"normal"},"geometry":{"type":"Point","coordinates":[82.56211164999999,49.99828275]},"__memberLines":{}}]}