{"type":"FeatureCollection","metro_system":{"continent":"europe","country":"Russia","city":"Vladivostok","official_website":null,"official_map":null,"wikipedia":null,"line_count":1,"segment_count":1,"station_count":10,"modes":["tram"],"audit":{"strategies_tried":[],"passed":true,"checks":[{"id":"has_lines","ok":true,"detail":"1 lines","level":"error"},{"id":"has_stations","ok":true,"detail":"16 stations","level":"error"},{"id":"stations_have_lines","ok":true,"detail":"16/16 站皆有所屬路線","level":"error"},{"id":"line_geometry_stations","ok":true,"detail":"16 個折點/端點皆為車站","level":"error"},{"id":"route_stations_match_geometry","ok":true,"detail":"各線車站列表與圖面一致","level":"error"},{"id":"interchange_rule","ok":true,"detail":"所有車站紅/藍點符合骨架＋路線色規則（藍＝端點、紅＝交叉）","level":"error"},{"id":"stations_named","ok":true,"detail":"16/16 站皆有名稱","level":"error"},{"id":"station_order","ok":true,"detail":"所有線路站序合理","level":"warn"},{"id":"line_wiki_stations","ok":true,"detail":"各線站數與 wiki 線路條目相符（營運中站數）","level":"error"},{"id":"line_wiki_coverage","ok":false,"detail":"1 條線無 wiki 站數對照：Трамвай 6","level":"warn"}],"reasons":[],"warnings":["1 條線無 wiki 站數對照：Трамвай 6"],"audited_at":"2026-07-27T02:39:35.000Z"}},"features":[{"type":"Feature","properties":{"seg_id":"vladivostok-0","routes":[{"route_id":"rm6749322","route_name":"Трамвай 6","route_name_local":"Трамвай 6","route_name_en":null,"route_ref":"6","route_color":null,"wikipedia":null,"osm_route_ids":[6749318,6749319],"status":null,"order_suspect":0,"span_suspect":0,"stations":[{"station_id":"n9258728737","station_name":"Сахалинская"},{"station_id":"n1874777418","station_name":"Новожилова"},{"station_id":"n9258728734","station_name":"Борисенко"},{"station_id":"n4561009738","station_name":"Клубная"},{"station_id":"n1874777419","station_name":"Школьная"},{"station_id":"n4528962122","station_name":"Стадион"},{"station_id":"n4561013843","station_name":"Спортивная"},{"station_id":"n303200638","station_name":"Луговая ул."},{"station_id":"n303201116","station_name":"Поликлиника"},{"station_id":"n303201132","station_name":"Минный городок"}]}],"route_count":1,"route_refs":["6"],"route_colors":["#e11d48"],"city":"Vladivostok","country":"Russia"},"geometry":{"type":"MultiLineString","coordinates":[[[131.966096925,43.09768495],[131.96008782500002,43.0969554],[131.954645125,43.0975983],[131.949082525,43.1005897],[131.945175025,43.101322925],[131.940489925,43.102780825],[131.93843400000003,43.105405675],[131.9368191,43.11164765],[131.93802055,43.121165950000005],[131.94045195,43.12628105]]]}},{"type":"Feature","properties":{"station_id":"n9258728734","station_name":"Борисенко / Ул. Борисенко","station_name_local":"Борисенко / Ул. Борисенко","station_name_en":null,"city":"Vladivostok","country":"Russia","lines":["6"],"wikipedia":null,"merged_from":4,"merged_names":[{"station_id":"n9258728734","station_name":"Борисенко","station_name_local":"Борисенко","lines":["6"]},{"station_id":"n302259971","station_name":"Ул. Борисенко","station_name_local":"Ул. Борисенко","lines":["6"]}],"is_terminus":false,"routes":[{"ref":"6","name":"Трамвай 6","route_color":null}],"pass_count":1,"station_degree":2,"codes":null,"is_interchange":false,"station_role":"normal"},"geometry":{"type":"Point","coordinates":[131.954645125,43.0975983]},"__memberLines":{}},{"type":"Feature","properties":{"station_id":"n303200638","station_name":"Луговая ул.","station_name_local":"Луговая ул.","station_name_en":null,"city":"Vladivostok","country":"Russia","lines":["6"],"wikipedia":null,"merged_from":6,"merged_names":null,"is_terminus":false,"routes":[{"ref":"6","name":"Трамвай 6","route_color":null}],"pass_count":1,"station_degree":2,"codes":null,"is_interchange":false,"station_role":"normal"},"geometry":{"type":"Point","coordinates":[131.9368191,43.11164765]},"__memberLines":{}},{"type":"Feature","properties":{"station_id":"n303201116","station_name":"Поликлиника","station_name_local":"Поликлиника","station_name_en":null,"city":"Vladivostok","country":"Russia","lines":["6"],"wikipedia":null,"merged_from":4,"merged_names":null,"is_terminus":false,"routes":[{"ref":"6","name":"Трамвай 6","route_color":null}],"pass_count":1,"station_degree":2,"codes":null,"is_interchange":false,"station_role":"normal"},"geometry":{"type":"Point","coordinates":[131.93802055,43.121165950000005]},"__memberLines":{}},{"type":"Feature","properties":{"station_id":"n303201132","station_name":"Минный городок","station_name_local":"Минный городок","station_name_en":null,"city":"Vladivostok","country":"Russia","lines":["6"],"wikipedia":null,"merged_from":2,"merged_names":null,"is_terminus":true,"routes":[{"ref":"6","name":"Трамвай 6","route_color":null}],"pass_count":1,"station_degree":1,"codes":null,"is_interchange":false,"station_role":"terminus"},"geometry":{"type":"Point","coordinates":[131.94045195,43.12628105]},"__memberLines":{}},{"type":"Feature","properties":{"station_id":"n4561013843","station_name":"Спортивная","station_name_local":"Спортивная","station_name_en":null,"city":"Vladivostok","country":"Russia","lines":["6"],"wikipedia":null,"merged_from":4,"merged_names":null,"is_terminus":false,"routes":[{"ref":"6","name":"Трамвай 6","route_color":null}],"pass_count":1,"station_degree":2,"codes":null,"is_interchange":false,"station_role":"normal"},"geometry":{"type":"Point","coordinates":[131.93843400000003,43.105405675]},"__memberLines":{}},{"type":"Feature","properties":{"station_id":"n9258728737","station_name":"Сахалинская","station_name_local":"Сахалинская","station_name_en":null,"city":"Vladivostok","country":"Russia","lines":["6"],"wikipedia":null,"merged_from":4,"merged_names":null,"is_terminus":true,"routes":[{"ref":"6","name":"Трамвай 6","route_color":null}],"pass_count":1,"station_degree":1,"codes":null,"is_interchange":false,"station_role":"terminus"},"geometry":{"type":"Point","coordinates":[131.966096925,43.09768495]},"__memberLines":{}},{"type":"Feature","properties":{"station_id":"n1874777419","station_name":"Школьная","station_name_local":"Школьная","station_name_en":null,"city":"Vladivostok","country":"Russia","lines":["6"],"wikipedia":null,"merged_from":4,"merged_names":null,"is_terminus":false,"routes":[{"ref":"6","name":"Трамвай 6","route_color":null}],"pass_count":1,"station_degree":2,"codes":null,"is_interchange":false,"station_role":"normal"},"geometry":{"type":"Point","coordinates":[131.945175025,43.101322925]},"__memberLines":{}},{"type":"Feature","properties":{"station_id":"n1874777418","station_name":"Новожилова / Ул. Новожилова","station_name_local":"Новожилова / Ул. Новожилова","station_name_en":null,"city":"Vladivostok","country":"Russia","lines":["6"],"wikipedia":null,"merged_from":4,"merged_names":[{"station_id":"n1874777418","station_name":"Новожилова","station_name_local":"Новожилова","lines":["6"]},{"station_id":"n4528962126","station_name":"Ул. Новожилова","station_name_local":"Ул. Новожилова","lines":["6"]}],"is_terminus":false,"routes":[{"ref":"6","name":"Трамвай 6","route_color":null}],"pass_count":1,"station_degree":2,"codes":null,"is_interchange":false,"station_role":"normal"},"geometry":{"type":"Point","coordinates":[131.96008782500002,43.0969554]},"__memberLines":{}},{"type":"Feature","properties":{"station_id":"n4528962122","station_name":"Стадион","station_name_local":"Стадион","station_name_en":null,"city":"Vladivostok","country":"Russia","lines":["6"],"wikipedia":null,"merged_from":4,"merged_names":null,"is_terminus":false,"routes":[{"ref":"6","name":"Трамвай 6","route_color":null}],"pass_count":1,"station_degree":2,"codes":null,"is_interchange":false,"station_role":"normal"},"geometry":{"type":"Point","coordinates":[131.940489925,43.102780825]},"__memberLines":{}},{"type":"Feature","properties":{"station_id":"n4561009738","station_name":"Клубная","station_name_local":"Клубная","station_name_en":null,"city":"Vladivostok","country":"Russia","lines":["6"],"wikipedia":null,"merged_from":4,"merged_names":null,"is_terminus":false,"routes":[{"ref":"6","name":"Трамвай 6","route_color":null}],"pass_count":1,"station_degree":2,"codes":null,"is_interchange":false,"station_role":"normal"},"geometry":{"type":"Point","coordinates":[131.949082525,43.1005897]},"__memberLines":{}}]}