{"type":"FeatureCollection","features":[{"type":"Feature","properties":{"way_id":1182327137,"route_colors":[],"route_refs":["1","2","3"]},"geometry":{"type":"LineString","coordinates":[[19.1275929,50.7930878],[19.1272496,50.793302],[19.127221,50.7932837],[19.1275643,50.7930695],[19.1275929,50.7930878]]}},{"type":"Feature","properties":{"way_id":325579662,"route_colors":[],"route_refs":["1"]},"geometry":{"type":"LineString","coordinates":[[19.1730516,50.790379],[19.1730652,50.7903788],[19.17308,50.7903786],[19.1730795,50.7903647],[19.1730701,50.7901223],[19.1730417,50.7901227],[19.1730516,50.790379]]}},{"type":"Feature","properties":{"way_id":325571834,"route_colors":[],"route_refs":["1"]},"geometry":{"type":"LineString","coordinates":[[19.1608427,50.7923262],[19.1612064,50.792524],[19.1611966,50.7925311],[19.1611838,50.7925409],[19.1608186,50.7923442],[19.1608307,50.7923351],[19.1608427,50.7923262]]}},{"type":"Feature","properties":{"way_id":325571839,"route_colors":[],"route_refs":["1"]},"geometry":{"type":"LineString","coordinates":[[19.1555691,50.7895247],[19.1555761,50.7895191],[19.1555824,50.7895141],[19.1551911,50.7893042],[19.15518,50.7893127],[19.1551639,50.7893245],[19.1552169,50.7893527],[19.1552787,50.7893857],[19.1552921,50.7893757],[19.1555691,50.7895247]]}},{"type":"Feature","properties":{"way_id":325571838,"route_colors":[],"route_refs":["1","2"]},"geometry":{"type":"LineString","coordinates":[[19.1483591,50.7864391],[19.1489037,50.786622],[19.1488918,50.7866366],[19.1487846,50.7865993],[19.1487786,50.7866071],[19.1487736,50.7866136],[19.1483347,50.7864685],[19.1483476,50.7864529],[19.1483591,50.7864391]]}},{"type":"Feature","properties":{"way_id":325688699,"route_colors":[],"route_refs":["1","2"]},"geometry":{"type":"LineString","coordinates":[[19.1439732,50.7849981],[19.1439857,50.7849823],[19.1434257,50.7848105],[19.1434193,50.7848196],[19.1434125,50.7848293],[19.14395,50.7849911],[19.1439732,50.7849981]]}},{"type":"Feature","properties":{"way_id":325527772,"route_colors":[],"route_refs":["1","2","3"]},"geometry":{"type":"LineString","coordinates":[[19.1404722,50.7848821],[19.1405054,50.7849043],[19.1409177,50.7846581],[19.1409049,50.7846507],[19.1408845,50.7846359],[19.1404722,50.7848821]]}},{"type":"Feature","properties":{"way_id":325527778,"route_colors":[],"route_refs":["1","2","3"]},"geometry":{"type":"LineString","coordinates":[[19.1381269,50.7863341],[19.1381581,50.7863537],[19.1378172,50.7865705],[19.1378021,50.786561],[19.1377859,50.7865508],[19.1381269,50.7863341]]}},{"type":"Feature","properties":{"way_id":325527764,"route_colors":[],"route_refs":["1","2","3"]},"geometry":{"type":"LineString","coordinates":[[19.1334055,50.7893452],[19.1330718,50.7895583],[19.1331057,50.7895775],[19.1334328,50.7893656],[19.1334055,50.7893452]]}},{"type":"Feature","properties":{"way_id":315520347,"route_colors":[],"route_refs":["1","2","3"]},"geometry":{"type":"LineString","coordinates":[[19.1180584,50.8015489],[19.1180465,50.8015487],[19.1180318,50.8015486],[19.1180166,50.8016172],[19.1180045,50.8016928],[19.1179958,50.8017397],[19.1179893,50.8017827],[19.1179822,50.8018328],[19.1179793,50.8018793],[19.1179874,50.8018794],[19.1180082,50.8018791],[19.1180092,50.8018264],[19.1180208,50.8017514],[19.1180584,50.8015489]]}},{"type":"Feature","properties":{"way_id":325527777,"route_colors":[],"route_refs":["1","2","3"]},"geometry":{"type":"LineString","coordinates":[[19.1182929,50.8090212],[19.11828,50.8087036],[19.1183056,50.8087032],[19.1183184,50.8090208],[19.1182929,50.8090212]]}},{"type":"Feature","properties":{"way_id":325527776,"route_colors":[],"route_refs":["1","2","3"]},"geometry":{"type":"LineString","coordinates":[[19.1184294,50.8116196],[19.1184001,50.81162],[19.1183901,50.8112608],[19.1184194,50.8112605],[19.1184294,50.8116196]]}},{"type":"Feature","properties":{"way_id":325527773,"route_colors":[],"route_refs":["1","2","3"]},"geometry":{"type":"LineString","coordinates":[[19.1181658,50.8213013],[19.1182234,50.8213078],[19.1181702,50.821472],[19.1181506,50.8215298],[19.1180999,50.8217063],[19.1180714,50.8217029],[19.1180519,50.8217006],[19.1181658,50.8213013]]}},{"type":"Feature","properties":{"way_id":325527765,"route_colors":[],"route_refs":["1","2","3"]},"geometry":{"type":"LineString","coordinates":[[19.1169413,50.8262302],[19.1170086,50.8259569],[19.1170128,50.8259295],[19.1170455,50.8259311],[19.1170439,50.8259578],[19.1170308,50.82601],[19.1170244,50.8260353],[19.1170182,50.8260599],[19.1169992,50.8261353],[19.1169929,50.8261601],[19.1169873,50.8261825],[19.1169745,50.8262335],[19.1169413,50.8262302]]}},{"type":"Feature","properties":{"way_id":325527780,"route_colors":[],"route_refs":["1","2","3"]},"geometry":{"type":"LineString","coordinates":[[19.1159239,50.8298726],[19.11597,50.8298795],[19.1159618,50.8299137],[19.1158691,50.830292],[19.1158122,50.8302862],[19.1158268,50.8302251],[19.1159239,50.8298726]]}},{"type":"Feature","properties":{"way_id":325527789,"route_colors":[],"route_refs":["1","2","3"]},"geometry":{"type":"LineString","coordinates":[[19.1164315,50.8326637],[19.1166019,50.8329785],[19.1166447,50.8329716],[19.1164708,50.8326556],[19.1164315,50.8326637]]}},{"type":"Feature","properties":{"way_id":325527770,"route_colors":[],"route_refs":["1","2","3"]},"geometry":{"type":"LineString","coordinates":[[19.1258415,50.838196],[19.1258293,50.8382059],[19.1258128,50.8382194],[19.126367,50.8384494],[19.1263703,50.8384462],[19.1263814,50.8384354],[19.1263927,50.8384245],[19.1258415,50.838196]]}},{"type":"Feature","properties":{"way_id":325527760,"route_colors":[],"route_refs":["1","2","3"]},"geometry":{"type":"LineString","coordinates":[[19.1289996,50.8394904],[19.1289684,50.8395184],[19.1295155,50.8397429],[19.1295461,50.8397109],[19.1289996,50.8394904]]}},{"type":"Feature","properties":{"way_id":325527787,"route_colors":[],"route_refs":["1"]},"geometry":{"type":"LineString","coordinates":[[19.1730296,50.7902818],[19.1730307,50.7903774],[19.1730309,50.7903978],[19.1730208,50.7904507],[19.1729972,50.7904851],[19.1729528,50.7905247],[19.1728993,50.7905533],[19.1728412,50.7905763],[19.1727596,50.7905952],[19.1726236,50.7906175]]}},{"type":"Feature","properties":{"way_id":37330624,"route_colors":[],"route_refs":["1"]},"geometry":{"type":"LineString","coordinates":[[19.1726236,50.7906175],[19.1717763,50.7907598],[19.1715497,50.7908009],[19.1697457,50.7911134],[19.1693947,50.7911805],[19.1690537,50.7912573],[19.1686855,50.7913491],[19.1683825,50.7914328],[19.1680737,50.7915257],[19.1676714,50.7916615],[19.1673785,50.7917693],[19.1671118,50.7918754],[19.1667708,50.7920216],[19.1665203,50.7921356],[19.1656496,50.7925595]]}},{"type":"Feature","properties":{"way_id":325579658,"route_colors":[],"route_refs":["1"]},"geometry":{"type":"LineString","coordinates":[[19.1656496,50.7925595],[19.1653102,50.7927247]]}},{"type":"Feature","properties":{"way_id":35882883,"route_colors":[],"route_refs":["1"]},"geometry":{"type":"LineString","coordinates":[[19.1653102,50.7927247],[19.1648239,50.7929615],[19.164696,50.7930234],[19.1646144,50.7930572],[19.1645282,50.7930859],[19.1644493,50.7931065],[19.1643695,50.7931226],[19.1642598,50.7931375],[19.1641691,50.7931426],[19.1640711,50.7931403],[19.163965,50.7931329],[19.1636811,50.7931059],[19.1635768,50.7931031],[19.1634997,50.7931054],[19.1634163,50.7931128],[19.1633319,50.7931249],[19.1631668,50.7931598],[19.1630275,50.7931868],[19.1629,50.7932043],[19.1627977,50.7932121],[19.1627223,50.7932115],[19.1626659,50.7932082],[19.1625944,50.7932003],[19.1625165,50.7931856],[19.1624422,50.7931604],[19.1623699,50.7931274],[19.1617312,50.7927862],[19.161,50.7923994],[19.1607365,50.7922519],[19.1605978,50.7921792],[19.1603957,50.7920733],[19.1587226,50.7911828]]}},{"type":"Feature","properties":{"way_id":208200974,"route_colors":[],"route_refs":["1"]},"geometry":{"type":"LineString","coordinates":[[19.1587226,50.7911828],[19.1582662,50.7909397]]}},{"type":"Feature","properties":{"way_id":208200966,"route_colors":[],"route_refs":["1"]},"geometry":{"type":"LineString","coordinates":[[19.1582662,50.7909397],[19.155342,50.789369],[19.1551707,50.7892774],[19.1551353,50.7892585]]}},{"type":"Feature","properties":{"way_id":182383594,"route_colors":[],"route_refs":["1"]},"geometry":{"type":"LineString","coordinates":[[19.1551353,50.7892585],[19.1525598,50.7878831]]}},{"type":"Feature","properties":{"way_id":35901309,"route_colors":[],"route_refs":["1"]},"geometry":{"type":"LineString","coordinates":[[19.1525598,50.7878831],[19.1523928,50.7878037],[19.152222,50.7877272],[19.1520691,50.7876669],[19.1519169,50.7876101],[19.1508764,50.7872651],[19.1507011,50.7872061]]}},{"type":"Feature","properties":{"way_id":43687471,"route_colors":[],"route_refs":["1","2"]},"geometry":{"type":"LineString","coordinates":[[19.1507011,50.7872061],[19.1506014,50.7871719],[19.1505524,50.7871554],[19.1486136,50.786509],[19.148437,50.7864503],[19.1483297,50.7864146],[19.1481621,50.7863606],[19.1479737,50.7862973],[19.1457475,50.7855574],[19.1445591,50.7851594],[19.1439577,50.7849591],[19.14364,50.7848626],[19.1433781,50.7847809],[19.1431017,50.7847004],[19.1424137,50.7845219],[19.142186,50.7844827],[19.1419551,50.7844582],[19.1417327,50.7844453],[19.1416274,50.7844464],[19.1414769,50.7844546],[19.1414492,50.784458],[19.1413206,50.7844737],[19.1412091,50.7844917],[19.1411136,50.7845135],[19.1410267,50.7845424],[19.1409382,50.784586]]}},{"type":"Feature","properties":{"way_id":270569365,"route_colors":[],"route_refs":["1","2","3"]},"geometry":{"type":"LineString","coordinates":[[19.1409382,50.784586],[19.1408897,50.7846162],[19.1408166,50.7846617],[19.1405934,50.7847923],[19.1401405,50.7850617],[19.1397843,50.7852633],[19.1379421,50.7864367],[19.1377297,50.7865722],[19.1375651,50.7866771],[19.1375063,50.7867151],[19.1374117,50.7867762],[19.1372233,50.7868978],[19.1367268,50.7872196],[19.1366564,50.7872641],[19.1361044,50.7876127]]}},{"type":"Feature","properties":{"way_id":726972748,"route_colors":[],"route_refs":["1","2","3"]},"geometry":{"type":"LineString","coordinates":[[19.1361044,50.7876127],[19.1335139,50.7892613],[19.1331754,50.7894794],[19.1330217,50.789576],[19.1328756,50.7896677],[19.1328082,50.7897133],[19.132557,50.7898735],[19.1324226,50.7899585],[19.1273125,50.7932127],[19.1271861,50.7932948],[19.1270517,50.7933819],[19.1269485,50.79348],[19.1269073,50.7935227],[19.126906,50.7935241],[19.1268112,50.7936227],[19.1250658,50.7954838]]}},{"type":"Feature","properties":{"way_id":219106727,"route_colors":[],"route_refs":["1","2","3"]},"geometry":{"type":"LineString","coordinates":[[19.1250658,50.7954838],[19.1246316,50.7959509]]}},{"type":"Feature","properties":{"way_id":219106742,"route_colors":[],"route_refs":["1","2","3"]},"geometry":{"type":"LineString","coordinates":[[19.1246316,50.7959509],[19.1242445,50.7963572],[19.124112,50.7964768],[19.1239452,50.7966209],[19.1236138,50.7968718]]}},{"type":"Feature","properties":{"way_id":35884405,"route_colors":[],"route_refs":["1","2","3"]},"geometry":{"type":"LineString","coordinates":[[19.1236138,50.7968718],[19.121726,50.7983611]]}},{"type":"Feature","properties":{"way_id":35884404,"route_colors":[],"route_refs":["1","2","3"]},"geometry":{"type":"LineString","coordinates":[[19.121726,50.7983611],[19.1207197,50.7991372],[19.1198636,50.7997619],[19.1185276,50.8007281],[19.1184218,50.8008152],[19.1183499,50.8008787],[19.1183257,50.8009003],[19.1182695,50.8009624],[19.1181751,50.8010955],[19.1181074,50.8012301],[19.1180904,50.8012634],[19.1180791,50.8012889],[19.118069,50.8013223],[19.1180609,50.8013517],[19.1180535,50.8013811],[19.1180313,50.8014447],[19.1180225,50.8014749],[19.1180137,50.8015257],[19.1179829,50.8016374],[19.1179728,50.8016736],[19.1179514,50.8018067],[19.1179431,50.8018983],[19.117943,50.8020289],[19.1179856,50.8028672],[19.1180142,50.8034799],[19.1180315,50.8037832],[19.1180458,50.8040381],[19.1180493,50.8040853],[19.1180499,50.8040923],[19.1180519,50.8041112],[19.1180553,50.8041388],[19.1180611,50.8041735],[19.1180664,50.8042024],[19.1180704,50.8042226],[19.1180762,50.8042488],[19.118082,50.804276],[19.1180879,50.8042995],[19.1180942,50.8043223],[19.1181025,50.8043525],[19.1181088,50.8043737],[19.1181323,50.8044477],[19.1183508,50.8050673],[19.1183646,50.8051079],[19.1183806,50.8051577],[19.118396,50.8052199],[19.1184098,50.805286],[19.1184123,50.8053143],[19.1184208,50.8054125],[19.1184219,50.8054224],[19.1184238,50.8054489],[19.1184241,50.8054973],[19.1184171,50.8055822],[19.1184103,50.8056496],[19.118406,50.8056774],[19.1183978,50.8057071],[19.1183834,50.8057666],[19.1183699,50.8058196],[19.1183569,50.805861],[19.1183454,50.805891],[19.1183295,50.8059315],[19.1183011,50.8059996],[19.1182605,50.806097],[19.1182312,50.8061754],[19.1182222,50.8061995],[19.1181982,50.806269],[19.118187,50.8063132],[19.1181782,50.806367],[19.1181699,50.8064477],[19.1181693,50.8065617],[19.1181702,50.806702],[19.1181739,50.8067826],[19.1181923,50.8071787],[19.1182089,50.807555],[19.1182179,50.8077591],[19.1182445,50.8083601],[19.1182521,50.8084662],[19.1182605,50.8086748],[19.1182745,50.8089951],[19.1182835,50.809208],[19.1182957,50.8094983],[19.1183158,50.8099766],[19.1183299,50.8103123],[19.1183351,50.8104336],[19.1183435,50.8106307],[19.1183491,50.8107638],[19.1183781,50.8114739],[19.1183881,50.8116859],[19.1184017,50.8118315],[19.1184108,50.811935],[19.1184216,50.8120353],[19.1184245,50.8120779],[19.1184293,50.8121474],[19.1184465,50.8125364],[19.1184793,50.8134749],[19.1184928,50.8138545],[19.118501,50.8140883],[19.1185093,50.8143246],[19.1185176,50.8145605],[19.1185257,50.8147926],[19.1185592,50.8156835],[19.1185625,50.8158273],[19.1185662,50.8159623],[19.1185817,50.8163232],[19.1186081,50.8171711],[19.1186105,50.8173493],[19.1186094,50.8174513],[19.1186078,50.8175415],[19.1186006,50.8177261],[19.1185883,50.8179682],[19.1185855,50.8180506],[19.1185845,50.8180813],[19.1184903,50.8198815],[19.1184718,50.8200566],[19.1184469,50.8201551],[19.1184134,50.8202876],[19.1180808,50.8215497],[19.1180363,50.8217187],[19.1180253,50.8217603],[19.1176813,50.8230653],[19.1173694,50.8243],[19.1173631,50.8243443],[19.1173314,50.8246224],[19.1173083,50.8247538],[19.1172754,50.8248773],[19.1171816,50.8252221],[19.1171023,50.8255255],[19.1170747,50.8256341],[19.1170508,50.8257239],[19.1169867,50.8259549],[19.1169365,50.8261514],[19.1168241,50.8265485],[19.1167823,50.8266665],[19.116704,50.826888],[19.116618,50.827151],[19.1165528,50.8273961],[19.1158082,50.8302095],[19.1157985,50.8302595],[19.1157882,50.8303386],[19.115777,50.8304421],[19.1157764,50.8305436],[19.1157898,50.8306421],[19.1158022,50.8307272],[19.1161521,50.8320777],[19.1162493,50.8323318],[19.1165043,50.8328381],[19.1165956,50.8330245],[19.1165995,50.8330347],[19.116662,50.8331887],[19.1167126,50.8333096],[19.1170721,50.8342128],[19.1170828,50.8342398],[19.1170989,50.8342781],[19.1171252,50.8343403]]}},{"type":"Feature","properties":{"way_id":726972746,"route_colors":[],"route_refs":["1","2","3"]},"geometry":{"type":"LineString","coordinates":[[19.1171252,50.8343403],[19.1172035,50.8345119],[19.1172496,50.8345782],[19.1172895,50.8346253],[19.1173172,50.8346586],[19.1173441,50.8346842],[19.1173819,50.8347202],[19.1174067,50.8347403],[19.1174327,50.834763],[19.1174637,50.8347848],[19.1174884,50.8348021],[19.1175428,50.8348369],[19.117583,50.8348619],[19.1176207,50.8348825],[19.1176739,50.8349081],[19.1177395,50.8349371],[19.1177805,50.8349557],[19.1178091,50.8349666],[19.1178494,50.8349828],[19.1182214,50.8351071],[19.1184243,50.835177],[19.1188205,50.8353278],[19.1189003,50.8353585],[19.1189845,50.8353848],[19.1190923,50.8354186],[19.1192177,50.8354546],[19.1193461,50.8354832],[19.1197246,50.8355533],[19.1199718,50.8355988],[19.1201144,50.8356251],[19.1202436,50.8356505],[19.1204652,50.8357115],[19.1206449,50.8357811],[19.1207723,50.8358342],[19.12099,50.8359482],[19.1212353,50.8361382]]}},{"type":"Feature","properties":{"way_id":59960177,"route_colors":[],"route_refs":["1","2","3"]},"geometry":{"type":"LineString","coordinates":[[19.1212353,50.8361382],[19.1216202,50.8364743]]}},{"type":"Feature","properties":{"way_id":59960132,"route_colors":[],"route_refs":["1","2","3"]},"geometry":{"type":"LineString","coordinates":[[19.1216202,50.8364743],[19.1217128,50.836534],[19.1219016,50.8366227],[19.1242051,50.8375532],[19.125597,50.8381401],[19.1260956,50.8383503],[19.1283534,50.8392775],[19.1289016,50.8395026],[19.1293809,50.8397038]]}},{"type":"Feature","properties":{"way_id":550410174,"route_colors":[],"route_refs":["1"]},"geometry":{"type":"LineString","coordinates":[[19.1729546,50.7902796],[19.1729564,50.790367],[19.1729546,50.7903893],[19.1729428,50.7904289],[19.1729247,50.7904599],[19.1729002,50.7904891],[19.1728648,50.7905195],[19.1728222,50.7905505],[19.1727605,50.7905814],[19.1726961,50.7906015],[19.1726236,50.7906175]]}},{"type":"Feature","properties":{"way_id":1284690608,"route_colors":[],"route_refs":["1","3"]},"geometry":{"type":"LineString","coordinates":[[19.1184146,50.8057261],[19.1183965,50.8057894],[19.1183857,50.8058284],[19.1183718,50.8058685],[19.1183568,50.8059075],[19.1183441,50.8059391],[19.118331,50.8059707],[19.1182883,50.8060722],[19.1183456,50.8060817],[19.1183817,50.8060051],[19.1184013,50.8059545],[19.1184223,50.8058982],[19.1184331,50.8058644],[19.1184473,50.8058225],[19.1184573,50.8057919],[19.1184735,50.805732],[19.1184146,50.8057261]]}},{"type":"Feature","properties":{"way_id":325527783,"route_colors":[],"route_refs":["1","2","3"]},"geometry":{"type":"LineString","coordinates":[[19.1288828,50.8396048],[19.1290941,50.8396919],[19.1291664,50.8397217],[19.1294235,50.8398277],[19.1294409,50.8398109],[19.1294611,50.8397915],[19.1289167,50.8395689],[19.1288828,50.8396048]]}},{"type":"Feature","properties":{"way_id":325527769,"route_colors":[],"route_refs":["1","2","3"]},"geometry":{"type":"LineString","coordinates":[[19.1268157,50.8387417],[19.1273613,50.8389655],[19.1273735,50.8389532],[19.1273881,50.8389385],[19.1268392,50.8387182],[19.1268263,50.8387309],[19.1268157,50.8387417]]}},{"type":"Feature","properties":{"way_id":325527788,"route_colors":[],"route_refs":["1","2","3"]},"geometry":{"type":"LineString","coordinates":[[19.1165692,50.8333166],[19.1165802,50.8332905],[19.1166064,50.8332666],[19.1166308,50.8333185],[19.1168102,50.8337472],[19.1167878,50.8337511],[19.1167722,50.8337535],[19.1167427,50.8337584],[19.1165782,50.8333625],[19.1165709,50.8333253],[19.1165692,50.8333166]]}},{"type":"Feature","properties":{"way_id":325527782,"route_colors":[],"route_refs":["1","2","3"]},"geometry":{"type":"LineString","coordinates":[[19.1158429,50.8298733],[19.1158014,50.8298707],[19.1156971,50.830266],[19.1157437,50.8302747],[19.1158429,50.8298733]]}},{"type":"Feature","properties":{"way_id":325527761,"route_colors":[],"route_refs":["1","2","3"]},"geometry":{"type":"LineString","coordinates":[[19.1169422,50.8259193],[19.1169336,50.8259494],[19.1168426,50.8262724],[19.11681,50.8262678],[19.1167875,50.8262659],[19.1168072,50.8261758],[19.1168098,50.826084],[19.116809,50.8260255],[19.1168166,50.8259891],[19.116835,50.8259227],[19.1168523,50.8259246],[19.1168788,50.8259275],[19.1169015,50.82593],[19.1169073,50.8259154],[19.1169422,50.8259193]]}},{"type":"Feature","properties":{"way_id":325527781,"route_colors":[],"route_refs":["1","2","3"]},"geometry":{"type":"LineString","coordinates":[[19.1179159,50.8217933],[19.1179423,50.8217964],[19.1179599,50.8217983],[19.1178016,50.822375],[19.1177606,50.822371],[19.1179104,50.8218139],[19.1179159,50.8217933]]}},{"type":"Feature","properties":{"way_id":325527792,"route_colors":[],"route_refs":["1","2","3"]},"geometry":{"type":"LineString","coordinates":[[19.1184776,50.8177411],[19.118508,50.8177415],[19.1185395,50.8177419],[19.1185271,50.8180907],[19.1184652,50.8180898],[19.1184737,50.8178623],[19.1184752,50.8178091],[19.1184776,50.8177411]]}},{"type":"Feature","properties":{"way_id":325527786,"route_colors":[],"route_refs":["1","2","3"]},"geometry":{"type":"LineString","coordinates":[[19.1183339,50.8121878],[19.1183543,50.8121875],[19.1183757,50.8121871],[19.1183884,50.8125239],[19.1183464,50.8125246],[19.1183435,50.8124095],[19.1183411,50.812354],[19.1183339,50.8121878]]}},{"type":"Feature","properties":{"way_id":325527784,"route_colors":[],"route_refs":["1","2","3"]},"geometry":{"type":"LineString","coordinates":[[19.1181652,50.8080014],[19.1181373,50.8080018],[19.1181163,50.808015],[19.1181328,50.8083165],[19.1181569,50.8083161],[19.1181832,50.8083156],[19.1181652,50.8080014]]}},{"type":"Feature","properties":{"way_id":325527759,"route_colors":[],"route_refs":["1","2","3"]},"geometry":{"type":"LineString","coordinates":[[19.1179269,50.8015372],[19.1179371,50.8015377],[19.1179475,50.8015381],[19.1179277,50.8016379],[19.1179076,50.8017772],[19.1178978,50.8018456],[19.1178926,50.8019208],[19.1178685,50.8019206],[19.1178651,50.8018304],[19.1178703,50.8017585],[19.1178741,50.8016913],[19.1178824,50.8016129],[19.1179269,50.8015372]]}},{"type":"Feature","properties":{"way_id":325527774,"route_colors":[],"route_refs":["1","2","3"]},"geometry":{"type":"LineString","coordinates":[[19.1268033,50.7935198],[19.1268184,50.7935255],[19.1268343,50.7935314],[19.1265877,50.7937959],[19.1265568,50.7937843],[19.1268033,50.7935198]]}},{"type":"Feature","properties":{"way_id":325527771,"route_colors":[],"route_refs":["1","2","3"]},"geometry":{"type":"LineString","coordinates":[[19.132097,50.7900869],[19.1321224,50.7901028],[19.1324829,50.7898728],[19.1324678,50.7898634],[19.1324574,50.7898569],[19.132097,50.7900869]]}},{"type":"Feature","properties":{"way_id":325527766,"route_colors":[],"route_refs":["1","2","3"]},"geometry":{"type":"LineString","coordinates":[[19.1369674,50.7869751],[19.1369961,50.7869928],[19.1373335,50.7867747],[19.13732,50.7867664],[19.1373048,50.786757],[19.1369674,50.7869751]]}},{"type":"Feature","properties":{"way_id":325527775,"route_colors":[],"route_refs":["1","2","3"]},"geometry":{"type":"LineString","coordinates":[[19.1403746,50.7848148],[19.1407715,50.7845668],[19.1408014,50.7845852],[19.1408148,50.7845942],[19.1404056,50.7848378],[19.1403746,50.7848148]]}},{"type":"Feature","properties":{"way_id":325688701,"route_colors":[],"route_refs":["1","2"]},"geometry":{"type":"LineString","coordinates":[[19.1434787,50.7847467],[19.1434715,50.7847559],[19.1434647,50.7847645],[19.1440209,50.7849372],[19.1440227,50.7849351],[19.1440349,50.784921],[19.1434787,50.7847467]]}},{"type":"Feature","properties":{"way_id":325571833,"route_colors":[],"route_refs":["1","2"]},"geometry":{"type":"LineString","coordinates":[[19.1475486,50.7860787],[19.1478122,50.7861656],[19.1478148,50.7861666],[19.1478912,50.786192],[19.1479585,50.786214],[19.1479934,50.7862255],[19.1479827,50.7862385],[19.147971,50.7862527],[19.1474173,50.7860683],[19.1473599,50.7860464],[19.1473449,50.7860414],[19.1470986,50.7859591],[19.1471102,50.785945],[19.1473684,50.7860302],[19.1474276,50.7860461],[19.1475486,50.7860787]]}},{"type":"Feature","properties":{"way_id":325571835,"route_colors":[],"route_refs":["1"]},"geometry":{"type":"LineString","coordinates":[[19.1556144,50.7894672],[19.1556263,50.7894581],[19.1552552,50.7892561],[19.1552481,50.7892614],[19.1552415,50.7892664],[19.1556144,50.7894672]]}},{"type":"Feature","properties":{"way_id":325571832,"route_colors":[],"route_refs":["1"]},"geometry":{"type":"LineString","coordinates":[[19.159983,50.791806],[19.1606084,50.7921396],[19.1606142,50.7921351],[19.1606221,50.7921288],[19.1599992,50.7917939],[19.159983,50.791806]]}},{"type":"Feature","properties":{"way_id":325579663,"route_colors":[],"route_refs":["1"]},"geometry":{"type":"LineString","coordinates":[[19.1716763,50.7907402],[19.1716739,50.7907335],[19.1716671,50.7907183],[19.1712054,50.7907962],[19.1712096,50.7908059],[19.1712153,50.7908193],[19.1716763,50.7907402]]}},{"type":"Feature","properties":{"way_id":325527790,"route_colors":[],"route_refs":["1","2","3"]},"geometry":{"type":"LineString","coordinates":[[19.1291131,50.8396372],[19.128825,50.8395185],[19.1283173,50.8393098],[19.1270848,50.8388032],[19.1263015,50.838484],[19.125558,50.8381755],[19.1241538,50.837593],[19.1218487,50.836653],[19.1216666,50.8365677],[19.1215591,50.8364943]]}},{"type":"Feature","properties":{"way_id":35813666,"route_colors":[],"route_refs":["1","2","3"]},"geometry":{"type":"LineString","coordinates":[[19.1215591,50.8364943],[19.1211796,50.836163]]}},{"type":"Feature","properties":{"way_id":35813664,"route_colors":[],"route_refs":["1","2","3"]},"geometry":{"type":"LineString","coordinates":[[19.1211796,50.836163],[19.1209331,50.8359709],[19.120738,50.8358636],[19.1205839,50.8358006],[19.1204317,50.8357438],[19.1202198,50.8356838],[19.1200968,50.8356613],[19.1197759,50.8356007],[19.1194576,50.8355421],[19.1193292,50.8355187],[19.1191399,50.8354711],[19.1188478,50.8353762],[19.1182813,50.8351734]]}},{"type":"Feature","properties":{"way_id":726972745,"route_colors":[],"route_refs":["1","2","3"]},"geometry":{"type":"LineString","coordinates":[[19.1182813,50.8351734],[19.118017,50.8350869],[19.1179389,50.8350613],[19.1179154,50.8350518],[19.117707,50.8349712],[19.1176424,50.8349416],[19.1176085,50.8349257],[19.1175701,50.8349053],[19.1175283,50.8348819],[19.1174849,50.8348549],[19.117441,50.8348263],[19.1174022,50.8347984],[19.117366,50.8347702],[19.117342,50.8347497],[19.1173197,50.8347293],[19.1172946,50.8347057],[19.1172325,50.834642],[19.1171499,50.8345281],[19.1170335,50.8342468],[19.1170237,50.8342201],[19.1167809,50.8336278],[19.1167099,50.8334521],[19.1166556,50.8333159],[19.1166075,50.833194],[19.1165388,50.8330331],[19.1162123,50.8323386],[19.1161141,50.8320866],[19.1157507,50.8307047],[19.1157409,50.8306477],[19.1157333,50.8305216],[19.1157375,50.8304331],[19.115748,50.8303362],[19.1157636,50.8302391],[19.1158431,50.8299465],[19.1165083,50.8273921],[19.1165729,50.827145],[19.1166656,50.8268812],[19.1167441,50.8266613],[19.1167847,50.8265474],[19.1169416,50.8260015],[19.1169547,50.8259513],[19.1170122,50.8257205],[19.1170349,50.825631],[19.1170627,50.8255217],[19.1171387,50.8252168],[19.1172368,50.8248728],[19.1172462,50.8248379],[19.117265,50.8247621],[19.1172928,50.8245918],[19.1173114,50.8244108],[19.1173245,50.8243146],[19.1173359,50.8242573],[19.1173523,50.8241688],[19.117642,50.8230592],[19.1179023,50.822072],[19.1179855,50.8217563],[19.1179966,50.8217143],[19.1183735,50.8202846],[19.1184045,50.8201513],[19.1184273,50.8200531],[19.1184464,50.8198791],[19.118547,50.8179694],[19.1185534,50.8178394],[19.118559,50.8177251],[19.1185668,50.8175383],[19.1185678,50.8174487],[19.1185678,50.8173463],[19.1185671,50.8171703],[19.1185256,50.815962],[19.1185182,50.8158245],[19.1185133,50.8156841],[19.1184856,50.8147943],[19.1184774,50.814561],[19.1184692,50.8143249],[19.118461,50.8140894],[19.1184527,50.813855],[19.1184392,50.8134756],[19.1184032,50.8125373],[19.1183968,50.8123541],[19.1183873,50.8121481],[19.1183781,50.8120361],[19.1183685,50.8119356],[19.1183608,50.8118323],[19.118348,50.8116866],[19.118346,50.8116367],[19.1183075,50.8107644],[19.1183016,50.8106314],[19.1182928,50.810434],[19.1182874,50.8103132],[19.1182726,50.8099771],[19.1182515,50.8094985],[19.1182392,50.8092179],[19.1182389,50.8092085],[19.1182325,50.8089959],[19.118218,50.8086752],[19.1182098,50.8084662],[19.118203,50.8083605],[19.1181886,50.8080762],[19.118175,50.8077598],[19.1181662,50.8075561],[19.11815,50.8071794],[19.1181283,50.806783],[19.1181243,50.8066972],[19.1181213,50.806557],[19.1181209,50.8065324],[19.1181235,50.8064875],[19.11813,50.8064163],[19.1181339,50.8063781],[19.1181392,50.8063477],[19.1181434,50.8063282],[19.1181484,50.8062997],[19.1181558,50.8062709],[19.1181655,50.8062377],[19.1181807,50.8061877],[19.1181863,50.8061687],[19.1182378,50.8060425],[19.1183037,50.8058843],[19.1183117,50.8058627],[19.1183344,50.8057934],[19.1183576,50.8057046],[19.1183636,50.8056759],[19.1183792,50.8055197],[19.1183814,50.8054933],[19.118381,50.8054314],[19.1183719,50.8053237],[19.1183662,50.8052776],[19.1183468,50.8051997],[19.1183348,50.8051574],[19.1183103,50.8050748],[19.1180891,50.8044485],[19.1180683,50.8043862],[19.1180622,50.8043671],[19.1180511,50.8043274],[19.1180395,50.8042832],[19.1180344,50.8042629],[19.1180302,50.8042421],[19.1180262,50.8042214],[19.1180223,50.8041995],[19.1180188,50.8041789],[19.1180141,50.8041525],[19.1180112,50.8041285],[19.1180088,50.8041012],[19.1180071,50.8040857],[19.118001,50.8040284],[19.1179897,50.803784],[19.1179757,50.8034801],[19.1179476,50.8028684],[19.1178984,50.8020318],[19.1178974,50.8019361],[19.1179034,50.8018491],[19.11792,50.8017431],[19.1179244,50.8016978],[19.1179426,50.8016112],[19.1179709,50.8015166],[19.1179892,50.8014455],[19.1180124,50.8013783],[19.1180351,50.8012901],[19.1180433,50.8012678],[19.1180712,50.8012058],[19.1181357,50.8010916],[19.1181801,50.8010251],[19.1182301,50.8009535],[19.1182999,50.8008841],[19.1183194,50.8008654],[19.1183231,50.8008619],[19.1183309,50.8008544],[19.1184861,50.8007271],[19.1198291,50.7997522],[19.1206801,50.7991242],[19.1216973,50.7983405]]}},{"type":"Feature","properties":{"way_id":34239144,"route_colors":[],"route_refs":["1","2","3"]},"geometry":{"type":"LineString","coordinates":[[19.1216973,50.7983405],[19.1235825,50.7968615]]}},{"type":"Feature","properties":{"way_id":34239145,"route_colors":[],"route_refs":["1","2","3"]},"geometry":{"type":"LineString","coordinates":[[19.1235825,50.7968615],[19.1239045,50.7966089],[19.1240724,50.7964654],[19.1242018,50.7963514],[19.1245975,50.7959422]]}},{"type":"Feature","properties":{"way_id":219106731,"route_colors":[],"route_refs":["1","2","3"]},"geometry":{"type":"LineString","coordinates":[[19.1245975,50.7959422],[19.1250296,50.7954738]]}},{"type":"Feature","properties":{"way_id":219106723,"route_colors":[],"route_refs":["1","2","3"]},"geometry":{"type":"LineString","coordinates":[[19.1250296,50.7954738],[19.1267728,50.7936102],[19.1268666,50.7935102],[19.1269096,50.7934675],[19.1270206,50.7933674],[19.1271572,50.7932761],[19.1271968,50.7932495],[19.1323892,50.7899421],[19.1325276,50.7898553],[19.1327792,50.7896947],[19.1328328,50.7896606],[19.1329931,50.7895591],[19.1331528,50.7894572],[19.1334888,50.7892416],[19.1361027,50.787574]]}},{"type":"Feature","properties":{"way_id":726972747,"route_colors":[],"route_refs":["1","2","3"]},"geometry":{"type":"LineString","coordinates":[[19.1361027,50.787574],[19.1362419,50.7874852],[19.1365413,50.7872985],[19.1367168,50.787189],[19.1371956,50.7868822],[19.1373857,50.7867596],[19.1374709,50.7867046],[19.1375405,50.7866597],[19.1377035,50.7865554],[19.1379201,50.7864168],[19.1397509,50.7852476],[19.1401004,50.7850363],[19.1405981,50.7847433],[19.1407489,50.7846526],[19.140851,50.7845916],[19.1409127,50.7845547]]}},{"type":"Feature","properties":{"way_id":270569364,"route_colors":[],"route_refs":["1","2"]},"geometry":{"type":"LineString","coordinates":[[19.1409127,50.7845547],[19.1409914,50.7845129],[19.1410716,50.7844863],[19.1411518,50.784464],[19.1412206,50.7844519],[19.1413081,50.7844389],[19.141383,50.7844296],[19.1414687,50.7844203],[19.1415684,50.7844151],[19.1416314,50.7844127],[19.1417343,50.7844148],[19.1418279,50.7844191],[19.1419545,50.7844289],[19.1421932,50.7844559],[19.1424255,50.7844963],[19.1431147,50.7846768],[19.1433958,50.7847569],[19.1437793,50.7848756],[19.1439788,50.7849365],[19.1445776,50.7851345],[19.1457696,50.7855335],[19.1477261,50.786185],[19.1478945,50.7862405],[19.1479931,50.786273],[19.1481824,50.7863362],[19.1483476,50.7863913],[19.1505721,50.7871314],[19.1506224,50.7871481],[19.1507267,50.7871842]]}},{"type":"Feature","properties":{"way_id":43687472,"route_colors":[],"route_refs":["1"]},"geometry":{"type":"LineString","coordinates":[[19.1507267,50.7871842],[19.151937,50.7875863],[19.1520925,50.7876443],[19.1522482,50.7877064],[19.1524196,50.7877832],[19.1525872,50.7878629]]}},{"type":"Feature","properties":{"way_id":34309023,"route_colors":[],"route_refs":["1"]},"geometry":{"type":"LineString","coordinates":[[19.1525872,50.7878629],[19.155164,50.7892402]]}},{"type":"Feature","properties":{"way_id":182383593,"route_colors":[],"route_refs":["1"]},"geometry":{"type":"LineString","coordinates":[[19.155164,50.7892402],[19.1551964,50.7892575],[19.1554843,50.7894115],[19.1583057,50.790922]]}},{"type":"Feature","properties":{"way_id":208200972,"route_colors":[],"route_refs":["1"]},"geometry":{"type":"LineString","coordinates":[[19.1583057,50.790922],[19.1587581,50.7911683]]}},{"type":"Feature","properties":{"way_id":37330623,"route_colors":[],"route_refs":["1"]},"geometry":{"type":"LineString","coordinates":[[19.1587581,50.7911683],[19.1604192,50.792053],[19.160622,50.7921597],[19.1607565,50.7922304],[19.1610204,50.7923743],[19.161752,50.7927659],[19.1623914,50.7931071],[19.1624706,50.7931422],[19.1625549,50.7931683],[19.1626372,50.7931814],[19.1627044,50.7931873],[19.1627767,50.7931887],[19.1628515,50.7931851],[19.1629436,50.7931734],[19.1631324,50.7931409],[19.1633256,50.7931002],[19.1634117,50.7930876],[19.1634952,50.7930796],[19.1635723,50.7930773],[19.1636829,50.7930819],[19.1639677,50.7931071],[19.1640702,50.793114],[19.1641663,50.7931157],[19.1642579,50.7931105],[19.1643622,50.7930979],[19.1644402,50.7930819],[19.1645201,50.7930601],[19.1645953,50.7930348],[19.1646724,50.7930022],[19.1647949,50.7929443],[19.1653008,50.7926979]]}},{"type":"Feature","properties":{"way_id":325579659,"route_colors":[],"route_refs":["1"]},"geometry":{"type":"LineString","coordinates":[[19.1653008,50.7926979],[19.1656389,50.7925332]]}},{"type":"Feature","properties":{"way_id":37330625,"route_colors":[],"route_refs":["1"]},"geometry":{"type":"LineString","coordinates":[[19.1656389,50.7925332],[19.1664937,50.7921169],[19.1667477,50.7919994],[19.1670928,50.7918527],[19.1673557,50.7917481],[19.167652,50.7916394],[19.1680587,50.7915044],[19.1683689,50.7914116],[19.1686718,50.7913256],[19.169041,50.7912355],[19.169382,50.7911587],[19.1697348,50.7910899],[19.1715369,50.7907756]]}},{"type":"Feature","properties":{"way_id":325527791,"route_colors":[],"route_refs":["1"]},"geometry":{"type":"LineString","coordinates":[[19.1715369,50.7907756],[19.1717129,50.7907465],[19.1717423,50.7907407],[19.1718227,50.7907236],[19.1719125,50.7906972],[19.1719959,50.7906628],[19.172083,50.7906118],[19.1721392,50.7905562],[19.17218,50.7904983],[19.1721991,50.7904478],[19.1722072,50.7904043],[19.1722098,50.7903389],[19.1722009,50.7901101],[19.1722045,50.7900683],[19.1722208,50.7900253],[19.1722435,50.7899868],[19.1722789,50.7899553],[19.172326,50.7899232],[19.1723641,50.7899054],[19.172423,50.7898866],[19.1724911,50.7898756],[19.1725799,50.7898695]]}},{"type":"Feature","properties":{"way_id":76915602,"route_colors":[],"route_refs":["1"]},"geometry":{"type":"LineString","coordinates":[[19.1725799,50.7898695],[19.1727088,50.7898699],[19.172775,50.7898779],[19.1728367,50.7898934],[19.1728947,50.7899175],[19.1729464,50.7899519],[19.1729809,50.7899886],[19.172999,50.7900184],[19.1730144,50.7900556],[19.1730208,50.7901101],[19.1730296,50.7902818]]}},{"type":"Feature","properties":{"way_id":43687469,"route_colors":[],"route_refs":["1"]},"geometry":{"type":"LineString","coordinates":[[19.1725799,50.7898695],[19.1726607,50.7898727],[19.1727315,50.7898865],[19.1728194,50.7899169],[19.1728666,50.7899467],[19.1728993,50.7899748],[19.1729283,50.7900109],[19.1729437,50.7900597],[19.1729491,50.7901141],[19.1729546,50.7902796]]}},{"type":"Feature","properties":{"way_id":1284690603,"route_colors":[],"route_refs":["1","2","3"]},"geometry":{"type":"LineString","coordinates":[[19.118196,50.8059967],[19.1182209,50.8057754],[19.1182215,50.8057629],[19.1182128,50.8057186],[19.1183113,50.8057209],[19.1183353,50.8057215],[19.1183185,50.8057963],[19.1182946,50.8058654],[19.1182779,50.8059087],[19.1182545,50.8059611],[19.1182367,50.8060028],[19.1182219,50.8060006],[19.118196,50.8059967]]}},{"type":"Feature","properties":{"way_id":325571836,"route_colors":[],"route_refs":["2"]},"geometry":{"type":"LineString","coordinates":[[19.1517602,50.7877848],[19.1517467,50.7877952],[19.151734,50.7878049],[19.1523,50.7881101],[19.1523139,50.7881],[19.152328,50.7880899],[19.1517602,50.7877848]]}},{"type":"Feature","properties":{"way_id":43687470,"route_colors":[],"route_refs":["2"]},"geometry":{"type":"LineString","coordinates":[[19.1507267,50.7871842],[19.150811,50.7872233],[19.1508764,50.7872651],[19.1509343,50.7873079],[19.1510537,50.7874146],[19.1511504,50.7874906],[19.1512647,50.787566],[19.151432,50.7876583],[19.1516853,50.7877943],[19.1521695,50.7880543]]}},{"type":"Feature","properties":{"way_id":225129311,"route_colors":[],"route_refs":["2"]},"geometry":{"type":"LineString","coordinates":[[19.1521695,50.7880543],[19.1523305,50.7881427],[19.1524042,50.7881768],[19.1524819,50.7882009],[19.1525613,50.7882173],[19.1526534,50.7882263],[19.1527573,50.7882266],[19.1528532,50.7882346],[19.1529146,50.7882448],[19.1529722,50.7882599],[19.1530181,50.7882776],[19.1530514,50.788296],[19.1530818,50.7883163],[19.1531102,50.7883419],[19.1531329,50.7883693],[19.1531484,50.7884007],[19.1531594,50.7884319],[19.1531622,50.7884664],[19.1531575,50.7885007],[19.1531443,50.7885307],[19.1531252,50.7885603],[19.1531024,50.7885847],[19.1530771,50.7886062],[19.1530408,50.7886289],[19.1530013,50.7886485],[19.1529566,50.7886636],[19.1529114,50.7886746],[19.1528618,50.7886819],[19.1528117,50.7886846],[19.1527602,50.7886822],[19.1527097,50.7886756],[19.1526626,50.788665],[19.1526225,50.7886525],[19.1525867,50.7886365],[19.1525557,50.7886189],[19.1525256,50.7885987],[19.1525014,50.7885762],[19.1524809,50.788549],[19.1524653,50.7885196],[19.1524575,50.7884926],[19.1524533,50.7884651],[19.1524512,50.7883865],[19.1524469,50.7883501],[19.1524394,50.7883176],[19.1524268,50.7882882],[19.1524101,50.7882619],[19.152389,50.7882348],[19.152348,50.7881974],[19.1523021,50.7881638],[19.1519536,50.787975]]}},{"type":"Feature","properties":{"way_id":988432776,"route_colors":[],"route_refs":["2","3"]},"geometry":{"type":"LineString","coordinates":[[19.1193053,50.8355213],[19.1201289,50.8356739],[19.1201225,50.8356823],[19.1201051,50.8357052],[19.1197411,50.8356367],[19.1196538,50.8356202],[19.1193497,50.835563],[19.1192942,50.8355483],[19.1193053,50.8355213]]}},{"type":"Feature","properties":{"way_id":325571837,"route_colors":[],"route_refs":["2"]},"geometry":{"type":"LineString","coordinates":[[19.1516797,50.7878444],[19.1522436,50.7881491],[19.1522269,50.7881616],[19.1522167,50.7881693],[19.1516525,50.7878649],[19.1516598,50.7878593],[19.1516797,50.7878444]]}},{"type":"Feature","properties":{"way_id":988430372,"route_colors":[],"route_refs":["2","3"]},"geometry":{"type":"LineString","coordinates":[[19.1185862,50.8159951],[19.1186026,50.8164],[19.118619,50.8163995],[19.1186437,50.8163989],[19.1186575,50.8163986],[19.1186424,50.816005],[19.1186415,50.8159957],[19.1186123,50.8159958],[19.1185862,50.8159951]]}},{"type":"Feature","properties":{"way_id":325527785,"route_colors":[],"route_refs":["2"]},"geometry":{"type":"LineString","coordinates":[[19.1519536,50.787975],[19.1516574,50.7878161],[19.1512294,50.7875825],[19.1511179,50.7875087],[19.1510167,50.7874301],[19.1508975,50.7873238],[19.150838,50.7872787],[19.1507795,50.7872437],[19.1507011,50.7872061]]}},{"type":"Feature","properties":{"way_id":325527762,"route_colors":[],"route_refs":["2","3"]},"geometry":{"type":"LineString","coordinates":[[19.1293809,50.8397038],[19.129554,50.8397756],[19.1298039,50.839875],[19.12991,50.8398986],[19.1299414,50.839903],[19.1300062,50.8399122],[19.1300762,50.8399164],[19.1301499,50.8399166],[19.1302183,50.8399121],[19.1303066,50.8399012],[19.130375,50.8398861],[19.1304458,50.8398678],[19.1305341,50.8398423],[19.1306241,50.8398141],[19.1307382,50.8397805],[19.1308124,50.8397611],[19.1309765,50.8397314],[19.131092,50.8397127],[19.1311551,50.8397039],[19.131211,50.8397002],[19.1312778,50.8397026],[19.1313499,50.839712],[19.1314011,50.8397254],[19.1314464,50.8397419],[19.1315029,50.8397692],[19.1315494,50.8398073],[19.13158,50.8398468],[19.1315944,50.8398715],[19.1316021,50.8398953],[19.1316099,50.8399451],[19.1316006,50.8399929],[19.1315781,50.8400333],[19.1315441,50.8400701],[19.1315123,50.8400962],[19.1314659,50.8401233],[19.1314128,50.8401446],[19.1313681,50.8401608],[19.1312843,50.8401756],[19.1311857,50.8401807],[19.1311009,50.8401807],[19.1309929,50.8401712],[19.1308823,50.840148],[19.1307759,50.8401275],[19.1306693,50.8401076],[19.1305147,50.8400765],[19.1303806,50.8400512],[19.1301692,50.8400048],[19.1299852,50.839956],[19.129948,50.8399446],[19.1299016,50.8399325],[19.1298539,50.83992],[19.1297285,50.839887],[19.1295226,50.8398018],[19.1291131,50.8396372]]}},{"type":"Feature","properties":{"way_id":325552871,"route_colors":[],"route_refs":["3"]},"geometry":{"type":"LineString","coordinates":[[19.1399899,50.7837277],[19.1400087,50.7837007],[19.1405219,50.783844],[19.1405141,50.7838552],[19.1405031,50.7838709],[19.1399899,50.7837277]]}},{"type":"Feature","properties":{"way_id":325552869,"route_colors":[],"route_refs":["3"]},"geometry":{"type":"LineString","coordinates":[[19.1355231,50.7826364],[19.1360796,50.7827007],[19.1360706,50.7827321],[19.1355141,50.7826677],[19.1355183,50.7826529],[19.1355231,50.7826364]]}},{"type":"Feature","properties":{"way_id":270569351,"route_colors":[],"route_refs":["3"]},"geometry":{"type":"LineString","coordinates":[[19.1301363,50.7834777],[19.1296337,50.7836462],[19.1296198,50.7836296],[19.1296112,50.7836194],[19.1301138,50.7834509],[19.1301363,50.7834777]]}},{"type":"Feature","properties":{"way_id":272803167,"route_colors":[],"route_refs":["3"]},"geometry":{"type":"LineString","coordinates":[[19.1312631,50.7796337],[19.1316594,50.7793853],[19.1316764,50.7793961],[19.1316939,50.7794073],[19.1312975,50.7796556],[19.1312631,50.7796337]]}},{"type":"Feature","properties":{"way_id":325559735,"route_colors":[],"route_refs":["3"]},"geometry":{"type":"LineString","coordinates":[[19.1352142,50.7766955],[19.135239,50.7767228],[19.1357322,50.7765432],[19.1357178,50.7765274],[19.1357073,50.7765159],[19.1352142,50.7766955]]}},{"type":"Feature","properties":{"way_id":325560035,"route_colors":[],"route_refs":["3"]},"geometry":{"type":"LineString","coordinates":[[19.1356136,50.7731012],[19.1356519,50.7734549],[19.135595,50.7734559],[19.1355741,50.7732568],[19.135571,50.7732438],[19.135521,50.7731045],[19.135566,50.7731026],[19.1356136,50.7731012]]}},{"type":"Feature","properties":{"way_id":292710148,"route_colors":[],"route_refs":["3"]},"geometry":{"type":"LineString","coordinates":[[19.14054,50.7705526],[19.1405193,50.7705399],[19.1401339,50.7707925],[19.1401691,50.770814],[19.1405545,50.7705614],[19.14054,50.7705526]]}},{"type":"Feature","properties":{"way_id":292710150,"route_colors":[],"route_refs":["3"]},"geometry":{"type":"LineString","coordinates":[[19.1452793,50.7696123],[19.1452792,50.7696282],[19.1447157,50.769627],[19.1447159,50.7695952],[19.1452794,50.7695964],[19.1452793,50.7696123]]}},{"type":"Feature","properties":{"way_id":273043095,"route_colors":[],"route_refs":["3"]},"geometry":{"type":"LineString","coordinates":[[19.1496413,50.7702203],[19.1499361,50.7703527],[19.1500893,50.7704215],[19.1500998,50.7704262],[19.1500854,50.770439],[19.1500709,50.7704518],[19.1496125,50.7702459],[19.1496413,50.7702203]]}},{"type":"Feature","properties":{"way_id":325571118,"route_colors":[],"route_refs":["3"]},"geometry":{"type":"LineString","coordinates":[[19.1537325,50.7718133],[19.1537359,50.7718065],[19.1537473,50.7717838],[19.1542707,50.7718892],[19.1542559,50.7719187],[19.1537325,50.7718133]]}},{"type":"Feature","properties":{"way_id":325571117,"route_colors":[],"route_refs":["3"]},"geometry":{"type":"LineString","coordinates":[[19.157324,50.7742113],[19.1573787,50.7742138],[19.1573419,50.7745455],[19.1572872,50.774543],[19.157324,50.7742113]]}},{"type":"Feature","properties":{"way_id":325571115,"route_colors":[],"route_refs":["3"]},"geometry":{"type":"LineString","coordinates":[[19.1579056,50.7757065],[19.1579,50.7756798],[19.1578338,50.7756853],[19.1577798,50.7756842],[19.1577239,50.7756772],[19.1576667,50.7756639],[19.1576186,50.7756459],[19.1575694,50.7756243],[19.1575257,50.7756002],[19.1574862,50.7755734],[19.157455,50.7755918],[19.157496,50.7756196],[19.1575432,50.7756456],[19.1575955,50.7756686],[19.1576483,50.7756883],[19.1577124,50.7757033],[19.1577749,50.775711],[19.1578359,50.7757123],[19.1579056,50.7757065]]}},{"type":"Feature","properties":{"way_id":74345120,"route_colors":[],"route_refs":["3"]},"geometry":{"type":"LineString","coordinates":[[19.1409127,50.7845547],[19.1411509,50.7844066],[19.1412021,50.7843732],[19.1412381,50.784336],[19.1412598,50.7843026],[19.141278,50.7842594],[19.1412788,50.7842205],[19.1412711,50.7841595],[19.141256,50.784126],[19.1412479,50.7841097],[19.1412229,50.784077],[19.1411899,50.7840478],[19.141153,50.7840232],[19.1411019,50.7839963],[19.1410476,50.783976],[19.1409784,50.7839543],[19.1407989,50.7839062],[19.1403052,50.7837697],[19.1400126,50.7836888],[19.1378723,50.7830834],[19.137253,50.7829097],[19.1370165,50.7828487],[19.1368203,50.7828051],[19.1366294,50.7827682],[19.1364385,50.7827367],[19.1362656,50.7827119],[19.1360754,50.7826887],[19.1357859,50.7826544],[19.1354709,50.7826189],[19.1353314,50.7826056],[19.135234,50.7825985],[19.1351042,50.7825904],[19.1349812,50.7825857],[19.134865,50.7825812],[19.1346761,50.7825788],[19.1345076,50.7825814],[19.1343064,50.7825889],[19.13411,50.7826006],[19.1338447,50.7826253],[19.1336727,50.782646],[19.1335255,50.782667],[19.1333611,50.7826936],[19.1331878,50.782727],[19.133033,50.78276],[19.1328411,50.7828063],[19.1315144,50.7831408],[19.1314005,50.7831671],[19.1312866,50.7831889],[19.1310997,50.7832226],[19.130396,50.7833579],[19.1303171,50.7833753],[19.1302437,50.7833951],[19.1300978,50.7834415],[19.1298498,50.7835245],[19.129573,50.7836196],[19.1295134,50.7836397],[19.1294298,50.7836555],[19.1293651,50.7836583],[19.1293023,50.7836538],[19.1292689,50.7836478],[19.1292426,50.7836434],[19.1291854,50.7836264],[19.1291344,50.7836051],[19.1290903,50.7835737],[19.1290447,50.7835295],[19.1290067,50.7834828],[19.128972,50.7834246],[19.128938,50.7833655],[19.1289059,50.7832823],[19.1288875,50.7832106],[19.1288811,50.7831305],[19.1288831,50.7830467],[19.1288921,50.7829855],[19.1289123,50.7829193],[19.1289353,50.7828625],[19.1289696,50.7827967],[19.1302717,50.780503],[19.1303446,50.7803696],[19.1303984,50.7802913],[19.130455,50.7802232],[19.130519,50.7801592],[19.1305954,50.7800966],[19.130687,50.780034],[19.1307925,50.779972],[19.1309292,50.7798965],[19.1311057,50.7797923],[19.131208,50.779729],[19.1313131,50.7796643],[19.131512,50.7795373],[19.1317338,50.7794019],[19.1322167,50.7790892],[19.1325632,50.7788735],[19.1326208,50.7788349],[19.1326802,50.7787892],[19.132738,50.7787382],[19.1327959,50.7786809],[19.1328537,50.7786116],[19.1332733,50.7780858],[19.133501,50.7777998],[19.1336334,50.777637],[19.1337008,50.7775595],[19.1337706,50.7774892],[19.1338469,50.7774198],[19.1339703,50.7773208],[19.1340604,50.7772561],[19.1341546,50.777197],[19.1342602,50.7771329],[19.1343521,50.7770834],[19.1344242,50.7770481],[19.1345151,50.7770066],[19.1346491,50.7769506],[19.1347636,50.7769085],[19.1348943,50.7768613],[19.1352458,50.7767345],[19.1354942,50.7766449],[19.1357876,50.7765391],[19.1358125,50.7765301],[19.1358661,50.7765091],[19.1359092,50.7764855],[19.1359506,50.7764572],[19.1359883,50.776419],[19.1360265,50.7763538],[19.1360366,50.7763242],[19.1360407,50.7762847],[19.136035,50.7762447],[19.1360229,50.7762018],[19.1359465,50.7760301],[19.1359246,50.7759659],[19.1359092,50.7759115],[19.1358968,50.7758296],[19.1356471,50.7732727],[19.1356246,50.773058],[19.1356116,50.7729378],[19.1356067,50.7728912],[19.1356067,50.7728611],[19.1356088,50.7728464],[19.1356143,50.7728172],[19.135629,50.7727858],[19.1356388,50.7727723],[19.1356513,50.7727552],[19.1356774,50.77273],[19.1357165,50.7727008],[19.1357595,50.7726804],[19.1358125,50.77266],[19.1358268,50.7726562],[19.1358717,50.7726469],[19.1359446,50.7726367],[19.1360382,50.7726289],[19.1365882,50.7725854],[19.1367082,50.7725753],[19.1368288,50.7725602],[19.1369601,50.7725388],[19.1370607,50.7725175],[19.1371552,50.7724947],[19.1372811,50.7724592],[19.1374071,50.7724169],[19.137523,50.7723718],[19.1376705,50.7723038],[19.1378118,50.772227],[19.1382258,50.771975],[19.1384508,50.7718448],[19.1386828,50.7717144],[19.139198,50.7714339],[19.1394499,50.7712901],[19.139694,50.7711424],[19.1398196,50.7710635],[19.1399428,50.770984],[19.1401853,50.7708239],[19.1403904,50.770688],[19.1405311,50.770596],[19.1405973,50.7705555],[19.1406663,50.7705143],[19.1408215,50.7704276],[19.1411478,50.7702455],[19.1414134,50.7700968],[19.1415847,50.7700015],[19.1416471,50.7699691],[19.1417051,50.7699406],[19.141775,50.7699083],[19.1418404,50.7698812],[19.1419186,50.7698502],[19.1419931,50.7698236],[19.1420758,50.7697975],[19.1421713,50.7697689],[19.1422458,50.7697494],[19.1423247,50.7697304],[19.142406,50.7697133],[19.1424887,50.7696971],[19.1425744,50.7696828],[19.1426677,50.76967],[19.1427369,50.7696614],[19.1428121,50.7696538],[19.1429414,50.7696443],[19.1430602,50.76964],[19.1431979,50.769639],[19.1450036,50.7696396],[19.1453257,50.7696392],[19.1472344,50.7696399],[19.147464,50.7696394],[19.1476136,50.769641],[19.1477607,50.7696456],[19.1479265,50.7696548],[19.1480898,50.7696676],[19.1482232,50.7696819],[19.1483574,50.7696982],[19.1484941,50.7697187],[19.1486493,50.7697432],[19.1487593,50.7697606],[19.1488337,50.7697749],[19.1488927,50.7697893],[19.1489501,50.7698133],[19.1490107,50.769847],[19.1490552,50.7698854],[19.1490884,50.7699176],[19.1491251,50.7699593],[19.1491636,50.770003],[19.1491999,50.7700424],[19.1492355,50.7700751],[19.149267,50.7700981],[19.1493059,50.7701206],[19.1493592,50.770145],[19.1498217,50.7703517],[19.1500831,50.770472],[19.1505637,50.7706875],[19.1506994,50.7707492],[19.1508176,50.7708013],[19.1511246,50.770939],[19.1520145,50.7713402],[19.1521826,50.7714154],[19.1523415,50.7714796],[19.1524779,50.7715289],[19.1526122,50.7715717],[19.1527526,50.7716125],[19.1528972,50.7716495],[19.1530458,50.7716832],[19.1531972,50.7717137],[19.1539857,50.7718756],[19.1542912,50.7719384],[19.1544352,50.7719679],[19.154965,50.7720767],[19.1550676,50.7720988],[19.1551633,50.7721241],[19.1553165,50.7721712],[19.1554601,50.7722243],[19.1555978,50.7722844],[19.155766,50.772371],[19.1559189,50.7724696],[19.1569691,50.7731523],[19.1570767,50.7732329],[19.1571571,50.7733086],[19.1571926,50.7733512],[19.1572311,50.7734025],[19.157263,50.7734502],[19.1572914,50.7735038],[19.1573123,50.7735497],[19.1573287,50.7735995],[19.1573463,50.7736698],[19.157355,50.7737413],[19.1573544,50.7737754],[19.1573539,50.7738073],[19.157283,50.7744105],[19.157265,50.7745639],[19.157252,50.7746743],[19.1572009,50.7751094],[19.1571945,50.7751478],[19.1571929,50.7752173],[19.1572033,50.7752811],[19.1572201,50.775339],[19.1572462,50.775394],[19.1572766,50.7754449],[19.1573207,50.7754966],[19.1573651,50.7755405],[19.1574394,50.7755994],[19.1575006,50.7756397],[19.1575474,50.7756645],[19.1575978,50.7756863],[19.1576598,50.7757053]]}},{"type":"Feature","properties":{"way_id":270569353,"route_colors":[],"route_refs":["3"]},"geometry":{"type":"LineString","coordinates":[[19.1579847,50.7758286],[19.1579817,50.7758584],[19.1585519,50.7758811],[19.1585549,50.7758513],[19.1579847,50.7758286]]}},{"type":"Feature","properties":{"way_id":325571116,"route_colors":[],"route_refs":["3"]},"geometry":{"type":"LineString","coordinates":[[19.157095,50.7733207],[19.1570521,50.7733366],[19.1570923,50.7733798],[19.1571292,50.7734295],[19.1571578,50.7734741],[19.1571742,50.7735056],[19.1571918,50.7735422],[19.1572027,50.7735665],[19.1572203,50.7736135],[19.1572328,50.7736583],[19.1572398,50.7737021],[19.1572893,50.7736989],[19.157282,50.773654],[19.157269,50.7736072],[19.1572509,50.7735586],[19.1572306,50.7735132],[19.1572045,50.7734632],[19.1571747,50.7734169],[19.1571363,50.7733651],[19.157095,50.7733207]]}},{"type":"Feature","properties":{"way_id":325571119,"route_colors":[],"route_refs":["3"]},"geometry":{"type":"LineString","coordinates":[[19.1545242,50.7720274],[19.1545166,50.7720424],[19.154509,50.7720574],[19.1549368,50.7721441],[19.1550302,50.7721651],[19.1551183,50.7721881],[19.1551373,50.7721591],[19.1550481,50.7721357],[19.1549527,50.7721143],[19.1545242,50.7720274]]}},{"type":"Feature","properties":{"way_id":273043093,"route_colors":[],"route_refs":["3"]},"geometry":{"type":"LineString","coordinates":[[19.1508175,50.7708651],[19.1508325,50.7708519],[19.1513684,50.7710948],[19.1513385,50.7711212],[19.1508025,50.7708783],[19.1508175,50.7708651]]}},{"type":"Feature","properties":{"way_id":292710151,"route_colors":[],"route_refs":["3"]},"geometry":{"type":"LineString","coordinates":[[19.1461399,50.769708],[19.1461397,50.7696767],[19.1455752,50.7696786],[19.1455754,50.7697098],[19.1461399,50.769708]]}},{"type":"Feature","properties":{"way_id":325563079,"route_colors":[],"route_refs":["3"]},"geometry":{"type":"LineString","coordinates":[[19.1409208,50.770467],[19.1409425,50.7704837],[19.1410433,50.7704257],[19.1410779,50.7704015],[19.141238,50.7702878],[19.1412952,50.7702545],[19.1414907,50.7701452],[19.1414558,50.7701208],[19.1408881,50.770444],[19.1409208,50.770467]]}},{"type":"Feature","properties":{"way_id":325560034,"route_colors":[],"route_refs":["3"]},"geometry":{"type":"LineString","coordinates":[[19.1356889,50.7730976],[19.135713,50.7730966],[19.1357365,50.7730957],[19.1357588,50.7733194],[19.1357632,50.7733627],[19.1357719,50.7734502],[19.1357243,50.7734521],[19.1356889,50.7730976]]}},{"type":"Feature","properties":{"way_id":325559736,"route_colors":[],"route_refs":["3"]},"geometry":{"type":"LineString","coordinates":[[19.1352759,50.776766],[19.1353007,50.7767932],[19.1357939,50.7766136],[19.1357815,50.7766001],[19.135769,50.7765863],[19.1352759,50.776766]]}},{"type":"Feature","properties":{"way_id":272803166,"route_colors":[],"route_refs":["3"]},"geometry":{"type":"LineString","coordinates":[[19.1322373,50.7791825],[19.1318367,50.7794334],[19.1318186,50.7794219],[19.1318022,50.7794113],[19.1322027,50.7791605],[19.1322373,50.7791825]]}},{"type":"Feature","properties":{"way_id":270569350,"route_colors":[],"route_refs":["3"]},"geometry":{"type":"LineString","coordinates":[[19.1291408,50.7834734],[19.1291187,50.7834784],[19.1290922,50.7834844],[19.1290637,50.78346],[19.129038,50.7834281],[19.1290142,50.7833898],[19.1289912,50.7833463],[19.1289738,50.7832999],[19.1289573,50.7832448],[19.1289472,50.783192],[19.1289408,50.783141],[19.1289408,50.7830969],[19.1289444,50.7830557],[19.1289756,50.7830568],[19.1289765,50.7830957],[19.1289821,50.7831392],[19.1289931,50.7831804],[19.1290114,50.7832268],[19.1291408,50.7834734]]}},{"type":"Feature","properties":{"way_id":325552868,"route_colors":[],"route_refs":["3"]},"geometry":{"type":"LineString","coordinates":[[19.1354394,50.7825677],[19.1353449,50.7825591],[19.1352452,50.782552],[19.135114,50.7825449],[19.1349827,50.7825383],[19.134871,50.7825354],[19.1348731,50.7825054],[19.1349857,50.7825079],[19.13512,50.7825145],[19.1352512,50.7825217],[19.1353479,50.7825283],[19.1354454,50.7825364],[19.1354423,50.7825525],[19.1354394,50.7825677]]}},{"type":"Feature","properties":{"way_id":325552870,"route_colors":[],"route_refs":["3"]},"geometry":{"type":"LineString","coordinates":[[19.1400462,50.7836478],[19.1400615,50.7836258],[19.1405747,50.7837691],[19.1405716,50.783774],[19.1405594,50.7837911],[19.1400462,50.7836478]]}},{"type":"Feature","properties":{"way_id":182382460,"route_colors":[],"route_refs":["3"]},"geometry":{"type":"LineString","coordinates":[[19.1582855,50.7758289],[19.1580245,50.7758168],[19.157943,50.775809],[19.1578451,50.7757934],[19.1577298,50.7757665],[19.1576462,50.7757387],[19.1575678,50.7757085],[19.1574765,50.7756612],[19.1574089,50.7756174],[19.1573167,50.7755427],[19.1572781,50.7755033],[19.1572366,50.7754511],[19.1572033,50.7753983],[19.1571777,50.7753416],[19.15716,50.7752805],[19.1571515,50.775219],[19.157152,50.7751631],[19.1571593,50.7751067],[19.1572109,50.7746705],[19.1572236,50.7745627],[19.1573129,50.7738069],[19.1573126,50.773775],[19.1573123,50.773739],[19.157305,50.7736726],[19.1572892,50.7736015],[19.1572724,50.7735557],[19.1572517,50.7735087],[19.1572231,50.7734585],[19.1571912,50.7734103],[19.157152,50.7733585],[19.1571144,50.7733145],[19.1570317,50.7732403],[19.1569382,50.7731697],[19.1558899,50.772487],[19.1557406,50.7723917],[19.1555724,50.7723041],[19.1554361,50.7722445],[19.1552962,50.7721941],[19.155145,50.7721478],[19.1550532,50.7721247],[19.1549497,50.772102],[19.1548251,50.7720764],[19.1544211,50.7719933],[19.1542778,50.7719638],[19.153179,50.7717379],[19.1530366,50.7717074],[19.1528817,50.7716735],[19.1527398,50.7716359],[19.1525968,50.7715938],[19.1524608,50.7715511],[19.1523228,50.7715002],[19.1521689,50.77144],[19.1519961,50.7713634],[19.1511053,50.7709639],[19.1507948,50.7708234],[19.1506895,50.7707758],[19.1505608,50.7707175],[19.1500602,50.7704911],[19.1497999,50.7703753],[19.1493253,50.770162],[19.1492735,50.7701395],[19.1492258,50.770114],[19.1491878,50.7700879],[19.149149,50.7700516],[19.1490867,50.7699815],[19.1490466,50.7699408],[19.1490064,50.7699],[19.148959,50.769866],[19.1489169,50.7698409],[19.1488676,50.7698194],[19.1488159,50.769802],[19.1487472,50.7697867],[19.1486372,50.7697683],[19.1484828,50.7697432],[19.1483477,50.7697238],[19.1482127,50.7697069],[19.1480858,50.7696941],[19.1479216,50.7696803],[19.1477575,50.7696711],[19.1476079,50.769666],[19.1474688,50.769666],[19.1472343,50.7696655],[19.1457122,50.7696647],[19.1453261,50.7696648],[19.1432009,50.7696653],[19.1430625,50.7696671],[19.1429459,50.7696709],[19.1428203,50.769679],[19.1427436,50.7696862],[19.1426714,50.7696952],[19.1425865,50.7697076],[19.142497,50.7697223],[19.1424105,50.7697385],[19.142336,50.7697551],[19.1422578,50.7697741],[19.1421856,50.7697936],[19.1420924,50.7698212],[19.1420096,50.7698488],[19.1419322,50.7698764],[19.1418675,50.7699016],[19.1417998,50.7699301],[19.1417314,50.7699611],[19.1416675,50.7699925],[19.1416148,50.7700196],[19.1414423,50.770115],[19.1408482,50.7704474],[19.1406958,50.7705323],[19.1406273,50.7705717],[19.1405574,50.7706169],[19.140419,50.7707082],[19.1402145,50.7708414],[19.1399715,50.7710035],[19.1398467,50.771083],[19.1397201,50.7711623],[19.1394768,50.7713091],[19.1392249,50.7714533],[19.1387104,50.7717345],[19.1384746,50.7718657],[19.1382503,50.7719963],[19.1378167,50.7722612],[19.1376997,50.7723227],[19.1375415,50.7723951],[19.1374232,50.7724417],[19.1372973,50.7724835],[19.1371621,50.7725209],[19.1370745,50.7725422],[19.1369678,50.7725651],[19.1368357,50.7725859],[19.136699,50.772602],[19.1365899,50.7726114],[19.1364861,50.7726197],[19.1360452,50.7726559],[19.13598,50.7726625],[19.1359277,50.7726693],[19.135874,50.7726809],[19.1358369,50.7726906],[19.1358225,50.7726969],[19.1357757,50.7727198],[19.1357388,50.7727445],[19.135713,50.7727659],[19.1356797,50.7728033],[19.135662,50.7728419],[19.1356543,50.7728718],[19.1356513,50.7729077],[19.1356529,50.7729414],[19.1356626,50.773056],[19.1356875,50.7732732],[19.1359376,50.7758278],[19.1359506,50.7759079],[19.1359652,50.7759602],[19.1359863,50.7760208],[19.1360609,50.7761963],[19.1360805,50.7762416],[19.1360886,50.7762868],[19.1360878,50.7763263],[19.1360792,50.7763656],[19.1360644,50.7763986],[19.1360261,50.7764439],[19.1359871,50.7764778],[19.1359473,50.7765029],[19.1358937,50.7765276],[19.1358401,50.7765507],[19.1358146,50.7765598],[19.1355115,50.7766682],[19.1352686,50.776755],[19.1349129,50.7768844],[19.1347814,50.7769311],[19.1346669,50.7769747],[19.1345411,50.7770261],[19.1344461,50.7770702],[19.1343784,50.7771045],[19.1342902,50.7771524],[19.1341839,50.7772129],[19.1340069,50.7773346],[19.1338826,50.7774342],[19.1338055,50.7775035],[19.1337397,50.7775708],[19.1336683,50.7776498],[19.1335381,50.7778136],[19.1333105,50.7780977],[19.1328895,50.7786241],[19.1328317,50.7786943],[19.1327768,50.7787536],[19.1327197,50.7788051],[19.1326581,50.7788551],[19.1325941,50.7788984],[19.1321834,50.7791565],[19.1319743,50.7792884],[19.131763,50.7794207],[19.1313512,50.7796841],[19.1312403,50.7797521],[19.1311413,50.7798134],[19.1309604,50.7799155],[19.1308205,50.7799931],[19.1307149,50.7800537],[19.1306277,50.7801129],[19.1305545,50.7801742],[19.1304927,50.7802347],[19.1304361,50.7803015],[19.1303844,50.7803791],[19.130308,50.7805139],[19.1290079,50.7828064],[19.1289756,50.7828695],[19.1289527,50.7829257],[19.1289325,50.7829901],[19.1289239,50.7830496],[19.1289233,50.7831305],[19.1289298,50.7832117],[19.1289468,50.7832798],[19.1289829,50.7833632],[19.1290077,50.7834148],[19.129049,50.7834676],[19.1290938,50.7835105],[19.1291111,50.7835271],[19.1291481,50.7835523],[19.1291894,50.7835726],[19.1292536,50.7835925],[19.129305,50.7836045],[19.1293504,50.7836104],[19.1293748,50.7836111],[19.1294353,50.7836085],[19.1294867,50.783601],[19.1295296,50.7835913],[19.1295634,50.7835836],[19.1296385,50.7835572],[19.1298244,50.7834937],[19.1300749,50.7834096],[19.1302208,50.7833632],[19.1302978,50.7833428],[19.1303786,50.7833237],[19.1310819,50.7831907],[19.1312765,50.7831547],[19.1313863,50.7831322],[19.1314967,50.7831058],[19.1328166,50.7827753],[19.1330163,50.7827266],[19.13317,50.782694],[19.1333427,50.7826614],[19.133516,50.7826332],[19.1336638,50.7826122],[19.1338352,50.7825908],[19.1341082,50.7825653],[19.1342993,50.7825544],[19.134507,50.7825473],[19.1346755,50.782545],[19.1348658,50.7825463],[19.134985,50.7825487],[19.1351147,50.7825549],[19.1352422,50.7825639],[19.1353404,50.782571],[19.1354794,50.7825848],[19.1357926,50.7826193],[19.1360841,50.7826533],[19.136273,50.7826777],[19.1364501,50.7827032],[19.1366421,50.7827347],[19.1368404,50.7827716],[19.1370366,50.7828152],[19.1372774,50.7828755],[19.1378899,50.7830492],[19.1400368,50.7836581],[19.1403261,50.7837381],[19.1408221,50.7838741],[19.1410018,50.7839234],[19.1410715,50.7839439],[19.1411264,50.7839628],[19.1411811,50.7839869],[19.1412197,50.7840085],[19.1412442,50.7840256],[19.1412684,50.7840481],[19.141301,50.784084],[19.1413193,50.784108],[19.1413319,50.7841333],[19.1413397,50.7841514],[19.1413473,50.7841851],[19.1413489,50.7842102],[19.1413453,50.7842573],[19.1413335,50.7842919],[19.141321,50.7843182],[19.1413003,50.7843497],[19.1412691,50.7843812],[19.141229,50.7844101],[19.1411518,50.784464],[19.1409382,50.784586]]}}]}