{"type":"FeatureCollection","metro_system":{"continent":"south-america","country":"Argentina","city":"Buenos Aires","official_website":"http://www.metrovias.com.ar/","official_map":"https://en.wikipedia.org/wiki/Buenos_Aires_Underground","wikipedia":"en:Buenos Aires Underground","wiki":true,"wikipedia_zh":"zh:布宜诺斯艾利斯地铁","line_count":6,"segment_count":6,"station_count":78,"modes":["metro"],"audit":{"strategies_tried":[],"passed":true,"checks":[{"id":"system_exists","ok":true,"detail":"matched OSM system metro-maps/americas/argentina/am-arg-buenos-aires/am-arg-buenos-aires.geojson","level":"error"},{"id":"has_lines","ok":true,"detail":"6 lines","level":"error"},{"id":"has_stations","ok":true,"detail":"75 stations","level":"error"},{"id":"station_count_info","ok":true,"detail":"OSM 75 站（wiki List 記 78，計法含轉乘重複，僅參考）","level":"warn"},{"id":"stations_have_lines","ok":true,"detail":"75/75 站皆有所屬路線","level":"error"},{"id":"line_geometry_stations","ok":true,"detail":"88 個折點/端點皆為車站","level":"error"},{"id":"route_stations_match_geometry","ok":true,"detail":"各線車站列表與圖面一致","level":"error"},{"id":"interchange_rule","ok":true,"detail":"所有車站紅/藍點符合骨架＋路線色規則（藍＝端點、紅＝交叉）","level":"error"},{"id":"stations_named","ok":true,"detail":"75/75 站皆有名稱","level":"error"},{"id":"station_order","ok":true,"detail":"所有線路站序合理","level":"warn"},{"id":"line_wiki_stations","ok":true,"detail":"各線站數與 wiki 線路條目相符（營運中站數）","level":"error"},{"id":"line_wiki_coverage","ok":false,"detail":"6 條線無 wiki 站數對照：Línea A、Línea B、Línea C","level":"warn"}],"reasons":[],"warnings":["6 條線無 wiki 站數對照：Línea A、Línea B、Línea C"],"audited_at":"2026-07-27T02:38:22.402Z"}},"features":[{"type":"Feature","properties":{"seg_id":"buenos-aires-0","routes":[{"route_id":"rm1637478","route_name":"Línea A","route_name_local":"Línea A","route_name_en":null,"route_ref":"A","route_color":"#1ca4cb","wikipedia":"es:Línea A (subte de Buenos Aires)","osm_route_ids":[421696,1637477],"status":null,"order_suspect":0,"span_suspect":0,"stations":[{"station_id":"n256242187","station_name":"Plaza de Mayo"},{"station_id":"n256242204","station_name":"Perú"},{"station_id":"n256245038","station_name":"Piedras"},{"station_id":"n256245064","station_name":"Lima"},{"station_id":"n256245094","station_name":"Sáenz Peña"},{"station_id":"n256245268","station_name":"Congreso"},{"station_id":"n3449178928","station_name":"Pasco"},{"station_id":"n256245737","station_name":"Alberti"},{"station_id":"n2817082901","station_name":"Plaza Miserere"},{"station_id":"n256246017","station_name":"Loria"},{"station_id":"n286815382","station_name":"Castro Barros"},{"station_id":"n256246386","station_name":"Río de Janeiro"},{"station_id":"n256246690","station_name":"Acoyte"},{"station_id":"n256241752","station_name":"Primera Junta"},{"station_id":"n437577493","station_name":"Puán"},{"station_id":"n389833455","station_name":"Carabobo"},{"station_id":"n1085899414","station_name":"San José de Flores"},{"station_id":"n1085899397","station_name":"San Pedrito"}]}],"route_count":1,"route_refs":["A"],"route_colors":["#1ca4cb"],"city":"Buenos Aires","country":"Argentina"},"geometry":{"type":"MultiLineString","coordinates":[[[-58.370977366666665,-34.6088284],[-58.37424033333333,-34.60866013333333],[-58.378539133333334,-34.608839466666666],[-58.381667883333336,-34.60907345],[-58.386750199999994,-34.60940606666667],[-58.392564633333336,-34.60922106666667],[-58.39852225,-34.6096565],[-58.40085845,-34.60987095],[-58.406162083333335,-34.6094714],[-58.41555019999999,-34.61082713333334],[-58.42151646666667,-34.61170583333333],[-58.4294913,-34.6152406],[-58.435957099999996,-34.618104366666664],[-58.4413942,-34.62058786666667],[-58.44864090000001,-34.623559533333335],[-58.4561069,-34.62645393333333],[-58.46347693333333,-34.62907546666666],[-58.4706945,-34.63098813333333]]]}},{"type":"Feature","properties":{"seg_id":"buenos-aires-1","routes":[{"route_id":"rm2933167","route_name":"Línea B","route_name_local":"Línea B","route_name_en":null,"route_ref":"B","route_color":"#c20924","wikipedia":"es:Línea B (subte de Buenos Aires)","osm_route_ids":[421697,2933166],"status":null,"order_suspect":0,"span_suspect":0,"stations":[{"station_id":"n1085915767","station_name":"Leandro N. Alem"},{"station_id":"n256242264","station_name":"Florida"},{"station_id":"n256242248","station_name":"Carlos Pellegrini"},{"station_id":"n256247262","station_name":"Uruguay"},{"station_id":"n256247213","station_name":"Callao"},{"station_id":"n256247193","station_name":"Pasteur - AMIA"},{"station_id":"n1268373215","station_name":"Pueyrredón"},{"station_id":"n256247333","station_name":"Carlos Gardel"},{"station_id":"n256247398","station_name":"Medrano - Almagro"},{"station_id":"n256247443","station_name":"Ángel Gallardo"},{"station_id":"n256247490","station_name":"Malabia - Osvaldo Pugliese"},{"station_id":"n256247532","station_name":"Dorrego"},{"station_id":"n256247568","station_name":"Federico Lacroze"},{"station_id":"n256247605","station_name":"Tronador - Villa Ortúzar"},{"station_id":"n256247611","station_name":"Los Incas - Parque Chas"},{"station_id":"n3256181277","station_name":"Echeverría"},{"station_id":"n1085889718","station_name":"Juan Manuel de Rosas"}]}],"route_count":1,"route_refs":["B"],"route_colors":["#c20924"],"city":"Buenos Aires","country":"Argentina"},"geometry":{"type":"MultiLineString","coordinates":[[[-58.36985615,-34.60332831666667],[-58.374565,-34.60334846666667],[-58.38030823333333,-34.604300377777776],[-58.387084233333326,-34.6040439],[-58.392750766666666,-34.6044509],[-58.3994154,-34.6046461],[-58.40538778333333,-34.60434353333333],[-58.41134316666666,-34.60408133333333],[-58.4207985,-34.60320363333333],[-58.4311324,-34.6021488],[-58.4396906,-34.599033600000006],[-58.44749216666667,-34.5917637],[-58.455150833333335,-34.5871833],[-58.466371466666665,-34.584083066666665],[-58.4743645,-34.58120003333333],[-58.4807365,-34.577969233333334],[-58.48681236666667,-34.57397206666667]]]}},{"type":"Feature","properties":{"seg_id":"buenos-aires-2","routes":[{"route_id":"rm2931139","route_name":"Línea C","route_name_local":"Línea C","route_name_en":null,"route_ref":"C","route_color":"#003ea1","wikipedia":"es:Línea C (subte de Buenos Aires)","osm_route_ids":[421698,2931138],"status":null,"order_suspect":0,"span_suspect":0,"stations":[{"station_id":"n3633340472","station_name":"Retiro"},{"station_id":"n3447885516","station_name":"General San Martín"},{"station_id":"n256244943","station_name":"Lavalle"},{"station_id":"n256242248","station_name":"Diagonal Norte"},{"station_id":"n256245064","station_name":"Avenida de Mayo"},{"station_id":"n3633340420","station_name":"Moreno"},{"station_id":"n3633340416","station_name":"Independencia"},{"station_id":"n256242143","station_name":"San Juan"},{"station_id":"n256242125","station_name":"Constitución"}]}],"route_count":1,"route_refs":["C"],"route_colors":["#003ea1"],"city":"Buenos Aires","country":"Argentina"},"geometry":{"type":"MultiLineString","coordinates":[[[-58.37530623333333,-34.591695300000005],[-58.37789346666667,-34.59502533333333],[-58.378107099999994,-34.601738833333336],[-58.38030823333333,-34.604300377777776],[-58.381667883333336,-34.60907345],[-58.38052996666667,-34.61244943333333],[-58.38079956666666,-34.618100516666665],[-58.3799176,-34.622413566666665],[-58.38111013333333,-34.62760146666667]]]}},{"type":"Feature","properties":{"seg_id":"buenos-aires-3","routes":[{"route_id":"rm2934099","route_name":"Línea D","route_name_local":"Línea D","route_name_en":null,"route_ref":"D","route_color":"#217861","wikipedia":"es:Línea D (subte de Buenos Aires)","osm_route_ids":[421699,2934098],"status":null,"order_suspect":0,"span_suspect":0,"stations":[{"station_id":"n256242204","station_name":"Catedral"},{"station_id":"n256242248","station_name":"9 de Julio"},{"station_id":"n256242329","station_name":"Tribunales - Teatro Colón"},{"station_id":"n256242364","station_name":"Callao"},{"station_id":"n256242392","station_name":"Facultad de Medicina"},{"station_id":"n256242477","station_name":"Pueyrredón"},{"station_id":"n256242478","station_name":"Agüero"},{"station_id":"n256242446","station_name":"Bulnes"},{"station_id":"n256242470","station_name":"Scalabrini Ortiz"},{"station_id":"n256242488","station_name":"Plaza Italia"},{"station_id":"n256242491","station_name":"Palermo"},{"station_id":"n256242572","station_name":"Ministro Carranza"},{"station_id":"n256242596","station_name":"Olleros"},{"station_id":"n256242645","station_name":"José Hernández"},{"station_id":"n256243093","station_name":"Juramento"},{"station_id":"n256243327","station_name":"Congreso de Tucumán"}]}],"route_count":1,"route_refs":["D"],"route_colors":["#217861"],"city":"Buenos Aires","country":"Argentina"},"geometry":{"type":"MultiLineString","coordinates":[[[-58.37424033333333,-34.60866013333333],[-58.38030823333333,-34.604300377777776],[-58.38487223333333,-34.60145166666666],[-58.3926734,-34.5996372],[-58.39774056666666,-34.59974723333333],[-58.40279133333334,-34.59482635],[-58.407067833333336,-34.5917066],[-58.411269366666666,-34.5882252],[-58.41590213333333,-34.5851645],[-58.4211027,-34.581459466666665],[-58.425629433333334,-34.57848786666667],[-58.43470396666667,-34.57519366666667],[-58.44435886666667,-34.570255],[-58.4520396,-34.5662858],[-58.4563814,-34.56244146666666],[-58.462218166666666,-34.5558044]]]}},{"type":"Feature","properties":{"seg_id":"buenos-aires-4","routes":[{"route_id":"rm2933872","route_name":"Línea E","route_name_local":"Línea E","route_name_en":null,"route_ref":"E","route_color":"#6b297e","wikipedia":"es:Línea E (subte de Buenos Aires)","osm_route_ids":[421700,2933871],"status":null,"order_suspect":0,"span_suspect":0,"stations":[{"station_id":"n256241853","station_name":"Plaza de los Virreyes - Eva Perón"},{"station_id":"n256241854","station_name":"Varela"},{"station_id":"n256241945","station_name":"Medalla Milagrosa"},{"station_id":"n5281196417","station_name":"Emilio Mitre"},{"station_id":"n256241968","station_name":"José María Moreno"},{"station_id":"n256241985","station_name":"Avenida La Plata"},{"station_id":"n256242013","station_name":"Boedo"},{"station_id":"n256242276","station_name":"General Urquiza"},{"station_id":"n256242017","station_name":"Jujuy"},{"station_id":"n256242056","station_name":"Pichincha"},{"station_id":"n256242062","station_name":"Entre Ríos - Rodolfo Walsh"},{"station_id":"n2308890403","station_name":"San José"},{"station_id":"n3633340416","station_name":"Independencia"},{"station_id":"n256242170","station_name":"Belgrano"},{"station_id":"n256242204","station_name":"Bolívar"},{"station_id":"n1085915767","station_name":"Correo Central"},{"station_id":"n1085915755","station_name":"Catalinas"},{"station_id":"n3633340472","station_name":"Retiro"}]}],"route_count":1,"route_refs":["E"],"route_colors":["#6b297e"],"city":"Buenos Aires","country":"Argentina"},"geometry":{"type":"MultiLineString","coordinates":[[[-58.46164919999999,-34.64289576666667],[-58.45800756666667,-34.63980806666667],[-58.450191733333334,-34.6363039],[-58.44236246666666,-34.6314597],[-58.43388756666667,-34.628027233333334],[-58.42641393333333,-34.6269676],[-58.41610716666667,-34.62547203333333],[-58.40975086666666,-34.624689133333334],[-58.402548466666666,-34.62345671666667],[-58.397572266666664,-34.623214233333336],[-58.39144983333333,-34.622741166666664],[-58.38521016666667,-34.62234726666667],[-58.38079956666666,-34.618100516666665],[-58.37768786666667,-34.613011699999994],[-58.37424033333333,-34.60866013333333],[-58.36985615,-34.60332831666667],[-58.372098533333336,-34.59650653333333],[-58.37530623333333,-34.591695300000005]]]}},{"type":"Feature","properties":{"seg_id":"buenos-aires-5","routes":[{"route_id":"rm2934107","route_name":"Línea H","route_name_local":"Línea H","route_name_en":null,"route_ref":"H","route_color":"#f4cc21","wikipedia":"es:Línea H (subte de Buenos Aires)","osm_route_ids":[421701,2934106],"status":null,"order_suspect":0,"span_suspect":0,"stations":[{"station_id":"n4952653644","station_name":"Facultad de Derecho - Julieta Lanteri"},{"station_id":"n1137462064","station_name":"Las Heras"},{"station_id":"n256242477","station_name":"Santa Fe - Carlos Jáuregui"},{"station_id":"n1343796346","station_name":"Córdoba"},{"station_id":"n1268373215","station_name":"Corrientes"},{"station_id":"n2817082901","station_name":"Once - 30 de Diciembre"},{"station_id":"n256245337","station_name":"Venezuela"},{"station_id":"n256242017","station_name":"Humberto I"},{"station_id":"n256245516","station_name":"Inclán-Mezquita Al Ahmad"},{"station_id":"n256245718","station_name":"Caseros"},{"station_id":"n2022182764","station_name":"Parque Patricios"},{"station_id":"n2022182747","station_name":"Hospitales"}]}],"route_count":1,"route_refs":["H"],"route_colors":["#f4cc21"],"city":"Buenos Aires","country":"Argentina"},"geometry":{"type":"MultiLineString","coordinates":[[[-58.39105163333334,-34.58307756666667],[-58.397195566666674,-34.5875417],[-58.40279133333334,-34.59482635],[-58.40394343333333,-34.5991967],[-58.40538778333333,-34.60434353333333],[-58.406162083333335,-34.6094714],[-58.4047353,-34.615210166666664],[-58.402548466666666,-34.62345671666667],[-58.40100026666667,-34.62930816666667],[-58.3990459,-34.635434000000004],[-58.40631696666666,-34.63849746666667],[-58.4126708,-34.64170956666667]]]}},{"type":"Feature","properties":{"station_id":"n256241752","station_name":"Primera Junta","station_name_local":"Primera Junta","station_name_en":null,"city":"Buenos Aires","country":"Argentina","lines":["A"],"wikipedia":null,"merged_from":3,"merged_names":null,"is_terminus":false,"routes":[{"ref":"A","name":"Línea A","route_color":"#1ca4cb"}],"pass_count":1,"station_degree":2,"codes":null,"is_interchange":false,"station_role":"normal"},"geometry":{"type":"Point","coordinates":[-58.4413942,-34.62058786666667]},"__memberLines":{}},{"type":"Feature","properties":{"station_id":"n256241853","station_name":"Plaza de los Virreyes - Eva Perón","station_name_local":"Plaza de los Virreyes - Eva Perón","station_name_en":null,"city":"Buenos Aires","country":"Argentina","lines":["E"],"wikipedia":null,"merged_from":3,"merged_names":null,"is_terminus":true,"routes":[{"ref":"E","name":"Línea E","route_color":"#6b297e"}],"pass_count":1,"station_degree":1,"codes":null,"is_interchange":false,"station_role":"terminus"},"geometry":{"type":"Point","coordinates":[-58.46164919999999,-34.64289576666667]},"__memberLines":{}},{"type":"Feature","properties":{"station_id":"n256241854","station_name":"Varela","station_name_local":"Varela","station_name_en":null,"city":"Buenos Aires","country":"Argentina","lines":["E"],"wikipedia":null,"merged_from":3,"merged_names":null,"is_terminus":false,"routes":[{"ref":"E","name":"Línea E","route_color":"#6b297e"}],"pass_count":1,"station_degree":2,"codes":null,"is_interchange":false,"station_role":"normal"},"geometry":{"type":"Point","coordinates":[-58.45800756666667,-34.63980806666667]},"__memberLines":{}},{"type":"Feature","properties":{"station_id":"n256241945","station_name":"Medalla Milagrosa","station_name_local":"Medalla Milagrosa","station_name_en":null,"city":"Buenos Aires","country":"Argentina","lines":["E"],"wikipedia":null,"merged_from":3,"merged_names":null,"is_terminus":false,"routes":[{"ref":"E","name":"Línea E","route_color":"#6b297e"}],"pass_count":1,"station_degree":2,"codes":null,"is_interchange":false,"station_role":"normal"},"geometry":{"type":"Point","coordinates":[-58.450191733333334,-34.6363039]},"__memberLines":{}},{"type":"Feature","properties":{"station_id":"n256241968","station_name":"José María Moreno","station_name_local":"José María Moreno","station_name_en":null,"city":"Buenos Aires","country":"Argentina","lines":["E"],"wikipedia":null,"merged_from":3,"merged_names":null,"is_terminus":false,"routes":[{"ref":"E","name":"Línea E","route_color":"#6b297e"}],"pass_count":1,"station_degree":2,"codes":null,"is_interchange":false,"station_role":"normal"},"geometry":{"type":"Point","coordinates":[-58.43388756666667,-34.628027233333334]},"__memberLines":{}},{"type":"Feature","properties":{"station_id":"n256241985","station_name":"Avenida La Plata","station_name_local":"Avenida La Plata","station_name_en":null,"city":"Buenos Aires","country":"Argentina","lines":["E"],"wikipedia":"es:Avenida La Plata (Subte de Buenos Aires)","merged_from":3,"merged_names":null,"is_terminus":false,"routes":[{"ref":"E","name":"Línea E","route_color":"#6b297e"}],"pass_count":1,"station_degree":2,"codes":null,"is_interchange":false,"station_role":"normal"},"geometry":{"type":"Point","coordinates":[-58.42641393333333,-34.6269676]},"__memberLines":{}},{"type":"Feature","properties":{"station_id":"n256242013","station_name":"Boedo","station_name_local":"Boedo","station_name_en":null,"city":"Buenos Aires","country":"Argentina","lines":["E"],"wikipedia":"es:Boedo (Subte de Buenos Aires)","merged_from":3,"merged_names":null,"is_terminus":false,"routes":[{"ref":"E","name":"Línea E","route_color":"#6b297e"}],"pass_count":1,"station_degree":2,"codes":null,"is_interchange":false,"station_role":"normal"},"geometry":{"type":"Point","coordinates":[-58.41610716666667,-34.62547203333333]},"__memberLines":{}},{"type":"Feature","properties":{"station_id":"n256242017","station_name":"Jujuy / Humberto I","station_name_local":"Jujuy / Humberto I","station_name_en":null,"city":"Buenos Aires","country":"Argentina","lines":["E","H"],"wikipedia":null,"merged_from":6,"merged_names":[{"station_id":"n256242017","station_name":"Jujuy","station_name_local":"Jujuy","lines":["E"]},{"station_id":"n256242045","station_name":"Humberto I","station_name_local":"Humberto I","lines":["H"]}],"is_terminus":false,"routes":[{"ref":"E","name":"Línea E","route_color":"#6b297e"},{"ref":"H","name":"Línea H","route_color":"#f4cc21"}],"pass_count":2,"station_degree":4,"codes":null,"is_interchange":true,"station_role":"interchange"},"geometry":{"type":"Point","coordinates":[-58.402548466666666,-34.62345671666667]},"__memberLines":{}},{"type":"Feature","properties":{"station_id":"n256242056","station_name":"Pichincha","station_name_local":"Pichincha","station_name_en":null,"city":"Buenos Aires","country":"Argentina","lines":["E"],"wikipedia":null,"merged_from":3,"merged_names":null,"is_terminus":false,"routes":[{"ref":"E","name":"Línea E","route_color":"#6b297e"}],"pass_count":1,"station_degree":2,"codes":null,"is_interchange":false,"station_role":"normal"},"geometry":{"type":"Point","coordinates":[-58.397572266666664,-34.623214233333336]},"__memberLines":{}},{"type":"Feature","properties":{"station_id":"n256242062","station_name":"Entre Ríos - Rodolfo Walsh","station_name_local":"Entre Ríos - Rodolfo Walsh","station_name_en":null,"city":"Buenos Aires","country":"Argentina","lines":["E"],"wikipedia":null,"merged_from":3,"merged_names":null,"is_terminus":false,"routes":[{"ref":"E","name":"Línea E","route_color":"#6b297e"}],"pass_count":1,"station_degree":2,"codes":null,"is_interchange":false,"station_role":"normal"},"geometry":{"type":"Point","coordinates":[-58.39144983333333,-34.622741166666664]},"__memberLines":{}},{"type":"Feature","properties":{"station_id":"n256242125","station_name":"Constitución","station_name_local":"Constitución","station_name_en":null,"city":"Buenos Aires","country":"Argentina","lines":["C"],"wikipedia":"es:Constitución (Subte de Buenos Aires)","merged_from":3,"merged_names":null,"is_terminus":true,"routes":[{"ref":"C","name":"Línea C","route_color":"#003ea1"}],"pass_count":1,"station_degree":1,"codes":null,"is_interchange":false,"station_role":"terminus"},"geometry":{"type":"Point","coordinates":[-58.38111013333333,-34.62760146666667]},"__memberLines":{}},{"type":"Feature","properties":{"station_id":"n256242143","station_name":"San Juan","station_name_local":"San Juan","station_name_en":null,"city":"Buenos Aires","country":"Argentina","lines":["C"],"wikipedia":"es:San Juan (subte de Buenos Aires)","merged_from":3,"merged_names":null,"is_terminus":false,"routes":[{"ref":"C","name":"Línea C","route_color":"#003ea1"}],"pass_count":1,"station_degree":2,"codes":null,"is_interchange":false,"station_role":"normal"},"geometry":{"type":"Point","coordinates":[-58.3799176,-34.622413566666665]},"__memberLines":{}},{"type":"Feature","properties":{"station_id":"n3633340416","station_name":"Independencia","station_name_local":"Independencia","station_name_en":null,"city":"Buenos Aires","country":"Argentina","lines":["C","E"],"wikipedia":null,"merged_from":6,"merged_names":null,"is_terminus":false,"routes":[{"ref":"C","name":"Línea C","route_color":"#003ea1"},{"ref":"E","name":"Línea E","route_color":"#6b297e"}],"pass_count":2,"station_degree":4,"codes":null,"is_interchange":true,"station_role":"interchange"},"geometry":{"type":"Point","coordinates":[-58.38079956666666,-34.618100516666665]},"__memberLines":{}},{"type":"Feature","properties":{"station_id":"n256242170","station_name":"Belgrano","station_name_local":"Belgrano","station_name_en":null,"city":"Buenos Aires","country":"Argentina","lines":["E"],"wikipedia":null,"merged_from":3,"merged_names":null,"is_terminus":false,"routes":[{"ref":"E","name":"Línea E","route_color":"#6b297e"}],"pass_count":1,"station_degree":2,"codes":null,"is_interchange":false,"station_role":"normal"},"geometry":{"type":"Point","coordinates":[-58.37768786666667,-34.613011699999994]},"__memberLines":{}},{"type":"Feature","properties":{"station_id":"n256242187","station_name":"Plaza de Mayo","station_name_local":"Plaza de Mayo","station_name_en":null,"city":"Buenos Aires","country":"Argentina","lines":["A"],"wikipedia":null,"merged_from":3,"merged_names":null,"is_terminus":true,"routes":[{"ref":"A","name":"Línea A","route_color":"#1ca4cb"}],"pass_count":1,"station_degree":1,"codes":null,"is_interchange":false,"station_role":"terminus"},"geometry":{"type":"Point","coordinates":[-58.370977366666665,-34.6088284]},"__memberLines":{}},{"type":"Feature","properties":{"station_id":"n256242204","station_name":"Perú / Bolívar / Catedral","station_name_local":"Perú / Bolívar / Catedral","station_name_en":null,"city":"Buenos Aires","country":"Argentina","lines":["A","D","E"],"wikipedia":null,"merged_from":9,"merged_names":[{"station_id":"n256242204","station_name":"Perú","station_name_local":"Perú","lines":["A"]},{"station_id":"n256242188","station_name":"Bolívar","station_name_local":"Bolívar","lines":["E"]},{"station_id":"n3475502526","station_name":"Catedral","station_name_local":"Catedral","lines":["D"]}],"is_terminus":false,"routes":[{"ref":"A","name":"Línea A","route_color":"#1ca4cb"},{"ref":"D","name":"Línea D","route_color":"#217861"},{"ref":"E","name":"Línea E","route_color":"#6b297e"}],"pass_count":3,"station_degree":5,"codes":null,"is_interchange":true,"station_role":"interchange"},"geometry":{"type":"Point","coordinates":[-58.37424033333333,-34.60866013333333]},"__memberLines":{}},{"type":"Feature","properties":{"station_id":"n256242248","station_name":"9 de Julio / Diagonal Norte / Carlos Pellegrini","station_name_local":"9 de Julio / Diagonal Norte / Carlos Pellegrini","station_name_en":null,"city":"Buenos Aires","country":"Argentina","lines":["B","C","D"],"wikipedia":null,"merged_from":9,"merged_names":[{"station_id":"n256242248","station_name":"9 de Julio","station_name_local":"9 de Julio","lines":["D"]},{"station_id":"n256242251","station_name":"Diagonal Norte","station_name_local":"Diagonal Norte","lines":["C"]},{"station_id":"n3407636966","station_name":"Carlos Pellegrini","station_name_local":"Carlos Pellegrini","lines":["B"]}],"is_terminus":false,"routes":[{"ref":"B","name":"Línea B","route_color":"#c20924"},{"ref":"C","name":"Línea C","route_color":"#003ea1"},{"ref":"D","name":"Línea D","route_color":"#217861"}],"pass_count":3,"station_degree":6,"codes":null,"is_interchange":true,"station_role":"interchange"},"geometry":{"type":"Point","coordinates":[-58.38030823333333,-34.604300377777776]},"__memberLines":{}},{"type":"Feature","properties":{"station_id":"n256242264","station_name":"Florida","station_name_local":"Florida","station_name_en":null,"city":"Buenos Aires","country":"Argentina","lines":["B"],"wikipedia":null,"merged_from":3,"merged_names":null,"is_terminus":false,"routes":[{"ref":"B","name":"Línea B","route_color":"#c20924"}],"pass_count":1,"station_degree":2,"codes":null,"is_interchange":false,"station_role":"normal"},"geometry":{"type":"Point","coordinates":[-58.374565,-34.60334846666667]},"__memberLines":{}},{"type":"Feature","properties":{"station_id":"n256242276","station_name":"General Urquiza","station_name_local":"General Urquiza","station_name_en":null,"city":"Buenos Aires","country":"Argentina","lines":["E"],"wikipedia":null,"merged_from":3,"merged_names":null,"is_terminus":false,"routes":[{"ref":"E","name":"Línea E","route_color":"#6b297e"}],"pass_count":1,"station_degree":2,"codes":null,"is_interchange":false,"station_role":"normal"},"geometry":{"type":"Point","coordinates":[-58.40975086666666,-34.624689133333334]},"__memberLines":{}},{"type":"Feature","properties":{"station_id":"n1085915767","station_name":"Correo Central / Leandro N. Alem","station_name_local":"Correo Central / Leandro N. Alem","station_name_en":null,"city":"Buenos Aires","country":"Argentina","lines":["B","E"],"wikipedia":null,"merged_from":6,"merged_names":[{"station_id":"n1085915767","station_name":"Correo Central","station_name_local":"Correo Central","lines":["E"]},{"station_id":"n256242279","station_name":"Leandro N. Alem","station_name_local":"Leandro N. Alem","lines":["B"]}],"is_terminus":false,"routes":[{"ref":"B","name":"Línea B","route_color":"#c20924"},{"ref":"E","name":"Línea E","route_color":"#6b297e"}],"pass_count":2,"station_degree":3,"codes":null,"is_interchange":true,"station_role":"interchange"},"geometry":{"type":"Point","coordinates":[-58.36985615,-34.60332831666667]},"__memberLines":{}},{"type":"Feature","properties":{"station_id":"n256242329","station_name":"Tribunales - Teatro Colón","station_name_local":"Tribunales - Teatro Colón","station_name_en":null,"city":"Buenos Aires","country":"Argentina","lines":["D"],"wikipedia":null,"merged_from":3,"merged_names":null,"is_terminus":false,"routes":[{"ref":"D","name":"Línea D","route_color":"#217861"}],"pass_count":1,"station_degree":2,"codes":null,"is_interchange":false,"station_role":"normal"},"geometry":{"type":"Point","coordinates":[-58.38487223333333,-34.60145166666666]},"__memberLines":{}},{"type":"Feature","properties":{"station_id":"n256242364","station_name":"Callao","station_name_local":"Callao","station_name_en":null,"city":"Buenos Aires","country":"Argentina","lines":["D"],"wikipedia":null,"merged_from":3,"merged_names":null,"is_terminus":false,"routes":[{"ref":"D","name":"Línea D","route_color":"#217861"}],"pass_count":1,"station_degree":2,"codes":null,"is_interchange":false,"station_role":"normal"},"geometry":{"type":"Point","coordinates":[-58.3926734,-34.5996372]},"__memberLines":{}},{"type":"Feature","properties":{"station_id":"n256247213","station_name":"Callao","station_name_local":"Callao","station_name_en":null,"city":"Buenos Aires","country":"Argentina","lines":["B"],"wikipedia":null,"merged_from":3,"merged_names":null,"is_terminus":false,"routes":[{"ref":"B","name":"Línea B","route_color":"#c20924"}],"pass_count":1,"station_degree":2,"codes":null,"is_interchange":false,"station_role":"normal"},"geometry":{"type":"Point","coordinates":[-58.392750766666666,-34.6044509]},"__memberLines":{}},{"type":"Feature","properties":{"station_id":"n256242392","station_name":"Facultad de Medicina","station_name_local":"Facultad de Medicina","station_name_en":null,"city":"Buenos Aires","country":"Argentina","lines":["D"],"wikipedia":null,"merged_from":3,"merged_names":null,"is_terminus":false,"routes":[{"ref":"D","name":"Línea D","route_color":"#217861"}],"pass_count":1,"station_degree":2,"codes":null,"is_interchange":false,"station_role":"normal"},"geometry":{"type":"Point","coordinates":[-58.39774056666666,-34.59974723333333]},"__memberLines":{}},{"type":"Feature","properties":{"station_id":"n256242446","station_name":"Bulnes","station_name_local":"Bulnes","station_name_en":null,"city":"Buenos Aires","country":"Argentina","lines":["D"],"wikipedia":null,"merged_from":3,"merged_names":null,"is_terminus":false,"routes":[{"ref":"D","name":"Línea D","route_color":"#217861"}],"pass_count":1,"station_degree":2,"codes":null,"is_interchange":false,"station_role":"normal"},"geometry":{"type":"Point","coordinates":[-58.411269366666666,-34.5882252]},"__memberLines":{}},{"type":"Feature","properties":{"station_id":"n256242470","station_name":"Scalabrini Ortiz","station_name_local":"Scalabrini Ortiz","station_name_en":null,"city":"Buenos Aires","country":"Argentina","lines":["D"],"wikipedia":null,"merged_from":3,"merged_names":null,"is_terminus":false,"routes":[{"ref":"D","name":"Línea D","route_color":"#217861"}],"pass_count":1,"station_degree":2,"codes":null,"is_interchange":false,"station_role":"normal"},"geometry":{"type":"Point","coordinates":[-58.41590213333333,-34.5851645]},"__memberLines":{}},{"type":"Feature","properties":{"station_id":"n256242477","station_name":"Pueyrredón / Santa Fe - Carlos Jáuregui","station_name_local":"Pueyrredón / Santa Fe - Carlos Jáuregui","station_name_en":null,"city":"Buenos Aires","country":"Argentina","lines":["D","H"],"wikipedia":null,"merged_from":6,"merged_names":[{"station_id":"n256242477","station_name":"Pueyrredón","station_name_local":"Pueyrredón","lines":["D"]},{"station_id":"n1137462071","station_name":"Santa Fe - Carlos Jáuregui","station_name_local":"Santa Fe - Carlos Jáuregui","lines":["H"]}],"is_terminus":false,"routes":[{"ref":"D","name":"Línea D","route_color":"#217861"},{"ref":"H","name":"Línea H","route_color":"#f4cc21"}],"pass_count":2,"station_degree":4,"codes":null,"is_interchange":true,"station_role":"interchange"},"geometry":{"type":"Point","coordinates":[-58.40279133333334,-34.59482635]},"__memberLines":{}},{"type":"Feature","properties":{"station_id":"n256242478","station_name":"Agüero","station_name_local":"Agüero","station_name_en":null,"city":"Buenos Aires","country":"Argentina","lines":["D"],"wikipedia":null,"merged_from":3,"merged_names":null,"is_terminus":false,"routes":[{"ref":"D","name":"Línea D","route_color":"#217861"}],"pass_count":1,"station_degree":2,"codes":null,"is_interchange":false,"station_role":"normal"},"geometry":{"type":"Point","coordinates":[-58.407067833333336,-34.5917066]},"__memberLines":{}},{"type":"Feature","properties":{"station_id":"n256242488","station_name":"Plaza Italia","station_name_local":"Plaza Italia","station_name_en":null,"city":"Buenos Aires","country":"Argentina","lines":["D"],"wikipedia":null,"merged_from":3,"merged_names":null,"is_terminus":false,"routes":[{"ref":"D","name":"Línea D","route_color":"#217861"}],"pass_count":1,"station_degree":2,"codes":null,"is_interchange":false,"station_role":"normal"},"geometry":{"type":"Point","coordinates":[-58.4211027,-34.581459466666665]},"__memberLines":{}},{"type":"Feature","properties":{"station_id":"n256242491","station_name":"Palermo","station_name_local":"Palermo","station_name_en":null,"city":"Buenos Aires","country":"Argentina","lines":["D"],"wikipedia":null,"merged_from":3,"merged_names":null,"is_terminus":false,"routes":[{"ref":"D","name":"Línea D","route_color":"#217861"}],"pass_count":1,"station_degree":2,"codes":null,"is_interchange":false,"station_role":"normal"},"geometry":{"type":"Point","coordinates":[-58.425629433333334,-34.57848786666667]},"__memberLines":{}},{"type":"Feature","properties":{"station_id":"n256242572","station_name":"Ministro Carranza","station_name_local":"Ministro Carranza","station_name_en":null,"city":"Buenos Aires","country":"Argentina","lines":["D"],"wikipedia":null,"merged_from":3,"merged_names":null,"is_terminus":false,"routes":[{"ref":"D","name":"Línea D","route_color":"#217861"}],"pass_count":1,"station_degree":2,"codes":null,"is_interchange":false,"station_role":"normal"},"geometry":{"type":"Point","coordinates":[-58.43470396666667,-34.57519366666667]},"__memberLines":{}},{"type":"Feature","properties":{"station_id":"n256242596","station_name":"Olleros","station_name_local":"Olleros","station_name_en":null,"city":"Buenos Aires","country":"Argentina","lines":["D"],"wikipedia":null,"merged_from":3,"merged_names":null,"is_terminus":false,"routes":[{"ref":"D","name":"Línea D","route_color":"#217861"}],"pass_count":1,"station_degree":2,"codes":null,"is_interchange":false,"station_role":"normal"},"geometry":{"type":"Point","coordinates":[-58.44435886666667,-34.570255]},"__memberLines":{}},{"type":"Feature","properties":{"station_id":"n256242645","station_name":"José Hernández","station_name_local":"José Hernández","station_name_en":null,"city":"Buenos Aires","country":"Argentina","lines":["D"],"wikipedia":null,"merged_from":3,"merged_names":null,"is_terminus":false,"routes":[{"ref":"D","name":"Línea D","route_color":"#217861"}],"pass_count":1,"station_degree":2,"codes":null,"is_interchange":false,"station_role":"normal"},"geometry":{"type":"Point","coordinates":[-58.4520396,-34.5662858]},"__memberLines":{}},{"type":"Feature","properties":{"station_id":"n256243093","station_name":"Juramento","station_name_local":"Juramento","station_name_en":null,"city":"Buenos Aires","country":"Argentina","lines":["D"],"wikipedia":null,"merged_from":3,"merged_names":null,"is_terminus":false,"routes":[{"ref":"D","name":"Línea D","route_color":"#217861"}],"pass_count":1,"station_degree":2,"codes":null,"is_interchange":false,"station_role":"normal"},"geometry":{"type":"Point","coordinates":[-58.4563814,-34.56244146666666]},"__memberLines":{}},{"type":"Feature","properties":{"station_id":"n256243327","station_name":"Congreso de Tucumán","station_name_local":"Congreso de Tucumán","station_name_en":null,"city":"Buenos Aires","country":"Argentina","lines":["D"],"wikipedia":null,"merged_from":3,"merged_names":null,"is_terminus":true,"routes":[{"ref":"D","name":"Línea D","route_color":"#217861"}],"pass_count":1,"station_degree":1,"codes":null,"is_interchange":false,"station_role":"terminus"},"geometry":{"type":"Point","coordinates":[-58.462218166666666,-34.5558044]},"__memberLines":{}},{"type":"Feature","properties":{"station_id":"n256244943","station_name":"Lavalle / Esmeralda y Lavalle","station_name_local":"Lavalle / Esmeralda y Lavalle","station_name_en":null,"city":"Buenos Aires","country":"Argentina","lines":["C"],"wikipedia":null,"merged_from":3,"merged_names":[{"station_id":"n256244943","station_name":"Lavalle","station_name_local":"Lavalle","lines":["C"]},{"station_id":"n3633340419","station_name":"Esmeralda y Lavalle","station_name_local":"Esmeralda y Lavalle","lines":["C"]}],"is_terminus":false,"routes":[{"ref":"C","name":"Línea C","route_color":"#003ea1"}],"pass_count":1,"station_degree":2,"codes":null,"is_interchange":false,"station_role":"normal"},"geometry":{"type":"Point","coordinates":[-58.378107099999994,-34.601738833333336]},"__memberLines":{}},{"type":"Feature","properties":{"station_id":"n256245038","station_name":"Piedras","station_name_local":"Piedras","station_name_en":null,"city":"Buenos Aires","country":"Argentina","lines":["A"],"wikipedia":null,"merged_from":3,"merged_names":null,"is_terminus":false,"routes":[{"ref":"A","name":"Línea A","route_color":"#1ca4cb"}],"pass_count":1,"station_degree":2,"codes":null,"is_interchange":false,"station_role":"normal"},"geometry":{"type":"Point","coordinates":[-58.378539133333334,-34.608839466666666]},"__memberLines":{}},{"type":"Feature","properties":{"station_id":"n256245064","station_name":"Lima / Avenida de Mayo","station_name_local":"Lima / Avenida de Mayo","station_name_en":null,"city":"Buenos Aires","country":"Argentina","lines":["A","C"],"wikipedia":null,"merged_from":6,"merged_names":[{"station_id":"n256245064","station_name":"Lima","station_name_local":"Lima","lines":["A"]},{"station_id":"n310353386","station_name":"Avenida de Mayo","station_name_local":"Avenida de Mayo","lines":["C"]}],"is_terminus":false,"routes":[{"ref":"A","name":"Línea A","route_color":"#1ca4cb"},{"ref":"C","name":"Línea C","route_color":"#003ea1"}],"pass_count":2,"station_degree":4,"codes":null,"is_interchange":true,"station_role":"interchange"},"geometry":{"type":"Point","coordinates":[-58.381667883333336,-34.60907345]},"__memberLines":{}},{"type":"Feature","properties":{"station_id":"n256245094","station_name":"Sáenz Peña","station_name_local":"Sáenz Peña","station_name_en":null,"city":"Buenos Aires","country":"Argentina","lines":["A"],"wikipedia":null,"merged_from":3,"merged_names":null,"is_terminus":false,"routes":[{"ref":"A","name":"Línea A","route_color":"#1ca4cb"}],"pass_count":1,"station_degree":2,"codes":null,"is_interchange":false,"station_role":"normal"},"geometry":{"type":"Point","coordinates":[-58.386750199999994,-34.60940606666667]},"__memberLines":{}},{"type":"Feature","properties":{"station_id":"n256245268","station_name":"Congreso","station_name_local":"Congreso","station_name_en":null,"city":"Buenos Aires","country":"Argentina","lines":["A"],"wikipedia":null,"merged_from":3,"merged_names":null,"is_terminus":false,"routes":[{"ref":"A","name":"Línea A","route_color":"#1ca4cb"}],"pass_count":1,"station_degree":2,"codes":null,"is_interchange":false,"station_role":"normal"},"geometry":{"type":"Point","coordinates":[-58.392564633333336,-34.60922106666667]},"__memberLines":{}},{"type":"Feature","properties":{"station_id":"n2817082901","station_name":"Plaza Miserere / Once - 30 de Diciembre","station_name_local":"Plaza Miserere / Once - 30 de Diciembre","station_name_en":null,"city":"Buenos Aires","country":"Argentina","lines":["A","H"],"wikipedia":null,"merged_from":6,"merged_names":[{"station_id":"n2817082901","station_name":"Plaza Miserere","station_name_local":"Plaza Miserere","lines":["A"]},{"station_id":"n256245308","station_name":"Once - 30 de Diciembre","station_name_local":"Once - 30 de Diciembre","lines":["H"]}],"is_terminus":false,"routes":[{"ref":"A","name":"Línea A","route_color":"#1ca4cb"},{"ref":"H","name":"Línea H","route_color":"#f4cc21"}],"pass_count":2,"station_degree":4,"codes":null,"is_interchange":true,"station_role":"interchange"},"geometry":{"type":"Point","coordinates":[-58.406162083333335,-34.6094714]},"__memberLines":{}},{"type":"Feature","properties":{"station_id":"n256245337","station_name":"Venezuela","station_name_local":"Venezuela","station_name_en":null,"city":"Buenos Aires","country":"Argentina","lines":["H"],"wikipedia":null,"merged_from":3,"merged_names":null,"is_terminus":false,"routes":[{"ref":"H","name":"Línea H","route_color":"#f4cc21"}],"pass_count":1,"station_degree":2,"codes":null,"is_interchange":false,"station_role":"normal"},"geometry":{"type":"Point","coordinates":[-58.4047353,-34.615210166666664]},"__memberLines":{}},{"type":"Feature","properties":{"station_id":"n256245516","station_name":"Inclán-Mezquita Al Ahmad","station_name_local":"Inclán-Mezquita Al Ahmad","station_name_en":null,"city":"Buenos Aires","country":"Argentina","lines":["H"],"wikipedia":null,"merged_from":3,"merged_names":null,"is_terminus":false,"routes":[{"ref":"H","name":"Línea H","route_color":"#f4cc21"}],"pass_count":1,"station_degree":2,"codes":null,"is_interchange":false,"station_role":"normal"},"geometry":{"type":"Point","coordinates":[-58.40100026666667,-34.62930816666667]},"__memberLines":{}},{"type":"Feature","properties":{"station_id":"n256245718","station_name":"Caseros","station_name_local":"Caseros","station_name_en":null,"city":"Buenos Aires","country":"Argentina","lines":["H"],"wikipedia":null,"merged_from":3,"merged_names":null,"is_terminus":false,"routes":[{"ref":"H","name":"Línea H","route_color":"#f4cc21"}],"pass_count":1,"station_degree":2,"codes":null,"is_interchange":false,"station_role":"normal"},"geometry":{"type":"Point","coordinates":[-58.3990459,-34.635434000000004]},"__memberLines":{}},{"type":"Feature","properties":{"station_id":"n256245737","station_name":"Alberti","station_name_local":"Alberti","station_name_en":null,"city":"Buenos Aires","country":"Argentina","lines":["A"],"wikipedia":null,"merged_from":2,"merged_names":null,"is_terminus":false,"routes":[{"ref":"A","name":"Línea A","route_color":"#1ca4cb"}],"pass_count":1,"station_degree":2,"codes":null,"is_interchange":false,"station_role":"normal"},"geometry":{"type":"Point","coordinates":[-58.40085845,-34.60987095]},"__memberLines":{}},{"type":"Feature","properties":{"station_id":"n256246017","station_name":"Loria","station_name_local":"Loria","station_name_en":null,"city":"Buenos Aires","country":"Argentina","lines":["A"],"wikipedia":null,"merged_from":3,"merged_names":null,"is_terminus":false,"routes":[{"ref":"A","name":"Línea A","route_color":"#1ca4cb"}],"pass_count":1,"station_degree":2,"codes":null,"is_interchange":false,"station_role":"normal"},"geometry":{"type":"Point","coordinates":[-58.41555019999999,-34.61082713333334]},"__memberLines":{}},{"type":"Feature","properties":{"station_id":"n256246386","station_name":"Río de Janeiro","station_name_local":"Río de Janeiro","station_name_en":null,"city":"Buenos Aires","country":"Argentina","lines":["A"],"wikipedia":null,"merged_from":3,"merged_names":null,"is_terminus":false,"routes":[{"ref":"A","name":"Línea A","route_color":"#1ca4cb"}],"pass_count":1,"station_degree":2,"codes":null,"is_interchange":false,"station_role":"normal"},"geometry":{"type":"Point","coordinates":[-58.4294913,-34.6152406]},"__memberLines":{}},{"type":"Feature","properties":{"station_id":"n256246690","station_name":"Acoyte","station_name_local":"Acoyte","station_name_en":null,"city":"Buenos Aires","country":"Argentina","lines":["A"],"wikipedia":null,"merged_from":3,"merged_names":null,"is_terminus":false,"routes":[{"ref":"A","name":"Línea A","route_color":"#1ca4cb"}],"pass_count":1,"station_degree":2,"codes":null,"is_interchange":false,"station_role":"normal"},"geometry":{"type":"Point","coordinates":[-58.435957099999996,-34.618104366666664]},"__memberLines":{}},{"type":"Feature","properties":{"station_id":"n256247193","station_name":"Pasteur - AMIA","station_name_local":"Pasteur - AMIA","station_name_en":null,"city":"Buenos Aires","country":"Argentina","lines":["B"],"wikipedia":null,"merged_from":3,"merged_names":null,"is_terminus":false,"routes":[{"ref":"B","name":"Línea B","route_color":"#c20924"}],"pass_count":1,"station_degree":2,"codes":null,"is_interchange":false,"station_role":"normal"},"geometry":{"type":"Point","coordinates":[-58.3994154,-34.6046461]},"__memberLines":{}},{"type":"Feature","properties":{"station_id":"n256247262","station_name":"Uruguay","station_name_local":"Uruguay","station_name_en":null,"city":"Buenos Aires","country":"Argentina","lines":["B"],"wikipedia":null,"merged_from":3,"merged_names":null,"is_terminus":false,"routes":[{"ref":"B","name":"Línea B","route_color":"#c20924"}],"pass_count":1,"station_degree":2,"codes":null,"is_interchange":false,"station_role":"normal"},"geometry":{"type":"Point","coordinates":[-58.387084233333326,-34.6040439]},"__memberLines":{}},{"type":"Feature","properties":{"station_id":"n256247333","station_name":"Carlos Gardel","station_name_local":"Carlos Gardel","station_name_en":null,"city":"Buenos Aires","country":"Argentina","lines":["B"],"wikipedia":null,"merged_from":3,"merged_names":null,"is_terminus":false,"routes":[{"ref":"B","name":"Línea B","route_color":"#c20924"}],"pass_count":1,"station_degree":2,"codes":null,"is_interchange":false,"station_role":"normal"},"geometry":{"type":"Point","coordinates":[-58.41134316666666,-34.60408133333333]},"__memberLines":{}},{"type":"Feature","properties":{"station_id":"n256247398","station_name":"Medrano - Almagro","station_name_local":"Medrano - Almagro","station_name_en":null,"city":"Buenos Aires","country":"Argentina","lines":["B"],"wikipedia":null,"merged_from":3,"merged_names":null,"is_terminus":false,"routes":[{"ref":"B","name":"Línea B","route_color":"#c20924"}],"pass_count":1,"station_degree":2,"codes":null,"is_interchange":false,"station_role":"normal"},"geometry":{"type":"Point","coordinates":[-58.4207985,-34.60320363333333]},"__memberLines":{}},{"type":"Feature","properties":{"station_id":"n256247443","station_name":"Ángel Gallardo","station_name_local":"Ángel Gallardo","station_name_en":null,"city":"Buenos Aires","country":"Argentina","lines":["B"],"wikipedia":null,"merged_from":3,"merged_names":null,"is_terminus":false,"routes":[{"ref":"B","name":"Línea B","route_color":"#c20924"}],"pass_count":1,"station_degree":2,"codes":null,"is_interchange":false,"station_role":"normal"},"geometry":{"type":"Point","coordinates":[-58.4311324,-34.6021488]},"__memberLines":{}},{"type":"Feature","properties":{"station_id":"n256247490","station_name":"Malabia - Osvaldo Pugliese","station_name_local":"Malabia - Osvaldo Pugliese","station_name_en":null,"city":"Buenos Aires","country":"Argentina","lines":["B"],"wikipedia":null,"merged_from":3,"merged_names":null,"is_terminus":false,"routes":[{"ref":"B","name":"Línea B","route_color":"#c20924"}],"pass_count":1,"station_degree":2,"codes":null,"is_interchange":false,"station_role":"normal"},"geometry":{"type":"Point","coordinates":[-58.4396906,-34.599033600000006]},"__memberLines":{}},{"type":"Feature","properties":{"station_id":"n256247532","station_name":"Dorrego","station_name_local":"Dorrego","station_name_en":null,"city":"Buenos Aires","country":"Argentina","lines":["B"],"wikipedia":null,"merged_from":3,"merged_names":null,"is_terminus":false,"routes":[{"ref":"B","name":"Línea B","route_color":"#c20924"}],"pass_count":1,"station_degree":2,"codes":null,"is_interchange":false,"station_role":"normal"},"geometry":{"type":"Point","coordinates":[-58.44749216666667,-34.5917637]},"__memberLines":{}},{"type":"Feature","properties":{"station_id":"n256247568","station_name":"Federico Lacroze","station_name_local":"Federico Lacroze","station_name_en":null,"city":"Buenos Aires","country":"Argentina","lines":["B"],"wikipedia":null,"merged_from":3,"merged_names":null,"is_terminus":false,"routes":[{"ref":"B","name":"Línea B","route_color":"#c20924"}],"pass_count":1,"station_degree":2,"codes":null,"is_interchange":false,"station_role":"normal"},"geometry":{"type":"Point","coordinates":[-58.455150833333335,-34.5871833]},"__memberLines":{}},{"type":"Feature","properties":{"station_id":"n256247605","station_name":"Tronador - Villa Ortúzar","station_name_local":"Tronador - Villa Ortúzar","station_name_en":null,"city":"Buenos Aires","country":"Argentina","lines":["B"],"wikipedia":null,"merged_from":3,"merged_names":null,"is_terminus":false,"routes":[{"ref":"B","name":"Línea B","route_color":"#c20924"}],"pass_count":1,"station_degree":2,"codes":null,"is_interchange":false,"station_role":"normal"},"geometry":{"type":"Point","coordinates":[-58.466371466666665,-34.584083066666665]},"__memberLines":{}},{"type":"Feature","properties":{"station_id":"n256247611","station_name":"Los Incas - Parque Chas","station_name_local":"Los Incas - Parque Chas","station_name_en":null,"city":"Buenos Aires","country":"Argentina","lines":["B"],"wikipedia":null,"merged_from":3,"merged_names":null,"is_terminus":false,"routes":[{"ref":"B","name":"Línea B","route_color":"#c20924"}],"pass_count":1,"station_degree":2,"codes":null,"is_interchange":false,"station_role":"normal"},"geometry":{"type":"Point","coordinates":[-58.4743645,-34.58120003333333]},"__memberLines":{}},{"type":"Feature","properties":{"station_id":"n286815382","station_name":"Castro Barros","station_name_local":"Castro Barros","station_name_en":null,"city":"Buenos Aires","country":"Argentina","lines":["A"],"wikipedia":null,"merged_from":3,"merged_names":null,"is_terminus":false,"routes":[{"ref":"A","name":"Línea A","route_color":"#1ca4cb"}],"pass_count":1,"station_degree":2,"codes":null,"is_interchange":false,"station_role":"normal"},"geometry":{"type":"Point","coordinates":[-58.42151646666667,-34.61170583333333]},"__memberLines":{}},{"type":"Feature","properties":{"station_id":"n389833455","station_name":"Carabobo","station_name_local":"Carabobo","station_name_en":null,"city":"Buenos Aires","country":"Argentina","lines":["A"],"wikipedia":null,"merged_from":3,"merged_names":null,"is_terminus":false,"routes":[{"ref":"A","name":"Línea A","route_color":"#1ca4cb"}],"pass_count":1,"station_degree":2,"codes":null,"is_interchange":false,"station_role":"normal"},"geometry":{"type":"Point","coordinates":[-58.4561069,-34.62645393333333]},"__memberLines":{}},{"type":"Feature","properties":{"station_id":"n437577493","station_name":"Puán","station_name_local":"Puán","station_name_en":null,"city":"Buenos Aires","country":"Argentina","lines":["A"],"wikipedia":null,"merged_from":3,"merged_names":null,"is_terminus":false,"routes":[{"ref":"A","name":"Línea A","route_color":"#1ca4cb"}],"pass_count":1,"station_degree":2,"codes":null,"is_interchange":false,"station_role":"normal"},"geometry":{"type":"Point","coordinates":[-58.44864090000001,-34.623559533333335]},"__memberLines":{}},{"type":"Feature","properties":{"station_id":"n1085889718","station_name":"Juan Manuel de Rosas","station_name_local":"Juan Manuel de Rosas","station_name_en":null,"city":"Buenos Aires","country":"Argentina","lines":["B"],"wikipedia":null,"merged_from":3,"merged_names":null,"is_terminus":true,"routes":[{"ref":"B","name":"Línea B","route_color":"#c20924"}],"pass_count":1,"station_degree":1,"codes":null,"is_interchange":false,"station_role":"terminus"},"geometry":{"type":"Point","coordinates":[-58.48681236666667,-34.57397206666667]},"__memberLines":{}},{"type":"Feature","properties":{"station_id":"n1085899397","station_name":"San Pedrito","station_name_local":"San Pedrito","station_name_en":null,"city":"Buenos Aires","country":"Argentina","lines":["A"],"wikipedia":null,"merged_from":3,"merged_names":null,"is_terminus":true,"routes":[{"ref":"A","name":"Línea A","route_color":"#1ca4cb"}],"pass_count":1,"station_degree":1,"codes":null,"is_interchange":false,"station_role":"terminus"},"geometry":{"type":"Point","coordinates":[-58.4706945,-34.63098813333333]},"__memberLines":{}},{"type":"Feature","properties":{"station_id":"n1085899414","station_name":"San José de Flores","station_name_local":"San José de Flores","station_name_en":null,"city":"Buenos Aires","country":"Argentina","lines":["A"],"wikipedia":null,"merged_from":3,"merged_names":null,"is_terminus":false,"routes":[{"ref":"A","name":"Línea A","route_color":"#1ca4cb"}],"pass_count":1,"station_degree":2,"codes":null,"is_interchange":false,"station_role":"normal"},"geometry":{"type":"Point","coordinates":[-58.46347693333333,-34.62907546666666]},"__memberLines":{}},{"type":"Feature","properties":{"station_id":"n1085915755","station_name":"Catalinas","station_name_local":"Catalinas","station_name_en":null,"city":"Buenos Aires","country":"Argentina","lines":["E"],"wikipedia":"es:Catalinas (subte de Buenos Aires)","merged_from":3,"merged_names":null,"is_terminus":false,"routes":[{"ref":"E","name":"Línea E","route_color":"#6b297e"}],"pass_count":1,"station_degree":2,"codes":null,"is_interchange":false,"station_role":"normal"},"geometry":{"type":"Point","coordinates":[-58.372098533333336,-34.59650653333333]},"__memberLines":{}},{"type":"Feature","properties":{"station_id":"n3633340472","station_name":"Retiro","station_name_local":"Retiro","station_name_en":null,"city":"Buenos Aires","country":"Argentina","lines":["C","E"],"wikipedia":null,"merged_from":6,"merged_names":null,"is_terminus":false,"routes":[{"ref":"C","name":"Línea C","route_color":"#003ea1"},{"ref":"E","name":"Línea E","route_color":"#6b297e"}],"pass_count":2,"station_degree":2,"codes":null,"is_interchange":true,"station_role":"interchange"},"geometry":{"type":"Point","coordinates":[-58.37530623333333,-34.591695300000005]},"__memberLines":{}},{"type":"Feature","properties":{"station_id":"n1137462064","station_name":"Las Heras","station_name_local":"Las Heras","station_name_en":null,"city":"Buenos Aires","country":"Argentina","lines":["H"],"wikipedia":null,"merged_from":3,"merged_names":null,"is_terminus":false,"routes":[{"ref":"H","name":"Línea H","route_color":"#f4cc21"}],"pass_count":1,"station_degree":2,"codes":null,"is_interchange":false,"station_role":"normal"},"geometry":{"type":"Point","coordinates":[-58.397195566666674,-34.5875417]},"__memberLines":{}},{"type":"Feature","properties":{"station_id":"n1268373215","station_name":"Corrientes / Pueyrredón","station_name_local":"Corrientes / Pueyrredón","station_name_en":null,"city":"Buenos Aires","country":"Argentina","lines":["B","H"],"wikipedia":null,"merged_from":6,"merged_names":[{"station_id":"n1268373215","station_name":"Corrientes","station_name_local":"Corrientes","lines":["H"]},{"station_id":"n2193773451","station_name":"Pueyrredón","station_name_local":"Pueyrredón","lines":["B"]}],"is_terminus":false,"routes":[{"ref":"B","name":"Línea B","route_color":"#c20924"},{"ref":"H","name":"Línea H","route_color":"#f4cc21"}],"pass_count":2,"station_degree":4,"codes":null,"is_interchange":true,"station_role":"interchange"},"geometry":{"type":"Point","coordinates":[-58.40538778333333,-34.60434353333333]},"__memberLines":{}},{"type":"Feature","properties":{"station_id":"n1343796346","station_name":"Córdoba","station_name_local":"Córdoba","station_name_en":null,"city":"Buenos Aires","country":"Argentina","lines":["H"],"wikipedia":null,"merged_from":3,"merged_names":null,"is_terminus":false,"routes":[{"ref":"H","name":"Línea H","route_color":"#f4cc21"}],"pass_count":1,"station_degree":2,"codes":null,"is_interchange":false,"station_role":"normal"},"geometry":{"type":"Point","coordinates":[-58.40394343333333,-34.5991967]},"__memberLines":{}},{"type":"Feature","properties":{"station_id":"n2022182747","station_name":"Hospitales","station_name_local":"Hospitales","station_name_en":null,"city":"Buenos Aires","country":"Argentina","lines":["H"],"wikipedia":null,"merged_from":3,"merged_names":null,"is_terminus":true,"routes":[{"ref":"H","name":"Línea H","route_color":"#f4cc21"}],"pass_count":1,"station_degree":1,"codes":null,"is_interchange":false,"station_role":"terminus"},"geometry":{"type":"Point","coordinates":[-58.4126708,-34.64170956666667]},"__memberLines":{}},{"type":"Feature","properties":{"station_id":"n2022182764","station_name":"Parque Patricios","station_name_local":"Parque Patricios","station_name_en":null,"city":"Buenos Aires","country":"Argentina","lines":["H"],"wikipedia":null,"merged_from":3,"merged_names":null,"is_terminus":false,"routes":[{"ref":"H","name":"Línea H","route_color":"#f4cc21"}],"pass_count":1,"station_degree":2,"codes":null,"is_interchange":false,"station_role":"normal"},"geometry":{"type":"Point","coordinates":[-58.40631696666666,-34.63849746666667]},"__memberLines":{}},{"type":"Feature","properties":{"station_id":"n2308890403","station_name":"San José","station_name_local":"San José","station_name_en":null,"city":"Buenos Aires","country":"Argentina","lines":["E"],"wikipedia":null,"merged_from":3,"merged_names":null,"is_terminus":false,"routes":[{"ref":"E","name":"Línea E","route_color":"#6b297e"}],"pass_count":1,"station_degree":2,"codes":null,"is_interchange":false,"station_role":"normal"},"geometry":{"type":"Point","coordinates":[-58.38521016666667,-34.62234726666667]},"__memberLines":{}},{"type":"Feature","properties":{"station_id":"n3256181277","station_name":"Echeverría","station_name_local":"Echeverría","station_name_en":null,"city":"Buenos Aires","country":"Argentina","lines":["B"],"wikipedia":null,"merged_from":3,"merged_names":null,"is_terminus":false,"routes":[{"ref":"B","name":"Línea B","route_color":"#c20924"}],"pass_count":1,"station_degree":2,"codes":null,"is_interchange":false,"station_role":"normal"},"geometry":{"type":"Point","coordinates":[-58.4807365,-34.577969233333334]},"__memberLines":{}},{"type":"Feature","properties":{"station_id":"n3447885516","station_name":"General San Martín","station_name_local":"General San Martín","station_name_en":null,"city":"Buenos Aires","country":"Argentina","lines":["C"],"wikipedia":"es:General San Martín (Subte de Buenos Aires)","merged_from":3,"merged_names":null,"is_terminus":false,"routes":[{"ref":"C","name":"Línea C","route_color":"#003ea1"}],"pass_count":1,"station_degree":2,"codes":null,"is_interchange":false,"station_role":"normal"},"geometry":{"type":"Point","coordinates":[-58.37789346666667,-34.59502533333333]},"__memberLines":{}},{"type":"Feature","properties":{"station_id":"n3449178928","station_name":"Pasco","station_name_local":"Pasco","station_name_en":null,"city":"Buenos Aires","country":"Argentina","lines":["A"],"wikipedia":null,"merged_from":2,"merged_names":null,"is_terminus":false,"routes":[{"ref":"A","name":"Línea A","route_color":"#1ca4cb"}],"pass_count":1,"station_degree":2,"codes":null,"is_interchange":false,"station_role":"normal"},"geometry":{"type":"Point","coordinates":[-58.39852225,-34.6096565]},"__memberLines":{}},{"type":"Feature","properties":{"station_id":"n3633340420","station_name":"Moreno","station_name_local":"Moreno","station_name_en":null,"city":"Buenos Aires","country":"Argentina","lines":["C"],"wikipedia":null,"merged_from":3,"merged_names":null,"is_terminus":false,"routes":[{"ref":"C","name":"Línea C","route_color":"#003ea1"}],"pass_count":1,"station_degree":2,"codes":null,"is_interchange":false,"station_role":"normal"},"geometry":{"type":"Point","coordinates":[-58.38052996666667,-34.61244943333333]},"__memberLines":{}},{"type":"Feature","properties":{"station_id":"n4952653644","station_name":"Facultad de Derecho - Julieta Lanteri","station_name_local":"Facultad de Derecho - Julieta Lanteri","station_name_en":null,"city":"Buenos Aires","country":"Argentina","lines":["H"],"wikipedia":null,"merged_from":3,"merged_names":null,"is_terminus":true,"routes":[{"ref":"H","name":"Línea H","route_color":"#f4cc21"}],"pass_count":1,"station_degree":1,"codes":null,"is_interchange":false,"station_role":"terminus"},"geometry":{"type":"Point","coordinates":[-58.39105163333334,-34.58307756666667]},"__memberLines":{}},{"type":"Feature","properties":{"station_id":"n5281196417","station_name":"Emilio Mitre","station_name_local":"Emilio Mitre","station_name_en":null,"city":"Buenos Aires","country":"Argentina","lines":["E"],"wikipedia":"es:Emilio Mitre (subte de Buenos Aires)","merged_from":3,"merged_names":null,"is_terminus":false,"routes":[{"ref":"E","name":"Línea E","route_color":"#6b297e"}],"pass_count":1,"station_degree":2,"codes":null,"is_interchange":false,"station_role":"normal"},"geometry":{"type":"Point","coordinates":[-58.44236246666666,-34.6314597]},"__memberLines":{}}]}