{"type":"FeatureCollection","features":[{"type":"Feature","properties":{"way_id":908874953,"route_colors":["#3cb44b"],"route_refs":["12"]},"geometry":{"type":"LineString","coordinates":[[-90.072827,29.9427173],[-90.0728438,29.9427266],[-90.0728193,29.9427651],[-90.0727802,29.9428265],[-90.0727562,29.9428133],[-90.072827,29.9427173]]}},{"type":"Feature","properties":{"way_id":908874859,"route_colors":["#3cb44b"],"route_refs":["12"]},"geometry":{"type":"LineString","coordinates":[[-90.0745328,29.940452],[-90.0745222,29.9404461],[-90.0746161,29.9403195],[-90.0746267,29.9403254],[-90.0745328,29.940452]]}},{"type":"Feature","properties":{"way_id":908874860,"route_colors":["#3cb44b"],"route_refs":["12"]},"geometry":{"type":"LineString","coordinates":[[-90.0753822,29.9393079],[-90.0753716,29.9393019],[-90.0754655,29.9391753],[-90.0754762,29.9391813],[-90.0753822,29.9393079]]}},{"type":"Feature","properties":{"way_id":908874862,"route_colors":["#3cb44b"],"route_refs":["12"]},"geometry":{"type":"LineString","coordinates":[[-90.0764408,29.9378799],[-90.0764302,29.9378739],[-90.0765241,29.9377474],[-90.0765347,29.9377533],[-90.0764408,29.9378799]]}},{"type":"Feature","properties":{"way_id":908874864,"route_colors":["#3cb44b"],"route_refs":["12"]},"geometry":{"type":"LineString","coordinates":[[-90.0774966,29.9364668],[-90.0774801,29.9364573],[-90.0775704,29.936349],[-90.0775825,29.936356],[-90.0775663,29.9363769],[-90.0774966,29.9364668]]}},{"type":"Feature","properties":{"way_id":908874866,"route_colors":["#3cb44b"],"route_refs":["12"]},"geometry":{"type":"LineString","coordinates":[[-90.0785831,29.9355113],[-90.0785745,29.9355033],[-90.0787276,29.9353809],[-90.0787362,29.9353889],[-90.0787109,29.9354091],[-90.0785831,29.9355113]]}},{"type":"Feature","properties":{"way_id":908874868,"route_colors":["#3cb44b"],"route_refs":["12"]},"geometry":{"type":"LineString","coordinates":[[-90.0794865,29.9348846],[-90.0794789,29.9348759],[-90.0795959,29.9347998],[-90.0796035,29.9348086],[-90.0794865,29.9348846]]}},{"type":"Feature","properties":{"way_id":908874870,"route_colors":["#3cb44b"],"route_refs":["12"]},"geometry":{"type":"LineString","coordinates":[[-90.080428,29.9342798],[-90.0804205,29.934271],[-90.0805488,29.9341882],[-90.0805563,29.934197],[-90.080428,29.9342798]]}},{"type":"Feature","properties":{"way_id":908874872,"route_colors":["#3cb44b"],"route_refs":["12"]},"geometry":{"type":"LineString","coordinates":[[-90.082554,29.9329237],[-90.0825472,29.9329145],[-90.0826773,29.9328417],[-90.0826842,29.9328509],[-90.082554,29.9329237]]}},{"type":"Feature","properties":{"way_id":908874875,"route_colors":["#3cb44b"],"route_refs":["12"]},"geometry":{"type":"LineString","coordinates":[[-90.0841275,29.93203],[-90.0841207,29.9320207],[-90.0842897,29.9319266],[-90.0842965,29.9319358],[-90.0841275,29.93203]]}},{"type":"Feature","properties":{"way_id":908874877,"route_colors":["#3cb44b"],"route_refs":["12"]},"geometry":{"type":"LineString","coordinates":[[-90.085776,29.931107],[-90.0857692,29.9310977],[-90.0859225,29.9310134],[-90.0859293,29.9310226],[-90.085776,29.931107]]}},{"type":"Feature","properties":{"way_id":908874879,"route_colors":["#3cb44b"],"route_refs":["12"]},"geometry":{"type":"LineString","coordinates":[[-90.0871421,29.9303399],[-90.0871352,29.9303307],[-90.0872964,29.9302398],[-90.0873032,29.930249],[-90.0871421,29.9303399]]}},{"type":"Feature","properties":{"way_id":908874881,"route_colors":["#3cb44b"],"route_refs":["12"]},"geometry":{"type":"LineString","coordinates":[[-90.0887768,29.9294231],[-90.0887699,29.929414],[-90.0889273,29.9293248],[-90.0889342,29.929334],[-90.0887768,29.9294231]]}},{"type":"Feature","properties":{"way_id":908874883,"route_colors":["#3cb44b"],"route_refs":["12"]},"geometry":{"type":"LineString","coordinates":[[-90.0916108,29.9282322],[-90.091606,29.928222],[-90.0917698,29.9281631],[-90.0917746,29.9281733],[-90.0916108,29.9282322]]}},{"type":"Feature","properties":{"way_id":908874885,"route_colors":["#3cb44b"],"route_refs":["12"]},"geometry":{"type":"LineString","coordinates":[[-90.0935009,29.9275512],[-90.0934962,29.927541],[-90.0936325,29.9274934],[-90.0936372,29.9275035],[-90.0935009,29.9275512]]}},{"type":"Feature","properties":{"way_id":908874886,"route_colors":["#3cb44b"],"route_refs":["12"]},"geometry":{"type":"LineString","coordinates":[[-90.0953987,29.9270651],[-90.0953963,29.9270544],[-90.0955407,29.9270306],[-90.0955431,29.9270413],[-90.0953987,29.9270651]]}},{"type":"Feature","properties":{"way_id":908874889,"route_colors":["#3cb44b"],"route_refs":["12"]},"geometry":{"type":"LineString","coordinates":[[-90.0974943,29.9268776],[-90.0974932,29.9268667],[-90.0976983,29.9268514],[-90.0976994,29.9268623],[-90.0974943,29.9268776]]}},{"type":"Feature","properties":{"way_id":908874891,"route_colors":["#3cb44b"],"route_refs":["12"]},"geometry":{"type":"LineString","coordinates":[[-90.0995016,29.9267252],[-90.0995005,29.9267143],[-90.0996549,29.9267027],[-90.099656,29.9267136],[-90.0995016,29.9267252]]}},{"type":"Feature","properties":{"way_id":908874892,"route_colors":["#3cb44b"],"route_refs":["12"]},"geometry":{"type":"LineString","coordinates":[[-90.1016482,29.9265718],[-90.1016458,29.9265486],[-90.1018339,29.9265344],[-90.1018362,29.9265576],[-90.1016482,29.9265718]]}},{"type":"Feature","properties":{"way_id":908874894,"route_colors":["#3cb44b"],"route_refs":["12"]},"geometry":{"type":"LineString","coordinates":[[-90.1041926,29.9263609],[-90.1041915,29.92635],[-90.1043791,29.9263356],[-90.1043802,29.9263465],[-90.1041926,29.9263609]]}},{"type":"Feature","properties":{"way_id":908874897,"route_colors":["#3cb44b"],"route_refs":["12"]},"geometry":{"type":"LineString","coordinates":[[-90.1064704,29.9261883],[-90.1064693,29.9261774],[-90.1066265,29.9261646],[-90.1066277,29.9261755],[-90.1064704,29.9261883]]}},{"type":"Feature","properties":{"way_id":908874899,"route_colors":["#3cb44b"],"route_refs":["12"]},"geometry":{"type":"LineString","coordinates":[[-90.1088731,29.926636],[-90.108879,29.9266263],[-90.1090657,29.9267128],[-90.1090597,29.9267224],[-90.1088731,29.926636]]}},{"type":"Feature","properties":{"way_id":908874902,"route_colors":["#3cb44b"],"route_refs":["12"]},"geometry":{"type":"LineString","coordinates":[[-90.1112817,29.9277765],[-90.1112876,29.9277668],[-90.1114406,29.9278376],[-90.1114346,29.9278473],[-90.1112817,29.9277765]]}},{"type":"Feature","properties":{"way_id":908874905,"route_colors":["#3cb44b"],"route_refs":["12"]},"geometry":{"type":"LineString","coordinates":[[-90.112698,29.9284418],[-90.1127041,29.9284322],[-90.1128563,29.9285041],[-90.1128503,29.9285137],[-90.112698,29.9284418]]}},{"type":"Feature","properties":{"way_id":908874907,"route_colors":["#3cb44b"],"route_refs":["12"]},"geometry":{"type":"LineString","coordinates":[[-90.1146538,29.9293633],[-90.1146599,29.9293537],[-90.1148105,29.9294251],[-90.1148045,29.9294347],[-90.1146538,29.9293633]]}},{"type":"Feature","properties":{"way_id":908874909,"route_colors":["#3cb44b"],"route_refs":["12"]},"geometry":{"type":"LineString","coordinates":[[-90.1163129,29.9301483],[-90.1163191,29.9301387],[-90.1164775,29.9302161],[-90.1164713,29.9302256],[-90.1163129,29.9301483]]}},{"type":"Feature","properties":{"way_id":908874910,"route_colors":["#3cb44b"],"route_refs":["12"]},"geometry":{"type":"LineString","coordinates":[[-90.1178276,29.930985],[-90.117835,29.9309761],[-90.1179898,29.9310727],[-90.1179824,29.9310816],[-90.1178276,29.930985]]}},{"type":"Feature","properties":{"way_id":908874912,"route_colors":["#3cb44b"],"route_refs":["12"]},"geometry":{"type":"LineString","coordinates":[[-90.1190629,29.9318325],[-90.1190708,29.931824],[-90.1192419,29.9319441],[-90.1192339,29.9319526],[-90.1190629,29.9318325]]}},{"type":"Feature","properties":{"way_id":908874914,"route_colors":["#3cb44b"],"route_refs":["12"]},"geometry":{"type":"LineString","coordinates":[[-90.1204571,29.9328186],[-90.1204651,29.9328101],[-90.1205968,29.9329023],[-90.1205888,29.9329109],[-90.1204571,29.9328186]]}},{"type":"Feature","properties":{"way_id":908874917,"route_colors":["#3cb44b"],"route_refs":["12"]},"geometry":{"type":"LineString","coordinates":[[-90.1214303,29.9335079],[-90.1214383,29.9334995],[-90.1215143,29.9335536],[-90.1215063,29.933562],[-90.1214303,29.9335079]]}},{"type":"Feature","properties":{"way_id":908874918,"route_colors":["#3cb44b"],"route_refs":["12"]},"geometry":{"type":"LineString","coordinates":[[-90.1222597,29.9340962],[-90.1222677,29.9340877],[-90.1223905,29.9341735],[-90.1223826,29.934182],[-90.1222597,29.9340962]]}},{"type":"Feature","properties":{"way_id":908874921,"route_colors":["#3cb44b"],"route_refs":["12"]},"geometry":{"type":"LineString","coordinates":[[-90.123578,29.9350251],[-90.123586,29.9350166],[-90.1237549,29.9351358],[-90.1237469,29.9351443],[-90.123578,29.9350251]]}},{"type":"Feature","properties":{"way_id":908874923,"route_colors":["#3cb44b"],"route_refs":["12"]},"geometry":{"type":"LineString","coordinates":[[-90.1252099,29.9361734],[-90.1252179,29.9361649],[-90.1253416,29.9362516],[-90.1253336,29.9362601],[-90.1252099,29.9361734]]}},{"type":"Feature","properties":{"way_id":908874924,"route_colors":["#3cb44b"],"route_refs":["12"]},"geometry":{"type":"LineString","coordinates":[[-90.1268883,29.9373738],[-90.1268964,29.9373654],[-90.1270541,29.9374793],[-90.127046,29.9374877],[-90.1268883,29.9373738]]}},{"type":"Feature","properties":{"way_id":908874927,"route_colors":["#3cb44b"],"route_refs":["12"]},"geometry":{"type":"LineString","coordinates":[[-90.1280342,29.9382022],[-90.1280424,29.9381938],[-90.1282011,29.9383097],[-90.1281929,29.9383181],[-90.1280342,29.9382022]]}},{"type":"Feature","properties":{"way_id":908874929,"route_colors":["#3cb44b"],"route_refs":["12"]},"geometry":{"type":"LineString","coordinates":[[-90.1302055,29.9399157],[-90.1302142,29.9399077],[-90.1303657,29.9400306],[-90.1303571,29.9400386],[-90.1302055,29.9399157]]}},{"type":"Feature","properties":{"way_id":908874934,"route_colors":["#3cb44b"],"route_refs":["12"]},"geometry":{"type":"LineString","coordinates":[[-90.1323113,29.9416293],[-90.1323199,29.9416213],[-90.1324872,29.9417564],[-90.1324786,29.9417644],[-90.1323113,29.9416293]]}},{"type":"Feature","properties":{"way_id":908874936,"route_colors":["#3cb44b"],"route_refs":["12"]},"geometry":{"type":"LineString","coordinates":[[-90.1339883,29.9431742],[-90.1339995,29.9431792],[-90.1339857,29.9432022],[-90.1339716,29.943221],[-90.1339311,29.943264],[-90.1338771,29.943316],[-90.1338677,29.9433087],[-90.1339215,29.9432569],[-90.1339614,29.9432146],[-90.1339748,29.9431966],[-90.1339883,29.9431742]]}},{"type":"Feature","properties":{"way_id":908874937,"route_colors":["#3cb44b"],"route_refs":["12"]},"geometry":{"type":"LineString","coordinates":[[-90.1327418,29.9443791],[-90.1327325,29.9443717],[-90.1328494,29.9442617],[-90.1328587,29.9442691],[-90.1327418,29.9443791]]}},{"type":"Feature","properties":{"way_id":908874939,"route_colors":["#3cb44b"],"route_refs":["12"]},"geometry":{"type":"LineString","coordinates":[[-90.1312289,29.9457966],[-90.1312196,29.9457891],[-90.1313365,29.9456791],[-90.1313458,29.9456865],[-90.1312289,29.9457966]]}},{"type":"Feature","properties":{"way_id":908874941,"route_colors":["#3cb44b"],"route_refs":["12"]},"geometry":{"type":"LineString","coordinates":[[-90.1297216,29.9472074],[-90.1297124,29.9472],[-90.129844,29.9470773],[-90.1298533,29.9470847],[-90.1297216,29.9472074]]}},{"type":"Feature","properties":{"way_id":908874943,"route_colors":["#3cb44b"],"route_refs":["12"]},"geometry":{"type":"LineString","coordinates":[[-90.1282099,29.9486096],[-90.1282006,29.9486022],[-90.1283175,29.9484922],[-90.1283268,29.9484996],[-90.1282099,29.9486096]]}},{"type":"Feature","properties":{"way_id":908874946,"route_colors":["#3cb44b"],"route_refs":["12"]},"geometry":{"type":"LineString","coordinates":[[-90.1266633,29.9500619],[-90.126654,29.9500545],[-90.1267709,29.9499445],[-90.1267802,29.9499519],[-90.1266633,29.9500619]]}},{"type":"Feature","properties":{"way_id":908874947,"route_colors":["#3cb44b"],"route_refs":["12"]},"geometry":{"type":"LineString","coordinates":[[-90.1251834,29.9514518],[-90.1251741,29.9514444],[-90.125291,29.9513343],[-90.1253003,29.9513417],[-90.1251834,29.9514518]]}},{"type":"Feature","properties":{"way_id":908874949,"route_colors":["#3cb44b"],"route_refs":["12"]},"geometry":{"type":"LineString","coordinates":[[-90.1236761,29.9528678],[-90.1236668,29.9528603],[-90.1237837,29.9527503],[-90.123793,29.9527577],[-90.1236761,29.9528678]]}},{"type":"Feature","properties":{"way_id":908874951,"route_colors":["#3cb44b"],"route_refs":["12"]},"geometry":{"type":"LineString","coordinates":[[-90.1207991,29.9555703],[-90.1208199,29.9555871],[-90.1207161,29.9556833],[-90.1206953,29.9556665],[-90.1207991,29.9555703]]}},{"type":"Feature","properties":{"way_id":908917865,"route_colors":["#3cb44b"],"route_refs":["12"]},"geometry":{"type":"LineString","coordinates":[[-90.0701735,29.9535307],[-90.0701354,29.9535684],[-90.0700852,29.9536013],[-90.0700466,29.9536266],[-90.0699959,29.9536377],[-90.0699831,29.9536405],[-90.0699388,29.9536428],[-90.0698866,29.9536343],[-90.0698286,29.9536082],[-90.0696597,29.9534978],[-90.0695711,29.9534383]]}},{"type":"Feature","properties":{"way_id":908582890,"route_colors":["#3cb44b"],"route_refs":["12"]},"geometry":{"type":"LineString","coordinates":[[-90.0695711,29.9534383],[-90.0695039,29.9533941]]}},{"type":"Feature","properties":{"way_id":908568500,"route_colors":["#3cb44b"],"route_refs":["12"]},"geometry":{"type":"LineString","coordinates":[[-90.0695039,29.9533941],[-90.0694768,29.9533762],[-90.069284,29.9532413],[-90.0692549,29.9532132],[-90.0692346,29.9531825],[-90.0692269,29.9531481],[-90.0692247,29.9531379],[-90.0692246,29.9531015],[-90.0692339,29.9530658],[-90.0692465,29.953026],[-90.0692703,29.952985],[-90.0697679,29.9523174],[-90.0697992,29.9522618],[-90.0698223,29.9522206],[-90.0698463,29.9521747],[-90.0698564,29.9521553],[-90.0698963,29.952053],[-90.0700445,29.9515448],[-90.0700604,29.9514903],[-90.0700705,29.9514575],[-90.0701611,29.9511644],[-90.070194,29.9510576],[-90.0703099,29.9506716],[-90.0703524,29.950528],[-90.0705711,29.9498038],[-90.0705861,29.9497493],[-90.0706061,29.9496766],[-90.0706538,29.9495031],[-90.0706815,29.9494146],[-90.0708219,29.948948],[-90.071007,29.9483332],[-90.0710774,29.9480985],[-90.0711412,29.9478862],[-90.071183,29.9477469],[-90.0712757,29.9474382],[-90.071298,29.9473598],[-90.071347,29.9471976],[-90.0714467,29.9468668],[-90.0716929,29.9460404],[-90.0717267,29.9459312],[-90.0717465,29.9458615],[-90.0720131,29.9449236],[-90.0721395,29.9444848],[-90.0721464,29.9444616],[-90.0721678,29.9443895],[-90.0721887,29.9443219],[-90.0723316,29.943859],[-90.0723455,29.9438305],[-90.0723717,29.9437953],[-90.0724023,29.9437698],[-90.0724617,29.9437456],[-90.072523,29.9437289]]}},{"type":"Feature","properties":{"way_id":908582888,"route_colors":["#3cb44b"],"route_refs":["12"]},"geometry":{"type":"LineString","coordinates":[[-90.072523,29.9437289],[-90.0725915,29.9437137],[-90.0726419,29.9436974],[-90.0726899,29.9436766]]}},{"type":"Feature","properties":{"way_id":908568501,"route_colors":["#3cb44b"],"route_refs":["12"]},"geometry":{"type":"LineString","coordinates":[[-90.0726899,29.9436766],[-90.0727647,29.9436318],[-90.0728149,29.9435919],[-90.0728458,29.9435574],[-90.072872,29.9435148],[-90.0728913,29.9434761],[-90.0729135,29.9434192]]}},{"type":"Feature","properties":{"way_id":72902269,"route_colors":["#3cb44b"],"route_refs":["12"]},"geometry":{"type":"LineString","coordinates":[[-90.0729135,29.9434192],[-90.0729247,29.9433802],[-90.0729279,29.9433387],[-90.0729239,29.9432655],[-90.0729052,29.9431925],[-90.0728976,29.9431725],[-90.0728894,29.9431552],[-90.0728797,29.9431395],[-90.0728686,29.9431236],[-90.0728555,29.9431064],[-90.0728387,29.9430869],[-90.0727665,29.9430105],[-90.0727566,29.9429989],[-90.0727471,29.9429859],[-90.0727391,29.9429721],[-90.0727344,29.9429616],[-90.0727309,29.9429501],[-90.0727275,29.9429372],[-90.0727252,29.9429221],[-90.0727245,29.9429092],[-90.0727246,29.9428951],[-90.0727262,29.9428789],[-90.0727288,29.9428636],[-90.072733,29.9428491],[-90.0727387,29.942829],[-90.0727499,29.9428024],[-90.0728129,29.9427188],[-90.0728343,29.9426907],[-90.0729121,29.9425885],[-90.0731871,29.94222],[-90.073459,29.9418622],[-90.0738159,29.9413844],[-90.073851,29.9413374],[-90.0738784,29.9412996],[-90.0743121,29.9407032],[-90.0744346,29.940545],[-90.0744663,29.9405041],[-90.0745036,29.9404535],[-90.074603,29.9403186],[-90.0748586,29.9399754],[-90.0749537,29.9398509],[-90.0749821,29.9398138],[-90.0750054,29.9397821],[-90.0754452,29.9391835],[-90.0754622,29.9391613],[-90.0754898,29.9391253],[-90.0755264,29.9390751],[-90.075563,29.9390257],[-90.0760112,29.9384204],[-90.0760443,29.9383756],[-90.0760773,29.938331],[-90.0765024,29.9377565],[-90.0765261,29.9377244],[-90.0765521,29.9376892],[-90.07659,29.9376387],[-90.0770477,29.9370289],[-90.077077,29.9369899],[-90.0771112,29.9369419],[-90.0772559,29.9367385],[-90.0774396,29.9364805],[-90.0775205,29.9363816],[-90.0775455,29.9363531],[-90.0775698,29.9363266],[-90.0776064,29.9362865],[-90.0776607,29.9362347],[-90.0777112,29.9361867],[-90.0781457,29.9358348],[-90.0781862,29.935802],[-90.0782373,29.9357609],[-90.0787058,29.9353833],[-90.0787174,29.9353739],[-90.0787673,29.9353337],[-90.0788177,29.9352983],[-90.0789428,29.9352107],[-90.0794602,29.9348688],[-90.0795747,29.9347945],[-90.0795878,29.934786],[-90.0796469,29.9347477],[-90.0797132,29.9347049],[-90.0799746,29.9345361],[-90.0805371,29.9341722],[-90.0805388,29.9341711],[-90.0806127,29.934124],[-90.0806351,29.9341092],[-90.080724,29.934051],[-90.0812202,29.9337257],[-90.0814501,29.9335779],[-90.0816192,29.9334692],[-90.0821272,29.9331425],[-90.0826568,29.9328385],[-90.0826815,29.932824],[-90.0827392,29.9327903],[-90.0827946,29.9327588],[-90.0834804,29.932368],[-90.083525,29.9323426],[-90.0835867,29.9323081],[-90.0842858,29.9319175],[-90.084294,29.9319128],[-90.0843544,29.9318786],[-90.0844002,29.931853],[-90.0851041,29.9314593],[-90.0851601,29.931428],[-90.0852124,29.9313984],[-90.0859085,29.9310044],[-90.0859347,29.9309896],[-90.086,29.9309527],[-90.0860614,29.9309183],[-90.08665,29.9305882],[-90.0866982,29.930562],[-90.0867407,29.9305382],[-90.0872772,29.9302374],[-90.0873091,29.9302194],[-90.0873614,29.9301898],[-90.0874168,29.9301588],[-90.0881035,29.929774],[-90.0881542,29.9297456],[-90.0882187,29.9297094],[-90.0889001,29.9293265],[-90.0889091,29.9293213],[-90.0889648,29.9292901],[-90.0890301,29.9292544],[-90.0892215,29.9291495],[-90.0893351,29.929094],[-90.0893741,29.929075],[-90.0894146,29.9290554],[-90.0895965,29.9289672],[-90.0898781,29.9288463],[-90.0901197,29.9287502],[-90.0901627,29.9287331],[-90.0902676,29.9286948],[-90.0903273,29.9286731],[-90.0913,29.9283193],[-90.091366,29.9282953],[-90.0914962,29.9282486],[-90.0915821,29.9282176],[-90.0917443,29.9281591],[-90.0924813,29.9278922],[-90.0925498,29.9278674],[-90.0926099,29.9278457],[-90.092661,29.9278278],[-90.0927883,29.9277832],[-90.0936149,29.9274857],[-90.0936241,29.9274824],[-90.0936835,29.9274626],[-90.0937532,29.92744],[-90.094105,29.9273258],[-90.0946238,29.9271898],[-90.0947051,29.9271703],[-90.0947693,29.9271549],[-90.0948379,29.9271415],[-90.0951862,29.9270733],[-90.0955349,29.9270205],[-90.0955375,29.9270201],[-90.0956005,29.9270113],[-90.0956632,29.927006],[-90.0963648,29.9269472],[-90.0964276,29.9269419],[-90.0965014,29.9269363],[-90.0973888,29.9268685],[-90.0974341,29.926865],[-90.0974976,29.9268599],[-90.0976769,29.9268455],[-90.098487,29.926781],[-90.098568,29.9267728],[-90.0986529,29.9267681],[-90.0996431,29.9266928],[-90.0996519,29.9266908],[-90.099708,29.9266862],[-90.099764,29.9266812],[-90.1007477,29.926607],[-90.1008011,29.9266029],[-90.1008709,29.9265978],[-90.101158,29.926575],[-90.1018088,29.926525],[-90.1018521,29.9265214],[-90.1019479,29.9265133],[-90.1021719,29.9264959],[-90.1022699,29.9264884],[-90.1031328,29.9264224],[-90.1032693,29.926412],[-90.1033238,29.9264078],[-90.1033818,29.9264033],[-90.1043395,29.9263298],[-90.1044253,29.9263226],[-90.1055593,29.9262359],[-90.106615,29.9261537],[-90.1067019,29.9261457],[-90.1069834,29.9261302],[-90.1071058,29.9261238],[-90.1072341,29.926133],[-90.1074212,29.9261465],[-90.107705,29.9261903],[-90.1080038,29.9262543],[-90.1082512,29.9263314],[-90.1084647,29.9264162],[-90.1087999,29.9265765],[-90.1090355,29.9266862],[-90.1097314,29.9270157],[-90.110655,29.9274532],[-90.1114313,29.9278197],[-90.1115079,29.9278561],[-90.1123179,29.9282373],[-90.112646,29.9283913],[-90.1128446,29.9284845],[-90.112931,29.9285259],[-90.1130417,29.9285781],[-90.1139666,29.9290171],[-90.1147946,29.9294061],[-90.114874,29.9294434],[-90.1156924,29.9298316],[-90.1164659,29.9301972],[-90.1164939,29.9302106],[-90.1165764,29.93025],[-90.1166926,29.9303093],[-90.1168866,29.9304084],[-90.1174143,29.9307034],[-90.1179794,29.9310533],[-90.1180088,29.9310715],[-90.1180543,29.9310997],[-90.1181552,29.9311666],[-90.1189318,29.9317124],[-90.1191974,29.9318989],[-90.1192098,29.9319076],[-90.1192968,29.9319689],[-90.1196635,29.9322303],[-90.1200239,29.9324807],[-90.1205824,29.9328787],[-90.1206171,29.9329033],[-90.1206826,29.9329496],[-90.1207361,29.9329876],[-90.1215089,29.9335373],[-90.121536,29.9335565],[-90.1215597,29.9335733],[-90.1216349,29.9336268],[-90.1221047,29.9339582],[-90.1221384,29.9339821],[-90.1223823,29.9341552],[-90.1224087,29.9341736],[-90.1224392,29.9341948],[-90.1225704,29.9342878],[-90.1230841,29.934652],[-90.1231131,29.9346726],[-90.123174,29.9347152],[-90.1234973,29.9349413],[-90.1235322,29.9349657],[-90.1235921,29.9350086],[-90.1237354,29.9351111],[-90.1237944,29.9351529],[-90.123894,29.9352235],[-90.1246097,29.9357311],[-90.1253308,29.9362306],[-90.1253595,29.93625],[-90.1253842,29.9362667],[-90.1254292,29.9362992],[-90.1260721,29.9367635],[-90.1267836,29.9372741],[-90.1268321,29.9373085],[-90.1270452,29.937465],[-90.1272673,29.9376266],[-90.1275317,29.9378199],[-90.128188,29.9382831],[-90.1282661,29.9383419],[-90.129421,29.9392483],[-90.1301782,29.9398631],[-90.1303647,29.940014],[-90.1309196,29.9404708],[-90.1309625,29.9405058],[-90.1316821,29.9410915],[-90.1317267,29.9411278],[-90.1317556,29.9411511],[-90.1324901,29.9417426],[-90.1325047,29.9417543],[-90.1325402,29.9417827],[-90.1326077,29.9418385],[-90.1332488,29.9423684],[-90.1332883,29.9424011],[-90.1333305,29.9424353],[-90.1336913,29.9427277],[-90.1339302,29.9429176],[-90.1339698,29.9429547],[-90.1339957,29.9429877],[-90.1340007,29.9429941],[-90.1340242,29.943047],[-90.1340288,29.9430769],[-90.134025,29.9431254],[-90.1340179,29.9431509],[-90.134009,29.9431827],[-90.1339799,29.9432319],[-90.1339314,29.9432847],[-90.1339042,29.9433097],[-90.1334475,29.9437362],[-90.1333976,29.9437828],[-90.1333491,29.9438281],[-90.132762,29.944377],[-90.1326997,29.9444353],[-90.132647,29.9444847],[-90.1319884,29.9451021],[-90.1319433,29.9451444],[-90.131881,29.9452027],[-90.1312478,29.9457948],[-90.1312335,29.9458083],[-90.1311875,29.9458515],[-90.1304275,29.9465591],[-90.1297438,29.9472018],[-90.1296772,29.9472648],[-90.1289263,29.9479642],[-90.1282357,29.9486087],[-90.1281667,29.9486744],[-90.1280177,29.9488132],[-90.1275317,29.9492657],[-90.1274,29.9493884],[-90.1266886,29.9500538],[-90.1266467,29.9500947],[-90.125891,29.9508039],[-90.1252206,29.9514362],[-90.1251415,29.9515095],[-90.1243814,29.9522202],[-90.1236961,29.9528622],[-90.1236774,29.9528795],[-90.1236302,29.9529232],[-90.123586,29.9529644],[-90.1228737,29.9536284],[-90.1221121,29.9543416],[-90.1213599,29.9550494],[-90.1212612,29.9551368],[-90.120984,29.9553827]]}},{"type":"Feature","properties":{"way_id":908582877,"route_colors":["#3cb44b"],"route_refs":["12"]},"geometry":{"type":"LineString","coordinates":[[-90.120984,29.9553827],[-90.1207894,29.9555639]]}},{"type":"Feature","properties":{"way_id":908582876,"route_colors":["#3cb44b"],"route_refs":["12"]},"geometry":{"type":"LineString","coordinates":[[-90.1207894,29.9555639],[-90.1206848,29.9556603]]}},{"type":"Feature","properties":{"way_id":908874950,"route_colors":["#3cb44b"],"route_refs":["12"]},"geometry":{"type":"LineString","coordinates":[[-90.1235089,29.9531199],[-90.1234997,29.9531124],[-90.1236171,29.9530028],[-90.1236264,29.9530103],[-90.1235089,29.9531199]]}},{"type":"Feature","properties":{"way_id":908874948,"route_colors":["#3cb44b"],"route_refs":["12"]},"geometry":{"type":"LineString","coordinates":[[-90.1250227,29.9517049],[-90.1250134,29.9516974],[-90.1251302,29.9515874],[-90.1251396,29.9515948],[-90.1250227,29.9517049]]}},{"type":"Feature","properties":{"way_id":908874945,"route_colors":["#3cb44b"],"route_refs":["12"]},"geometry":{"type":"LineString","coordinates":[[-90.1271895,29.9496782],[-90.1271802,29.9496708],[-90.1272971,29.9495608],[-90.1273064,29.9495682],[-90.1271895,29.9496782]]}},{"type":"Feature","properties":{"way_id":908874944,"route_colors":["#3cb44b"],"route_refs":["12"]},"geometry":{"type":"LineString","coordinates":[[-90.1280203,29.9489015],[-90.128011,29.9488941],[-90.1281279,29.9487841],[-90.1281372,29.9487915],[-90.1280203,29.9489015]]}},{"type":"Feature","properties":{"way_id":908874942,"route_colors":["#3cb44b"],"route_refs":["12"]},"geometry":{"type":"LineString","coordinates":[[-90.1295435,29.9474778],[-90.1295342,29.9474703],[-90.1296511,29.9473603],[-90.1296604,29.9473677],[-90.1295435,29.9474778]]}},{"type":"Feature","properties":{"way_id":908874940,"route_colors":["#3cb44b"],"route_refs":["12"]},"geometry":{"type":"LineString","coordinates":[[-90.1310676,29.9460507],[-90.1310583,29.9460433],[-90.1311752,29.9459333],[-90.1311845,29.9459407],[-90.1310676,29.9460507]]}},{"type":"Feature","properties":{"way_id":908874938,"route_colors":["#3cb44b"],"route_refs":["12"]},"geometry":{"type":"LineString","coordinates":[[-90.132577,29.9446375],[-90.1325677,29.9446301],[-90.1326846,29.94452],[-90.1326939,29.9445275],[-90.132577,29.9446375]]}},{"type":"Feature","properties":{"way_id":908874935,"route_colors":["#3cb44b"],"route_refs":["12"]},"geometry":{"type":"LineString","coordinates":[[-90.1340612,29.9432065],[-90.1340726,29.9432111],[-90.134059,29.9432368],[-90.1340335,29.9432722],[-90.1339838,29.9433231],[-90.1338755,29.9434228],[-90.1338663,29.9434153],[-90.1339744,29.9433158],[-90.1340232,29.9432657],[-90.1340479,29.9432316],[-90.1340612,29.9432065]]}},{"type":"Feature","properties":{"way_id":908874933,"route_colors":["#3cb44b"],"route_refs":["12"]},"geometry":{"type":"LineString","coordinates":[[-90.1317992,29.9411224],[-90.1318078,29.9411144],[-90.1319751,29.9412494],[-90.1319665,29.9412575],[-90.1317992,29.9411224]]}},{"type":"Feature","properties":{"way_id":908874928,"route_colors":["#3cb44b"],"route_refs":["12"]},"geometry":{"type":"LineString","coordinates":[[-90.1302614,29.9398649],[-90.1302676,29.939859],[-90.1304201,29.9399811],[-90.1304139,29.9399869],[-90.1302614,29.9398649]]}},{"type":"Feature","properties":{"way_id":908874926,"route_colors":["#3cb44b"],"route_refs":["12"]},"geometry":{"type":"LineString","coordinates":[[-90.1283669,29.9383549],[-90.1283755,29.9383468],[-90.1285284,29.9384684],[-90.1285199,29.9384765],[-90.1283669,29.9383549]]}},{"type":"Feature","properties":{"way_id":908874925,"route_colors":["#3cb44b"],"route_refs":["12"]},"geometry":{"type":"LineString","coordinates":[[-90.1269413,29.9373192],[-90.1269495,29.9373108],[-90.1270769,29.9374037],[-90.1270687,29.9374121],[-90.1269413,29.9373192]]}},{"type":"Feature","properties":{"way_id":908874922,"route_colors":["#3cb44b"],"route_refs":["12"]},"geometry":{"type":"LineString","coordinates":[[-90.1252385,29.9361019],[-90.1252466,29.9360934],[-90.1253851,29.936192],[-90.125377,29.9362005],[-90.1252385,29.9361019]]}},{"type":"Feature","properties":{"way_id":908874920,"route_colors":["#3cb44b"],"route_refs":["12"]},"geometry":{"type":"LineString","coordinates":[[-90.1239292,29.9351848],[-90.1239372,29.9351763],[-90.1240871,29.9352823],[-90.1240791,29.9352908],[-90.1239292,29.9351848]]}},{"type":"Feature","properties":{"way_id":908874919,"route_colors":["#3cb44b"],"route_refs":["12"]},"geometry":{"type":"LineString","coordinates":[[-90.122605,29.9342484],[-90.1226235,29.9342286],[-90.1227078,29.9342879],[-90.1226972,29.9342991],[-90.1227495,29.9343359],[-90.1227415,29.9343444],[-90.122605,29.9342484]]}},{"type":"Feature","properties":{"way_id":908874916,"route_colors":["#3cb44b"],"route_refs":["12"]},"geometry":{"type":"LineString","coordinates":[[-90.1216734,29.9335894],[-90.1216814,29.9335809],[-90.121815,29.9336751],[-90.121807,29.9336836],[-90.1216734,29.9335894]]}},{"type":"Feature","properties":{"way_id":908874915,"route_colors":["#3cb44b"],"route_refs":["12"]},"geometry":{"type":"LineString","coordinates":[[-90.1207695,29.9329521],[-90.1207774,29.9329436],[-90.1209091,29.9330358],[-90.1209012,29.9330443],[-90.1207695,29.9329521]]}},{"type":"Feature","properties":{"way_id":908874913,"route_colors":["#3cb44b"],"route_refs":["12"]},"geometry":{"type":"LineString","coordinates":[[-90.1193547,29.9319463],[-90.1193627,29.9319378],[-90.1195337,29.9320579],[-90.1195258,29.9320664],[-90.1193547,29.9319463]]}},{"type":"Feature","properties":{"way_id":908874911,"route_colors":["#3cb44b"],"route_refs":["12"]},"geometry":{"type":"LineString","coordinates":[[-90.1181759,29.9311203],[-90.1181837,29.9311117],[-90.1183427,29.9312193],[-90.118335,29.9312279],[-90.1181759,29.9311203]]}},{"type":"Feature","properties":{"way_id":908874908,"route_colors":["#3cb44b"],"route_refs":["12"]},"geometry":{"type":"LineString","coordinates":[[-90.1167112,29.9302669],[-90.1167176,29.9302574],[-90.1168748,29.9303366],[-90.1168685,29.9303461],[-90.1167112,29.9302669]]}},{"type":"Feature","properties":{"way_id":908874906,"route_colors":["#3cb44b"],"route_refs":["12"]},"geometry":{"type":"LineString","coordinates":[[-90.1149748,29.9294369],[-90.1149808,29.9294273],[-90.1151127,29.9294898],[-90.1151067,29.9294994],[-90.1149748,29.9294369]]}},{"type":"Feature","properties":{"way_id":908874904,"route_colors":["#3cb44b"],"route_refs":["12"]},"geometry":{"type":"LineString","coordinates":[[-90.1131356,29.92857],[-90.1131415,29.9285603],[-90.1132761,29.9286225],[-90.1132701,29.9286321],[-90.1131356,29.92857]]}},{"type":"Feature","properties":{"way_id":908874901,"route_colors":["#3cb44b"],"route_refs":["12"]},"geometry":{"type":"LineString","coordinates":[[-90.1115884,29.927841],[-90.1115944,29.9278313],[-90.1117474,29.9279022],[-90.1117414,29.9279118],[-90.1115884,29.927841]]}},{"type":"Feature","properties":{"way_id":908874900,"route_colors":["#3cb44b"],"route_refs":["12"]},"geometry":{"type":"LineString","coordinates":[[-90.1107253,29.9274326],[-90.1107312,29.927423],[-90.1108842,29.9274938],[-90.1108782,29.9275035],[-90.1107253,29.9274326]]}},{"type":"Feature","properties":{"way_id":908874898,"route_colors":["#3cb44b"],"route_refs":["12"]},"geometry":{"type":"LineString","coordinates":[[-90.1088747,29.9265574],[-90.1088806,29.9265478],[-90.1090198,29.9266124],[-90.1090139,29.9266221],[-90.1088747,29.9265574]]}},{"type":"Feature","properties":{"way_id":908874896,"route_colors":["#3cb44b"],"route_refs":["12"]},"geometry":{"type":"LineString","coordinates":[[-90.1067551,29.9260957],[-90.1067542,29.9260848],[-90.1069118,29.9260756],[-90.1069127,29.9260865],[-90.1067551,29.9260957]]}},{"type":"Feature","properties":{"way_id":908874895,"route_colors":["#3cb44b"],"route_refs":["12"]},"geometry":{"type":"LineString","coordinates":[[-90.1045013,29.9262713],[-90.1045001,29.9262604],[-90.1046574,29.9262476],[-90.1046586,29.9262585],[-90.1045013,29.9262713]]}},{"type":"Feature","properties":{"way_id":908874893,"route_colors":["#3cb44b"],"route_refs":["12"]},"geometry":{"type":"LineString","coordinates":[[-90.1022971,29.9264363],[-90.102296,29.9264254],[-90.1025002,29.9264089],[-90.1025014,29.9264198],[-90.1022971,29.9264363]]}},{"type":"Feature","properties":{"way_id":908874890,"route_colors":["#3cb44b"],"route_refs":["12"]},"geometry":{"type":"LineString","coordinates":[[-90.0994326,29.9266591],[-90.0994314,29.9266482],[-90.0996432,29.9266312],[-90.0996444,29.9266421],[-90.0994326,29.9266591]]}},{"type":"Feature","properties":{"way_id":908874888,"route_colors":["#3cb44b"],"route_refs":["12"]},"geometry":{"type":"LineString","coordinates":[[-90.0974916,29.9268151],[-90.0974903,29.9268036],[-90.0976861,29.9267865],[-90.0976875,29.926798],[-90.0974916,29.9268151]]}},{"type":"Feature","properties":{"way_id":908874887,"route_colors":["#3cb44b"],"route_refs":["12"]},"geometry":{"type":"LineString","coordinates":[[-90.0953166,29.9270039],[-90.0953143,29.9269932],[-90.0955179,29.9269599],[-90.0955203,29.9269706],[-90.0953166,29.9270039]]}},{"type":"Feature","properties":{"way_id":908874884,"route_colors":["#3cb44b"],"route_refs":["12"]},"geometry":{"type":"LineString","coordinates":[[-90.0934208,29.9275015],[-90.093416,29.9274913],[-90.0936016,29.9274247],[-90.0936064,29.9274349],[-90.0934208,29.9275015]]}},{"type":"Feature","properties":{"way_id":908874882,"route_colors":["#3cb44b"],"route_refs":["12"]},"geometry":{"type":"LineString","coordinates":[[-90.0915777,29.9281664],[-90.0915729,29.9281563],[-90.091731,29.9280997],[-90.0917359,29.9281098],[-90.0915777,29.9281664]]}},{"type":"Feature","properties":{"way_id":908874880,"route_colors":["#3cb44b"],"route_refs":["12"]},"geometry":{"type":"LineString","coordinates":[[-90.089018,29.9292111],[-90.0890105,29.9292005],[-90.0893026,29.9290457],[-90.0893101,29.9290564],[-90.089018,29.9292111]]}},{"type":"Feature","properties":{"way_id":908874878,"route_colors":["#3cb44b"],"route_refs":["12"]},"geometry":{"type":"LineString","coordinates":[[-90.0873865,29.9301186],[-90.0873796,29.9301094],[-90.0875407,29.9300185],[-90.0875476,29.9300277],[-90.0873865,29.9301186]]}},{"type":"Feature","properties":{"way_id":908874876,"route_colors":["#3cb44b"],"route_refs":["12"]},"geometry":{"type":"LineString","coordinates":[[-90.0860611,29.9308592],[-90.0860542,29.93085],[-90.0861862,29.9307757],[-90.0861931,29.9307848],[-90.0860611,29.9308592]]}},{"type":"Feature","properties":{"way_id":908874874,"route_colors":["#3cb44b"],"route_refs":["12"]},"geometry":{"type":"LineString","coordinates":[[-90.0843859,29.931799],[-90.084379,29.9317898],[-90.0845092,29.931717],[-90.084516,29.9317262],[-90.0843859,29.931799]]}},{"type":"Feature","properties":{"way_id":908874873,"route_colors":["#3cb44b"],"route_refs":["12"]},"geometry":{"type":"LineString","coordinates":[[-90.0827641,29.9327149],[-90.0827572,29.9327057],[-90.0828874,29.932633],[-90.0828942,29.9326422],[-90.0827641,29.9327149]]}},{"type":"Feature","properties":{"way_id":908874871,"route_colors":["#3cb44b"],"route_refs":["12"]},"geometry":{"type":"LineString","coordinates":[[-90.0807097,29.9340025],[-90.0807023,29.9339937],[-90.0808446,29.9339036],[-90.0808521,29.9339124],[-90.0807097,29.9340025]]}},{"type":"Feature","properties":{"way_id":908874869,"route_colors":["#3cb44b"],"route_refs":["12"]},"geometry":{"type":"LineString","coordinates":[[-90.0796796,29.9346663],[-90.079672,29.9346575],[-90.079789,29.9345815],[-90.0797966,29.9345902],[-90.0796796,29.9346663]]}},{"type":"Feature","properties":{"way_id":908874867,"route_colors":["#3cb44b"],"route_refs":["12"]},"geometry":{"type":"LineString","coordinates":[[-90.0787968,29.9352604],[-90.0787888,29.935252],[-90.0789075,29.9351669],[-90.0789156,29.9351753],[-90.0787968,29.9352604]]}},{"type":"Feature","properties":{"way_id":908874865,"route_colors":["#3cb44b"],"route_refs":["12"]},"geometry":{"type":"LineString","coordinates":[[-90.0776293,29.9361861],[-90.0776184,29.9361762],[-90.077623,29.9361724],[-90.0777437,29.9360731],[-90.0777545,29.936083],[-90.0776293,29.9361861]]}},{"type":"Feature","properties":{"way_id":908874863,"route_colors":["#3cb44b"],"route_refs":["12"]},"geometry":{"type":"LineString","coordinates":[[-90.0765482,29.9376026],[-90.0765375,29.9375967],[-90.0766278,29.9374742],[-90.0766384,29.9374801],[-90.0765482,29.9376026]]}},{"type":"Feature","properties":{"way_id":908874861,"route_colors":["#3cb44b"],"route_refs":["12"]},"geometry":{"type":"LineString","coordinates":[[-90.0755247,29.9389839],[-90.075514,29.938978],[-90.075608,29.9388514],[-90.0756186,29.9388573],[-90.0755247,29.9389839]]}},{"type":"Feature","properties":{"way_id":908874858,"route_colors":["#3cb44b"],"route_refs":["12"]},"geometry":{"type":"LineString","coordinates":[[-90.0744614,29.9404169],[-90.0744508,29.940411],[-90.0745524,29.9402739],[-90.074563,29.9402798],[-90.0744614,29.9404169]]}},{"type":"Feature","properties":{"way_id":908874952,"route_colors":["#3cb44b"],"route_refs":["12"]},"geometry":{"type":"LineString","coordinates":[[-90.0727529,29.9426784],[-90.0727769,29.9426916],[-90.0727127,29.9427794],[-90.0726887,29.9427662],[-90.0727529,29.9426784]]}},{"type":"Feature","properties":{"way_id":908582875,"route_colors":["#3cb44b"],"route_refs":["12"]},"geometry":{"type":"LineString","coordinates":[[-90.1207234,29.9556929],[-90.120828,29.9555965]]}},{"type":"Feature","properties":{"way_id":908582874,"route_colors":["#3cb44b"],"route_refs":["12"]},"geometry":{"type":"LineString","coordinates":[[-90.120828,29.9555965],[-90.1210244,29.9554166]]}},{"type":"Feature","properties":{"way_id":24016723,"route_colors":["#3cb44b"],"route_refs":["12"]},"geometry":{"type":"LineString","coordinates":[[-90.1210244,29.9554166],[-90.1212934,29.9551641],[-90.1213908,29.9550741],[-90.1221438,29.9543667],[-90.1229038,29.9536537],[-90.1236049,29.953001],[-90.1236174,29.9529892],[-90.1236605,29.9529485],[-90.1237082,29.9529038],[-90.1244119,29.9522446],[-90.1251134,29.9515885],[-90.125172,29.9515342],[-90.1259266,29.9508325],[-90.1266797,29.9501212],[-90.127279,29.949561],[-90.127301,29.9495404],[-90.1274339,29.9494154],[-90.1274779,29.9493741],[-90.1281057,29.9487844],[-90.1281345,29.9487574],[-90.1281965,29.9486994],[-90.12831,29.9485967],[-90.1289595,29.9479906],[-90.1296248,29.9473653],[-90.1297062,29.9472883],[-90.1304583,29.9465846],[-90.1311551,29.945934],[-90.1312181,29.9458762],[-90.1312634,29.9458339],[-90.1319134,29.9452269],[-90.1319749,29.9451694],[-90.1320214,29.9451257],[-90.1326607,29.9445248],[-90.1326781,29.9445084],[-90.1327302,29.9444593],[-90.1333778,29.9438559],[-90.1334287,29.9438085],[-90.1334808,29.9437598],[-90.1339602,29.9433112],[-90.134011,29.9432579],[-90.1340431,29.943216],[-90.1340577,29.9431822],[-90.1340664,29.9431621],[-90.1340742,29.9431165],[-90.1340731,29.9430738],[-90.1340682,29.9430408],[-90.1340587,29.9430137],[-90.1340328,29.9429684],[-90.1340261,29.9429602],[-90.1340026,29.9429315],[-90.1339631,29.9428942],[-90.1335214,29.9425419],[-90.1333581,29.9424103],[-90.1333153,29.9423758],[-90.1332782,29.942345],[-90.1326366,29.9418121],[-90.1325687,29.9417557],[-90.1325348,29.9417284],[-90.1318034,29.9411395],[-90.131787,29.9411264],[-90.1317556,29.9411013],[-90.131711,29.9410649],[-90.1309917,29.9404778],[-90.1309488,29.9404427],[-90.1302736,29.9398899],[-90.1302064,29.9398368],[-90.1294494,29.9392227],[-90.1283581,29.9383652],[-90.1282888,29.938312],[-90.1275561,29.9377896],[-90.1270427,29.9374145],[-90.1269365,29.9373373],[-90.1268497,29.9372735],[-90.1268198,29.9372515],[-90.1260937,29.9367361],[-90.1254524,29.9362705],[-90.1254083,29.9362385],[-90.1253829,29.9362204],[-90.1252543,29.9361292],[-90.1246383,29.9356977],[-90.1239301,29.9352011],[-90.1239191,29.9351934],[-90.1238216,29.9351246],[-90.1236148,29.9349778],[-90.1235571,29.9349368],[-90.1235221,29.9349123],[-90.1231976,29.9346847],[-90.1231376,29.9346427],[-90.1231088,29.9346223],[-90.1226004,29.9342617],[-90.1225952,29.934258],[-90.1224654,29.9341663],[-90.1224352,29.9341448],[-90.1221651,29.9339531],[-90.1221315,29.9339293],[-90.1216707,29.9336031],[-90.1216619,29.9335974],[-90.121587,29.9335441],[-90.1215628,29.933527],[-90.1207769,29.9329697],[-90.1207615,29.9329588],[-90.1207108,29.9329224],[-90.1206438,29.9328752],[-90.1200397,29.9324492],[-90.1196806,29.9321961],[-90.1193655,29.9319711],[-90.1193119,29.9319327],[-90.119223,29.9318703],[-90.1187181,29.9315162],[-90.1181823,29.9311408],[-90.1181706,29.9311323],[-90.1180674,29.9310642],[-90.1180218,29.9310359],[-90.1174338,29.9306718],[-90.1169061,29.9303747],[-90.1167259,29.9302847],[-90.1167042,29.930274],[-90.1165877,29.9302163],[-90.1165035,29.9301762],[-90.1157047,29.9297952],[-90.1149843,29.9294559],[-90.1148867,29.9294096],[-90.1139792,29.9289798],[-90.1131468,29.928587],[-90.1130518,29.9285417],[-90.1129406,29.9284895],[-90.1123902,29.9282283],[-90.1123283,29.9281988],[-90.111592,29.9278532],[-90.1115154,29.9278176],[-90.1107425,29.9274543],[-90.1106563,29.927413],[-90.109734,29.9269766],[-90.1088875,29.9265751],[-90.1088024,29.9265359],[-90.1084813,29.9263789],[-90.1082645,29.9262934],[-90.1080131,29.9262183],[-90.1078249,29.9261739],[-90.1077069,29.9261519],[-90.1074234,29.9261101],[-90.1072309,29.9260993],[-90.1071057,29.9260891],[-90.1069808,29.9260933],[-90.1067682,29.9261066],[-90.1066991,29.9261114],[-90.1055553,29.9261999],[-90.1045277,29.9262789],[-90.1044217,29.9262859],[-90.1033781,29.9263675],[-90.1033204,29.926372],[-90.1032657,29.9263762],[-90.1028359,29.926409],[-90.1022934,29.9264497],[-90.1022662,29.9264519],[-90.1021677,29.92646],[-90.1019442,29.9264767],[-90.1018488,29.9264843],[-90.1011541,29.9265399],[-90.1008674,29.9265635],[-90.1007975,29.9265684],[-90.1007433,29.9265725],[-90.099762,29.9266418],[-90.0997049,29.9266487],[-90.0996482,29.9266553],[-90.0994945,29.9266688],[-90.09865,29.9267333],[-90.098566,29.926738],[-90.0984829,29.926746],[-90.0975204,29.926819],[-90.0974934,29.9268212],[-90.0974319,29.9268263],[-90.0973851,29.92683],[-90.0964956,29.9269009],[-90.0964205,29.9269069],[-90.0963556,29.9269125],[-90.0956564,29.9269732],[-90.0955928,29.9269787],[-90.0955294,29.9269878],[-90.0953641,29.9270117],[-90.0951762,29.9270373],[-90.0948273,29.9271035],[-90.0947618,29.9271159],[-90.0946061,29.9271501],[-90.0940909,29.9272874],[-90.0937384,29.9274039],[-90.0936684,29.9274271],[-90.0936008,29.9274512],[-90.0934491,29.9275054],[-90.0927721,29.9277482],[-90.0926444,29.9277951],[-90.0925949,29.9278133],[-90.0925341,29.9278353],[-90.0921916,29.927959],[-90.0916031,29.9281711],[-90.0915666,29.9281845],[-90.0914818,29.9282155],[-90.0913507,29.9282629],[-90.0912841,29.9282867],[-90.0903679,29.9286149],[-90.0903095,29.9286365],[-90.0902507,29.9286583],[-90.0901458,29.9286984],[-90.0901005,29.9287168],[-90.0898607,29.9288144],[-90.0895771,29.9289376],[-90.0893952,29.9290228],[-90.0893515,29.9290433],[-90.0893156,29.9290617],[-90.0892031,29.9291191],[-90.0890447,29.9292054],[-90.0890078,29.9292254],[-90.0889436,29.9292603],[-90.0888884,29.9292911],[-90.0881955,29.9296786],[-90.0881302,29.9297151],[-90.0880798,29.9297434],[-90.0874122,29.9301178],[-90.0873942,29.9301281],[-90.087339,29.9301596],[-90.0872858,29.9301893],[-90.0867169,29.9305067],[-90.0866757,29.9305297],[-90.0866287,29.9305569],[-90.0860874,29.9308618],[-90.0860379,29.9308899],[-90.085977,29.9309244],[-90.0859135,29.9309601],[-90.0851897,29.9313669],[-90.085137,29.9313965],[-90.0850803,29.9314282],[-90.0844094,29.931804],[-90.0843773,29.9318222],[-90.0843312,29.9318483],[-90.0842717,29.9318821],[-90.0835678,29.9322819],[-90.0835071,29.9323163],[-90.0834605,29.9323426],[-90.0827951,29.9327178],[-90.0827727,29.9327304],[-90.0827168,29.9327618],[-90.08266,29.9327945],[-90.0821043,29.9331141],[-90.0815957,29.9334418],[-90.081426,29.9335495],[-90.0811971,29.9336948],[-90.0807243,29.9340057],[-90.0807016,29.934021],[-90.0806222,29.9340745],[-90.0805861,29.9340978],[-90.080514,29.9341444],[-90.0799504,29.9345088],[-90.0797179,29.9346584],[-90.0796892,29.9346771],[-90.0796229,29.9347205],[-90.0795632,29.9347592],[-90.0791815,29.9350066],[-90.0789139,29.9351828],[-90.078816,29.9352525],[-90.0787926,29.9352693],[-90.0787422,29.9353056],[-90.0786902,29.9353473],[-90.0782086,29.9357336],[-90.0781584,29.9357739],[-90.0781172,29.9358075],[-90.0776794,29.9361645],[-90.0776419,29.936198],[-90.0776312,29.9362086],[-90.0775794,29.9362597],[-90.077539,29.9363015],[-90.0774863,29.936356],[-90.0774005,29.936459],[-90.0770675,29.9369167],[-90.0770323,29.9369651],[-90.0770034,29.9370046],[-90.0765674,29.9376002],[-90.0765536,29.9376194],[-90.0765177,29.9376692],[-90.0764913,29.9377049],[-90.0760411,29.9383123],[-90.0760087,29.938356],[-90.0759754,29.9384006],[-90.0755425,29.9389811],[-90.0755249,29.9390043],[-90.0754878,29.9390534],[-90.0754504,29.9391032],[-90.0754237,29.9391395],[-90.0749674,29.9397603],[-90.0749439,29.9397923],[-90.0749161,29.9398299],[-90.074669,29.9401643],[-90.0744842,29.9404113],[-90.0744683,29.9404328],[-90.0744303,29.9404839],[-90.0743995,29.9405246],[-90.0742782,29.940685],[-90.0738437,29.9412812],[-90.0738171,29.9413177],[-90.0737818,29.9413649],[-90.0734226,29.9418444],[-90.0731466,29.9422001],[-90.0728792,29.9425688],[-90.0728024,29.9426731],[-90.0727294,29.9427723],[-90.0727201,29.9427853],[-90.0726497,29.9428679],[-90.0726334,29.9428825],[-90.0726197,29.9428927],[-90.0726035,29.942902],[-90.0725778,29.9429114],[-90.0725527,29.9429172],[-90.0725296,29.9429206],[-90.0725024,29.9429228],[-90.0724721,29.9429253],[-90.0724329,29.9429279],[-90.0723936,29.942932],[-90.0723611,29.9429382],[-90.0723313,29.9429456],[-90.0723014,29.9429552],[-90.0722711,29.9429663],[-90.0722476,29.9429767],[-90.0722263,29.9429879],[-90.072203,29.9430009],[-90.0721788,29.9430159],[-90.0721578,29.9430305],[-90.0721393,29.943046],[-90.0721207,29.9430627],[-90.072102,29.9430804],[-90.0720869,29.9430983],[-90.0720718,29.9431195],[-90.0720599,29.9431393],[-90.0720486,29.9431617],[-90.0720396,29.9431831],[-90.07203,29.9432064],[-90.0720191,29.9432371],[-90.0720125,29.9432637],[-90.072008,29.9432844],[-90.0720061,29.9433041],[-90.0720047,29.9433297],[-90.0720059,29.9433526],[-90.0720089,29.9433751],[-90.0720125,29.9433998],[-90.0720184,29.9434212],[-90.0720266,29.9434455],[-90.0720358,29.9434712],[-90.0720465,29.9434948],[-90.072059,29.943516],[-90.0720732,29.943537],[-90.0720874,29.9435559],[-90.0721047,29.9435763],[-90.0721257,29.9436],[-90.0721476,29.9436194],[-90.0721749,29.9436398],[-90.0722004,29.9436556],[-90.0722266,29.9436713],[-90.0722493,29.9436826],[-90.0722788,29.9436951],[-90.0723065,29.9437058],[-90.0723349,29.9437141],[-90.0723669,29.9437214],[-90.0724011,29.9437269],[-90.0724344,29.9437296],[-90.0724675,29.9437307],[-90.072495,29.9437304],[-90.072523,29.9437289]]}},{"type":"Feature","properties":{"way_id":483311903,"route_colors":["#3cb44b"],"route_refs":["12"]},"geometry":{"type":"LineString","coordinates":[[-90.0726899,29.9436766],[-90.0727418,29.9436557],[-90.0727918,29.9436411],[-90.0728428,29.9436366],[-90.0728828,29.9436385],[-90.0729278,29.9436511],[-90.0729592,29.9436655],[-90.0730017,29.9436912],[-90.073031,29.9437089],[-90.0734035,29.9439483],[-90.0734172,29.9439574],[-90.073491,29.9440264],[-90.0735101,29.9440683],[-90.0735158,29.9440884],[-90.0735172,29.9441094],[-90.073518,29.9441483],[-90.073511,29.944195],[-90.073498,29.9442442],[-90.0733728,29.9446605],[-90.0729419,29.9461026],[-90.0729096,29.9462048],[-90.0728584,29.9463772],[-90.0727746,29.9466692],[-90.0725133,29.947531],[-90.0724845,29.9476311],[-90.0722459,29.9484373],[-90.0722042,29.948581],[-90.0721071,29.9489785],[-90.0720063,29.9493079],[-90.0718814,29.9496512],[-90.0718712,29.949686],[-90.0718478,29.9497655],[-90.0717988,29.9499279],[-90.0717717,29.9500189],[-90.0715511,29.9507587],[-90.0713819,29.9513922],[-90.071319,29.9515836],[-90.0712326,29.9518778],[-90.0712128,29.9519453],[-90.0709653,29.9525935],[-90.0709387,29.9526458],[-90.0709338,29.9526533],[-90.0708961,29.952711],[-90.0708476,29.952767],[-90.070843,29.9527723],[-90.0701735,29.9535307]]}},{"type":"Feature","properties":{"way_id":782345334,"route_colors":["#e6194b"],"route_refs":["47"]},"geometry":{"type":"LineString","coordinates":[[-90.0785002,29.9454872],[-90.0782304,29.9454225],[-90.0782211,29.9454553],[-90.0784469,29.9455029],[-90.0784415,29.9455264],[-90.0781406,29.9454614],[-90.078132,29.9454901],[-90.0783928,29.9455505],[-90.0784553,29.9455737],[-90.0784933,29.945588],[-90.0785289,29.9455901],[-90.0785498,29.9455787],[-90.0785699,29.9455418],[-90.0785606,29.945519],[-90.0785493,29.9455089],[-90.0785257,29.9454955],[-90.0785002,29.9454872]]}},{"type":"Feature","properties":{"way_id":908572914,"route_colors":["#e6194b"],"route_refs":["47"]},"geometry":{"type":"LineString","coordinates":[[-90.0767977,29.9466826],[-90.0767675,29.9468621],[-90.0767907,29.9468651],[-90.0768019,29.9468665],[-90.0768321,29.9466869],[-90.0767977,29.9466826]]}},{"type":"Feature","properties":{"way_id":908572912,"route_colors":["#e6194b"],"route_refs":["47"]},"geometry":{"type":"LineString","coordinates":[[-90.0758271,29.9503502],[-90.0757904,29.950342],[-90.0757341,29.9505308],[-90.0757541,29.9505353],[-90.0757709,29.950539],[-90.0758271,29.9503502]]}},{"type":"Feature","properties":{"way_id":908572910,"route_colors":["#e6194b"],"route_refs":["47"]},"geometry":{"type":"LineString","coordinates":[[-90.0746104,29.9546898],[-90.0745806,29.9546695],[-90.0744415,29.9548228],[-90.0744713,29.9548431],[-90.0746104,29.9546898]]}},{"type":"Feature","properties":{"way_id":908580997,"route_colors":["#e6194b"],"route_refs":["47"]},"geometry":{"type":"LineString","coordinates":[[-90.0737546,29.9564265],[-90.0737759,29.9564031],[-90.0736267,29.9563015],[-90.0736055,29.956325],[-90.0737546,29.9564265]]}},{"type":"Feature","properties":{"way_id":908580978,"route_colors":["#e6194b"],"route_refs":["47"]},"geometry":{"type":"LineString","coordinates":[[-90.0782733,29.9594777],[-90.0782886,29.959461],[-90.0780491,29.9592971],[-90.0780278,29.9593205],[-90.0782733,29.9594777]]}},{"type":"Feature","properties":{"way_id":908580998,"route_colors":["#e6194b"],"route_refs":["47"]},"geometry":{"type":"LineString","coordinates":[[-90.0804105,29.9608796],[-90.0804318,29.9608561],[-90.0802826,29.9607546],[-90.0802614,29.960778],[-90.0804105,29.9608796]]}},{"type":"Feature","properties":{"way_id":908581024,"route_colors":["#e6194b"],"route_refs":["47"]},"geometry":{"type":"LineString","coordinates":[[-90.0824273,29.9622471],[-90.0824508,29.9622212],[-90.0826207,29.9623371],[-90.0825973,29.962363],[-90.0824273,29.9622471]]}},{"type":"Feature","properties":{"way_id":908581023,"route_colors":["#e6194b"],"route_refs":["47"]},"geometry":{"type":"LineString","coordinates":[[-90.0839471,29.9632298],[-90.0837958,29.9631293],[-90.0837728,29.9631554],[-90.083924,29.9632559],[-90.0839471,29.9632298]]}},{"type":"Feature","properties":{"way_id":908581022,"route_colors":["#e6194b"],"route_refs":["47"]},"geometry":{"type":"LineString","coordinates":[[-90.0858732,29.9645394],[-90.085722,29.9644389],[-90.0856989,29.964465],[-90.0858502,29.9645655],[-90.0858732,29.9645394]]}},{"type":"Feature","properties":{"way_id":908581021,"route_colors":["#e6194b"],"route_refs":["47"]},"geometry":{"type":"LineString","coordinates":[[-90.0877316,29.965799],[-90.0875347,29.9656666],[-90.0875115,29.9656926],[-90.0877083,29.965825],[-90.0877316,29.965799]]}},{"type":"Feature","properties":{"way_id":908581020,"route_colors":["#e6194b"],"route_refs":["47"]},"geometry":{"type":"LineString","coordinates":[[-90.089046,29.9666868],[-90.0888948,29.9665863],[-90.0888717,29.9666124],[-90.0890229,29.9667129],[-90.089046,29.9666868]]}},{"type":"Feature","properties":{"way_id":908581019,"route_colors":["#e6194b"],"route_refs":["47"]},"geometry":{"type":"LineString","coordinates":[[-90.0912745,29.9682001],[-90.0911233,29.9680996],[-90.0911002,29.9681256],[-90.0912515,29.9682261],[-90.0912745,29.9682001]]}},{"type":"Feature","properties":{"way_id":908581018,"route_colors":["#e6194b"],"route_refs":["47"]},"geometry":{"type":"LineString","coordinates":[[-90.0921949,29.9688216],[-90.0920436,29.9687211],[-90.0920206,29.9687472],[-90.0921718,29.9688477],[-90.0921949,29.9688216]]}},{"type":"Feature","properties":{"way_id":908581017,"route_colors":["#e6194b"],"route_refs":["47"]},"geometry":{"type":"LineString","coordinates":[[-90.0937553,29.969876],[-90.0936041,29.9697755],[-90.093581,29.9698016],[-90.0937322,29.9699021],[-90.0937553,29.969876]]}},{"type":"Feature","properties":{"way_id":908581016,"route_colors":["#e6194b"],"route_refs":["47"]},"geometry":{"type":"LineString","coordinates":[[-90.0953712,29.9709698],[-90.09522,29.9708693],[-90.0951969,29.9708954],[-90.0953481,29.9709959],[-90.0953712,29.9709698]]}},{"type":"Feature","properties":{"way_id":908581015,"route_colors":["#e6194b"],"route_refs":["47"]},"geometry":{"type":"LineString","coordinates":[[-90.0967312,29.9718913],[-90.09658,29.9717908],[-90.0965569,29.9718169],[-90.0967081,29.9719174],[-90.0967312,29.9718913]]}},{"type":"Feature","properties":{"way_id":908581014,"route_colors":["#e6194b"],"route_refs":["47"]},"geometry":{"type":"LineString","coordinates":[[-90.0984835,29.9730819],[-90.0983323,29.9729814],[-90.0983092,29.9730074],[-90.0984605,29.9731079],[-90.0984835,29.9730819]]}},{"type":"Feature","properties":{"way_id":908581013,"route_colors":["#e6194b"],"route_refs":["47"]},"geometry":{"type":"LineString","coordinates":[[-90.1003526,29.9743489],[-90.1001278,29.9741992],[-90.1001047,29.9742252],[-90.1003295,29.974375],[-90.1003526,29.9743489]]}},{"type":"Feature","properties":{"way_id":908581012,"route_colors":["#e6194b"],"route_refs":["47"]},"geometry":{"type":"LineString","coordinates":[[-90.1031386,29.9762356],[-90.1029874,29.9761351],[-90.1029643,29.9761612],[-90.1031155,29.9762617],[-90.1031386,29.9762356]]}},{"type":"Feature","properties":{"way_id":908581011,"route_colors":["#e6194b"],"route_refs":["47"]},"geometry":{"type":"LineString","coordinates":[[-90.1049704,29.9774759],[-90.1048192,29.9773754],[-90.1047961,29.9774014],[-90.1049473,29.9775019],[-90.1049704,29.9774759]]}},{"type":"Feature","properties":{"way_id":908581010,"route_colors":["#e6194b"],"route_refs":["47"]},"geometry":{"type":"LineString","coordinates":[[-90.1068,29.9787158],[-90.106525,29.9785312],[-90.1065017,29.9785572],[-90.1067768,29.9787417],[-90.1068,29.9787158]]}},{"type":"Feature","properties":{"way_id":908581009,"route_colors":["#e6194b"],"route_refs":["47"]},"geometry":{"type":"LineString","coordinates":[[-90.1086612,29.9799771],[-90.10851,29.9798766],[-90.1084869,29.9799027],[-90.1086381,29.9800032],[-90.1086612,29.9799771]]}},{"type":"Feature","properties":{"way_id":543357043,"route_colors":["#e6194b","#5c2e86"],"route_refs":["47","46"]},"geometry":{"type":"LineString","coordinates":[[-90.0771613,29.9458071],[-90.0770703,29.9459313],[-90.0769942,29.9460143],[-90.0769409,29.9460723],[-90.0769346,29.9460792],[-90.0768997,29.9461314],[-90.0768881,29.9461489],[-90.0768646,29.946184],[-90.0768401,29.9462569],[-90.0768171,29.9463691],[-90.0767947,29.9464966],[-90.0767437,29.9468525],[-90.0767305,29.9469341],[-90.0767279,29.9469502],[-90.0767119,29.9470334],[-90.0766961,29.947115],[-90.0766905,29.9471443],[-90.0766703,29.9472151],[-90.0766018,29.9474312],[-90.076423,29.9480351],[-90.0764103,29.9480793],[-90.0763305,29.9483572],[-90.0763027,29.948454],[-90.0762712,29.948564],[-90.0762267,29.9487196],[-90.0761166,29.9491313],[-90.0760933,29.9492185],[-90.0760199,29.9494755],[-90.0758208,29.9501552],[-90.075714,29.9505197],[-90.0756919,29.9505947],[-90.0756642,29.9506944],[-90.0756468,29.950757],[-90.0756331,29.9508314],[-90.075621,29.950897],[-90.0756174,29.9509163],[-90.0756034,29.951054],[-90.0756049,29.9512566],[-90.0756149,29.9514258],[-90.0756175,29.9514694],[-90.07563,29.9516676],[-90.0756308,29.9518043],[-90.075619,29.9519673],[-90.0756068,29.9520372],[-90.0755942,29.9521092],[-90.0755865,29.9521533],[-90.0755821,29.9521729],[-90.0755452,29.952338],[-90.0755314,29.952376],[-90.0754699,29.9525816],[-90.0753956,29.9528314],[-90.075362,29.9529427],[-90.0752318,29.9533647],[-90.0752027,29.953459],[-90.0751934,29.9534891],[-90.0751717,29.9535611],[-90.0750731,29.9538884],[-90.075059,29.9539313],[-90.0749985,29.9541161],[-90.0749483,29.9542242],[-90.0748828,29.9543257],[-90.0748019,29.9544302],[-90.0747389,29.9544934],[-90.0746544,29.954578],[-90.0745925,29.9546432],[-90.0744569,29.9547917],[-90.074286,29.954979],[-90.0742015,29.9550717],[-90.0741627,29.9551142],[-90.0741213,29.9551598],[-90.0740261,29.9552649],[-90.0739188,29.9553831],[-90.0735335,29.9558104],[-90.0735206,29.9558247]]}},{"type":"Feature","properties":{"way_id":327323750,"route_colors":["#e6194b"],"route_refs":["47"]},"geometry":{"type":"LineString","coordinates":[[-90.1003346,29.9743906],[-90.1004061,29.9744389],[-90.1004872,29.9744937],[-90.1005048,29.9745051],[-90.1006447,29.9746001],[-90.1007407,29.9746654],[-90.1013051,29.975049],[-90.1018607,29.9754248],[-90.1022316,29.9756757],[-90.1030815,29.9762508],[-90.1031826,29.9763201],[-90.104096,29.9769394],[-90.1049242,29.9774994],[-90.1050232,29.9775667],[-90.1054539,29.9778591],[-90.1059194,29.9781738],[-90.1067419,29.9787305],[-90.1067857,29.9787599],[-90.1068366,29.9787941],[-90.1069038,29.9788395],[-90.1075075,29.9792478],[-90.1077745,29.9794292],[-90.108609,29.9799934],[-90.1087019,29.9800561],[-90.108776,29.9801018],[-90.1088561,29.9801452],[-90.1089903,29.9802125],[-90.109082,29.9802661],[-90.1091794,29.9803284],[-90.1097496,29.9807147],[-90.109934,29.9808354],[-90.1104253,29.9811695],[-90.1104328,29.9811746],[-90.1105562,29.981257],[-90.1106984,29.9813497],[-90.1107439,29.9813807],[-90.1108542,29.9814547]]}},{"type":"Feature","properties":{"way_id":1193597675,"route_colors":["#e6194b"],"route_refs":["47"]},"geometry":{"type":"LineString","coordinates":[[-90.1108542,29.9814547],[-90.1111067,29.9816243],[-90.1111351,29.9816448],[-90.111159,29.9816662],[-90.1111814,29.9816914],[-90.1112,29.9817194],[-90.1112123,29.9817505],[-90.1112156,29.9817783],[-90.1112089,29.9818019],[-90.1112107,29.9818295],[-90.1111967,29.9818612],[-90.1111821,29.9818821],[-90.1111673,29.9819016],[-90.1111469,29.9819183],[-90.1111219,29.9819367],[-90.1110938,29.9819515],[-90.1110636,29.9819647],[-90.1107664,29.9820785],[-90.1106255,29.9821303],[-90.1105729,29.9821517],[-90.1105348,29.9821696],[-90.1105032,29.9821887],[-90.110475,29.9822141],[-90.1104533,29.9822421],[-90.1104394,29.9822704],[-90.1104336,29.9822922],[-90.1104312,29.9823146],[-90.1104303,29.9823522],[-90.1104259,29.9825377],[-90.1104352,29.9825777],[-90.110458,29.9826204],[-90.1104911,29.9826536],[-90.1105354,29.9826762],[-90.1105647,29.9826847],[-90.1105981,29.9826872]]}},{"type":"Feature","properties":{"way_id":327323752,"route_colors":["#e6194b","#0000ff"],"route_refs":["47","2"]},"geometry":{"type":"LineString","coordinates":[[-90.0635866,29.9501682],[-90.0635792,29.9500718],[-90.0635911,29.9500286],[-90.0636141,29.9499982],[-90.0636412,29.9499724],[-90.0636807,29.9499483],[-90.0637446,29.9499254],[-90.0638367,29.9499045],[-90.0638858,29.949895],[-90.0639567,29.949882],[-90.0640255,29.9498778],[-90.0640913,29.9498852],[-90.0641542,29.9499013],[-90.0641982,29.9499198],[-90.0642394,29.9499457],[-90.0642957,29.9499826],[-90.0643639,29.9500305],[-90.0644302,29.9500748],[-90.0644668,29.9501002],[-90.0645128,29.950131],[-90.0649625,29.9504412],[-90.0650122,29.9504703],[-90.0650942,29.9505115],[-90.0651524,29.9505455],[-90.0652142,29.9505878],[-90.0658086,29.9509897],[-90.0658454,29.9510146],[-90.0658744,29.9510342],[-90.0659737,29.9511025],[-90.066107,29.9511926],[-90.066172,29.9512357],[-90.0666508,29.9515465],[-90.0670197,29.9517971],[-90.0670454,29.9518141],[-90.0670986,29.9518494],[-90.0671143,29.9518599],[-90.0671826,29.9519062],[-90.0672637,29.951961],[-90.0673075,29.9519906],[-90.0677495,29.9522896],[-90.0680504,29.9524943],[-90.0681094,29.9525344],[-90.0681503,29.9525607],[-90.0681916,29.9525886],[-90.0682965,29.9526596],[-90.0683782,29.9527148],[-90.0689383,29.9530978],[-90.0689706,29.9531213],[-90.0690002,29.9531355],[-90.0690802,29.9531896],[-90.0691525,29.9532385],[-90.0698034,29.953689]]}},{"type":"Feature","properties":{"way_id":908917866,"route_colors":["#e6194b"],"route_refs":["47"]},"geometry":{"type":"LineString","coordinates":[[-90.0698034,29.953689],[-90.0698816,29.9537423],[-90.0698888,29.9537472],[-90.0699739,29.9538048],[-90.0700371,29.9538476],[-90.0704386,29.9541197],[-90.0707065,29.9543014],[-90.0707597,29.9543375],[-90.0707852,29.9543548],[-90.0708598,29.9544053],[-90.0709389,29.9544589],[-90.0716064,29.9549112],[-90.0717016,29.9549757],[-90.0717857,29.9550327],[-90.0718596,29.9550829],[-90.0719076,29.9551154],[-90.0720555,29.9552156],[-90.0724708,29.9555003],[-90.0724928,29.9555141],[-90.0724986,29.955518]]}},{"type":"Feature","properties":{"way_id":908572924,"route_colors":["#e6194b"],"route_refs":["47"]},"geometry":{"type":"LineString","coordinates":[[-90.0724986,29.955518],[-90.0726038,29.9555886],[-90.0726782,29.9556437],[-90.0726999,29.9556597],[-90.0727309,29.955682],[-90.0727995,29.9557269],[-90.0728775,29.9557795],[-90.0729345,29.9558204]]}},{"type":"Feature","properties":{"way_id":908572918,"route_colors":["#e6194b","#5c2e86"],"route_refs":["47","46"]},"geometry":{"type":"LineString","coordinates":[[-90.0729345,29.9558204],[-90.073163,29.9559694],[-90.0731931,29.9559899],[-90.0732777,29.9560475],[-90.07331,29.9560695]]}},{"type":"Feature","properties":{"way_id":908572917,"route_colors":["#e6194b"],"route_refs":["47"]},"geometry":{"type":"LineString","coordinates":[[-90.07331,29.9560695],[-90.0734696,29.9561774]]}},{"type":"Feature","properties":{"way_id":908917864,"route_colors":["#e6194b"],"route_refs":["47"]},"geometry":{"type":"LineString","coordinates":[[-90.0734696,29.9561774],[-90.0735221,29.9562129],[-90.0736256,29.9562829],[-90.0737584,29.956372],[-90.0740048,29.9565374],[-90.0743822,29.9567941],[-90.0744692,29.9568533],[-90.074531,29.9568953],[-90.0746097,29.9569484],[-90.0749417,29.9571725],[-90.0752295,29.9573668]]}},{"type":"Feature","properties":{"way_id":908572923,"route_colors":["#e6194b"],"route_refs":["47"]},"geometry":{"type":"LineString","coordinates":[[-90.0752295,29.9573668],[-90.0752519,29.9573821],[-90.0753199,29.9574288],[-90.0753744,29.9574657],[-90.0759291,29.9578408],[-90.0760736,29.9579385],[-90.0768531,29.9584657],[-90.0770116,29.958573],[-90.0775636,29.9589475],[-90.0776051,29.9589756],[-90.0779502,29.9592097],[-90.0780352,29.9592675],[-90.0782851,29.9594373],[-90.078352,29.9594823],[-90.0783926,29.9595099],[-90.0786348,29.9596744],[-90.0787352,29.9597426],[-90.0794787,29.960246],[-90.0796007,29.9603305],[-90.0799889,29.9606042],[-90.080388,29.9608722],[-90.0804271,29.960898],[-90.0804746,29.9609294],[-90.080542,29.9609753],[-90.0813549,29.9615287],[-90.0815005,29.961628],[-90.0820799,29.9620218],[-90.0821415,29.9620638],[-90.0823212,29.9621848],[-90.08239,29.9622316],[-90.0825755,29.9623577],[-90.0829585,29.9626179],[-90.0830974,29.9627131],[-90.0836689,29.9631003],[-90.0839034,29.9632529],[-90.0839437,29.9632799],[-90.0839867,29.9633085],[-90.0848591,29.9639106],[-90.0858278,29.9645612],[-90.085868,29.9645884],[-90.0859168,29.9646214],[-90.0861833,29.9648025],[-90.0872202,29.9655052],[-90.0872749,29.9655423],[-90.0874195,29.9656388],[-90.0874954,29.9656904],[-90.0876587,29.9658014],[-90.087939,29.9659929],[-90.0882201,29.9661819],[-90.0887984,29.9665734],[-90.0889762,29.966694],[-90.0894405,29.967009],[-90.0896306,29.9671379],[-90.0900963,29.9674543],[-90.0902694,29.9675716],[-90.0904335,29.9676824],[-90.0904511,29.9676943],[-90.0906392,29.9678222],[-90.0912266,29.9682212],[-90.0913096,29.9682766],[-90.0919544,29.968711],[-90.092139,29.9688365],[-90.092862,29.9693249],[-90.0930779,29.9694708],[-90.0934471,29.9697148],[-90.0937192,29.9699051],[-90.0938083,29.9699668],[-90.0941276,29.9701838],[-90.0942401,29.9702595],[-90.0948749,29.9706901],[-90.0949733,29.9707569],[-90.0951167,29.9708529],[-90.0952964,29.9709745],[-90.0959439,29.9714152],[-90.0966597,29.9718988],[-90.0967618,29.971968],[-90.0975953,29.9725336],[-90.0984225,29.9730954],[-90.0985257,29.9731654],[-90.0994241,29.9737725],[-90.0994568,29.9737946],[-90.0995117,29.9738321],[-90.099949,29.9741314],[-90.1003024,29.9743687],[-90.1003346,29.9743906]]}},{"type":"Feature","properties":{"way_id":908571283,"route_colors":["#5c2e86"],"route_refs":["46"]},"geometry":{"type":"LineString","coordinates":[[-90.0572997,29.9686123],[-90.0573334,29.9686105],[-90.0576255,29.9685936]]}},{"type":"Feature","properties":{"way_id":445731391,"route_colors":["#5c2e86"],"route_refs":["46"]},"geometry":{"type":"LineString","coordinates":[[-90.0579508,29.9685749],[-90.0580737,29.9685673],[-90.0581376,29.9685634],[-90.0582287,29.9685535],[-90.0582472,29.96855],[-90.0583082,29.9685383],[-90.0589764,29.9683815],[-90.0590663,29.9683641],[-90.0591601,29.9683484],[-90.0592119,29.9683423],[-90.0592671,29.9683358],[-90.0593437,29.9683295],[-90.0593474,29.9683293],[-90.0602681,29.9682726],[-90.060332,29.9682686],[-90.0604086,29.9682638],[-90.060501,29.9682582],[-90.0605222,29.9682569],[-90.0607862,29.9682294],[-90.0610697,29.9681731],[-90.0613174,29.9680979],[-90.0614601,29.9680465],[-90.0615223,29.9680242],[-90.0616106,29.9679746],[-90.0617491,29.9678969],[-90.0619457,29.9677652],[-90.0621029,29.9676381],[-90.0621723,29.9675753],[-90.0622411,29.9675037],[-90.062317,29.9674208],[-90.0624103,29.9673191],[-90.0624851,29.9672381],[-90.0624888,29.9672341],[-90.0629008,29.96677],[-90.0629684,29.9666967],[-90.0630232,29.9666313],[-90.0634631,29.9661061],[-90.0635217,29.9660371],[-90.0635705,29.9659797],[-90.0636197,29.9659246],[-90.0636607,29.9658787],[-90.0637123,29.9658217],[-90.0638517,29.9656676],[-90.0641218,29.9653671],[-90.0641638,29.9653204],[-90.0642128,29.965266],[-90.0648608,29.9645462],[-90.0655511,29.9637676],[-90.0657352,29.9635629],[-90.0662512,29.9629877],[-90.0669857,29.9621652],[-90.0676877,29.9613737],[-90.0678906,29.9611491],[-90.0681032,29.9609134],[-90.0684232,29.9605547],[-90.0684834,29.9604873],[-90.068518,29.9604484],[-90.0691803,29.959704],[-90.0692268,29.9596526],[-90.0698492,29.9589648],[-90.0698888,29.958921],[-90.0699391,29.9588645],[-90.0702964,29.9584633],[-90.0704858,29.9582383],[-90.0705524,29.9581646],[-90.0705821,29.9581283],[-90.0707275,29.957969],[-90.0712191,29.957419],[-90.0712526,29.9573821],[-90.0712967,29.9573314],[-90.0719038,29.9566367],[-90.0719403,29.9565948],[-90.0723311,29.9561308],[-90.0725687,29.9558658],[-90.0725772,29.9558558]]}},{"type":"Feature","properties":{"way_id":908572921,"route_colors":["#5c2e86"],"route_refs":["46"]},"geometry":{"type":"LineString","coordinates":[[-90.0725772,29.9558558],[-90.0726033,29.9558324],[-90.0726312,29.9558139],[-90.0726665,29.9557923],[-90.0727046,29.9557787],[-90.0727643,29.9557664],[-90.0728249,29.955775],[-90.0728686,29.9557886],[-90.0729345,29.9558204]]}},{"type":"Feature","properties":{"way_id":327323746,"route_colors":["#5c2e86"],"route_refs":["46"]},"geometry":{"type":"LineString","coordinates":[[-90.07331,29.9560695],[-90.0733709,29.9561023],[-90.0733999,29.9561112],[-90.0734131,29.9561153],[-90.0734687,29.9561259],[-90.0735068,29.9561233],[-90.0735409,29.956112],[-90.0735678,29.956099],[-90.0735823,29.9560891],[-90.0736119,29.9560688],[-90.0736659,29.956018],[-90.0736972,29.9559843]]}},{"type":"Feature","properties":{"way_id":246556587,"route_colors":["#5c2e86"],"route_refs":["46"]},"geometry":{"type":"LineString","coordinates":[[-90.0736972,29.9559843],[-90.0739236,29.9557283],[-90.0742126,29.9553965],[-90.0743114,29.9552831],[-90.0743469,29.9552424],[-90.0743895,29.9551935],[-90.0744688,29.9551025],[-90.0747492,29.9547806],[-90.0747876,29.9547348],[-90.0748479,29.9546641],[-90.0748608,29.9546489],[-90.0749228,29.9545667],[-90.0749654,29.9545071],[-90.0750162,29.9544278],[-90.075111,29.954266],[-90.0751905,29.9540745],[-90.0752206,29.9539723],[-90.0752434,29.9538947],[-90.0753233,29.9536495],[-90.0753425,29.9535905],[-90.0753744,29.9534924],[-90.0753985,29.953415],[-90.0754183,29.9533517],[-90.0755231,29.9529964],[-90.0755567,29.9528824],[-90.0756608,29.9525437],[-90.0757191,29.9523533],[-90.0757213,29.9523448],[-90.0757471,29.9522433],[-90.0757567,29.952198],[-90.0757642,29.9521596],[-90.0757796,29.9520804],[-90.0757833,29.9520412],[-90.0757883,29.9519879],[-90.0757951,29.9519167],[-90.0758017,29.9517672],[-90.0757951,29.9515716],[-90.0757803,29.9514192],[-90.0757774,29.9513894],[-90.0757744,29.9512725],[-90.0757707,29.9511229],[-90.0757803,29.9509784],[-90.0757846,29.9509482],[-90.0757936,29.9508845],[-90.0757995,29.9508429],[-90.0758205,29.9507463],[-90.0758425,29.9506455],[-90.0758445,29.9506385],[-90.0759733,29.9501886],[-90.076169,29.9495046],[-90.0762663,29.9491645],[-90.0763549,29.9488724],[-90.0764338,29.9486018],[-90.076466,29.9484915],[-90.0764962,29.9483948],[-90.076553,29.9482132],[-90.0765793,29.9481115],[-90.0765957,29.9480379],[-90.076824,29.9472396],[-90.0768286,29.9472209],[-90.0768474,29.9471437],[-90.0768596,29.9470591],[-90.0768675,29.9470139],[-90.07688,29.9469166],[-90.0768842,29.9467953],[-90.0768841,29.9466333],[-90.0768787,29.9463991],[-90.0768841,29.946345],[-90.0768982,29.9462732],[-90.0769199,29.9462174],[-90.0769381,29.9461705],[-90.0769666,29.9461253],[-90.0769716,29.9461174],[-90.0770253,29.9460322],[-90.0771613,29.9458071]]}},{"type":"Feature","properties":{"way_id":543357044,"route_colors":["#5c2e86"],"route_refs":["46"]},"geometry":{"type":"LineString","coordinates":[[-90.0778815,29.9454394],[-90.0777926,29.9454421],[-90.077724,29.9454441],[-90.077665,29.9454545],[-90.0776393,29.945459],[-90.0776244,29.9454653],[-90.077554,29.9454952],[-90.0775215,29.9455107],[-90.0773821,29.9455771],[-90.0773097,29.945618],[-90.0772673,29.9456553],[-90.0772159,29.9457139],[-90.0771613,29.9458071]]}},{"type":"Feature","properties":{"way_id":327330442,"route_colors":["#5c2e86"],"route_refs":["46"]},"geometry":{"type":"LineString","coordinates":[[-90.0778815,29.9454394],[-90.0780597,29.9454426],[-90.0781438,29.9454499],[-90.0783908,29.9455025],[-90.0784224,29.9455096]]}},{"type":"Feature","properties":{"way_id":246556588,"route_colors":["#5c2e86"],"route_refs":["46"]},"geometry":{"type":"LineString","coordinates":[[-90.0784385,29.9454574],[-90.0784083,29.9454507],[-90.0782394,29.9454128],[-90.0781942,29.9454079],[-90.0781496,29.9454096],[-90.0779971,29.9454311],[-90.0778815,29.9454394]]}},{"type":"Feature","properties":{"way_id":908572920,"route_colors":["#5c2e86"],"route_refs":["46"]},"geometry":{"type":"LineString","coordinates":[[-90.0735206,29.9558247],[-90.0734559,29.9558739],[-90.0734091,29.9558946],[-90.0733799,29.9559065],[-90.0733186,29.9559191],[-90.0732592,29.9559189],[-90.0732111,29.9559172],[-90.0731623,29.9559028],[-90.0731241,29.9558882],[-90.0730848,29.9558666]]}},{"type":"Feature","properties":{"way_id":908572915,"route_colors":["#5c2e86"],"route_refs":["46"]},"geometry":{"type":"LineString","coordinates":[[-90.0730848,29.9558666],[-90.0729805,29.9557958],[-90.0729259,29.9557613],[-90.0729057,29.9557485],[-90.0728679,29.9557227]]}},{"type":"Feature","properties":{"way_id":445731390,"route_colors":["#5c2e86"],"route_refs":["46"]},"geometry":{"type":"LineString","coordinates":[[-90.0728679,29.9557227],[-90.0728241,29.9556996],[-90.0727796,29.9556847],[-90.0727683,29.9556841],[-90.0727309,29.955682],[-90.0727003,29.9556877],[-90.0726657,29.9557055],[-90.0726339,29.955731],[-90.0726031,29.9557631],[-90.0725642,29.9558071],[-90.0725423,29.9558323]]}},{"type":"Feature","properties":{"way_id":445731388,"route_colors":["#5c2e86"],"route_refs":["46"]},"geometry":{"type":"LineString","coordinates":[[-90.0725423,29.9558323],[-90.0722956,29.9561058],[-90.0721052,29.9563266],[-90.0718906,29.9565608],[-90.0718537,29.9566028],[-90.0712456,29.9572968],[-90.0712002,29.9573457],[-90.0711662,29.9573837],[-90.0705777,29.9580441],[-90.0705353,29.9580959],[-90.0705013,29.9581295],[-90.0704372,29.9582024],[-90.0698856,29.9588279],[-90.0698355,29.9588847],[-90.069796,29.9589284],[-90.0691675,29.9596232],[-90.0691214,29.9596742],[-90.0684608,29.960415],[-90.068429,29.9604506],[-90.0683722,29.9605144],[-90.0680495,29.9608768],[-90.0677461,29.9612135],[-90.0676338,29.961338],[-90.0669291,29.9621275],[-90.0661967,29.9629496],[-90.0655882,29.9636323],[-90.0654976,29.9637307],[-90.0648112,29.964505],[-90.0641582,29.9652289],[-90.0641103,29.965282],[-90.0640662,29.9653309],[-90.063754,29.9656773],[-90.0637014,29.9657357],[-90.0636565,29.9657846],[-90.0636045,29.9658414],[-90.0635644,29.9658864],[-90.0635156,29.9659413],[-90.0634635,29.9659984],[-90.0629484,29.9665762],[-90.06289,29.9666418],[-90.0628239,29.966714],[-90.0623969,29.9671958],[-90.0623903,29.9672032],[-90.0623336,29.9672674],[-90.0622486,29.9673609],[-90.0621796,29.9674369],[-90.0620491,29.9675623],[-90.0618859,29.9676949],[-90.0617726,29.9677734],[-90.0616698,29.967835],[-90.0616031,29.967872],[-90.0615107,29.9679234],[-90.0614532,29.9679475],[-90.0612824,29.9680191],[-90.0610464,29.9680928],[-90.0607701,29.9681538],[-90.0606461,29.9681678],[-90.0605133,29.9681806],[-90.0604945,29.9681816],[-90.0604036,29.9681867],[-90.0603267,29.9681914],[-90.0601137,29.9682044],[-90.0596544,29.9682329],[-90.0594485,29.9682514],[-90.0593445,29.9682661],[-90.059263,29.9682776],[-90.0592056,29.9682864],[-90.0591266,29.9682985],[-90.0582316,29.9684854],[-90.0582223,29.9684873],[-90.0581355,29.9685027],[-90.0580682,29.9685099],[-90.058058,29.968511],[-90.0579468,29.9685182]]}},{"type":"Feature","properties":{"way_id":908571289,"route_colors":["#5c2e86"],"route_refs":["46"]},"geometry":{"type":"LineString","coordinates":[[-90.0579468,29.9685182],[-90.0576241,29.9685374]]}},{"type":"Feature","properties":{"way_id":908571288,"route_colors":["#5c2e86"],"route_refs":["46"]},"geometry":{"type":"LineString","coordinates":[[-90.0576241,29.9685374],[-90.0573293,29.9685551],[-90.057294,29.9685572]]}},{"type":"Feature","properties":{"way_id":908580990,"route_colors":["#0000ff"],"route_refs":["2"]},"geometry":{"type":"LineString","coordinates":[[-90.0702556,29.9539323],[-90.070277,29.9539089],[-90.0701178,29.9537993],[-90.0700964,29.9538227],[-90.0702556,29.9539323]]}},{"type":"Feature","properties":{"way_id":908580988,"route_colors":["#0000ff"],"route_refs":["2"]},"geometry":{"type":"LineString","coordinates":[[-90.0690065,29.9530821],[-90.0690279,29.9530587],[-90.0688687,29.9529491],[-90.0688473,29.9529724],[-90.0690065,29.9530821]]}},{"type":"Feature","properties":{"way_id":908580987,"route_colors":["#0000ff"],"route_refs":["2"]},"geometry":{"type":"LineString","coordinates":[[-90.0681399,29.9524945],[-90.0681611,29.952471],[-90.0679262,29.9523118],[-90.067905,29.9523353],[-90.0681399,29.9524945]]}},{"type":"Feature","properties":{"way_id":908580984,"route_colors":["#0000ff"],"route_refs":["2"]},"geometry":{"type":"LineString","coordinates":[[-90.0671082,29.9517949],[-90.0671295,29.9517715],[-90.0669865,29.951674],[-90.0669652,29.9516974],[-90.0671082,29.9517949]]}},{"type":"Feature","properties":{"way_id":908580982,"route_colors":["#0000ff"],"route_refs":["2"]},"geometry":{"type":"LineString","coordinates":[[-90.0658212,29.9509428],[-90.0658647,29.9508952],[-90.0657157,29.950793],[-90.0656722,29.9508406],[-90.0658212,29.9509428]]}},{"type":"Feature","properties":{"way_id":908580980,"route_colors":["#0000ff"],"route_refs":["2"]},"geometry":{"type":"LineString","coordinates":[[-90.064682,29.9501503],[-90.0646983,29.9501325],[-90.0645931,29.9500604],[-90.0645768,29.9500782],[-90.064682,29.9501503]]}},{"type":"Feature","properties":{"way_id":908568494,"route_colors":["#0000ff"],"route_refs":["2"]},"geometry":{"type":"LineString","coordinates":[[-90.0635485,29.9502867],[-90.0635178,29.9501654],[-90.0635696,29.9501556],[-90.0636003,29.9502768],[-90.0635485,29.9502867]]}},{"type":"Feature","properties":{"way_id":533410870,"route_colors":["#0000ff"],"route_refs":["2"]},"geometry":{"type":"LineString","coordinates":[[-90.0637461,29.9527951],[-90.0636932,29.952791],[-90.0637129,29.9525968],[-90.0637658,29.9526008],[-90.0637461,29.9527951]]}},{"type":"Feature","properties":{"way_id":534714482,"route_colors":["#0000ff"],"route_refs":["2"]},"geometry":{"type":"LineString","coordinates":[[-90.0627495,29.9557825],[-90.0627177,29.9557628],[-90.0628469,29.955606],[-90.0628787,29.9556256],[-90.0627495,29.9557825]]}},{"type":"Feature","properties":{"way_id":535074317,"route_colors":["#0000ff"],"route_refs":["2"]},"geometry":{"type":"LineString","coordinates":[[-90.0608377,29.9579276],[-90.0607011,29.9580781],[-90.060665,29.9580534],[-90.0608016,29.957903],[-90.0608377,29.9579276]]}},{"type":"Feature","properties":{"way_id":535401790,"route_colors":["#0000ff"],"route_refs":["2"]},"geometry":{"type":"LineString","coordinates":[[-90.0592228,29.9594792],[-90.059196,29.9594475],[-90.0590064,29.9595677],[-90.0590332,29.9595994],[-90.0590672,29.9595779],[-90.059158,29.9595203],[-90.0592228,29.9594792]]}},{"type":"Feature","properties":{"way_id":908568495,"route_colors":["#0000ff"],"route_refs":["2"]},"geometry":{"type":"LineString","coordinates":[[-90.0575345,29.9606831],[-90.0576708,29.9605852],[-90.0576463,29.9605586],[-90.0573564,29.9607588],[-90.0573347,29.9607351],[-90.0570536,29.9609423],[-90.057035,29.9609234],[-90.0573309,29.9607051],[-90.0573117,29.9606855],[-90.057148,29.9608063],[-90.0571314,29.9607895],[-90.0570177,29.9609176],[-90.0570705,29.9609709],[-90.0570975,29.96097],[-90.0572749,29.9608365],[-90.0572829,29.9608255],[-90.0573855,29.9607936],[-90.0575345,29.9606831]]}},{"type":"Feature","properties":{"way_id":908917867,"route_colors":["#0000ff"],"route_refs":["2"]},"geometry":{"type":"LineString","coordinates":[[-90.0701342,29.9538685],[-90.0700958,29.9538427],[-90.0700632,29.9538206],[-90.0699998,29.9537777],[-90.069915,29.9537204],[-90.0699121,29.9537184]]}},{"type":"Feature","properties":{"way_id":134636388,"route_colors":["#0000ff"],"route_refs":["2"]},"geometry":{"type":"LineString","coordinates":[[-90.0699121,29.9537184],[-90.0697581,29.9536154]]}},{"type":"Feature","properties":{"way_id":908582889,"route_colors":["#0000ff"],"route_refs":["2"]},"geometry":{"type":"LineString","coordinates":[[-90.0697581,29.9536154],[-90.0692533,29.9532739]]}},{"type":"Feature","properties":{"way_id":134636386,"route_colors":["#0000ff"],"route_refs":["2"]},"geometry":{"type":"LineString","coordinates":[[-90.0692533,29.9532739],[-90.0692448,29.9532684],[-90.06917,29.9532172],[-90.0690991,29.9531686],[-90.0690186,29.9531134],[-90.0688637,29.9530072],[-90.0684003,29.9526901],[-90.0683471,29.9526537],[-90.0683183,29.952634],[-90.0682147,29.952563],[-90.0681728,29.9525346],[-90.0679514,29.9523849],[-90.0677725,29.9522639],[-90.0673649,29.9519888],[-90.0673302,29.9519653],[-90.0672874,29.9519364],[-90.0672043,29.9518804],[-90.0671348,29.9518341],[-90.0669844,29.951734],[-90.0666697,29.9515245],[-90.0662215,29.9512263],[-90.0661863,29.9512029],[-90.0661195,29.9511588],[-90.065973,29.9510597],[-90.0658776,29.9509954],[-90.0657007,29.9508752],[-90.0652385,29.9505612],[-90.0651765,29.9505196],[-90.065122,29.9504804],[-90.0650592,29.9504215],[-90.0649984,29.9503771],[-90.0647292,29.9501926],[-90.064643,29.9501389],[-90.0645679,29.9500946],[-90.0644367,29.950017],[-90.0643203,29.9499474],[-90.0642295,29.9498948],[-90.0641575,29.949859],[-90.0640905,29.9498421],[-90.0640095,29.949838],[-90.0639556,29.9498453],[-90.0638819,29.9498578],[-90.0638488,29.949864],[-90.0637427,29.9498863],[-90.0636675,29.9499059],[-90.0636021,29.9499355],[-90.0635554,29.9499692],[-90.0635341,29.9499934],[-90.0635284,29.9500036],[-90.0635079,29.9500432],[-90.0634993,29.9501002],[-90.0635052,29.9501756]]}},{"type":"Feature","properties":{"way_id":1447380613,"route_colors":["#0000ff","#5c2e86"],"route_refs":["2","49"]},"geometry":{"type":"LineString","coordinates":[[-90.0635052,29.9501756],[-90.0635306,29.9502834]]}},{"type":"Feature","properties":{"way_id":908917862,"route_colors":["#0000ff","#5c2e86"],"route_refs":["2","49"]},"geometry":{"type":"LineString","coordinates":[[-90.0635306,29.9502834],[-90.063569,29.9504986]]}},{"type":"Feature","properties":{"way_id":12697366,"route_colors":["#0000ff","#5c2e86"],"route_refs":["2","49"]},"geometry":{"type":"LineString","coordinates":[[-90.063569,29.9504986],[-90.063617,29.950936],[-90.0636336,29.9510866],[-90.0637136,29.9518264],[-90.0637259,29.952089],[-90.0637173,29.9524046],[-90.0637133,29.9524479],[-90.063702,29.9525687],[-90.0636795,29.9527778],[-90.0636673,29.9528918],[-90.0636299,29.95311],[-90.0635738,29.9534157],[-90.0635657,29.9534598],[-90.0635582,29.9535004],[-90.0634325,29.9541757],[-90.0633896,29.9543931],[-90.0633439,29.9545458],[-90.0632831,29.9547529],[-90.0631851,29.9549962],[-90.0631034,29.9551729],[-90.063036,29.9552941],[-90.0629744,29.9553947],[-90.0628997,29.9555059],[-90.0628324,29.9555939]]}},{"type":"Feature","properties":{"way_id":329179968,"route_colors":["#0000ff","#5c2e86"],"route_refs":["2","49"]},"geometry":{"type":"LineString","coordinates":[[-90.0628324,29.9555939],[-90.0627087,29.9557433],[-90.0626861,29.95577],[-90.0624679,29.9560198],[-90.0621937,29.9563316],[-90.0621672,29.9563636],[-90.0618463,29.9567311],[-90.0610928,29.9575615],[-90.0609799,29.9576859],[-90.0608379,29.9578434],[-90.0607792,29.9579093],[-90.0606693,29.9580265],[-90.060632,29.9580666],[-90.0602845,29.9584508],[-90.060147,29.9586016],[-90.0600225,29.9587396],[-90.0599102,29.9588612],[-90.0597891,29.9589816],[-90.0595932,29.9591505],[-90.0593749,29.9593114],[-90.0592265,29.9594071],[-90.0590041,29.9595525],[-90.0585993,29.959805],[-90.0584619,29.9598892],[-90.057779,29.9603229],[-90.0576691,29.9604051]]}},{"type":"Feature","properties":{"way_id":329177700,"route_colors":["#0000ff"],"route_refs":["2"]},"geometry":{"type":"LineString","coordinates":[[-90.0576691,29.9604051],[-90.057502,29.9605575],[-90.0573474,29.9607066]]}},{"type":"Feature","properties":{"way_id":329179967,"route_colors":["#0000ff"],"route_refs":["2"]},"geometry":{"type":"LineString","coordinates":[[-90.0573474,29.9607066],[-90.0571263,29.9608709],[-90.057058,29.9609216]]}},{"type":"Feature","properties":{"way_id":908580981,"route_colors":["#0000ff"],"route_refs":["2"]},"geometry":{"type":"LineString","coordinates":[[-90.0644948,29.9501714],[-90.064511,29.9501536],[-90.0644058,29.9500814],[-90.0643896,29.9500992],[-90.0644948,29.9501714]]}},{"type":"Feature","properties":{"way_id":908580983,"route_colors":["#0000ff"],"route_refs":["2"]},"geometry":{"type":"LineString","coordinates":[[-90.0658214,29.9510729],[-90.0658504,29.9510411],[-90.0656873,29.9509297],[-90.0656583,29.9509616],[-90.0658214,29.9510729]]}},{"type":"Feature","properties":{"way_id":908580985,"route_colors":["#0000ff"],"route_refs":["2"]},"geometry":{"type":"LineString","coordinates":[[-90.067038,29.9518709],[-90.0670593,29.9518475],[-90.0669163,29.95175],[-90.0668951,29.9517734],[-90.067038,29.9518709]]}},{"type":"Feature","properties":{"way_id":908580986,"route_colors":["#0000ff"],"route_refs":["2"]},"geometry":{"type":"LineString","coordinates":[[-90.0680693,29.9525694],[-90.0680905,29.9525459],[-90.0678556,29.9523867],[-90.0678344,29.9524102],[-90.0680693,29.9525694]]}},{"type":"Feature","properties":{"way_id":908580989,"route_colors":["#0000ff"],"route_refs":["2"]},"geometry":{"type":"LineString","coordinates":[[-90.0689356,29.9531588],[-90.068957,29.9531354],[-90.0687978,29.9530258],[-90.0687764,29.9530491],[-90.0689356,29.9531588]]}},{"type":"Feature","properties":{"way_id":908580991,"route_colors":["#0000ff"],"route_refs":["2"]},"geometry":{"type":"LineString","coordinates":[[-90.069827,29.9537614],[-90.0698484,29.953738],[-90.0696892,29.9536284],[-90.0696678,29.9536518],[-90.069827,29.9537614]]}},{"type":"Feature","properties":{"way_id":908568496,"route_colors":["#0000ff"],"route_refs":["2"]},"geometry":{"type":"LineString","coordinates":[[-90.0573474,29.9607066],[-90.0577087,29.9604454]]}},{"type":"Feature","properties":{"way_id":329177699,"route_colors":["#0000ff"],"route_refs":["2"]},"geometry":{"type":"LineString","coordinates":[[-90.0577087,29.9604454],[-90.0578194,29.9603733],[-90.0581544,29.9601622],[-90.0581954,29.9601356],[-90.0583325,29.9600495],[-90.0588913,29.9596974],[-90.0591867,29.9595126],[-90.0594097,29.959365],[-90.0595155,29.9592841],[-90.0596387,29.9591834],[-90.0598302,29.9590083],[-90.059948,29.9588871],[-90.0600606,29.9587659],[-90.0601838,29.9586295],[-90.0603259,29.9584729],[-90.0604935,29.9582955],[-90.0606915,29.9581048],[-90.0608345,29.9579476],[-90.0608927,29.957882],[-90.0610267,29.9577085],[-90.0611263,29.9575916],[-90.0614514,29.9572357],[-90.0618772,29.9567526],[-90.0622003,29.9563803],[-90.0622265,29.9563501],[-90.0624943,29.9560466],[-90.0626319,29.9559101],[-90.0627459,29.9558037],[-90.0627821,29.9557645],[-90.062887,29.9556364],[-90.0629578,29.9555412],[-90.0630335,29.955426],[-90.0630943,29.9553133],[-90.0631532,29.9551923],[-90.0632306,29.9550008],[-90.0633273,29.9547697],[-90.0634013,29.9545847],[-90.063461,29.954418],[-90.0635136,29.9542021],[-90.0636239,29.953605],[-90.0636405,29.953515],[-90.0636483,29.9534728],[-90.0636547,29.9534389],[-90.063715,29.9531221],[-90.0637492,29.9528976],[-90.0637658,29.9527858],[-90.0637809,29.9526228],[-90.063783,29.9525278],[-90.0637833,29.9524588],[-90.0637835,29.9524138],[-90.0637707,29.9520894],[-90.0637505,29.9518263],[-90.0637398,29.9517279]]}},{"type":"Feature","properties":{"way_id":908917861,"route_colors":["#0000ff"],"route_refs":["2"]},"geometry":{"type":"LineString","coordinates":[[-90.0637398,29.9517279],[-90.0636642,29.9510443],[-90.0636257,29.9506638],[-90.0636215,29.9506258],[-90.063614,29.950556],[-90.063614,29.9504823],[-90.0636199,29.9503765],[-90.063617,29.9502996],[-90.063611,29.950268],[-90.0635881,29.950175],[-90.0635866,29.9501682]]}},{"type":"Feature","properties":{"way_id":329177695,"route_colors":["#5c2e86"],"route_refs":["49"]},"geometry":{"type":"LineString","coordinates":[[-90.0571525,29.9607861],[-90.057176,29.960769],[-90.0573162,29.960667]]}},{"type":"Feature","properties":{"way_id":908568497,"route_colors":["#5c2e86"],"route_refs":["49"]},"geometry":{"type":"LineString","coordinates":[[-90.0576691,29.9604051],[-90.0573162,29.960667]]}},{"type":"Feature","properties":{"way_id":329179969,"route_colors":["#5c2e86"],"route_refs":["49"]},"geometry":{"type":"LineString","coordinates":[[-90.0633149,29.9490586],[-90.0633172,29.9491426],[-90.0633354,29.949382],[-90.0633456,29.9494788],[-90.0633632,29.9495991],[-90.063407,29.9497801],[-90.0634189,29.9498261],[-90.063463,29.9500079],[-90.0635052,29.9501756]]}},{"type":"Feature","properties":{"way_id":1173588242,"route_colors":["#5c2e86"],"route_refs":["49"]},"geometry":{"type":"LineString","coordinates":[[-90.0633023,29.9488654],[-90.0633149,29.9490586]]}},{"type":"Feature","properties":{"way_id":1173588241,"route_colors":["#5c2e86"],"route_refs":["49"]},"geometry":{"type":"LineString","coordinates":[[-90.0632725,29.9483569],[-90.0632937,29.9486066],[-90.0633003,29.948812],[-90.0633023,29.9488654]]}},{"type":"Feature","properties":{"way_id":1173588229,"route_colors":["#5c2e86"],"route_refs":["49"]},"geometry":{"type":"LineString","coordinates":[[-90.0631506,29.947628],[-90.0631953,29.9479047],[-90.0632172,29.9480325],[-90.0632343,29.9481305],[-90.0632422,29.9481756],[-90.0632613,29.94829]]}},{"type":"Feature","properties":{"way_id":1173588221,"route_colors":["#5c2e86"],"route_refs":["49"]},"geometry":{"type":"LineString","coordinates":[[-90.0631441,29.947586],[-90.0631506,29.947628]]}},{"type":"Feature","properties":{"way_id":1173588220,"route_colors":["#5c2e86"],"route_refs":["49"]},"geometry":{"type":"LineString","coordinates":[[-90.0629692,29.9465551],[-90.0629895,29.9466671],[-90.0631068,29.9473467],[-90.0631441,29.947586]]}},{"type":"Feature","properties":{"way_id":1173588215,"route_colors":["#5c2e86"],"route_refs":["49"]},"geometry":{"type":"LineString","coordinates":[[-90.0629511,29.9464513],[-90.0629692,29.9465551]]}},{"type":"Feature","properties":{"way_id":1173588214,"route_colors":["#5c2e86"],"route_refs":["49"]},"geometry":{"type":"LineString","coordinates":[[-90.0626461,29.9452934],[-90.0626825,29.9454715],[-90.0627502,29.9457172],[-90.0628727,29.9461573],[-90.062947,29.9464385],[-90.0629511,29.9464513]]}},{"type":"Feature","properties":{"way_id":1173550261,"route_colors":["#5c2e86"],"route_refs":["49"]},"geometry":{"type":"LineString","coordinates":[[-90.0626342,29.945243],[-90.0626461,29.9452934]]}},{"type":"Feature","properties":{"way_id":1173550260,"route_colors":["#5c2e86"],"route_refs":["49"]},"geometry":{"type":"LineString","coordinates":[[-90.0624631,29.944103],[-90.0625959,29.9450268],[-90.0626313,29.9452252],[-90.0626342,29.945243]]}}]}