{"type":"FeatureCollection","features":[{"type":"Feature","properties":{"route_ref":"T3","route_color":"#009640"},"geometry":{"type":"LineString","coordinates":[[4.378497602006082,45.465841731613],[4.378568975294988,45.465583980433784],[4.37846929919564,45.466605670308795],[4.378094133333331,45.467102233333335],[4.373278227459735,45.47116272179366],[4.367888996757018,45.474124173286015],[4.364760638411372,45.47636627539231],[4.36378633316538,45.47928949266096],[4.363889303980731,45.479674052608765],[4.364107215280796,45.47985748190882],[4.364878076145569,45.480080366672034],[4.365106740379803,45.48024633906006],[4.365009624362764,45.48050826704972],[4.364576986898157,45.48048257344685],[4.363882472464786,45.479803432721496],[4.36377495951202,45.47932316410194],[4.364723068578228,45.476414053603634],[4.368045366348553,45.474013106209966],[4.37317279293714,45.47121948514962],[4.378097025543861,45.46709857056605],[4.378469621907762,45.466604637630695],[4.378496613607729,45.46578943399463],[4.378681243692174,45.46509095154923],[4.3797693787820755,45.464444043683145],[4.380120500805592,45.46401500053213],[4.381398369565219,45.45985571739131],[4.381693627208991,45.45920350962192],[4.381881748796202,45.45912509206444],[4.382395571751099,45.45913184668092],[4.386335494590736,45.459671523096524],[4.389925793999345,45.459111767270066],[4.3909183389639415,45.458658471359655],[4.391496490855217,45.45857448607301],[4.392239672523005,45.45876374725607],[4.393687253512244,45.45982292448611],[4.394003047401313,45.45985661215768],[4.394513211075252,45.45963174685801],[4.396602898205879,45.45830370960262],[4.397277271143266,45.457468278162935],[4.396604926175802,45.456779926388265],[4.394525049497058,45.45506761951745],[4.394423509427848,45.45457528257997],[4.394549081619766,45.45420930262299],[4.3952008,45.45410334],[4.397236377391319,45.45417124552204],[4.398460550929371,45.45369533934001],[4.39869578173147,45.45341587741932],[4.398836878505694,45.452718546672365],[4.401208234558957,45.45109098735594],[4.4020482118700945,45.45026012416527],[4.40352763691842,45.44849863383874],[4.405346460855391,45.44701184291151],[4.405256859427117,45.44675499143224],[4.404306680364412,45.446361200879785],[4.403022705766561,45.44542956772138],[4.402622322839956,45.44523800752753],[4.401804692788222,45.44523562151165],[4.4001725,45.4455281],[4.399191553811798,45.44548351605029],[4.397830229304226,45.444670239328566],[4.3974529,45.4443229],[4.39707822670713,45.44375075795328],[4.397200853968021,45.44326765735643],[4.397730795451888,45.442971308641035],[4.399268405747991,45.442993750869235],[4.4030673,45.4423006],[4.40333359978655,45.442035625952784],[4.4031518,45.4417086],[4.3972996125567345,45.440103744287406],[4.395099854507941,45.43907141539147],[4.392867392521024,45.4374242928836],[4.389121932859499,45.436937952614684],[4.388102099794991,45.436454771365575],[4.387722066666667,45.4360366],[4.387525731606092,45.435112528239245],[4.388425723068987,45.43173552238236],[4.3889823677443855,45.4306716524104],[4.389666293603689,45.43025876221872],[4.389820559971171,45.429919829767776],[4.393555727167736,45.41697606301652],[4.3935996307745375,45.41653277688842],[4.393273129873853,45.41580364553157]]}},{"type":"Feature","properties":{"route_ref":"T1","route_color":"#009640"},"geometry":{"type":"MultiLineString","coordinates":[[[4.387152079092564,45.409694809242275],[4.3868711,45.4094807],[4.390143763908976,45.41179036253253],[4.391981540968453,45.413209307546985],[4.3933560885671215,45.41589721593083],[4.393596759354018,45.416508532537925],[4.393585,45.4168768],[4.387761810554397,45.43700388045705],[4.381599061128971,45.45929655995331],[4.387886708762185,45.436606999772614],[4.38750417440136,45.43528409290132],[4.388425723068987,45.43173552238236],[4.3889823677443855,45.4306716524104],[4.389666293603689,45.43025876221872],[4.389820559971171,45.429919829767776],[4.393596541431494,45.41679049958712],[4.393552425586811,45.416364060402145],[4.393066871662607,45.4152772948019],[4.391984816802148,45.41320488009406],[4.388540099160928,45.41063994324948],[4.386819,45.409538],[4.387122998614017,45.40967653750599]],[[4.378512999765305,45.465563212168725],[4.37846929919564,45.466605670308795],[4.378094133333331,45.467102233333335],[4.373278227459735,45.47116272179366],[4.367888996757018,45.474124173286015],[4.364760638411372,45.47636627539231],[4.36378633316538,45.47928949266096],[4.363889303980731,45.479674052608765],[4.364107215280796,45.47985748190882],[4.364878076145569,45.480080366672034],[4.365106740379803,45.48024633906006],[4.365009624362764,45.48050826704972],[4.364576986898157,45.48048257344685],[4.363882472464786,45.479803432721496],[4.36377495951202,45.47932316410194],[4.364723068578228,45.476414053603634],[4.368045366348553,45.474013106209966],[4.37317279293714,45.47121948514962],[4.378097025543861,45.46709857056605],[4.378469621907762,45.466604637630695],[4.378508830057454,45.465642865152915],[4.378681243692174,45.46509095154923],[4.3797693787820755,45.464444043683145],[4.380120500805592,45.46401500053213],[4.381546661793717,45.459336643826845],[4.380668269652349,45.46246500199933],[4.380087827724229,45.46408646246069],[4.379773088951942,45.464440264332424],[4.378726373230583,45.46503953490869],[4.378582100601203,45.46526105392089],[4.378509852623802,45.465843649811404]]]}},{"type":"Feature","properties":{"route_ref":"T2","route_color":"#009640"},"geometry":{"type":"LineString","coordinates":[[4.383989991047163,45.45032864456407],[4.384896884331065,45.447457029104314],[4.387799766666666,45.43687306666667],[4.387994637026949,45.43661229768237],[4.388217682688635,45.436571239201015],[4.389423407612643,45.436999831564556],[4.392821985067129,45.43740767762465],[4.395101506369645,45.43907492009824],[4.396685142087585,45.439862957725836],[4.397455571985116,45.44015626731951],[4.402892003570406,45.441602794277316],[4.4032928867575905,45.44183143576514],[4.403320912768951,45.44210153017051],[4.403071210498131,45.44229928989302],[4.400010620073588,45.44286916278588],[4.4030673,45.4423006],[4.403312033335073,45.44210234010618],[4.403283394006481,45.44182507481904],[4.402764935968609,45.44157043561901],[4.3974539587441726,45.44015565543754],[4.3966853,45.4398633],[4.395099854507941,45.43907141539147],[4.3928087729356164,45.43740384789937],[4.389539200000001,45.437021566666665],[4.388873402207778,45.43686662474568],[4.388257875687829,45.43658437955995],[4.387992832123969,45.43661939345896],[4.387761810554397,45.43700388045705],[4.3842,45.44987069999999]]}}]}