{"type":"FeatureCollection","features":[{"type":"Feature","properties":{"route_ref":"RT1","route_color":"#fbba00"},"geometry":{"type":"MultiLineString","coordinates":[[[9.481148600000001,51.339866600000015],[9.482584210980074,51.339696645127496],[9.488660450464337,51.33792230632198],[9.491551507651936,51.33622504787807],[9.496823921220072,51.33261362112058],[9.498036561556344,51.33122722205527],[9.49868022150431,51.33023784130038],[9.499615615941897,51.3281028736808],[9.500544785126015,51.3250869104637],[9.502099654196773,51.32166187105463],[9.502215195790884,51.32119220910567],[9.50206895762666,51.32063824322752],[9.499176348605829,51.31656020074594],[9.491742757065635,51.31207576686999],[9.491412484887466,51.31210225642132],[9.490534158082063,51.312594755136004],[9.491377295482307,51.31210738507836],[9.490016793074181,51.3129763138414],[9.489016056265559,51.31390904344913],[9.48931305567433,51.31427752771537],[9.49212606150015,51.31596267209483],[9.492562567832449,51.316336960632235],[9.492525525271422,51.316500607983016],[9.491471404150754,51.31723042422014],[9.4899711275782,51.317997299558854],[9.482348475,51.319383300000005],[9.482250168206631,51.319474432734296],[9.481800620000003,51.319484800000005],[9.481291180754758,51.319688443655934],[9.480547280000001,51.319717000000004],[9.479567106052745,51.3199105671383],[9.476601919151912,51.32024923852053],[9.474600477057177,51.32036200840987],[9.461510233333058,51.320507265680554],[9.460052533601708,51.320590420285235],[9.458724065769555,51.32079856792225],[9.457393991808814,51.32115158404436],[9.45642390905965,51.32151844988624],[9.454890507767095,51.32233836183126],[9.45353580380621,51.32321689841663],[9.452067831306941,51.32462449264169],[9.451086442394873,51.32626260813247],[9.45074313860368,51.327705353773396],[9.450853277854353,51.32906433376849],[9.451542061157337,51.331346989371056],[9.452513450000003,51.3328402],[9.454019360237925,51.33423638544018],[9.456314622335634,51.33573670117172],[9.462800494745204,51.3387881102858],[9.463928265322439,51.339440964637724],[9.46523923231516,51.340452239448545],[9.466131506188503,51.34148351342235],[9.466721549926705,51.342443023040914],[9.467090139772495,51.343521359045766],[9.4673618165129,51.34498894993162],[9.467414179818492,51.34651536845141],[9.467046668820947,51.34814007876685],[9.466112200550326,51.349929279294564],[9.465145489420081,51.35106759107593],[9.46415096787484,51.351972205882745],[9.462887123039161,51.35290837527512],[9.448603834053287,51.36220789765278],[9.447837401659767,51.36289499998795],[9.446967139775102,51.36410465932427],[9.446530037466651,51.36527114033222],[9.44643196540406,51.366162262037655],[9.446503442771112,51.36718399935833],[9.44685259439299,51.368256788433136],[9.447506012957826,51.36936086285727],[9.44833488,51.37024462],[9.459333737881888,51.37825135412923],[9.460486139526433,51.37937447121631],[9.461399679078717,51.38055926869276],[9.462153544661467,51.38234269865738],[9.462381317480924,51.38365533996413],[9.46214413187221,51.385495463320865],[9.461512734669075,51.38684831194792],[9.460695715759076,51.38794329815667],[9.460131758158253,51.38846804072166],[9.458708438570582,51.38943260055909],[9.457323381045969,51.390105875884544],[9.454908696760768,51.391078131163376],[9.454884498785958,51.39120242240695],[9.454225234013734,51.39149660401409],[9.453924222442282,51.39152693654423],[9.452566500000007,51.39235825],[9.451780578346693,51.3930874348821],[9.451130934197414,51.39397922818144],[9.450803350000003,51.394774549999994],[9.450701175660592,51.39538227263131],[9.450830307784154,51.39547575859697],[9.450689549389148,51.39556156315235],[9.450677750000002,51.39582814999999],[9.450817485088697,51.39665150134727],[9.451179727642339,51.39750424087925],[9.45402229622209,51.401573301821514],[9.45475064129941,51.403034976409266],[9.457278950000001,51.414206],[9.45793654499008,51.41586545634116],[9.464109067968248,51.42473969270342],[9.464434093952876,51.42639948620481],[9.464129551286277,51.427938005414795],[9.463635383430614,51.42877070122523],[9.462912191174844,51.42962724054035],[9.461481606234482,51.430718688485065],[9.454869249476719,51.433941319475686],[9.453645188051711,51.434447276198334],[9.452243447880447,51.434870580202684],[9.440843807411047,51.43725777114511],[9.438540501947164,51.437529869664004],[9.435784248003637,51.43740217983208],[9.430072976923075,51.436572999999996],[9.428390636886853,51.43639235366202],[9.426989591688667,51.436379446015174],[9.425123036163754,51.43671483649789],[9.423873042526978,51.43722286635804],[9.422678020580284,51.438021481852815],[9.42190314614286,51.43902815497447],[9.421619762355562,51.4401008150308],[9.421730213853493,51.44401369499813],[9.421685588905996,51.44481106929448],[9.42142717846879,51.445829175104585],[9.4211995,51.445982],[9.417953260000006,51.450035979999996],[9.416679766418367,51.45216916923789],[9.415029700000009,51.45428035],[9.414515110122611,51.4551439376133],[9.4140875,51.45668495],[9.413821793008214,51.46048763200612],[9.41344825081545,51.46198685475462],[9.407613302626858,51.474168432533695],[9.406471633333336,51.47619467777778],[9.404122175000003,51.4810986625],[9.404166779448152,51.48119812040448],[9.402794103225812,51.48375157419355],[9.397018790000002,51.49552342],[9.395877787500002,51.4980969375],[9.394611066666668,51.501735100000005],[9.390463850269978,51.516253542361035],[9.386367328,51.525036992000004],[9.385324433798731,51.527573359567384],[9.38535782117555,51.528886101279845],[9.385737426217307,51.52992685847117],[9.386638528571433,51.53104138571428],[9.387469875634824,51.53170868158698],[9.39643005671642,51.53638356268657],[9.400968992081408,51.538628442767994],[9.401959136956263,51.539377644737634],[9.40262345608915,51.540235890217225],[9.402866133774138,51.541052583958034],[9.402814601248732,51.542033586546964],[9.402355851057195,51.54296559189971]],[[9.533944720337002,51.30125188907473],[9.531889140909097,51.30268098636363],[9.530893383346893,51.30380064535433],[9.529178845019768,51.304722456229825],[9.5275942122818,51.305855047733395],[9.525483399039103,51.30634920187446],[9.516571531852025,51.30963349420446],[9.511885023564044,51.31119153935772],[9.510412230118279,51.31232806780519],[9.50888328168132,51.31385066342286],[9.508114156222874,51.31442330254728],[9.505344655355835,51.315841296523914],[9.504185435891126,51.31655712206259],[9.501993889572871,51.31754966288327],[9.498503346504776,51.318491496455785],[9.496216311057948,51.31887616002747],[9.495896660864695,51.318758422559384],[9.495077298969758,51.317899270006734],[9.494107076882202,51.317121307715794],[9.493237523694162,51.31659327501137],[9.492726500707674,51.31645395804949],[9.492521226501525,51.31650135617091],[9.492966746169142,51.31649921666486],[9.493482382369466,51.31673896044429],[9.494998823352386,51.31783477506856],[9.495756099728506,51.31868122242675],[9.496165059857844,51.318874540527474],[9.498620239999996,51.318467739999996],[9.501755308284483,51.31766148657044],[9.500690962973758,51.31795800983703],[9.502022094379754,51.317538980520055],[9.503550465284151,51.316866623637374],[9.508116819933058,51.314420264455535],[9.509005834271047,51.31376154579537],[9.51041579557709,51.31232747233763],[9.511887261418636,51.31119293539345],[9.5165677875,51.309635449999995],[9.525355141436682,51.30639641301714],[9.527590005894387,51.305857282295285],[9.529163513920297,51.30473648858145],[9.530965944589509,51.30375675943451],[9.531581403120967,51.30294550984718],[9.534354042932582,51.30095644846719],[9.534741409975183,51.30085164742588],[9.535003643765691,51.30096753856023],[9.535014181493969,51.301113505222474],[9.534848961787064,51.30121290650665],[9.533942906935037,51.30125103955025]]]}},{"type":"Feature","properties":{"route_ref":"RT4","route_color":"#fbba00"},"geometry":{"type":"MultiLineString","coordinates":[[[9.481148600000001,51.339866600000015],[9.482584210980074,51.339696645127496],[9.488660450464337,51.33792230632198],[9.491551507651936,51.33622504787807],[9.496823921220072,51.33261362112058],[9.498036561556344,51.33122722205527],[9.49868022150431,51.33023784130038],[9.499615615941897,51.3281028736808],[9.500544785126015,51.3250869104637],[9.502099654196773,51.32166187105463],[9.502215195790884,51.32119220910567],[9.50206895762666,51.32063824322752],[9.499176348605829,51.31656020074594],[9.491742757065635,51.31207576686999],[9.491412484887466,51.31210225642132],[9.490534158082063,51.312594755136004],[9.491377295482307,51.31210738507836],[9.490016793074181,51.3129763138414],[9.489016056265559,51.31390904344913],[9.48931305567433,51.31427752771537],[9.49212606150015,51.31596267209483],[9.492562567832449,51.316336960632235],[9.492525525271422,51.316500607983016],[9.491471404150754,51.31723042422014],[9.4899711275782,51.317997299558854],[9.482348475,51.319383300000005],[9.482250168206631,51.319474432734296],[9.481800620000003,51.319484800000005],[9.481291180754758,51.319688443655934],[9.480547280000001,51.319717000000004],[9.479567106052745,51.3199105671383],[9.476601919151912,51.32024923852053],[9.474600477057177,51.32036200840987],[9.461652780562702,51.32050377495499],[9.459649431273554,51.32063819114138],[9.457810800000003,51.321021540000004],[9.456046684739626,51.321699671264106],[9.453978963025442,51.322900863705804],[9.453061254280183,51.32360468954957],[9.452287638292866,51.32437074289889],[9.451518951098691,51.32540474586516],[9.451086442394873,51.32626260813247],[9.450732503641543,51.327873112871906],[9.451048200000002,51.329960050000004],[9.451307928574028,51.33077220400943],[9.451458049189087,51.33083427074808],[9.451368617497605,51.33093342869285],[9.451542061157337,51.331346989371056],[9.452036012518349,51.33221174018575],[9.452850444997424,51.3332133714518],[9.45318777628704,51.33354590648814],[9.453350911198847,51.33357283870252],[9.453334448712774,51.333677641576585],[9.45365692856241,51.33395256458983],[9.456314622335634,51.33573670117172],[9.462800494745204,51.3387881102858],[9.463928265322439,51.339440964637724],[9.46523923231516,51.340452239448545],[9.466265350196094,51.34166776620192],[9.466887059527885,51.342841105778895],[9.4673618165129,51.34498894993162],[9.467414179818492,51.34651536845141],[9.467228802173523,51.34762231152596],[9.466401692225016,51.34946380061861],[9.465296668257269,51.35091036674204],[9.463977292077166,51.35210956877766],[9.456652838334264,51.356969521988596],[9.453454179999998,51.35887306],[9.449865247965956,51.36124320322383],[9.448624215209879,51.361852337614096],[9.447271017941274,51.36233086127825],[9.446031434399018,51.36259280653538],[9.444531592702779,51.36271203682119],[9.412015824999997,51.363129575],[9.410982599999999,51.362977699999995],[9.409674761904764,51.362618173015875],[9.400985649999999,51.358808325],[9.399431233333333,51.35855503333333],[9.39787965,51.35867775],[9.396466366666665,51.3591645],[9.395085311111112,51.36026947777777],[9.388772966666666,51.36652286666667],[9.380155250000001,51.3754445],[9.379268899999996,51.37626085454546],[9.37830561,51.376898659999995],[9.376452971428566,51.37769574285715],[9.374519257142857,51.37816040714286],[9.363652857142856,51.380276085714286],[9.362595533333335,51.380441166666664],[9.36154445,51.380488275],[9.359198438131136,51.38033763599288],[9.340572800000002,51.37843238888889],[9.337470145454546,51.37767585454545],[9.334942479999999,51.37690968],[9.330206025490195,51.374797401960784],[9.324292974509806,51.37234259803921],[9.32240556666667,51.3712851],[9.319189775757573,51.36848771515151],[9.318406066666666,51.36764841666666],[9.318093450000001,51.36672895],[9.3180331,51.36472578],[9.31789703333333,51.36430729999999],[9.317507379999997,51.36380038],[9.31657342,51.36310732],[9.315621866666666,51.36272783333333],[9.314511955784143,51.36251992987041],[9.3132121078241,51.36251093844978],[9.31177113470294,51.36280146543537],[9.304069531977254,51.36526863013144],[9.302329049999997,51.36574625],[9.30085268,51.365914999999994],[9.29547522,51.3660706],[9.29438914,51.36622636],[9.293284125000001,51.3665524],[9.292401539999997,51.36696296],[9.29165304214217,51.36749219166985],[9.28611793333333,51.372682866666665],[9.28464865,51.373548021428576],[9.278045712499997,51.376649775],[9.276358099999998,51.37733219999999],[9.27508095,51.377609925],[9.269545784615383,51.37825228205128],[9.267478825,51.378291325],[9.25578553076923,51.377811330769234],[9.2544013,51.377682899999996],[9.253154312499998,51.3773726125],[9.252015500000002,51.37690584999999],[9.250737960000004,51.37620502000001],[9.249555175000003,51.375294475000004],[9.231171375000002,51.35364755],[9.23073727142857,51.352661642857136],[9.23068035,51.35165086666666],[9.232085,51.34602075],[9.232000566666667,51.34547393333334],[9.231695433333332,51.344908233333335],[9.231241099999997,51.34439806666666],[9.230620033333333,51.3439873],[9.229961699999999,51.343693933333334],[9.228991532381274,51.34343202003179],[9.228211899999998,51.3433398],[9.227187344275405,51.34335572801378],[9.21332648,51.34641799999999],[9.21159480867199,51.34650580065399],[9.209890259999998,51.34628459999999],[9.208221599999998,51.34565172],[9.206823569230767,51.3448202],[9.198769716666664,51.33948838333333],[9.194465516666664,51.33766081666666],[9.184230568099938,51.33195136863794],[9.183143179006345,51.3315055341656],[9.181735808909721,51.33121749223682],[9.18074836965863,51.331176036364596],[9.179209999999998,51.331304200000005]],[[9.518070759422832,51.30904011242417],[9.516571531852025,51.30963349420446],[9.511707781723368,51.311273399923934],[9.510245520759767,51.31247261311635],[9.5087771290583,51.313944962640846],[9.508114156222874,51.31442330254728],[9.505344655355835,51.315841296523914],[9.504185435891126,51.31655712206259],[9.502312885125916,51.31742679447497],[9.50135636065911,51.317764981509505],[9.498503346504776,51.318491496455785],[9.496216311057948,51.31887616002747],[9.495896660864695,51.318758422559384],[9.495077298969758,51.317899270006734],[9.494107076882202,51.317121307715794],[9.493237523694162,51.31659327501137],[9.492726500707674,51.31645395804949],[9.492521226501525,51.31650135617091],[9.492966746169142,51.31649921666486],[9.493482382369466,51.31673896044429],[9.494998823352386,51.31783477506856],[9.495756099728506,51.31868122242675],[9.496165059857844,51.318874540527474],[9.498620239999996,51.318467739999996],[9.501755308284483,51.31766148657044],[9.500690962973758,51.31795800983703],[9.502022094379754,51.317538980520055],[9.503550465284151,51.316866623637374],[9.508116819933058,51.314420264455535],[9.508899752247338,51.3138564054294],[9.510247463450547,51.31247212886709],[9.51170988879348,51.31127421252684],[9.517405889022513,51.30930108653182]]]}},{"type":"Feature","properties":{"route_ref":"RT5","route_color":"#fbba00"},"geometry":{"type":"MultiLineString","coordinates":[[[9.4605300799278,51.24034505367261],[9.461420567632693,51.23884767182523],[9.463114271620867,51.237144662214014],[9.463827620551145,51.2361959773094],[9.466063873129368,51.23190501003151],[9.467485402126865,51.229760005022676],[9.468082155027542,51.2278708035702],[9.470572903077349,51.22473342422632],[9.471212601975992,51.22354544923846],[9.47133669591845,51.222613466496],[9.471200532750327,51.221770260411574],[9.470836430359869,51.22097051408328],[9.469056239653032,51.218650491118126],[9.468490582143342,51.21729256925341],[9.468390751220412,51.2166668702819],[9.468362873615195,51.21572778440383],[9.468522785279259,51.2147186287882],[9.468981001150585,51.21362297686141],[9.469533876603265,51.21282690919051],[9.4709241,51.2113902],[9.473297661631682,51.20957734977149],[9.480081322847314,51.20543400646171],[9.480721414964428,51.205138992108765],[9.480942020000006,51.20490903999999],[9.482183880000001,51.2041947],[9.494696849641285,51.19782951149736],[9.49583557661302,51.19710388710219],[9.496827592973691,51.196308001359434],[9.497577577005497,51.195529463346695],[9.498279613623632,51.194561318290326],[9.499311208917694,51.1922573938948],[9.499624024996548,51.19091306410788],[9.49964869405595,51.18783270955645],[9.499827340919209,51.186836653746575],[9.50015067347977,51.18584937974283],[9.50175489063923,51.18263387867909],[9.504315692886866,51.17952719397523],[9.51167698112621,51.172528335867845],[9.513559625,51.171135875],[9.51968844516129,51.167296593548386],[9.5214197,51.16634545000001],[9.523016862571442,51.16571214037604],[9.524867836984896,51.16517241258947],[9.526049567163678,51.164932496129154],[9.529166790615628,51.16458124229814],[9.530969175216784,51.16420945745644],[9.532698473780327,51.16359193435452],[9.53414452969093,51.16288010628838],[9.53528438142071,51.16213929429568],[9.536375146076859,51.161118458145836],[9.538957447247533,51.15738592175907],[9.540277519696836,51.156274466514766],[9.541889504556096,51.15537376299373],[9.543543076828673,51.15477331525712],[9.545204270169142,51.154369958145224],[9.54703195,51.154229650000005],[9.548090914696408,51.154298623922436],[9.549002478430658,51.15447731053379],[9.552146130759299,51.15530048027636],[9.55324637112724,51.155504048175096],[9.554861929435702,51.155589225081215],[9.556124809526604,51.1554858200736],[9.557619938869651,51.15515567219858],[9.55917099012554,51.15453638515319],[9.56067712127528,51.153593793136686],[9.561674565201878,51.15256934677539],[9.562120810776543,51.15176617363956],[9.562386376096121,51.15091031339566],[9.56242573637176,51.150125531140894],[9.562242444718034,51.149171633253154],[9.561485789907707,51.146766892955334],[9.56116049806864,51.14624328432083],[9.55976944949694,51.144677568316645],[9.558636749305062,51.143824276859924],[9.556055040567085,51.142534942111425],[9.554621615028244,51.14206829843959],[9.549791294426482,51.1408146172175],[9.547811657681791,51.14004983719489],[9.546400167837735,51.13907549322223],[9.545534984927016,51.13801356964441],[9.545186125893924,51.13731638663756],[9.545054664119286,51.136354975469104],[9.54517399788792,51.13541456027189],[9.545470641446286,51.13476254768011],[9.545908784472223,51.13415434847499],[9.54683405015863,51.13331601599742],[9.549322819075119,51.13184978852588],[9.549995476451283,51.13107019826346],[9.550188919177664,51.13051971712216],[9.550116332844215,51.129704518706255],[9.549648133131198,51.12897215282255],[9.546275531533588,51.12608293277387],[9.54966932354044,51.128967589959856],[9.550117752410003,51.12970430176416],[9.550193986029843,51.1305172309022],[9.549909301018415,51.13122056703526],[9.549322534010804,51.13184745320953],[9.54704557008369,51.13316452063494],[9.546251886568303,51.133821696698185],[9.545545782613202,51.134673627900945],[9.545176928635556,51.13541371980105],[9.54505501557801,51.136354248492815],[9.545182573835994,51.13722780666816],[9.545537448446801,51.13801344862998],[9.546113977723646,51.138769736233044],[9.546820529278492,51.13941302679816],[9.548171742706566,51.1402086245691],[9.549337321348009,51.14067370644186],[9.554240523776862,51.141947298448756],[9.556069291441139,51.14252227120129],[9.558279848326162,51.143602961799616],[9.559771023081174,51.1446786170679],[9.561392172576493,51.14659171962441],[9.562127783385943,51.148666973030814],[9.562424811511248,51.15061280355536],[9.562223968598284,51.151521593072395],[9.561672805715471,51.15257244138282],[9.560509344596532,51.1537253012738],[9.559077837810362,51.15459876278463],[9.557629064556137,51.15515312550516],[9.556124478921983,51.1554872113489],[9.55450896768405,51.155590899143334],[9.553110165853516,51.15548581632503],[9.551705852265199,51.15520714976101],[9.5490538,51.15448755],[9.547954250317257,51.154281997306974],[9.547109003146497,51.15423116730594],[9.545200364657177,51.15437113554963],[9.543545587293028,51.15477284552817],[9.542341844901973,51.15519650459673],[9.540512652680228,51.15614000815018],[9.539287658340386,51.157088997882795],[9.538376119964342,51.15812884608033],[9.536453904460473,51.161028955851584],[9.535587965883186,51.16187861239545],[9.534273584443076,51.16282285311911],[9.532697312544771,51.16359256842959],[9.530974109749366,51.164207329133085],[9.529424586843028,51.16454152613148],[9.525110279572806,51.1651200315739],[9.523448155067511,51.16556811245795],[9.522021137314166,51.16609902407003],[9.520233855765554,51.16699830575936],[9.516071195414378,51.1695592508476],[9.512783171276242,51.1716421423456],[9.511755332069164,51.172461329799006],[9.503971482714617,51.17989877756189],[9.502421218476822,51.181714190035024],[9.501653278565481,51.1828019517148],[9.500242276936577,51.18570819906666],[9.499822267430293,51.18685953380945],[9.499666747230721,51.18805999974457],[9.499649417806145,51.190911326662345],[9.499339053599305,51.19225873109036],[9.498281428790047,51.19456154534841],[9.496918501860849,51.19622657120085],[9.495759394252413,51.197181267011445],[9.494649445227981,51.19785364009354],[9.483108453408605,51.20374528898418],[9.475757672961585,51.20806495200497],[9.472176366229784,51.210407866424674],[9.470589508840959,51.21168487242615],[9.469535240794086,51.21282533625356],[9.468922486740928,51.21378317493612],[9.468574261199443,51.21463564693924],[9.468375858082679,51.215556881172446],[9.468391305998983,51.216668104747505],[9.468599141856279,51.21755175699951],[9.469036621560583,51.218566046922284],[9.470792210751648,51.22090693368572],[9.471132134208478,51.221553879674296],[9.471346499969197,51.22244729051842],[9.471213612074697,51.22354398049365],[9.470575316471303,51.22473086207729],[9.468029367314315,51.22796107725726],[9.46748940372477,51.22975981371448],[9.466064124369126,51.23190575493248],[9.463829149999999,51.236194899999994],[9.463175766666662,51.237081133333334],[9.461443747082127,51.23885484603454],[9.461003959975574,51.23941895246923],[9.460553299999999,51.24034650000001]],[[9.483704679309158,51.30344790835257],[9.486176234331532,51.30621105539926],[9.486828750000004,51.30676269999999],[9.489283323996396,51.30812440056832],[9.490971549956733,51.30841716966548],[9.49153214261042,51.308606310817034],[9.49200705696943,51.30897698539106],[9.49348546199937,51.31059528684355],[9.493450211935961,51.31073624187325],[9.493077388529597,51.31101798328576],[9.490016793074181,51.3129763138414],[9.489016056265559,51.31390904344913],[9.48931305567433,51.31427752771537],[9.49212606150015,51.31596267209483],[9.492559731875382,51.31633717227436],[9.492504780187843,51.31649955916127],[9.491471404150754,51.31723042422014],[9.4899711275782,51.317997299558854],[9.48287425,51.319285325],[9.481971187398726,51.319624589047216],[9.480836200000002,51.31977355714285],[9.4807302425761,51.319852874647005],[9.476567706433858,51.32034892199558],[9.475284568972004,51.320438804857254],[9.467405026294902,51.32051443525462],[9.465063353451333,51.32072191261308],[9.464927559916083,51.32079354411065],[9.457475505449183,51.3208415202338],[9.455624624018775,51.32063260162127],[9.453345553285796,51.320237084089655],[9.451619124422185,51.31978651704698],[9.45029969634141,51.31929429690946],[9.449402813980562,51.31883465371495],[9.448320370775209,51.31810791547131],[9.447584267945846,51.31746136449617],[9.446822281638168,51.31645323523738],[9.44639591630163,51.315474317794866],[9.446392348313957,51.3144462165211],[9.4466544,51.313653],[9.447088018491899,51.312830236926175],[9.448537074999997,51.310821725],[9.4497694293315,51.30809024621395],[9.459059568033917,51.29596906236312],[9.459559368706161,51.294814111372254],[9.459711033333331,51.294743100000005],[9.459656181345979,51.294540525540135],[9.459896185714285,51.294256114285716],[9.460247114285714,51.29267837142857],[9.460174389378897,51.291350407447666],[9.459997124999996,51.2907049875],[9.459792848194247,51.29053597945225],[9.4599000809844,51.290425751931444],[9.45980393837561,51.29015905732205],[9.453910939320698,51.27601259135027],[9.453530641287877,51.273766293120836],[9.45359587648923,51.27215712592511],[9.453772409482244,51.27127947499718],[9.454269390625734,51.26996326681211],[9.454962127632617,51.26864836703265],[9.455670902540627,51.26763099804212],[9.45671013236339,51.266519691449226],[9.457670887000786,51.26576675473242],[9.458957319726755,51.26500442362091],[9.463775225173276,51.262858511968886],[9.465876389999998,51.261611269999996],[9.467066458064252,51.26062764923591],[9.467977290827863,51.259566146690574],[9.468554664524232,51.258547839732245],[9.4688732278271,51.25749521512993],[9.468873013367014,51.25564637080334],[9.468213672904191,51.25386564621201],[9.46739222595367,51.252764169081594],[9.465456440788245,51.250664038279524],[9.462504065485689,51.24713713012926],[9.460606313683334,51.244558685897786],[9.460242599621436,51.24348299445569],[9.46008468540992,51.242527440354024],[9.460209430680788,51.24135069756938],[9.460526182437475,51.2403332397091],[9.46020800335289,51.241351523992975],[9.46008610328292,51.24252826125056],[9.460192360070907,51.24337589672771],[9.460575100000003,51.2445013],[9.461573990230404,51.24601325210967],[9.468157390428832,51.25378786107145],[9.46863167249599,51.254768910985014],[9.4688471708651,51.25564254038774],[9.468947354507614,51.25642220072339],[9.468851160502881,51.25749651355851],[9.468632360422433,51.25836664527627],[9.467955721167318,51.259556656516274],[9.467063459641393,51.260630268584094],[9.466148360630203,51.26140586968423],[9.463987177925173,51.262751503861445],[9.460439246093506,51.264273871482146],[9.458957967365238,51.265003834579446],[9.457668583421059,51.265766241335164],[9.456644885494644,51.26657939493243],[9.455598697232148,51.26767887182481],[9.45515360735638,51.268340788212],[9.454459296405878,51.26949703433614],[9.453890204262203,51.27086615772606],[9.453591820000002,51.2721575],[9.45348955,51.273578199999996],[9.453615518163277,51.275006956175716],[9.453689283120179,51.27539206154612],[9.453830264838283,51.27549170313056],[9.45394398,51.276430659999995],[9.454878357142857,51.27921951428571],[9.458382957142856,51.287670842857146],[9.459894852513287,51.29063088097446],[9.4599222,51.2909774],[9.460115091833126,51.29115213221017],[9.460003614285716,51.292936028571425],[9.460091242456539,51.29303541837391],[9.459882325,51.293681299999996],[9.460026149610284,51.293796179079735],[9.459227220200571,51.29566167432031],[9.458311895310898,51.29702630987016],[9.449536426411864,51.308417111234505],[9.446772872727275,51.313205363636364],[9.44679536379363,51.313406102831124],[9.446381548898016,51.31429019669802],[9.446343740054855,51.31523268392278],[9.446824610656467,51.31645734369447],[9.447581563948395,51.31746050253258],[9.448568100000006,51.318296374999996],[9.449582691384345,51.31893299135443],[9.450705964789067,51.31947017133494],[9.452022568345015,51.31993114186307],[9.453350889613239,51.32025380436089],[9.457008714285715,51.32083305714285],[9.459811475,51.321134799999996],[9.463494033333333,51.32104626666666],[9.467075602122721,51.32053482324548],[9.475048707079768,51.3204456789129],[9.476581150556019,51.320348436718334],[9.480742407327337,51.31986454052173],[9.481524310589966,51.319649676796836],[9.481702739999998,51.319700659999995],[9.485995136363632,51.318919272727264],[9.489967928830131,51.31799870610715],[9.490758794988,51.317657534434375],[9.491866528571428,51.31696872857143],[9.492506972238163,51.316500072841734],[9.492553517851409,51.31626793447448],[9.48931491622815,51.31427634251384],[9.489014584606323,51.313924255038565],[9.489149800596518,51.31370074427246],[9.490215235158745,51.312834839574364],[9.493363963496586,51.3108129426157],[9.493462942094283,51.31054598494867],[9.491600669005505,51.308640033510386],[9.490925634206368,51.308396860818384],[9.489711619693207,51.30822942426649],[9.489112951989853,51.30805683391396],[9.486730199493781,51.30668321768672],[9.486215135875566,51.30624958483092],[9.483709598482346,51.30342639713821]]]}},{"type":"Feature","properties":{"route_ref":"7","route_color":"#fbba00"},"geometry":{"type":"LineString","coordinates":[[9.541288995698833,51.327807552127894],[9.537173642424158,51.32647445029839],[9.535897122646327,51.32636227937169],[9.534703493662734,51.326519432649754],[9.533596314152794,51.32679105325118],[9.530485878517574,51.32802965420883],[9.527348021868141,51.32883445386979],[9.526291971192272,51.328973314536476],[9.525211967594164,51.32898441995085],[9.524023135763326,51.328843048569496],[9.52338894734032,51.328660764397725],[9.522334604803786,51.32820185696655],[9.51933645,51.326393350000004],[9.515965108763519,51.324918748712676],[9.512983565594947,51.323298494267746],[9.509084866666669,51.31924773333334],[9.505772607142857,51.31617792857143],[9.505442335975626,51.316007937400265],[9.50506446295978,51.316072223250046],[9.502479224293479,51.31736070433536],[9.50063127668235,51.317988051704994],[9.501759424716848,51.317679880723624],[9.499062582157611,51.31837340276843],[9.496205004641304,51.31890670516836],[9.495808445032177,51.31877238539242],[9.495110566666664,51.31797343333333],[9.494033699999997,51.317156399999995],[9.489155080516763,51.314203072248375],[9.488895134664096,51.31413685188863],[9.487203970597832,51.314496033783016],[9.478205879389018,51.315425483381894],[9.477514900000003,51.3153034],[9.475020827981556,51.314510748956046],[9.4704239564932,51.314544616762255],[9.4665489,51.312700899999996],[9.466019686138715,51.312565079090795],[9.448723616512988,51.31339322738848],[9.447837356998956,51.31322519469231],[9.446214377446587,51.31331005642508],[9.445192233333334,51.3135118],[9.444514166666666,51.3133673],[9.441561262500002,51.3116572375],[9.441402011572004,51.3115156583551],[9.44141317084609,51.31124825294858],[9.444487456291675,51.30848624715685],[9.445461899936891,51.306902824348434],[9.44548681374621,51.30481765296484],[9.445701127294894,51.30407138659237],[9.446162242902565,51.30354284056437],[9.447656549999998,51.30243],[9.448707099999996,51.301079300000005],[9.450084700000003,51.29842706666666],[9.452279242514733,51.295902561550065],[9.452877799999996,51.295043650000004],[9.453546105482728,51.293700421156586],[9.453832732215792,51.29249161354591],[9.45367329949924,51.29140220005832],[9.453104749999998,51.2903078],[9.452339166666663,51.28952003333333],[9.450445870652787,51.288189924286435],[9.449907928294438,51.28757838425523],[9.449674570822543,51.28695194069045],[9.449696647595845,51.28607661027234],[9.44933173378321,51.28552530361239],[9.448896814587803,51.28532939923004],[9.446862666666668,51.28518153333333],[9.444670933333335,51.28480603333334],[9.444052134809196,51.28456859680916],[9.443801194170176,51.284233006734496],[9.44382869251171,51.283862831018254],[9.444098779275434,51.283369930181365],[9.446210899999997,51.280663733333334],[9.44742881310618,51.27874085160548],[9.448308397267857,51.27761515607533],[9.448332802642554,51.277327510181244],[9.44771778910541,51.27685818901964]]}},{"type":"Feature","properties":{"route_ref":"4","route_color":"#f08100"},"geometry":{"type":"MultiLineString","coordinates":[[[9.4145751,51.3015376],[9.413242992869614,51.301308728232385],[9.413052685411209,51.30102026100527],[9.413417002788997,51.300827324563414],[9.413850602416154,51.30089002780948],[9.414484252976294,51.30147993592579],[9.415120617459404,51.30174679807977],[9.41528497435502,51.30190940225221],[9.416133966961638,51.30642535824501],[9.416261909081049,51.30683727736513],[9.416515301377215,51.307064158022456],[9.421631755366905,51.309607787224095],[9.421975202522008,51.309630980963554],[9.422866869291738,51.30929040257593],[9.423651398705255,51.30913091415442],[9.424402317002027,51.30913798880678],[9.425494366525395,51.309306211258324],[9.427369993026414,51.309805092403536],[9.429147650966055,51.31065203935541],[9.430779508162107,51.31081459902845],[9.4319852,51.3115446],[9.432434978927374,51.31169876208242],[9.441187670008617,51.31150678372798],[9.442122015096444,51.31194550662078],[9.44442979939078,51.31331035091939],[9.444966717187137,51.31349024572705],[9.445654437169859,51.31345494110251],[9.44621337456405,51.31330319441697],[9.447377195849873,51.31324439896979],[9.447511385892204,51.31307653580736],[9.447665717504856,51.31307808793397],[9.447837160777842,51.313223576554364],[9.448872039479824,51.313383579710774],[9.453065961886008,51.31315837030351],[9.453421826300133,51.313300979943264],[9.45349516799394,51.31342428448044],[9.453519119019973,51.31469182152892],[9.453652432506752,51.315051288839804],[9.455209374023443,51.3159495431552],[9.455899464623197,51.316116697359234],[9.467837038888888,51.31607937777778],[9.46950982639667,51.316219726977494],[9.48077768961823,51.31518304104526],[9.485144500000002,51.3146346],[9.487677574797853,51.31441410292827],[9.48870414767232,51.31407630604524],[9.490308687529048,51.31276835187245],[9.491399711420572,51.31210868430462],[9.491691613632337,51.31207553927365],[9.492747973946654,51.31260491129998],[9.498964719990495,51.316409791064366],[9.499573810744584,51.31701936584084],[9.500162183908904,51.31784634397084],[9.500570608053755,51.317953154113596],[9.50184217619588,51.317605389622884],[9.503208263980481,51.317028255465246],[9.508114156222874,51.31442330254728],[9.50888328168132,51.31385066342286],[9.510412230118279,51.31232806780519],[9.511885023564044,51.31119153935772],[9.516571531852025,51.30963349420446],[9.525483399039103,51.30634920187446],[9.5275942122818,51.305855047733395],[9.529178845019768,51.304722456229825],[9.530893383346893,51.30380064535433],[9.531889140909097,51.30268098636363],[9.534854840183671,51.30056272156253],[9.537163471454011,51.29941223199396],[9.53905438824003,51.297689475922624],[9.539548204820917,51.29737636255332],[9.54204200958908,51.2967514676653],[9.545345857768359,51.29529003862105],[9.546425351672964,51.29505855499122],[9.547750768841325,51.29500868594456],[9.55220952713793,51.29534439855273],[9.553428414407403,51.29527757114078],[9.554720705486464,51.29502354354047],[9.55577046654486,51.29466400001542],[9.557144410803486,51.29403740710645],[9.561195352091563,51.291347974824255],[9.561664944196467,51.2911650529652],[9.564202814179758,51.290638510475716],[9.56174412788727,51.291146832932775],[9.561194454115904,51.291347494597936],[9.557146311866834,51.294037373520695],[9.555771476031373,51.294663788504266],[9.554722280045155,51.295023057749255],[9.553426875868572,51.29527881687235],[9.552209161956812,51.29534426443763],[9.547573069943441,51.294999723866255],[9.546424499057153,51.29505850672381],[9.544844488009106,51.295488656552884],[9.54204544830259,51.29675013588279],[9.539550020112232,51.29737615052409],[9.539051808985503,51.29769192820518],[9.53723752055627,51.2993671377367],[9.534856822331156,51.30056320149076],[9.531581403120967,51.30294550984718],[9.530965944589509,51.30375675943451],[9.529163513920297,51.30473648858145],[9.527590005894387,51.305857282295285],[9.525355141436682,51.30639641301714],[9.5165677875,51.309635449999995],[9.511887261418636,51.31119293539345],[9.51041579557709,51.31232747233763],[9.509005834271047,51.31376154579537],[9.508116819933058,51.314420264455535],[9.50321017007293,51.31702750818299],[9.501739389666765,51.31764168851675],[9.500547338969218,51.31796205545181],[9.500163894557426,51.317846551876876],[9.4995145,51.3169351],[9.498984555073644,51.31642080548295],[9.491717224113044,51.312072894650164],[9.491412484887466,51.31210225642132],[9.490534158082063,51.312594755136004],[9.491318884260854,51.3120812101504],[9.490016793074181,51.3129763138414],[9.488760351234495,51.31404411168088],[9.487808726876825,51.3143911414298],[9.479612771428574,51.315309],[9.469330613198407,51.31623073796364],[9.467929515467516,51.31607973888238],[9.455579325755956,51.31608033408593],[9.454425995145762,51.315543402008295],[9.453639276718157,51.31503606375512],[9.453499329672196,51.31463112676379],[9.453483141908723,51.31340547362185],[9.453109780981723,51.31318272710448],[9.448748617425043,51.313381693572836],[9.448386455186103,51.3133332122355],[9.447817473019589,51.31307634121848],[9.44745632857511,51.31307229511654],[9.447085864466178,51.31317598253818],[9.44694356,51.313102160000014],[9.44683094559635,51.31326924256793],[9.446565858121403,51.3132829079456],[9.446392482361293,51.313196921037],[9.445740266868894,51.31343716221837],[9.444963936802663,51.31348972666424],[9.444394459505041,51.31329304960699],[9.441211475849167,51.31150945610148],[9.432467908678653,51.31171095460355],[9.432091175269095,51.3116090223006],[9.430798108636077,51.31082243999778],[9.429200456044265,51.310667199841845],[9.427379198772936,51.30980424603634],[9.425080698866592,51.30922170199564],[9.423565221119723,51.30913890043381],[9.421990032268797,51.30962972912477],[9.421646311626013,51.30961489626993],[9.4164779,51.3070464],[9.416156372727274,51.306544463636364],[9.415357819780297,51.30215213956873],[9.41513095630067,51.30173607778027]],[[9.5871717,51.2846896],[9.575295324694926,51.28784090758714],[9.571186184178506,51.28924188140852],[9.564260195377763,51.290635912068346],[9.571183977883251,51.289242339914956],[9.575295466314241,51.28784084022286],[9.58837239305162,51.28440465497469],[9.58969386770119,51.28425136876181],[9.59779621204979,51.28385881711487],[9.605331568327816,51.28283568144456],[9.607300009751452,51.282978592543685],[9.612317393153905,51.28432712531678],[9.613924067199,51.28458631595129],[9.615085862236501,51.28449607924875],[9.615704552474526,51.284338046693236],[9.617917339442677,51.28311926581902],[9.619027539440385,51.282694164766006],[9.620226453267234,51.28251541462648],[9.620859768948057,51.2825606509136],[9.621288435447957,51.28272504588146],[9.621581325914924,51.28307736500545],[9.621540860286848,51.28366671899425],[9.621214956843529,51.28469318940984],[9.621296738684379,51.28494678723711],[9.6215948,51.28521190000001],[9.622200944685522,51.28543762963844],[9.622760851021301,51.28553083216084],[9.624598709356937,51.285591293223504],[9.625392980970139,51.28556757114247],[9.628056669688503,51.285219618127094],[9.628935310833873,51.28522275700375],[9.629448569527835,51.2853107729832],[9.629789000640269,51.285490566529226],[9.630036948586305,51.28579465798335],[9.630380751657173,51.28673387410932],[9.630316752076286,51.28708840700592],[9.629733451177977,51.287873886924196],[9.6297428,51.2882207],[9.629922913472138,51.28852312444919],[9.6303516,51.2887956],[9.6308891,51.2889219],[9.632938433699287,51.28883279226657],[9.633860010226975,51.288596543739764],[9.634574821420756,51.28828664266374],[9.636873499999997,51.2868458],[9.637888337286672,51.286343538503836],[9.638549047264137,51.285806484253534],[9.639065776884108,51.284942053295474],[9.639606133909417,51.28108906183747],[9.640138166666668,51.28035463333333],[9.641125293565388,51.27964300075739],[9.641910021387334,51.27934378633097],[9.64276252116178,51.279155271986156],[9.646780767866053,51.2787727557763],[9.653447699999996,51.27712035],[9.654836533333338,51.27663114999999],[9.657877045408307,51.27528866497195],[9.658904333333336,51.2750318],[9.6609198276727,51.27471600069683],[9.661936047839443,51.27444313426975],[9.664731538978351,51.273078010282426],[9.665825820971794,51.27218247603912],[9.666994578921239,51.26992140618029],[9.667931932762897,51.26902354997581],[9.668834499999999,51.26854985000001],[9.672591819522285,51.26706633693064],[9.676825835703466,51.26501207044377],[9.677779085666215,51.2642929402783],[9.678303281380707,51.263619893441586],[9.679209017384213,51.26158522964477],[9.679617874492243,51.26098249826803],[9.681521232824227,51.25904823670107],[9.682559404337857,51.25823721713265],[9.68411705893834,51.25612471838176],[9.685057885344829,51.25436462703087],[9.685520288294526,51.252487178002056],[9.685443950250837,51.25143405308916],[9.683503995853512,51.24630626131151],[9.683469890784629,51.2455180011694],[9.683792454486252,51.24346564638208],[9.683683457791837,51.24284704122367],[9.683398164920607,51.24224674738091],[9.680746366666664,51.23935626666666],[9.67854866670689,51.23740865821616],[9.677580175670457,51.236779289134205],[9.675528432403905,51.235928689188256],[9.674717750000001,51.2354893],[9.673961283453226,51.2348330880714],[9.673578855572895,51.23424410967199],[9.673386392791521,51.23350277076517],[9.6734017,51.23173503333333],[9.6729191,51.22936615],[9.671556454534834,51.22612831944691],[9.671652468861767,51.225093231538274],[9.67209070322249,51.22420541644352],[9.67349887056287,51.222671463789126],[9.674830641281876,51.2208215594834],[9.675476878143584,51.220317776510164],[9.676488875653126,51.219793821510024],[9.67797032877825,51.21936522440199],[9.683922253071048,51.218378526363345],[9.685356511705663,51.217978712623086],[9.686213322277423,51.21757777665262],[9.686821026602491,51.21716848073398],[9.688813909281036,51.215267500044256],[9.689437034384385,51.21480381791522],[9.691462000000003,51.213797066666665],[9.692635825633262,51.213362047039894],[9.698577918942782,51.212168763855196],[9.700085281345917,51.21207837164882],[9.70244543494853,51.21223658477849],[9.703495459946403,51.21222596094573],[9.7046724,51.212063199999996],[9.705586338668805,51.21181030221403],[9.706434127010096,51.211453850456415],[9.70849114917622,51.21026329917737],[9.711085498850183,51.209413011295034],[9.712028167818248,51.208983802328305],[9.712760855176857,51.208480891901075],[9.714252200000004,51.207072374999996],[9.71651893948944,51.20578969913719],[9.71790297101451,51.20474745990538],[9.718613254870455,51.20447914817015],[9.720279175902487,51.20408299151852],[9.720877640334786,51.20381470874729],[9.721279708119052,51.203417442838536],[9.72211510078349,51.20157930953807],[9.722052225,51.20071555],[9.721681957345439,51.199306485953194],[9.721122017374377,51.19877471460253],[9.715940768877243,51.19621392675465],[9.715835495579602,51.19595783084441],[9.715998949896498,51.195823667577926],[9.716442015671925,51.19582779936478],[9.71790986022998,51.196858319730616],[9.718817233159914,51.1976406737816],[9.721188825405275,51.19881151680733],[9.721682094074446,51.19930645825224]]]}},{"type":"Feature","properties":{"route_ref":"8","route_color":"#f08100"},"geometry":{"type":"MultiLineString","coordinates":[[[9.563379185566177,51.29080487804512],[9.56174412788727,51.291146832932775],[9.56109982380632,51.29139246797974],[9.557146311866834,51.294037373520695],[9.555771476031373,51.294663788504266],[9.554722280045155,51.295023057749255],[9.553426875868572,51.29527881687235],[9.552209161956812,51.29534426443763],[9.547573069943441,51.294999723866255],[9.546424499057153,51.29505850672381],[9.544844488009106,51.295488656552884],[9.54204544830259,51.29675013588279],[9.539550020112232,51.29737615052409],[9.539051808985503,51.29769192820518],[9.53723752055627,51.2993671377367],[9.534856822331156,51.30056320149076],[9.531581403120967,51.30294550984718],[9.530965944589509,51.30375675943451],[9.529163513920297,51.30473648858145],[9.527590005894387,51.305857282295285],[9.525355141436682,51.30639641301714],[9.5165677875,51.309635449999995],[9.511887261418636,51.31119293539345],[9.51041579557709,51.31232747233763],[9.509005834271047,51.31376154579537],[9.508116819933058,51.314420264455535],[9.503550465284151,51.316866623637374],[9.502022094379754,51.317538980520055],[9.50075113262094,51.3179304624385],[9.500407259112704,51.31794622798348],[9.500163894557426,51.317846551876876],[9.499176348605829,51.31656020074594],[9.49844864649358,51.316065850035514],[9.492478352660626,51.31245427309894],[9.491675294408056,51.31207020586098],[9.491412484887466,51.31210225642132],[9.490534158082063,51.312594755136004],[9.491377295482307,51.31210738507836],[9.490016793074181,51.3129763138414],[9.488760351234495,51.31404411168088],[9.488151201204214,51.31430509556878],[9.487570500758427,51.31442988471288],[9.485590476634565,51.31458541734834],[9.479612771428574,51.315309],[9.46962568774759,51.31622723810092],[9.467929515467516,51.31607973888238],[9.464514694532209,51.31611252665144],[9.467837038888888,51.31607937777778],[9.469803878148134,51.31620112831592],[9.48077768961823,51.31518304104526],[9.485144500000002,51.3146346],[9.487677574797853,51.31441410292827],[9.48870414767232,51.31407630604524],[9.490308687529048,51.31276835187245],[9.491399711420572,51.31210868430462],[9.491691613632337,51.31207553927365],[9.492747973946654,51.31260491129998],[9.498964719990495,51.316409791064366],[9.50021728025355,51.317886832628595],[9.500655866215972,51.31798499682436],[9.501755308284483,51.31766148657044],[9.500637244248852,51.317950275735654]],[[9.4263645,51.3255722],[9.425407827039121,51.32566251312939],[9.425162638094317,51.32578918498012],[9.425140011237902,51.32592360025267],[9.425287362443926,51.32603087616911],[9.425651059800632,51.32602244965668],[9.425965406020532,51.325732884608364],[9.4263645,51.3255722],[9.434331533333333,51.32482496666667],[9.445283716489078,51.32314614063906],[9.447331200323864,51.32262892418157],[9.448329144468662,51.32257763184557],[9.4491445670187,51.32241922952672],[9.449532938139436,51.32223542427582],[9.449825182851647,51.321694872089964],[9.450539985697931,51.321107352803054],[9.45207060191622,51.320702225760165],[9.452722893724252,51.32043826289738],[9.45533225455913,51.31899091767825],[9.45615262351128,51.31884110429459],[9.460509836980137,51.31856123435331],[9.460725602697035,51.31847507497202],[9.460891799289547,51.31809250236468],[9.461200942857143,51.31785842142857],[9.463666810801236,51.31637298302096],[9.464475005526488,51.31608230232971],[9.463799154004978,51.31631332607176],[9.461520159240939,51.31766778645039],[9.460906834856779,51.318090230990975],[9.46071463905948,51.31849006709041],[9.460492996957424,51.31856873586016],[9.456196872000461,51.3188382139258],[9.45532720429534,51.31899461771362],[9.452524381755918,51.320518695526985],[9.450546769573588,51.321103107943756],[9.44986900999827,51.32164622990927],[9.44943651036354,51.3223304422762],[9.449145297562996,51.32241981375685]]]}},{"type":"Feature","properties":{"route_ref":"3","route_color":"#f08100"},"geometry":{"type":"MultiLineString","coordinates":[[[9.448148794102872,51.277975138748374],[9.448347317702435,51.27768012589972],[9.447402309003634,51.27881990823349],[9.446353553612472,51.28051144070165],[9.444013590638919,51.283510274252286],[9.443823442275534,51.283976794537956],[9.4438693,51.2843175],[9.44413945981599,51.284590682784085],[9.444814934630786,51.284819235999834],[9.446870214542207,51.285165250611136],[9.44892717477715,51.28532757506822],[9.449365882175996,51.285528989459046],[9.449720823985503,51.286077070951244],[9.449721876080387,51.28704603056953],[9.450094444359252,51.28779689732224],[9.450470224031513,51.28818265954825],[9.452714269120733,51.28981167641418],[9.453315117040283,51.29057052416256],[9.453820771934131,51.29180906766774],[9.453809679124664,51.29287009847759],[9.453350437073697,51.2942488120774],[9.452679235291594,51.29543541107372],[9.449948566890154,51.298664610868194],[9.44917541730359,51.30039199801558],[9.448632503782731,51.30122020325248],[9.447590876993576,51.302520627909054],[9.446219193638289,51.303521979798],[9.44575620702519,51.30400215593112],[9.44554943820497,51.30484437174339],[9.445478653416108,51.306901809638674],[9.444618333333333,51.30835676666666],[9.44149580244778,51.311209501091746],[9.44150273836776,51.31157545701944],[9.444394459505041,51.31329304960699],[9.445032124087735,51.31349217689483],[9.445695150795686,51.31344551938371],[9.44628960663152,51.313232337566866],[9.4468927,51.31316605000001],[9.44787560735869,51.31316200423114],[9.448512371336546,51.313361043449376],[9.448894927923185,51.31338360783138],[9.490264910668513,51.311332331462125],[9.490983965841592,51.31157563069134],[9.49844864649358,51.316065850035514],[9.499176348605829,51.31656020074594],[9.500241043547858,51.317893618903284],[9.50074773140176,51.3179315780133],[9.501739389666765,51.31764168851675],[9.504449867541098,51.316416419390734],[9.505027522231684,51.316057746298405],[9.504185435891126,51.31655712206259],[9.502312885125916,51.31742679447497],[9.500808643017985,51.317914589699264],[9.50055398486279,51.317968908892254],[9.500274208768413,51.31791294558883],[9.498964719990495,51.316409791064366],[9.492747973946654,51.31260491129998],[9.490879544236732,51.311533528697225],[9.490276249550945,51.311334042423404],[9.448871945508936,51.31338282924082],[9.448470640637447,51.31335573548223],[9.447829220663936,51.31316197041723],[9.447213519739373,51.31315140191512],[9.44629999871698,51.31323143630421],[9.445733314429454,51.3134403947696],[9.445189812037235,51.313491640294586],[9.444829659160376,51.31347147760948],[9.44442979939078,51.31331035091939],[9.441496313604969,51.31157328214689],[9.441449593427253,51.31126107394642],[9.4417358,51.3109575],[9.44461523271424,51.30836134276228],[9.44546174007234,51.306957899084615],[9.44556254184973,51.3046027063184],[9.445759248627017,51.30400337335061],[9.446027598752428,51.303677978617046],[9.447585589335556,51.30252180715057],[9.44865991127745,51.30118249203049],[9.449190090470571,51.30036237331367],[9.4498857,51.298750250000005],[9.452672284555728,51.29544501194627],[9.453377055878235,51.29419308993738],[9.453809560742206,51.29286997447522],[9.45380222364588,51.29171974719798],[9.453313455817634,51.29056995246026],[9.452715976659883,51.289811121085805],[9.450553963702617,51.28826492304706],[9.450096947371255,51.28780058535042],[9.449721964402233,51.28704920330623],[9.44968692984521,51.28597673737743],[9.449350574615865,51.28551712285002],[9.448899179888201,51.28532341049522],[9.446867752542916,51.285165336489804],[9.444677191594012,51.284794733575346],[9.444135804163254,51.28458819459264],[9.443863917336861,51.284296166276256],[9.443829753087579,51.28393674552265],[9.444019026971807,51.28350636313613],[9.44634787383599,51.28051708386807],[9.447508663303596,51.27866040040927],[9.44831096160084,51.277700067756804],[9.448328635648386,51.27727876843695],[9.447744934454029,51.27684061578827]],[[9.513392765592988,51.3313362648638],[9.513335033716192,51.3307928829702],[9.513095549245065,51.33061292222069],[9.511865868791158,51.330697000122974],[9.511502537767026,51.33052001359513],[9.509865711862192,51.327740353849414],[9.509629708168124,51.32665665850685],[9.509138018679023,51.32558715339256],[9.509180879679615,51.325407870265394],[9.509457607294884,51.325258146662755],[9.512861360070772,51.32456459039339],[9.513040699249503,51.323979510196835],[9.512907471245798,51.3231877080253],[9.509476721303479,51.319602421601076],[9.505949807050266,51.31631510155228],[9.50555464749445,51.31602351923906],[9.505333895485618,51.31598819944971],[9.50498408879787,51.316098554874124],[9.505052288659678,51.31603130462508],[9.505491961599951,51.316001662600016],[9.50594917867155,51.3163138487555],[9.509348637030332,51.31944856662304],[9.512677485878612,51.322871096221725],[9.5129994067936,51.323413824456956],[9.5130412,51.323980399999996],[9.512979786202942,51.32444172428467],[9.51263782635032,51.32465326240889]],[[9.513394898124528,51.331422986517104],[9.51333822586736,51.33083350456683],[9.513529514528082,51.335250655592105],[9.51365629729731,51.335735208172245],[9.516629426348413,51.339120498118234],[9.517064431790775,51.33930913165442],[9.51718999851699,51.33948870011536],[9.517585777652043,51.33954948242073],[9.517797853930315,51.339395641571066],[9.517623097760417,51.33921699463888],[9.516869958584556,51.33920613467086],[9.516631166579158,51.33912146728203],[9.513656302597326,51.335734936430015],[9.513529930483795,51.33525029363109],[9.513349620565291,51.33078134490006],[9.513008415510136,51.33059222835401],[9.5124226,51.3306532]]]}},{"type":"Feature","properties":{"route_ref":"1","route_color":"#f08100"},"geometry":{"type":"MultiLineString","coordinates":[[[9.47230850266257,51.37191940162133],[9.47254078747214,51.37236825973783],[9.472506054002796,51.37259521483459],[9.472225365435067,51.3727731995792],[9.471772333938867,51.37277335407859],[9.471501204752947,51.37260693438656],[9.471466852614686,51.37237561866971],[9.47205265590632,51.371765776924356],[9.472044212374206,51.371479244659724],[9.469689921526388,51.3663262852369],[9.469315034646689,51.36530643817904],[9.468878920589104,51.363271561867826],[9.468853614767404,51.36269960129678],[9.46926955926715,51.361084828419244],[9.469236438181529,51.36031499916547],[9.468953611756746,51.35986601047795],[9.468410025990341,51.35948806643314],[9.468181306116483,51.35917576049113],[9.466819950089258,51.35565773028215],[9.465896127613012,51.35513252281814],[9.465801617867232,51.354792385261725],[9.466926181232587,51.35364432617808],[9.467840695036122,51.35306857021736],[9.46868351521506,51.35235513360424],[9.469326557566069,51.3511403311574],[9.46981890383052,51.350572775303206],[9.475983055134936,51.345178145152666],[9.477132826886551,51.34392265394997],[9.481325575624298,51.34009265731368],[9.481976403895352,51.33978514943181],[9.482883703922871,51.33962453675502],[9.488608189445028,51.33794363900998],[9.491376315390504,51.336340146944174],[9.496110124608416,51.33315773317046],[9.496985447229884,51.332467112872386],[9.498450963280758,51.33062035588109],[9.498974797795027,51.329617530201176],[9.499702685518805,51.32785667654092],[9.500475239858655,51.32522252233579],[9.50216202454516,51.32147768925346],[9.50220090096871,51.32103340370265],[9.501987350482882,51.3205030478202],[9.499166422953714,51.31655906201569],[9.49183593478003,51.31208618575804],[9.499176348605829,51.31656020074594],[9.50206895762666,51.32063824322752],[9.502215195790884,51.32119220910567],[9.502134094640425,51.32156967064832],[9.500544785126015,51.3250869104637],[9.499615615941897,51.3281028736808],[9.49868022150431,51.33023784130038],[9.498036561556344,51.33122722205527],[9.496906963101477,51.33253822967463],[9.491551507651936,51.33622504787807],[9.488660450464337,51.33792230632198],[9.485472571428566,51.33889525714285],[9.48142227737206,51.339979717797476],[9.47721873333334,51.34384063333333],[9.475628565540532,51.34544993364224],[9.469704312641404,51.35068294132576],[9.468537014550394,51.352495146035714],[9.467940520858981,51.35300915810941],[9.467110073535146,51.353489720749785],[9.46580167585744,51.35479203873751],[9.465898270136337,51.35513190924754],[9.46681782889814,51.355658433895364],[9.468245152862162,51.3592373876876],[9.469203771277899,51.36022724720872],[9.469273081195762,51.3610336381946],[9.468851906272533,51.36304050445987],[9.46931559914028,51.36530545651884],[9.47230849686908,51.37191938065018]],[[9.4918023,51.3120886],[9.490609417038588,51.31140441377066],[9.489820459059517,51.3113179591359],[9.448871945508936,51.31338282924082],[9.448470640637447,51.31335573548223],[9.447828783116883,51.31315112331197],[9.447213454594763,51.313150860705186],[9.44629999871698,51.31323143630421],[9.445733314429454,51.3134403947696],[9.44503530499182,51.313519047790514],[9.4468927,51.31316605000001],[9.4477009,51.3131265],[9.448512371336546,51.313361043449376],[9.448894927923185,51.31338360783138],[9.489563742571308,51.31133074016252],[9.490627907987003,51.31140934803204],[9.491781148835413,51.31207623581185]],[[9.445029604106585,51.31349607309391],[9.443497249999998,51.313650169999995],[9.432165321906421,51.314188517133644],[9.430098836615121,51.31458076436684],[9.428681500980868,51.31475302984763],[9.427578016192697,51.315087030824294],[9.427501482029978,51.315506807403374],[9.426888100000001,51.31663534999999],[9.426674298919735,51.3168576158821],[9.426318108503432,51.31698405357266],[9.425673399506119,51.3169402662584],[9.42474416504848,51.316526817072805],[9.42378436645046,51.31632722424036],[9.423515472101514,51.31605198587981],[9.423795771097538,51.315279438679056],[9.424344628510314,51.31505381864859],[9.427227755636489,51.31505605565711],[9.4322518486866,51.31418307888549],[9.443774450825256,51.3136365061664],[9.445032672688999,51.31349728538879]]]}},{"type":"Feature","properties":{"route_ref":"5","route_color":"#f08100"},"geometry":{"type":"MultiLineString","coordinates":[[[9.4813741,51.3401202],[9.481976228593656,51.33978461743215],[9.482883703922871,51.33962453675502],[9.488608189445028,51.33794363900998],[9.491376315390504,51.336340146944174],[9.496819353999319,51.33261669726984],[9.49736789452302,51.332068653273474],[9.498450963280758,51.33062035588109],[9.498974797795027,51.329617530201176],[9.499702685518805,51.32785667654092],[9.500475239858655,51.32522252233579],[9.502094613214144,51.32167616144198],[9.50220090096871,51.32103340370265],[9.501987350482882,51.3205030478202],[9.499166422953714,51.31655906201569],[9.491781348796502,51.312074145919325],[9.491869223860084,51.312077521968526],[9.499176348605829,51.31656020074594],[9.502135448462544,51.32078155260567],[9.502134094640425,51.32156967064832],[9.500517325455593,51.325158204530084],[9.49941961441157,51.32862125035384],[9.498408439956787,51.3306883626964],[9.49698938555707,51.33246232720407],[9.496114853553708,51.33315521637307],[9.490799423057563,51.33671068794765],[9.489309420083083,51.337588280593636],[9.48807267484252,51.33814970842272],[9.482584210980074,51.339696645127496],[9.481148600000001,51.339866600000015]],[[9.44826860237882,51.27721244313863],[9.447322528821879,51.276499119328804],[9.444737641783705,51.274010858769664],[9.442575325273335,51.27322682463432],[9.441862864289499,51.27245152049298],[9.440796150445244,51.271763769554674],[9.439468680741113,51.2702696746135],[9.437803575205397,51.26918400185464],[9.433976995989184,51.26731141919461],[9.431401490048382,51.26580617213857],[9.429669520330501,51.26519647513524],[9.426483142308864,51.26444057697338],[9.425643020637173,51.26410472597744],[9.424517234845604,51.26342797415846],[9.424361406020797,51.263172843062236],[9.424448498456293,51.263027553735725],[9.425888615891022,51.262338063302245],[9.42618207666621,51.26203705801198],[9.42616301410412,51.26173732697261],[9.425429699999999,51.260224650000005],[9.424438572429352,51.259126323628585],[9.4227939,51.2582628],[9.422060833333333,51.25773413333334],[9.421594236363635,51.2571578],[9.420262485506285,51.254778888792934],[9.419458254450731,51.2540544431715],[9.41842818000879,51.253502883898],[9.417674848243642,51.25322433260854],[9.415941133333332,51.25290463333334],[9.405433259590517,51.252591632452],[9.4015268,51.252279324999996],[9.398183733333331,51.25184],[9.39664846415121,51.251721368280336],[9.394854020000002,51.25171448],[9.39302445,51.251817275],[9.390666493679856,51.2522802306643]],[[9.469146,51.285705699999994],[9.469110306423435,51.284519832649366],[9.468965231724077,51.28411365117439],[9.468623343665232,51.283605510336514],[9.467850241085122,51.283025381611125],[9.46604306491832,51.28246379070852],[9.46276392201617,51.28172031470043],[9.457497344399055,51.279438209122716],[9.456210944823106,51.279348689505575],[9.454057558725037,51.27964521513557],[9.453318227579933,51.279510815735485],[9.452063406981571,51.27864556891546],[9.449425900000007,51.27770709999999],[9.44805671010545,51.27707622047657],[9.447095227198538,51.27628993523901],[9.444745958821704,51.27401955501514],[9.442577612849867,51.273228355902226],[9.44194062538135,51.272514878636585],[9.441379845945582,51.27214669794978],[9.442266,51.27286149999999],[9.441970186629467,51.27253417182554],[9.440813525861596,51.27176199203305],[9.439468735463139,51.27026955140983],[9.43760247693205,51.2690694887271],[9.433811959355745,51.26721569053761],[9.431399739199435,51.26580449113259],[9.429669018466013,51.26519644980664],[9.42647971173085,51.2644394614561],[9.4256304424721,51.26409644363076],[9.4245916,51.2634854]],[[9.484195500000007,51.3040241],[9.483101714285718,51.30257695714286],[9.480830018517114,51.2982090720236],[9.480323689029062,51.29744912091135],[9.47810004949599,51.29505195006519],[9.47557609645791,51.29288849422434],[9.470931600000005,51.28827933333334],[9.46932361884139,51.286251307156384],[9.469101939734731,51.285687027080236],[9.469090920863017,51.284439401263775],[9.468810386624718,51.283850219074985],[9.468087869763137,51.28314633874007],[9.466433814194417,51.28256620713933],[9.462751292846992,51.28171625703511],[9.457497869557509,51.27943766771617],[9.456376705542436,51.27933963568617],[9.45414179756263,51.27963782596818],[9.453448675791641,51.27956891635937],[9.452024140490787,51.27863660570237],[9.448659671626093,51.27741656262314],[9.447744934454029,51.27684061578827]],[[9.484226721772163,51.30401172479961],[9.486215135875566,51.30624958483092],[9.487385316288506,51.30710333360366],[9.489112951989853,51.30805683391396],[9.489711619693207,51.30822942426649],[9.491076004975422,51.30843378736761],[9.491600669005505,51.308640033510386],[9.492014311059611,51.30897761484493],[9.493489105003224,51.31062943730115],[9.493363963496586,51.3108129426157],[9.491815249906962,51.311841024561],[9.49307462302869,51.31101999364732],[9.493486548960206,51.31063869804877],[9.49200705696943,51.30897698539106],[9.491269344441445,51.3085023391288],[9.489633189299859,51.30821997368147],[9.489029501502383,51.308015896461335],[9.486828750000004,51.30676269999999],[9.486176234331532,51.30621105539926],[9.483704679309158,51.30344790835257]]]}},{"type":"Feature","properties":{"route_ref":"6","route_color":"#f08100"},"geometry":{"type":"MultiLineString","coordinates":[[[9.513394898124528,51.331422986517104],[9.513364882086803,51.33083698957024],[9.513529514528082,51.335250655592105],[9.51365629729731,51.335735208172245],[9.516629426348413,51.339120498118234],[9.517064431790775,51.33930913165442],[9.51718999851699,51.33948870011536],[9.517585777652043,51.33954948242073],[9.517797853930315,51.339395641571066],[9.517623097760417,51.33921699463888],[9.516869958584556,51.33920613467086],[9.516631166579158,51.33912146728203],[9.514059466666673,51.33627058333333],[9.513590779414523,51.33557135294443],[9.513289106227258,51.32748817950059],[9.513033856587105,51.32358223351795],[9.512907471245798,51.3231877080253],[9.509476721303479,51.319602421601076],[9.505949807050266,51.31631510155228],[9.50555464749445,51.31602351923906],[9.505333895485618,51.31598819944971],[9.50498408879787,51.316098554874124],[9.505052288659678,51.31603130462508],[9.505491961599951,51.316001662600016],[9.50594917867155,51.3163138487555],[9.509348637030332,51.31944856662304],[9.51291570553742,51.3231952642462],[9.513289136998745,51.32748803441411],[9.513380769764254,51.33133798587412]],[[9.483704679309158,51.30344790835257],[9.486176234331532,51.30621105539926],[9.487293086336697,51.307070585752456],[9.489283323996396,51.30812440056832],[9.490971549956733,51.30841716966548],[9.491791899439468,51.30877494815653],[9.493486548960206,51.31063869804877],[9.493077388529597,51.31101798328576],[9.491881350000003,51.31177329999999],[9.491834196420188,51.312063987087754],[9.498984555073644,51.31642080548295],[9.4995145,51.3169351],[9.50018761316624,51.31786442819385],[9.500439218445324,51.31795047832135],[9.50074773140176,51.3179315780133],[9.501893934925878,51.31758743597625],[9.504839329502289,51.316191382060154],[9.505027522231684,51.316057746298405],[9.503616917254512,51.31683482812776],[9.50184217619588,51.317605389622884],[9.50055398486279,51.317968908892254],[9.50021728025355,51.317886832628595],[9.498964719990495,51.316409791064366],[9.491823459704396,51.312058551366746],[9.491812306525837,51.311844035107825],[9.493364560248692,51.31081259163413],[9.493489105003224,51.31062943730115],[9.491877395587375,51.308848841439286],[9.491076004975422,51.30843378736761],[9.489711619693207,51.30822942426649],[9.489112951989853,51.30805683391396],[9.486730199493781,51.30668321768672],[9.486215135875566,51.30624958483092],[9.483709598482346,51.30342639713821]],[[9.484195500000007,51.3040241],[9.483101714285718,51.30257695714286],[9.480830018517114,51.2982090720236],[9.480323689029062,51.29744912091135],[9.47810004949599,51.29505195006519],[9.47557609645791,51.29288849422434],[9.470931600000005,51.28827933333334],[9.46932361884139,51.286251307156384],[9.469101939734731,51.285687027080236],[9.469090920863017,51.284439401263775],[9.468810386624718,51.283850219074985],[9.468087869763137,51.28314633874007],[9.466433814194417,51.28256620713933],[9.462751292846992,51.28171625703511],[9.457497869557509,51.27943766771617],[9.456376705542436,51.27933963568617],[9.454896133333328,51.27955723333332],[9.453706068675517,51.27962908963804],[9.453193329095324,51.27944935458579],[9.452024140490787,51.27863660570237],[9.449088574463948,51.27757096212777],[9.448740103027935,51.27750443540908],[9.448444111546024,51.27757017901986],[9.448142388277011,51.277974652627]]]}},{"type":"Feature","properties":{"route_ref":"2","route_color":"#fbba00"},"geometry":{"type":"LineString","coordinates":[[9.448266,51.277214],[9.447322528821879,51.276499119328804],[9.444737641783705,51.274010858769664],[9.442575325273335,51.27322682463432],[9.441862864289499,51.27245152049298],[9.440796150445244,51.271763769554674],[9.439468680741113,51.2702696746135],[9.437803575205397,51.26918400185464],[9.433976995989184,51.26731141919461],[9.431401490048382,51.26580617213857],[9.429669520330501,51.26519647513524],[9.426483142308864,51.26444057697338],[9.425643020637173,51.26410472597744],[9.424517234845604,51.26342797415846],[9.424361406020797,51.263172843062236],[9.424448498456293,51.263027553735725],[9.425888615891022,51.262338063302245],[9.42618207666621,51.26203705801198],[9.42616301410412,51.26173732697261],[9.425429699999999,51.260224650000005],[9.424438572429352,51.259126323628585],[9.4227939,51.2582628],[9.422060833333333,51.25773413333334],[9.421594236363635,51.2571578],[9.420262485506285,51.254778888792934],[9.419458254450731,51.2540544431715],[9.41842818000879,51.253502883898],[9.417674848243642,51.25322433260854],[9.415941133333332,51.25290463333334],[9.405433259590517,51.252591632452],[9.4015268,51.252279324999996],[9.398183733333331,51.25184],[9.39664846415121,51.251721368280336],[9.394854020000002,51.25171448],[9.39302445,51.251817275],[9.390666493679856,51.2522802306643]]}}]}