{"type":"FeatureCollection","features":[{"type":"Feature","properties":{"way_id":533848336,"route_colors":["#e6194b"],"route_refs":["Red"]},"geometry":{"type":"LineString","coordinates":[[-95.4027826,29.6732639],[-95.4028074,29.6732618],[-95.4028328,29.6732597],[-95.4029039,29.6739015],[-95.4028784,29.6739037],[-95.4028537,29.6739057],[-95.4027826,29.6732639]]}},{"type":"Feature","properties":{"way_id":533848334,"route_colors":["#e6194b"],"route_refs":["Red"]},"geometry":{"type":"LineString","coordinates":[[-95.4033407,29.6853771],[-95.4033715,29.6853767],[-95.4034068,29.6853764],[-95.4034196,29.6862614],[-95.403389,29.6862617],[-95.4033535,29.6862621],[-95.4033407,29.6853771]]}},{"type":"Feature","properties":{"way_id":533848339,"route_colors":["#e6194b"],"route_refs":["Red"]},"geometry":{"type":"LineString","coordinates":[[-95.4047703,29.6961541],[-95.4048568,29.696797],[-95.4048856,29.6967941],[-95.4049069,29.6967919],[-95.4048204,29.696149],[-95.4047703,29.6961541]]}},{"type":"Feature","properties":{"way_id":105825065,"route_colors":["#e6194b"],"route_refs":["Red"]},"geometry":{"type":"LineString","coordinates":[[-95.4028783,29.7037954],[-95.4028434,29.7038004],[-95.4028099,29.7038052],[-95.4029671,29.7046303],[-95.4029838,29.7046279],[-95.403007,29.7046246],[-95.4030355,29.7046205],[-95.4028783,29.7037954]]}},{"type":"Feature","properties":{"way_id":533848342,"route_colors":["#e6194b"],"route_refs":["Red"]},"geometry":{"type":"LineString","coordinates":[[-95.4007891,29.7098182],[-95.4008202,29.7098369],[-95.4003562,29.710422],[-95.400325,29.7104033],[-95.4007891,29.7098182]]}},{"type":"Feature","properties":{"way_id":106963890,"route_colors":["#e6194b"],"route_refs":["Red"]},"geometry":{"type":"LineString","coordinates":[[-95.3977394,29.7137291],[-95.3977074,29.7137101],[-95.396544,29.7151856],[-95.3965759,29.7152046],[-95.3977394,29.7137291]]}},{"type":"Feature","properties":{"way_id":106963879,"route_colors":["#e6194b"],"route_refs":["Red"]},"geometry":{"type":"LineString","coordinates":[[-95.3938339,29.719762],[-95.3937916,29.7197367],[-95.3933607,29.7202813],[-95.393403,29.7203065],[-95.3938339,29.719762]]}},{"type":"Feature","properties":{"way_id":910152487,"route_colors":["#e6194b"],"route_refs":["Red"]},"geometry":{"type":"LineString","coordinates":[[-95.3884376,29.7239964],[-95.3884101,29.7239798],[-95.3879023,29.7246172],[-95.3879299,29.7246337],[-95.3884376,29.7239964]]}},{"type":"Feature","properties":{"way_id":485601279,"route_colors":["#e6194b"],"route_refs":["Red"]},"geometry":{"type":"LineString","coordinates":[[-95.3832765,29.7330551],[-95.3832629,29.7330523],[-95.3832474,29.7330492],[-95.3833675,29.7326059],[-95.3834198,29.7324131],[-95.3834353,29.7324163],[-95.3834489,29.7324191],[-95.3832765,29.7330551]]}},{"type":"Feature","properties":{"way_id":535044372,"route_colors":["#e6194b"],"route_refs":["Red"]},"geometry":{"type":"LineString","coordinates":[[-95.3795161,29.7385671],[-95.3794866,29.7385494],[-95.3793462,29.7387265],[-95.3791695,29.7389491],[-95.3788979,29.7392915],[-95.3787214,29.739514],[-95.3785879,29.7396822],[-95.3786174,29.7396998],[-95.3787508,29.7395316],[-95.3789274,29.7393091],[-95.379199,29.7389667],[-95.3793756,29.7387441],[-95.3795161,29.7385671]]}},{"type":"Feature","properties":{"way_id":534329151,"route_colors":["#e6194b"],"route_refs":["Red"]},"geometry":{"type":"LineString","coordinates":[[-95.3740333,29.7454878],[-95.3740109,29.7454745],[-95.3735558,29.7460526],[-95.3735781,29.7460658],[-95.3740333,29.7454878]]}},{"type":"Feature","properties":{"way_id":866778102,"route_colors":["#e6194b"],"route_refs":["Red"]},"geometry":{"type":"LineString","coordinates":[[-95.370169,29.7503259],[-95.3697466,29.7508616],[-95.3697769,29.7508796],[-95.3701993,29.7503439],[-95.370169,29.7503259]]}},{"type":"Feature","properties":{"way_id":677898497,"route_colors":["#e6194b"],"route_refs":["Red"]},"geometry":{"type":"LineString","coordinates":[[-95.3678245,29.7533401],[-95.3677988,29.7533248],[-95.3673776,29.7538566],[-95.3674032,29.753872],[-95.3678245,29.7533401]]}},{"type":"Feature","properties":{"way_id":910152493,"route_colors":["#e6194b"],"route_refs":["Red"]},"geometry":{"type":"LineString","coordinates":[[-95.3648461,29.7570472],[-95.3648774,29.7570658],[-95.3644513,29.7576054],[-95.36442,29.7575867],[-95.3648461,29.7570472]]}},{"type":"Feature","properties":{"way_id":910152494,"route_colors":["#e6194b"],"route_refs":["Red"]},"geometry":{"type":"LineString","coordinates":[[-95.3635509,29.7586831],[-95.3635822,29.7587019],[-95.3633091,29.7590448],[-95.3632778,29.759026],[-95.3635509,29.7586831]]}},{"type":"Feature","properties":{"way_id":540285022,"route_colors":["#e6194b"],"route_refs":["Red"]},"geometry":{"type":"LineString","coordinates":[[-95.3613022,29.7615757],[-95.3612714,29.7615574],[-95.3607978,29.7621605],[-95.3608287,29.7621788],[-95.3613022,29.7615757]]}},{"type":"Feature","properties":{"way_id":539588570,"route_colors":["#e6194b"],"route_refs":["Red"]},"geometry":{"type":"LineString","coordinates":[[-95.3586436,29.7662017],[-95.3586757,29.7662088],[-95.3588755,29.765532],[-95.3588434,29.7655249],[-95.3586436,29.7662017]]}},{"type":"Feature","properties":{"way_id":563530580,"route_colors":["#e6194b"],"route_refs":["Red"]},"geometry":{"type":"LineString","coordinates":[[-95.3591013,29.7715302],[-95.3590736,29.7715409],[-95.3591664,29.7717224],[-95.3593005,29.7719844],[-95.3593941,29.7721673],[-95.3594259,29.7721551],[-95.3594413,29.7721491],[-95.3593477,29.7719662],[-95.3592136,29.7717042],[-95.3591208,29.7715227],[-95.3591013,29.7715302]]}},{"type":"Feature","properties":{"way_id":533388105,"route_colors":["#e6194b"],"route_refs":["Red"]},"geometry":{"type":"LineString","coordinates":[[-95.3641888,29.7815837],[-95.3638845,29.7809494],[-95.3639078,29.780941],[-95.3642121,29.7815753],[-95.3641888,29.7815837]]}},{"type":"Feature","properties":{"way_id":535085016,"route_colors":["#e6194b"],"route_refs":["Red"]},"geometry":{"type":"LineString","coordinates":[[-95.3606217,29.7864501],[-95.3605901,29.7864462],[-95.3606225,29.7862512],[-95.3606698,29.7859661],[-95.3607002,29.785783],[-95.3607289,29.7856101],[-95.3607774,29.7853179],[-95.3608103,29.7851194],[-95.3608268,29.7851215],[-95.3608419,29.7851234],[-95.360809,29.7853218],[-95.3607604,29.785614],[-95.3607317,29.7857871],[-95.3607014,29.7859701],[-95.360654,29.7862552],[-95.3606217,29.7864501]]}},{"type":"Feature","properties":{"way_id":540548328,"route_colors":["#e6194b"],"route_refs":["Red"]},"geometry":{"type":"LineString","coordinates":[[-95.3660956,29.7956317],[-95.36613,29.7955985],[-95.3659477,29.7954564],[-95.3656979,29.7952616],[-95.3655336,29.7951335],[-95.3654992,29.7951667],[-95.3656635,29.7952948],[-95.3659133,29.7954896],[-95.3660956,29.7956317]]}},{"type":"Feature","properties":{"way_id":534910573,"route_colors":["#e6194b"],"route_refs":["Red"]},"geometry":{"type":"LineString","coordinates":[[-95.3682514,29.803],[-95.368205,29.8030134],[-95.3681541,29.802881],[-95.36805,29.8026101],[-95.3679882,29.8024494],[-95.3680346,29.802436],[-95.3680964,29.8025967],[-95.3682005,29.8028675],[-95.3682514,29.803]]}},{"type":"Feature","properties":{"way_id":535044189,"route_colors":["#e6194b"],"route_refs":["Red"]},"geometry":{"type":"LineString","coordinates":[[-95.3694094,29.8078821],[-95.3693738,29.8078873],[-95.3694056,29.8080519],[-95.3694604,29.8083359],[-95.3695304,29.8086984],[-95.3695857,29.8089845],[-95.3696258,29.8091922],[-95.3696613,29.809187],[-95.3696212,29.8089793],[-95.369566,29.8086932],[-95.369496,29.8083308],[-95.3694412,29.8080468],[-95.3694094,29.8078821]]}},{"type":"Feature","properties":{"way_id":535105780,"route_colors":["#e6194b"],"route_refs":["Red"]},"geometry":{"type":"LineString","coordinates":[[-95.3706822,29.8161031],[-95.3706317,29.8161186],[-95.3705554,29.8159323],[-95.370445,29.8156625],[-95.3703678,29.8154741],[-95.3704183,29.8154586],[-95.3704954,29.815647],[-95.3706059,29.8159168],[-95.3706822,29.8161031]]}},{"type":"Feature","properties":{"way_id":534904560,"route_colors":["#e6194b"],"route_refs":["Red"]},"geometry":{"type":"LineString","coordinates":[[-95.3760643,29.8321235],[-95.376036,29.8321222],[-95.3760062,29.8321209],[-95.3759674,29.8327793],[-95.3760255,29.8327818],[-95.3760643,29.8321235]]}},{"type":"Feature","properties":{"way_id":103242590,"route_colors":["#e6194b"],"route_refs":["Red"]},"geometry":{"type":"LineString","coordinates":[[-95.4027687,29.6732934],[-95.4028415,29.6739383],[-95.4028523,29.6740166],[-95.4028586,29.6740606],[-95.4028664,29.6741005],[-95.4028751,29.6741415],[-95.4028856,29.6741827],[-95.4028965,29.674218],[-95.4029087,29.6742554],[-95.4029655,29.6744165]]}},{"type":"Feature","properties":{"way_id":105825072,"route_colors":["#e6194b"],"route_refs":["Red"]},"geometry":{"type":"LineString","coordinates":[[-95.4029655,29.6744165],[-95.4031277,29.6748598],[-95.403224,29.6751308],[-95.4032287,29.6751497],[-95.4032491,29.6752195],[-95.4032632,29.6752712],[-95.4032754,29.6753307],[-95.4032868,29.6753832],[-95.4032975,29.6754597],[-95.4033037,29.6755113],[-95.4033104,29.6755683],[-95.4033143,29.6756291],[-95.4033171,29.6756927],[-95.4033172,29.6757724],[-95.4032817,29.6773418],[-95.4033268,29.6782934],[-95.4033266,29.678399],[-95.4033251,29.6784648],[-95.4033439,29.679279],[-95.4033449,29.6793665],[-95.403347,29.6795492],[-95.403347,29.6797334],[-95.4033181,29.6802441],[-95.4032963,29.6805371],[-95.4032796,29.6808479],[-95.4032967,29.6822246],[-95.4033206,29.6849208],[-95.4033215,29.6852319],[-95.4033232,29.6853232],[-95.4033234,29.6853489],[-95.4033392,29.6861991],[-95.4033411,29.6863043],[-95.4033424,29.686375],[-95.4033594,29.6875741],[-95.4034264,29.6892277],[-95.403438,29.6898556],[-95.4034535,29.6901427],[-95.4034694,29.6902839],[-95.4034968,29.6904018],[-95.4035205,29.6904837],[-95.4035536,29.6905822],[-95.4036164,29.6907162],[-95.4036802,29.690831],[-95.4037507,29.6909401],[-95.4038377,29.6910491],[-95.4042221,29.6914711],[-95.4043201,29.6915849],[-95.4044082,29.6917112],[-95.4044886,29.6918375],[-95.4045712,29.6919887],[-95.4046406,29.6921322],[-95.4046913,29.6922824],[-95.4047397,29.6924374],[-95.4047717,29.6925866],[-95.4047926,29.6927407],[-95.4048025,29.6928985],[-95.404806,29.6930706],[-95.4047663,29.694714],[-95.404772,29.6948407],[-95.4047337,29.6955135],[-95.4047232,29.6957416],[-95.4047241,29.6958733],[-95.4047384,29.6960254],[-95.4047553,29.6961605],[-95.4048388,29.69679],[-95.4048428,29.6968234],[-95.4048526,29.6969067],[-95.4048763,29.6970452],[-95.4049045,29.6971722],[-95.4049433,29.6972862],[-95.4049952,29.6974072],[-95.4050527,29.6975197],[-95.4050962,29.6975989],[-95.4054343,29.6982152],[-95.4055065,29.6983878],[-95.4055454,29.6985212],[-95.4055575,29.6985763],[-95.4055709,29.6986468],[-95.4055867,29.698772],[-95.4055873,29.698861],[-95.4055876,29.698899],[-95.4055815,29.6990071],[-95.4055472,29.6991524],[-95.4055168,29.6992702],[-95.4054801,29.6993557],[-95.4054173,29.6994823],[-95.4052418,29.6997693],[-95.4051058,29.6999607],[-95.4049716,29.7001206],[-95.4048391,29.7002656],[-95.4046825,29.7004136],[-95.4045087,29.7005556],[-95.4043125,29.7006976],[-95.4041645,29.7007858],[-95.4040097,29.700871],[-95.4038215,29.7009618],[-95.4036854,29.7010199],[-95.4032416,29.7011798],[-95.4030221,29.7012588],[-95.4029191,29.7013122],[-95.4028193,29.7013799],[-95.4027997,29.7013932],[-95.4026983,29.70148],[-95.4026201,29.7015606],[-95.4025808,29.7016153],[-95.4025541,29.7016525],[-95.4024914,29.7017615],[-95.4024497,29.7018548],[-95.4024285,29.70192]]}},{"type":"Feature","properties":{"way_id":104947550,"route_colors":["#e6194b"],"route_refs":["Red"]},"geometry":{"type":"LineString","coordinates":[[-95.4024285,29.70192],[-95.4024082,29.7019917],[-95.4023978,29.7020808],[-95.4023967,29.7022133],[-95.4024064,29.7022914],[-95.4024258,29.7023825],[-95.4024632,29.7024947],[-95.4025338,29.7026903]]}},{"type":"Feature","properties":{"way_id":104947558,"route_colors":["#e6194b"],"route_refs":["Red"]},"geometry":{"type":"LineString","coordinates":[[-95.4025338,29.7026903],[-95.4026023,29.7028859],[-95.4026442,29.7030371],[-95.4026904,29.7032236],[-95.4027565,29.7036158],[-95.4027708,29.7037006],[-95.4027867,29.7037857],[-95.4029478,29.7046196],[-95.4029704,29.7047542],[-95.4029891,29.7049029],[-95.4029987,29.7050189],[-95.4029907,29.7065601],[-95.4029844,29.7067235],[-95.4029651,29.7068383],[-95.4029265,29.706971],[-95.4028756,29.7070977],[-95.4027958,29.7072412],[-95.402698,29.7073823],[-95.402,29.7082632],[-95.4015448,29.7088383],[-95.4009311,29.7096135],[-95.4008608,29.7097025],[-95.4007933,29.7097876],[-95.4003308,29.7103744],[-95.3999386,29.710872],[-95.3990197,29.7120267],[-95.3989633,29.7120975],[-95.3988917,29.7121878],[-95.3988463,29.7122454],[-95.398008,29.7133084],[-95.3977882,29.7135871],[-95.3977763,29.7136023],[-95.3977205,29.7136734],[-95.3971331,29.7144167],[-95.3964952,29.7152239],[-95.3964308,29.7153069],[-95.396365,29.7153919],[-95.3958027,29.7161023],[-95.3956165,29.7163529],[-95.3954252,29.7166426],[-95.3952853,29.7168779],[-95.3951365,29.7171669],[-95.3950097,29.7174282],[-95.3949071,29.7176722],[-95.3946753,29.7182685],[-95.394573,29.71851],[-95.3944895,29.7186733],[-95.3943286,29.7189437],[-95.3941616,29.7192244],[-95.3940492,29.7193876],[-95.3933628,29.7202568],[-95.3933323,29.7202955],[-95.3928127,29.7209503],[-95.3920195,29.7219498],[-95.3919072,29.7220787],[-95.3918121,29.7221717],[-95.3916993,29.7222616],[-95.3915754,29.722345],[-95.3914721,29.722405],[-95.3913689,29.7224528],[-95.3912346,29.7225055],[-95.3911055,29.7225433],[-95.3910358,29.7225648],[-95.3908456,29.7226113],[-95.3907943,29.7226243],[-95.3899157,29.7228479],[-95.3897668,29.7228905],[-95.3896021,29.7229577],[-95.3894801,29.7230201],[-95.3893951,29.7230725],[-95.389311,29.7231268],[-95.3892164,29.7231903],[-95.3890842,29.7232873],[-95.3889582,29.7233888],[-95.3888847,29.7234621],[-95.388812,29.7235435],[-95.3885706,29.7238509],[-95.3885209,29.7239141],[-95.3884853,29.723959],[-95.3879756,29.7245984],[-95.3879208,29.7246672],[-95.3878572,29.7247477],[-95.3878032,29.7248152],[-95.3876483,29.7250039],[-95.3874126,29.7252801],[-95.3872257,29.7255106],[-95.3862911,29.7266893],[-95.3862295,29.726767],[-95.3857365,29.7273888],[-95.3856888,29.7274491],[-95.3856351,29.7275169],[-95.3848019,29.7285678],[-95.3847646,29.7286148],[-95.3847189,29.7286727],[-95.3842448,29.7292731],[-95.3841949,29.7293362],[-95.3841502,29.7293929],[-95.3837534,29.7298966],[-95.3836936,29.7299824],[-95.3836393,29.7300705],[-95.3835748,29.7302149],[-95.3835618,29.7302433],[-95.3835397,29.7303139],[-95.3835205,29.7303889],[-95.3834994,29.7304753],[-95.3834876,29.7305552],[-95.3834836,29.7306254],[-95.3834786,29.7307034],[-95.3834829,29.7307892],[-95.3834874,29.730853],[-95.3834979,29.7309272],[-95.3835207,29.7310642],[-95.3835838,29.7314088],[-95.3836043,29.7315517],[-95.3836059,29.7315817],[-95.3836103,29.7316635],[-95.3836134,29.7317222],[-95.3836116,29.7317579],[-95.3836063,29.7318437],[-95.3835975,29.7319098],[-95.3835829,29.7319777],[-95.3835682,29.7320377],[-95.3832951,29.7330403],[-95.3832856,29.7330752],[-95.3832531,29.7331967],[-95.3831397,29.733608],[-95.3831247,29.7336585],[-95.3830797,29.7338139],[-95.3830472,29.7339104],[-95.383007,29.7340115],[-95.3829911,29.7340447],[-95.3829654,29.7340987],[-95.382952,29.7341232],[-95.3829233,29.7341698],[-95.3829024,29.7342013],[-95.3828485,29.7342786],[-95.3827915,29.734352],[-95.3814129,29.7360944],[-95.3805171,29.7372264],[-95.3800297,29.7378424],[-95.3799872,29.7378962],[-95.3799206,29.7379795],[-95.3798822,29.738028],[-95.3786187,29.7396216],[-95.378566,29.7396879],[-95.3785143,29.7397532],[-95.3784534,29.7398302],[-95.3771036,29.7415381],[-95.3770228,29.7416403],[-95.3769644,29.7417143],[-95.3746025,29.744703],[-95.3741222,29.7453088],[-95.3740624,29.7453842],[-95.373998,29.7454656],[-95.373557,29.7460228],[-95.37353,29.7460569],[-95.3720617,29.747912],[-95.3719955,29.7479957],[-95.3719488,29.7480549],[-95.3715328,29.7485815],[-95.3714814,29.7486466],[-95.3714581,29.7486762],[-95.3714177,29.7487273],[-95.3713591,29.7488011],[-95.3712864,29.7488927],[-95.3708845,29.749399],[-95.3708158,29.7494856],[-95.3707621,29.7495537],[-95.3703003,29.7501372],[-95.3702329,29.7502227],[-95.3701785,29.7502918],[-95.3697568,29.7508248],[-95.3697197,29.7508717],[-95.3696393,29.750975],[-95.3695813,29.7510493],[-95.3691152,29.7516383],[-95.3690463,29.7517253],[-95.3689869,29.7518002],[-95.3685208,29.7523889],[-95.368452,29.7524756],[-95.3683883,29.7525558],[-95.3679336,29.7531272],[-95.3678597,29.7532216],[-95.367802,29.7532926],[-95.3676846,29.7534414],[-95.3673883,29.7538165],[-95.3673371,29.7538823],[-95.3672776,29.7539562],[-95.3672167,29.7540295],[-95.3667423,29.7546306],[-95.3666888,29.7546978],[-95.366631,29.7547708],[-95.3660922,29.7554532],[-95.3655587,29.7561262],[-95.365534,29.7561573],[-95.3655022,29.7561975],[-95.3654571,29.7562542],[-95.3654284,29.7562903],[-95.3649924,29.7568383],[-95.3649655,29.7568721],[-95.3649069,29.7569458],[-95.3648571,29.757009],[-95.3644195,29.7575648],[-95.3643716,29.7576256],[-95.3643229,29.7576875],[-95.3642731,29.7577504],[-95.3637793,29.7583747],[-95.3637577,29.758402],[-95.3637234,29.7584446],[-95.3636935,29.758482],[-95.3636585,29.7585257],[-95.3632773,29.759002],[-95.363193,29.7591074],[-95.3631687,29.7591377],[-95.3631289,29.7591877],[-95.3630838,29.7592462],[-95.3629186,29.7594601],[-95.362598,29.7598649],[-95.3625302,29.7599505],[-95.3624788,29.7600151],[-95.3619492,29.7606813],[-95.3618972,29.7607463],[-95.3618406,29.7608153],[-95.3613796,29.7614015],[-95.3613309,29.7614628],[-95.3612755,29.7615331],[-95.3608061,29.7621264],[-95.3607627,29.7621805],[-95.3607258,29.7622275],[-95.3606661,29.7623027],[-95.3602165,29.7628704],[-95.3601855,29.7629102],[-95.3601268,29.7629864],[-95.3600782,29.7630494],[-95.3595824,29.7636779],[-95.3595394,29.7637338],[-95.3594933,29.763801],[-95.3594846,29.7638135],[-95.3594202,29.7639105]]}},{"type":"Feature","properties":{"way_id":103902888,"route_colors":["#e6194b"],"route_refs":["Red"]},"geometry":{"type":"LineString","coordinates":[[-95.3594202,29.7639105],[-95.359306,29.7641109],[-95.3592537,29.7642111],[-95.3592159,29.7642949],[-95.3591737,29.7643935],[-95.3591387,29.7644859],[-95.3591096,29.7645642],[-95.3590789,29.7646561],[-95.3590485,29.7647668],[-95.3589342,29.7651558]]}},{"type":"Feature","properties":{"way_id":103902880,"route_colors":["#e6194b"],"route_refs":["Red"]},"geometry":{"type":"LineString","coordinates":[[-95.3589342,29.7651558],[-95.3586365,29.7661691],[-95.3585618,29.7664143],[-95.3584375,29.7668442],[-95.3583648,29.7671216]]}},{"type":"Feature","properties":{"way_id":258703032,"route_colors":["#e6194b"],"route_refs":["Red"]},"geometry":{"type":"LineString","coordinates":[[-95.3583648,29.7671216],[-95.3582648,29.7676271],[-95.3582388,29.7677197],[-95.3582057,29.7678405],[-95.3581618,29.7679997],[-95.35814,29.7681196],[-95.3581212,29.7683022],[-95.3581302,29.7685017],[-95.3581856,29.7687673]]}},{"type":"Feature","properties":{"way_id":258703037,"route_colors":["#e6194b"],"route_refs":["Red"]},"geometry":{"type":"LineString","coordinates":[[-95.3581856,29.7687673],[-95.3583315,29.769199],[-95.3584925,29.7696444],[-95.358575,29.7699853],[-95.358658,29.7703637],[-95.3587876,29.7709036],[-95.3588865,29.7711946],[-95.3589701,29.7713753],[-95.3590439,29.7715182],[-95.3593555,29.7721209]]}},{"type":"Feature","properties":{"way_id":103902909,"route_colors":["#e6194b"],"route_refs":["Red"]},"geometry":{"type":"LineString","coordinates":[[-95.3593555,29.7721209],[-95.3593869,29.7721803],[-95.3594783,29.7723584],[-95.3596061,29.7725831],[-95.359695,29.7727223],[-95.3597838,29.7728428],[-95.3600489,29.7731603],[-95.3602561,29.7734126],[-95.3603778,29.7735895],[-95.3604873,29.7737639],[-95.3606095,29.7740111],[-95.3611107,29.7750636]]}},{"type":"Feature","properties":{"way_id":258700975,"route_colors":["#e6194b"],"route_refs":["Red"]},"geometry":{"type":"LineString","coordinates":[[-95.3611107,29.7750636],[-95.361579,29.7760373],[-95.3616146,29.7761114],[-95.3616527,29.7761912],[-95.362289,29.7775276],[-95.3624353,29.7778244],[-95.3628565,29.7787055],[-95.3638057,29.7806947],[-95.3638429,29.7807729],[-95.3638808,29.780852],[-95.3642166,29.781554],[-95.3648617,29.7828961],[-95.3648847,29.7829665],[-95.3648991,29.783025],[-95.3649018,29.7830835],[-95.364883,29.7831902],[-95.364848,29.7832722],[-95.3648464,29.7832746],[-95.364806,29.7833342],[-95.3647538,29.7833894],[-95.3646812,29.7834468],[-95.3645944,29.7834913],[-95.3644752,29.7835368],[-95.3635829,29.783863],[-95.3634963,29.7838945],[-95.3634281,29.7839193],[-95.3618266,29.7845027],[-95.361745,29.784524],[-95.3616651,29.7845362],[-95.3615824,29.7845391],[-95.3614067,29.7845426],[-95.3612986,29.7845494],[-95.3611853,29.7845733],[-95.361101,29.7846073],[-95.3610154,29.7846657],[-95.360961,29.7847154],[-95.3609524,29.7847235],[-95.3609201,29.7847529],[-95.3608978,29.7847835],[-95.3608695,29.7848258],[-95.3608292,29.7849261],[-95.3607585,29.7853264],[-95.3606948,29.7857079],[-95.3606827,29.7857807],[-95.3606334,29.7860919],[-95.3606146,29.7862025],[-95.3605398,29.7866487],[-95.3604907,29.7870288],[-95.3604556,29.7873468],[-95.360443,29.7874549],[-95.3604195,29.7877144],[-95.3603994,29.7880805],[-95.360394,29.7883144],[-95.3603893,29.7888928],[-95.360388,29.7891326],[-95.3603862,29.7893056],[-95.3603857,29.7896672],[-95.3603856,29.7897499],[-95.360384,29.7898214],[-95.3603833,29.7898496],[-95.360382,29.7900448],[-95.3604265,29.7901926],[-95.3604873,29.7903084],[-95.3606978,29.7906527],[-95.3609015,29.7909904],[-95.3610561,29.7912473],[-95.3610922,29.7913096],[-95.3611129,29.7913435],[-95.3612634,29.7915962],[-95.3614662,29.791935],[-95.3615596,29.7920958],[-95.3616758,29.7922626],[-95.3617698,29.7923611],[-95.3618941,29.7924625],[-95.3620496,29.7925666],[-95.3623801,29.7927763],[-95.3627673,29.7930409],[-95.3628661,29.7931053],[-95.3630233,29.7932209],[-95.3635514,29.7936095],[-95.3642101,29.7941414],[-95.3647183,29.794532],[-95.3649027,29.7946784],[-95.3651389,29.7948924],[-95.3652291,29.7949712],[-95.365501,29.7951867],[-95.3660662,29.7956237],[-95.3661254,29.7956669],[-95.3671136,29.7963883],[-95.3675502,29.7967329],[-95.3676269,29.7968151],[-95.3677225,29.7969377],[-95.3677816,29.7970324],[-95.3678301,29.7971495],[-95.3678802,29.7973477],[-95.3678881,29.7974754],[-95.3678774,29.7980972],[-95.3678758,29.7981934],[-95.3678752,29.7982824],[-95.3678732,29.7985541],[-95.3678698,29.7987415],[-95.3678819,29.798887],[-95.3679194,29.7993269],[-95.3679328,29.7996004],[-95.3679252,29.7998957],[-95.3679242,29.8000487],[-95.3679217,29.800628],[-95.3679203,29.8008078],[-95.3679071,29.8015181],[-95.3679063,29.8015467],[-95.3678993,29.8021789],[-95.3679022,29.8022347],[-95.367914,29.802289],[-95.3679505,29.8024066],[-95.368015,29.8025754],[-95.3681792,29.8029973],[-95.3682162,29.8030914],[-95.3682402,29.8031523],[-95.3682973,29.8032872],[-95.3683123,29.8033225],[-95.3683393,29.8034029],[-95.3683468,29.8034251],[-95.3683897,29.8035286],[-95.368499,29.8037974],[-95.3685674,29.8039737],[-95.3686239,29.8041411],[-95.368668,29.8042885],[-95.3687257,29.8045638],[-95.3689016,29.8055188],[-95.3691425,29.8066886],[-95.36925,29.8073156],[-95.3692878,29.8075278],[-95.3692989,29.8075898],[-95.3693452,29.8078071],[-95.3693566,29.8078679],[-95.3694661,29.8084541],[-95.3696503,29.8094221],[-95.3696933,29.8097072],[-95.3697151,29.809989],[-95.3697281,29.8104512],[-95.3697212,29.8110311],[-95.3697235,29.811567],[-95.3697226,29.8116821],[-95.3697221,29.8123353],[-95.3697225,29.8126333],[-95.3697226,29.812654],[-95.3697238,29.8128877],[-95.3697225,29.8130589],[-95.3697221,29.813265],[-95.369727,29.8133777],[-95.3697311,29.8134707],[-95.3698471,29.8141181],[-95.3698772,29.8142172],[-95.3699494,29.8144546],[-95.3700085,29.8146134],[-95.3700573,29.8147384],[-95.3703529,29.815462],[-95.3706065,29.8160912],[-95.3706765,29.8162588],[-95.3707061,29.8163329],[-95.3708644,29.8167076],[-95.3709947,29.8169972],[-95.371112,29.81724],[-95.3712551,29.817478],[-95.3713389,29.8176151],[-95.3715239,29.8177885],[-95.3717709,29.8180036]]}},{"type":"Feature","properties":{"way_id":230754460,"route_colors":["#e6194b"],"route_refs":["Red"]},"geometry":{"type":"LineString","coordinates":[[-95.3717709,29.8180036],[-95.3719731,29.8181315],[-95.3722264,29.8182681],[-95.3726646,29.8184986],[-95.3729946,29.8186444],[-95.3735263,29.8188695],[-95.3739441,29.8190446],[-95.3743142,29.819204],[-95.3743752,29.8192337],[-95.3744376,29.8192675],[-95.3745456,29.8193326],[-95.3746408,29.8193984],[-95.3748104,29.8195479],[-95.3750009,29.8197631],[-95.3751243,29.81997],[-95.3751747,29.8200812],[-95.3752435,29.8203004],[-95.3752749,29.8204907],[-95.3752835,29.8207652],[-95.3752896,29.8210399],[-95.3752979,29.8212389]]}},{"type":"Feature","properties":{"way_id":232390413,"route_colors":["#e6194b"],"route_refs":["Red"]},"geometry":{"type":"LineString","coordinates":[[-95.3752979,29.8212389],[-95.375324,29.8213878],[-95.3753536,29.8215152],[-95.3753982,29.8216544],[-95.375505,29.8219231],[-95.3756134,29.8221797],[-95.3757154,29.8224175],[-95.3758693,29.8227823],[-95.3759536,29.8229867],[-95.376045,29.8231954],[-95.3762386,29.8236622],[-95.376314,29.8238594],[-95.3763657,29.8240323],[-95.3763973,29.8241539],[-95.3764343,29.8243401],[-95.3764547,29.8244934],[-95.3764723,29.8247149],[-95.3764698,29.8249086],[-95.3764574,29.8251298],[-95.3764255,29.8255661],[-95.376391,29.8260047],[-95.3763546,29.8264445],[-95.3763191,29.8268839],[-95.376289,29.8271007],[-95.376257,29.8272674],[-95.3762014,29.8275703],[-95.3761755,29.8277543],[-95.3761571,29.8279736],[-95.3761444,29.8282217],[-95.3761403,29.8282835],[-95.3761337,29.8283881],[-95.3761302,29.8284451],[-95.376114,29.8287287],[-95.3761018,29.8289584],[-95.3761022,29.8291972],[-95.376111,29.8293691],[-95.3761245,29.8296219],[-95.3761188,29.8297835],[-95.3761027,29.8301837],[-95.3760803,29.8304336]]}},{"type":"Feature","properties":{"way_id":910152496,"route_colors":["#e6194b"],"route_refs":["Red"]},"geometry":{"type":"LineString","coordinates":[[-95.3760803,29.8304336],[-95.376058,29.8308469]]}},{"type":"Feature","properties":{"way_id":910152495,"route_colors":["#e6194b"],"route_refs":["Red"]},"geometry":{"type":"LineString","coordinates":[[-95.376058,29.8308469],[-95.3760527,29.8310489],[-95.3760324,29.8312649],[-95.3760065,29.8317782],[-95.3759991,29.8319569],[-95.3759941,29.8320298],[-95.375991,29.8320994],[-95.3759495,29.8327512]]}},{"type":"Feature","properties":{"way_id":533388104,"route_colors":["#e6194b"],"route_refs":["Red"]},"geometry":{"type":"LineString","coordinates":[[-95.3634612,29.7798404],[-95.3634845,29.779832],[-95.3637867,29.7804626],[-95.3637634,29.780471],[-95.3634612,29.7798404]]}},{"type":"Feature","properties":{"way_id":563530581,"route_colors":["#e6194b"],"route_refs":["Red"]},"geometry":{"type":"LineString","coordinates":[[-95.3595002,29.7721269],[-95.3595146,29.7721214],[-95.3594209,29.7719382],[-95.3592866,29.7716758],[-95.3591931,29.771493],[-95.3591725,29.7715009],[-95.3591482,29.7715103],[-95.3592417,29.7716931],[-95.359376,29.7719555],[-95.3594697,29.7721387],[-95.3595002,29.7721269]]}},{"type":"Feature","properties":{"way_id":540285023,"route_colors":["#e6194b"],"route_refs":["Red"]},"geometry":{"type":"LineString","coordinates":[[-95.361442,29.7614009],[-95.3614134,29.7613839],[-95.3618387,29.760846],[-95.3618672,29.760863],[-95.361442,29.7614009]]}},{"type":"Feature","properties":{"way_id":910152492,"route_colors":["#e6194b"],"route_refs":["Red"]},"geometry":{"type":"LineString","coordinates":[[-95.3660175,29.7555714],[-95.3660489,29.7555901],[-95.3656275,29.7561222],[-95.3655961,29.7561035],[-95.3660175,29.7555714]]}},{"type":"Feature","properties":{"way_id":677898498,"route_colors":["#e6194b"],"route_refs":["Red"]},"geometry":{"type":"LineString","coordinates":[[-95.3679967,29.753129],[-95.3679695,29.7531129],[-95.368386,29.7525829],[-95.3684132,29.752599],[-95.3679967,29.753129]]}},{"type":"Feature","properties":{"way_id":866463470,"route_colors":["#e6194b"],"route_refs":["Red"]},"geometry":{"type":"LineString","coordinates":[[-95.3703637,29.750137],[-95.3707841,29.7496039],[-95.3707547,29.7495864],[-95.3703342,29.7501195],[-95.3703637,29.750137]]}},{"type":"Feature","properties":{"way_id":534329152,"route_colors":["#e6194b"],"route_refs":["Red"]},"geometry":{"type":"LineString","coordinates":[[-95.3746284,29.7447475],[-95.3746095,29.7447362],[-95.3746008,29.744731],[-95.3741389,29.7453138],[-95.3741665,29.7453303],[-95.3746284,29.7447475]]}},{"type":"Feature","properties":{"way_id":485601278,"route_colors":["#e6194b"],"route_refs":["Red"]},"geometry":{"type":"LineString","coordinates":[[-95.3833795,29.7330715],[-95.3833618,29.7330678],[-95.3833484,29.7330651],[-95.3834973,29.7324942],[-95.3835179,29.7324931],[-95.383537,29.7324921],[-95.3834995,29.7326255],[-95.3834225,29.732913],[-95.3833795,29.7330715]]}},{"type":"Feature","properties":{"way_id":910152488,"route_colors":["#e6194b"],"route_refs":["Red"]},"geometry":{"type":"LineString","coordinates":[[-95.3892849,29.7244948],[-95.3892577,29.7244778],[-95.3887366,29.7251069],[-95.3887638,29.7251239],[-95.3892849,29.7244948]]}},{"type":"Feature","properties":{"way_id":533848341,"route_colors":["#e6194b"],"route_refs":["Red"]},"geometry":{"type":"LineString","coordinates":[[-95.400962,29.7095987],[-95.4014247,29.7090128],[-95.4014559,29.7090314],[-95.4009932,29.7096173],[-95.400962,29.7095987]]}},{"type":"Feature","properties":{"way_id":910152498,"route_colors":["#e6194b"],"route_refs":["Red"]},"geometry":{"type":"LineString","coordinates":[[-95.3760447,29.8327567],[-95.3760829,29.8321042],[-95.3760872,29.8320302],[-95.3760903,29.8319578],[-95.3760957,29.8318612],[-95.3760946,29.8317729],[-95.3760812,29.8312722],[-95.3760994,29.8308494]]}},{"type":"Feature","properties":{"way_id":910152497,"route_colors":["#e6194b"],"route_refs":["Red"]},"geometry":{"type":"LineString","coordinates":[[-95.3760994,29.8308494],[-95.3761266,29.8304357]]}},{"type":"Feature","properties":{"way_id":232390411,"route_colors":["#e6194b"],"route_refs":["Red"]},"geometry":{"type":"LineString","coordinates":[[-95.3761266,29.8304357],[-95.3761461,29.830191],[-95.3761685,29.8297865],[-95.3761695,29.8296232],[-95.3761554,29.8293655],[-95.3761473,29.8291961],[-95.3761466,29.8289589],[-95.3761583,29.8287295],[-95.3761753,29.8284433],[-95.3761786,29.8283875],[-95.376185,29.8282824],[-95.3761888,29.8282207],[-95.3762016,29.8279742],[-95.3762177,29.8277583],[-95.3762437,29.8275877],[-95.3763001,29.8272805],[-95.376334,29.8271044],[-95.3763627,29.8268883],[-95.3763986,29.826448],[-95.3764334,29.8260075],[-95.3764672,29.8255691],[-95.3765015,29.8251323],[-95.3765153,29.8249074],[-95.3765152,29.8247115],[-95.3764996,29.8244888],[-95.3764789,29.8243342],[-95.3764411,29.8241466],[-95.3764104,29.8240233],[-95.3763556,29.8238498],[-95.376279,29.8236494],[-95.376085,29.8231836],[-95.3759956,29.8229742],[-95.3759095,29.8227681],[-95.375756,29.8224046],[-95.375656,29.8221675],[-95.3755475,29.8219104],[-95.375441,29.8216439],[-95.3753971,29.8215041],[-95.3753684,29.8213781],[-95.3753451,29.8212361]]}},{"type":"Feature","properties":{"way_id":230737916,"route_colors":["#e6194b"],"route_refs":["Red"]},"geometry":{"type":"LineString","coordinates":[[-95.3753451,29.8212361],[-95.3753311,29.8210262],[-95.3753278,29.82076],[-95.3753197,29.8204872],[-95.3752857,29.8202828],[-95.3752164,29.8200723],[-95.3751893,29.8200046],[-95.3751397,29.8199057],[-95.374975,29.8196668],[-95.3748476,29.8195258],[-95.3747316,29.8194222],[-95.3746123,29.8193309],[-95.3744627,29.8192355],[-95.3743538,29.8191767],[-95.3735216,29.8188334],[-95.3730459,29.8186329],[-95.3726794,29.8184693],[-95.3724459,29.81835],[-95.3722158,29.8182285],[-95.3719911,29.818097],[-95.3717989,29.8179721]]}},{"type":"Feature","properties":{"way_id":230762206,"route_colors":["#e6194b"],"route_refs":["Red"]},"geometry":{"type":"LineString","coordinates":[[-95.3717989,29.8179721],[-95.3715681,29.8177748],[-95.3713935,29.8175993],[-95.3712776,29.8174279],[-95.3711455,29.8172065],[-95.3710472,29.8169848],[-95.370934,29.8166944],[-95.3707947,29.816336],[-95.3707643,29.8162576],[-95.3704414,29.8154739],[-95.3701311,29.8147467],[-95.3700862,29.8146436],[-95.3700102,29.8144372],[-95.3699305,29.8141196],[-95.3698072,29.8134672],[-95.3697736,29.813264],[-95.3697657,29.8130592],[-95.3697678,29.8126546],[-95.3697679,29.8123396],[-95.369767,29.812215],[-95.3697669,29.8120999],[-95.3697702,29.811598],[-95.3697676,29.8110415],[-95.3697717,29.8108489],[-95.369769,29.810421],[-95.3697722,29.8100541],[-95.3697672,29.8098479],[-95.369734,29.8095063],[-95.3697095,29.8093542],[-95.3695586,29.808587],[-95.3695407,29.8084999],[-95.3694179,29.807859],[-95.369406,29.8077971],[-95.3693641,29.8075831],[-95.3693509,29.8075213],[-95.3693028,29.8072961],[-95.3691879,29.8066885],[-95.3689469,29.8055186],[-95.368771,29.8045634],[-95.3686756,29.8041402],[-95.3684695,29.8035211],[-95.3684278,29.8034147],[-95.3683943,29.8033293],[-95.3683764,29.8032789],[-95.3683287,29.8031556],[-95.3683082,29.8031006],[-95.3682824,29.8030315],[-95.3680643,29.8024644],[-95.36802,29.8023398],[-95.3679892,29.8022595],[-95.3679677,29.8021804],[-95.3679525,29.8021036],[-95.3679491,29.8020105],[-95.3679503,29.801829],[-95.3679516,29.801552],[-95.367953,29.8014961],[-95.367965,29.8010714],[-95.3679637,29.8007548],[-95.3679704,29.8004243],[-95.3679704,29.8000519],[-95.3679784,29.7998832],[-95.3679634,29.7993295],[-95.3679288,29.798887],[-95.3679188,29.7987386],[-95.3679161,29.798553],[-95.3679201,29.798283],[-95.3679214,29.798193],[-95.3679228,29.798098],[-95.3679319,29.7974717],[-95.3679283,29.7973485],[-95.3678724,29.797142],[-95.3678177,29.7970183],[-95.3677626,29.7969182],[-95.3676625,29.7967875],[-95.3675783,29.7967084],[-95.3674556,29.7966019],[-95.3668834,29.796154],[-95.366178,29.7956158],[-95.3661706,29.7956101],[-95.3655579,29.7951306],[-95.3654393,29.7950374],[-95.3635101,29.7935315],[-95.3630843,29.793212],[-95.3630549,29.793191],[-95.3628983,29.7930798],[-95.3626055,29.7928785],[-95.3623738,29.7927269],[-95.3619564,29.792463],[-95.3617987,29.792332],[-95.3617158,29.7922376],[-95.3616221,29.7921129],[-95.3615491,29.7919892],[-95.3614253,29.7917822],[-95.3612992,29.7915733],[-95.3611906,29.7913975],[-95.3611489,29.7913266],[-95.3611279,29.7912937],[-95.361093,29.7912308],[-95.3609409,29.7909769],[-95.3607394,29.7906433],[-95.3605296,29.7902882],[-95.360449,29.7901309],[-95.3604301,29.7900231],[-95.3604269,29.7898816],[-95.3604275,29.7898206],[-95.3604281,29.7897505],[-95.3604285,29.7896671],[-95.3604302,29.7893059],[-95.3604323,29.7891041],[-95.360434,29.7888929],[-95.360439,29.7883231],[-95.3604449,29.788065],[-95.3604611,29.7877517],[-95.3604812,29.7875177],[-95.36051,29.7872664],[-95.3605444,29.7870262],[-95.3606093,29.7866058],[-95.3607363,29.7858659],[-95.3607478,29.7857892],[-95.3607908,29.7855166],[-95.3608215,29.7853233],[-95.3608605,29.7850895],[-95.3609129,29.7848883],[-95.3609562,29.7848002],[-95.3609982,29.784753],[-95.3610107,29.7847388],[-95.3610539,29.7847039],[-95.3611369,29.784648],[-95.3612232,29.7846113],[-95.3613147,29.7845907],[-95.3614064,29.7845799],[-95.3615855,29.7845773],[-95.3616715,29.7845745],[-95.3617471,29.7845649],[-95.3618429,29.7845381],[-95.3634445,29.783954],[-95.3635129,29.7839291],[-95.3635969,29.7838984],[-95.3645207,29.7835624],[-95.3646393,29.7835152],[-95.3647165,29.7834728],[-95.3647922,29.7834148],[-95.3648444,29.7833561],[-95.3648871,29.783289],[-95.3648875,29.7832883],[-95.3649223,29.7832085],[-95.3649372,29.7831446],[-95.3649426,29.7830237],[-95.3649251,29.7829525],[-95.3649005,29.7828793],[-95.3643571,29.7817491],[-95.3639221,29.7808374],[-95.363884,29.7807577],[-95.3638465,29.7806791],[-95.3634548,29.7798605],[-95.3627098,29.7782968],[-95.3626603,29.7781956],[-95.3624906,29.7778438],[-95.3616956,29.7761746],[-95.3616579,29.7760957],[-95.3616225,29.7760225],[-95.3614028,29.7755687],[-95.3611516,29.7750444]]}},{"type":"Feature","properties":{"way_id":258701013,"route_colors":["#e6194b"],"route_refs":["Red"]},"geometry":{"type":"LineString","coordinates":[[-95.3611516,29.7750444],[-95.3606492,29.7740047],[-95.3605185,29.7737351],[-95.3603835,29.7735223],[-95.3602913,29.7733887],[-95.3601422,29.773186],[-95.3600507,29.7730391],[-95.3599553,29.7728775],[-95.3597329,29.7725164],[-95.359475,29.7720089],[-95.3592343,29.77154],[-95.3591022,29.7712827],[-95.3589918,29.7710542],[-95.3588802,29.7707632],[-95.358751,29.7703433],[-95.3585969,29.7698307],[-95.3585403,29.7696452],[-95.358375,29.7691948],[-95.3582284,29.7687489]]}},{"type":"Feature","properties":{"way_id":258703034,"route_colors":["#e6194b"],"route_refs":["Red"]},"geometry":{"type":"LineString","coordinates":[[-95.3582284,29.7687489],[-95.3581704,29.7684872],[-95.3581637,29.7683207],[-95.3582112,29.7680064],[-95.3582274,29.767922],[-95.3582823,29.7677232],[-95.3583037,29.7676425],[-95.3584032,29.7671477]]}},{"type":"Feature","properties":{"way_id":258703031,"route_colors":["#e6194b"],"route_refs":["Red"]},"geometry":{"type":"LineString","coordinates":[[-95.3584032,29.7671477],[-95.3584775,29.7668598],[-95.3586198,29.766447],[-95.3586774,29.766253],[-95.3588768,29.765568],[-95.35889,29.7655272],[-95.3588972,29.7654963],[-95.358904,29.7654635],[-95.3589179,29.7653753],[-95.3589242,29.7653342],[-95.358935,29.7652964],[-95.3589741,29.765163]]}},{"type":"Feature","properties":{"way_id":103902918,"route_colors":["#e6194b"],"route_refs":["Red"]},"geometry":{"type":"LineString","coordinates":[[-95.3589741,29.765163],[-95.3590876,29.7647759],[-95.3591208,29.7646649],[-95.3591485,29.7645782],[-95.3591787,29.7644992],[-95.359218,29.7644018],[-95.3592555,29.7643145],[-95.3592923,29.7642371],[-95.3593493,29.7641314],[-95.3594707,29.7639321]]}},{"type":"Feature","properties":{"way_id":103902905,"route_colors":["#e6194b"],"route_refs":["Red"]},"geometry":{"type":"LineString","coordinates":[[-95.3594707,29.7639321],[-95.3595333,29.7638434],[-95.3595919,29.7637654],[-95.3596048,29.7637482],[-95.3596349,29.7637081],[-95.3601276,29.7630804],[-95.3601787,29.7630176],[-95.3602381,29.7629445],[-95.3606839,29.7623827],[-95.3607216,29.7623354],[-95.3607807,29.7622603],[-95.3608196,29.7622124],[-95.3613311,29.7615647],[-95.3613869,29.7614941],[-95.361434,29.7614345],[-95.3618448,29.7609141],[-95.3618991,29.7608485],[-95.3619517,29.7607789],[-95.3620006,29.760716],[-95.362533,29.7600469],[-95.3625839,29.7599829],[-95.362654,29.7598945],[-95.3631417,29.7592796],[-95.3631869,29.7592226],[-95.3632261,29.759173],[-95.363252,29.7591403],[-95.3635817,29.7587238],[-95.3636461,29.7586425],[-95.3637129,29.7585579],[-95.3637769,29.7584769],[-95.3638113,29.7584341],[-95.3638336,29.758406],[-95.3643285,29.7577818],[-95.3643773,29.7577202],[-95.3644273,29.757657],[-95.3649127,29.7570433],[-95.364963,29.7569797],[-95.3650215,29.7569058],[-95.3650481,29.7568722],[-95.365483,29.7563231],[-95.3655116,29.756287],[-95.3655565,29.7562303],[-95.3655877,29.7561908],[-95.3656132,29.7561586],[-95.3660402,29.755619],[-95.3661458,29.7554856],[-95.3666828,29.7548069],[-95.3667432,29.7547305],[-95.3667979,29.754662],[-95.3672702,29.7540624],[-95.3673333,29.7539893],[-95.3673921,29.7539145],[-95.3678576,29.7533241],[-95.3679157,29.7532543],[-95.3679894,29.7531585],[-95.3684092,29.7526294],[-95.3684435,29.7525859],[-95.3685054,29.7525077],[-95.3685736,29.7524216],[-95.369041,29.7518313],[-95.3690997,29.7517573],[-95.3691699,29.7516688],[-95.3696347,29.7510824],[-95.3696933,29.7510074],[-95.3697744,29.7509038],[-95.3702351,29.7503238],[-95.3702882,29.7502572],[-95.3703564,29.7501717],[-95.3707729,29.7496421],[-95.3708165,29.7495867],[-95.3708711,29.749518],[-95.3709407,29.7494301],[-95.3709668,29.749397],[-95.3714121,29.7488334],[-95.3714712,29.7487586],[-95.3715112,29.7487082],[-95.3715343,29.7486791],[-95.3719632,29.748139],[-95.3720035,29.7480883],[-95.3720505,29.7480292],[-95.3721161,29.7479461],[-95.3735845,29.74609],[-95.3740522,29.7454991],[-95.3741171,29.7454171],[-95.3741762,29.7453423],[-95.3746078,29.7447963],[-95.3746477,29.7447458],[-95.3770184,29.741746],[-95.3770761,29.7416731],[-95.3771579,29.7415698],[-95.3785096,29.7398633],[-95.3785703,29.7397867],[-95.3786225,29.7397207],[-95.3794827,29.7386339],[-95.3799372,29.7380594],[-95.3799751,29.7380116],[-95.3800428,29.7379269],[-95.3800845,29.7378741],[-95.3805703,29.7372597],[-95.3814404,29.7361593],[-95.3819127,29.7355621],[-95.3820713,29.7353519],[-95.3822697,29.7350795],[-95.382417,29.7348922],[-95.382827,29.7343727],[-95.3828878,29.7342966],[-95.3829386,29.7342232],[-95.3829605,29.7341895],[-95.3829791,29.7341605],[-95.383009,29.734105],[-95.3830442,29.7340326],[-95.3830727,29.7339676],[-95.3830974,29.7339016],[-95.3831219,29.733821],[-95.3831665,29.733668],[-95.3831812,29.7336161],[-95.3832954,29.7332058],[-95.3833277,29.7330848],[-95.3834972,29.7324695],[-95.383691,29.7317661],[-95.3837209,29.7316663],[-95.3837406,29.7316042],[-95.3837561,29.7315617],[-95.383773,29.7315162],[-95.3837924,29.7314698],[-95.3838256,29.7314054],[-95.3838683,29.7313295],[-95.3839201,29.7312511],[-95.3839872,29.7311566],[-95.3842077,29.7308786],[-95.3842449,29.7308317],[-95.3842883,29.7307769],[-95.3849785,29.7299053],[-95.3850296,29.7298408],[-95.3850874,29.7297684],[-95.3855623,29.7291728],[-95.3856002,29.7291253],[-95.3856447,29.7290689],[-95.3864612,29.7280339],[-95.3865207,29.7279584],[-95.386574,29.7278906],[-95.3870504,29.7272858],[-95.3870901,29.7272354],[-95.3871444,29.7271675],[-95.387948,29.7261627],[-95.3886235,29.7253181],[-95.3886802,29.7252485],[-95.3887456,29.7251682],[-95.389263,29.7245412],[-95.3893197,29.7244726],[-95.3893622,29.7244211],[-95.3893909,29.7243887],[-95.3894121,29.7243629],[-95.389716,29.7239926],[-95.3898595,29.7238226],[-95.3900035,29.7236626],[-95.3900747,29.723583],[-95.390147,29.7235027],[-95.3902434,29.7233954],[-95.3903627,29.7232801],[-95.3904874,29.7231788],[-95.3906202,29.7230926],[-95.3907687,29.7230065],[-95.3908522,29.7229581],[-95.3911038,29.722812],[-95.3912453,29.7227245],[-95.3913086,29.7226833],[-95.3914064,29.7226205],[-95.3915137,29.7225424],[-95.3916143,29.7224574],[-95.3917109,29.7223701],[-95.3917959,29.7222837],[-95.3918865,29.722181],[-95.391987,29.7220589],[-95.3925665,29.7213314],[-95.3927113,29.7211672],[-95.3929038,29.7209505],[-95.3930453,29.7207793],[-95.3933439,29.7204036],[-95.3933633,29.7203792],[-95.3938276,29.7197906],[-95.3939592,29.7196235],[-95.3940449,29.7195006],[-95.3941437,29.7193354],[-95.3945295,29.7186901],[-95.3946157,29.7185246],[-95.394713,29.7182861],[-95.394952,29.7176852],[-95.3950551,29.717442],[-95.3951816,29.7171839],[-95.3953362,29.7168987],[-95.3954777,29.7166655],[-95.3956708,29.7163819],[-95.3958539,29.7161357],[-95.3964177,29.7154228],[-95.3964842,29.7153393],[-95.3965499,29.7152568],[-95.3970778,29.7145872],[-95.3976448,29.7138708],[-95.3977747,29.7137065],[-95.3978437,29.7136192],[-95.3978568,29.7136024],[-95.3980137,29.7134023],[-95.3982011,29.7131509],[-95.398356,29.7129413],[-95.398472,29.7127858],[-95.3988841,29.7122672],[-95.3989293,29.7122103],[-95.3990002,29.7121197],[-95.3990636,29.7120407],[-95.3992181,29.7118481],[-95.3993511,29.7116884],[-95.3995235,29.711487],[-95.3996458,29.7113375],[-95.3999946,29.7109021],[-95.4008481,29.7098191],[-95.4009157,29.7097345],[-95.4009299,29.7097177],[-95.4009862,29.7096473],[-95.4014452,29.7090675],[-95.4015986,29.7088734],[-95.4024341,29.7078166],[-95.402753,29.7074164],[-95.4028542,29.7072651],[-95.4029371,29.7071207],[-95.4029894,29.7069868],[-95.4030266,29.7068481],[-95.4030445,29.7067261],[-95.4030472,29.7065599],[-95.4030651,29.704826],[-95.4030571,29.7047398],[-95.4030426,29.7046186],[-95.4028923,29.7038146],[-95.4028846,29.7037689],[-95.4028678,29.7036804],[-95.4028506,29.7036007]]}},{"type":"Feature","properties":{"way_id":1394770767,"route_colors":["#e6194b"],"route_refs":["Red"]},"geometry":{"type":"LineString","coordinates":[[-95.4028506,29.7036007],[-95.4027694,29.7032255],[-95.4027061,29.7030258],[-95.4025722,29.7026677]]}},{"type":"Feature","properties":{"way_id":104947547,"route_colors":["#e6194b"],"route_refs":["Red"]},"geometry":{"type":"LineString","coordinates":[[-95.4025722,29.7026677],[-95.4025081,29.7024793],[-95.4024711,29.7023691],[-95.4024465,29.7022497],[-95.4024394,29.7021495],[-95.4024418,29.7020753],[-95.4024565,29.7019785],[-95.4024795,29.7018944]]}},{"type":"Feature","properties":{"way_id":39220237,"route_colors":["#e6194b"],"route_refs":["Red"]},"geometry":{"type":"LineString","coordinates":[[-95.4024795,29.7018944],[-95.4024995,29.7018498],[-95.4025336,29.7017573],[-95.4025891,29.7016601],[-95.4026143,29.7016284],[-95.4026649,29.7015645],[-95.4027574,29.7014741],[-95.4028648,29.7013985],[-95.4029305,29.7013577],[-95.4029958,29.7013171],[-95.4030922,29.7012755],[-95.403286,29.7012057],[-95.4036714,29.7010622],[-95.4038473,29.7009872],[-95.4040246,29.700903],[-95.404159,29.7008341],[-95.4042724,29.7007691],[-95.4044145,29.7006763],[-95.4045533,29.700573],[-95.404713,29.7004457],[-95.4048528,29.7003156],[-95.4049894,29.700174],[-95.405105,29.7000372],[-95.405235,29.6998612],[-95.4054211,29.6995665],[-95.405474,29.6994747],[-95.4055247,29.6993714],[-95.4055797,29.6992097],[-95.4056008,29.699139],[-95.4056189,29.6990599],[-95.4056287,29.6989223],[-95.405627,29.6988605],[-95.405624,29.6987549],[-95.4056095,29.6985976],[-95.4055687,29.6984353],[-95.4055207,29.6983092],[-95.4054548,29.6981689],[-95.4053491,29.6979725],[-95.4051057,29.6975201],[-95.40504,29.6973569],[-95.4049848,29.6971836],[-95.4049569,29.6970391],[-95.4049368,29.6968932],[-95.4049259,29.6968129],[-95.4048382,29.6961722],[-95.4047975,29.6958651],[-95.404779,29.6956464],[-95.4047796,29.6954662],[-95.4047943,29.6950971],[-95.4048124,29.6948311],[-95.4048048,29.6947036],[-95.4048516,29.6930682],[-95.4048507,29.6928967],[-95.404837,29.692742],[-95.404814,29.6925832],[-95.4047837,29.6924295],[-95.4047328,29.6922723],[-95.4046801,29.6921186],[-95.4046126,29.691976],[-95.4045269,29.6918229],[-95.4044485,29.6916914],[-95.4043634,29.691574],[-95.404261,29.6914464],[-95.4038755,29.691026],[-95.4037958,29.6909268],[-95.4037205,29.6908184],[-95.4036567,29.6907057],[-95.403595,29.6905653],[-95.4035621,29.6904753],[-95.4035375,29.6903952],[-95.4035235,29.6903254],[-95.4034965,29.6901487],[-95.4034866,29.6899934],[-95.4034621,29.6892278],[-95.4034035,29.6875787],[-95.4034046,29.6871842],[-95.4034356,29.6865608],[-95.4034336,29.6863725],[-95.4034337,29.6862858],[-95.4034203,29.6854407],[-95.4034189,29.6853512],[-95.403415,29.6853073],[-95.4034082,29.6852305],[-95.4033841,29.6850637],[-95.4033764,29.6849503],[-95.4033738,29.6849113],[-95.4033691,29.6847623],[-95.4033391,29.6822241],[-95.4033287,29.6808534],[-95.4033429,29.6805508],[-95.4033636,29.6802566],[-95.4033939,29.6797458],[-95.4034035,29.6795545],[-95.4034052,29.6793651],[-95.403406,29.6792691],[-95.4033854,29.6784542],[-95.4033823,29.6783918],[-95.4033316,29.6774193],[-95.4033309,29.6773326],[-95.4033389,29.6768224],[-95.4033605,29.675833],[-95.4033611,29.6757862],[-95.4033608,29.6757365],[-95.4033601,29.6756833],[-95.4033586,29.6756386],[-95.4033552,29.6755911],[-95.4033492,29.6755254],[-95.4033436,29.6754767],[-95.4033389,29.6754329],[-95.4033308,29.6753909],[-95.4033219,29.6753495],[-95.4033076,29.6752747],[-95.4032751,29.6751491],[-95.4032325,29.6750186],[-95.4031688,29.6748467],[-95.4030081,29.6744044]]}},{"type":"Feature","properties":{"way_id":105825069,"route_colors":["#e6194b"],"route_refs":["Red"]},"geometry":{"type":"LineString","coordinates":[[-95.4030081,29.6744044],[-95.4029883,29.6743415],[-95.4029755,29.6742998],[-95.4029663,29.6742655],[-95.4029599,29.6742372],[-95.402953,29.6741936],[-95.4029254,29.6739532],[-95.4028647,29.6734107],[-95.4028501,29.6732861]]}},{"type":"Feature","properties":{"way_id":910263594,"route_colors":["#3cb44b","#911eb4"],"route_refs":["Green","Purple"]},"geometry":{"type":"LineString","coordinates":[[-95.3673676,29.760566],[-95.3673842,29.760546],[-95.3678937,29.7608648],[-95.3678771,29.7608848],[-95.3673676,29.760566]]}},{"type":"Feature","properties":{"way_id":533683015,"route_colors":["#3cb44b","#911eb4"],"route_refs":["Green","Purple"]},"geometry":{"type":"LineString","coordinates":[[-95.3622767,29.7574955],[-95.3622927,29.7574751],[-95.3628114,29.7577823],[-95.3627954,29.7578027],[-95.3622767,29.7574955]]}},{"type":"Feature","properties":{"way_id":533683014,"route_colors":["#3cb44b","#911eb4"],"route_refs":["Green","Purple"]},"geometry":{"type":"LineString","coordinates":[[-95.3579715,29.7548929],[-95.3579877,29.7548726],[-95.3574379,29.7545416],[-95.3574217,29.7545619],[-95.3579715,29.7548929]]}},{"type":"Feature","properties":{"way_id":533683007,"route_colors":["#3cb44b","#911eb4"],"route_refs":["Green","Purple"]},"geometry":{"type":"LineString","coordinates":[[-95.3516379,29.7533778],[-95.3516579,29.7533531],[-95.3516742,29.753333],[-95.3523159,29.7537242],[-95.3522965,29.7537482],[-95.3522797,29.753769],[-95.3516379,29.7533778]]}},{"type":"Feature","properties":{"way_id":537332168,"route_colors":["#3cb44b"],"route_refs":["Green"]},"geometry":{"type":"LineString","coordinates":[[-95.3397809,29.7473701],[-95.3398115,29.7473318],[-95.3404537,29.7477187],[-95.3404231,29.7477569],[-95.3397809,29.7473701]]}},{"type":"Feature","properties":{"way_id":537332166,"route_colors":["#3cb44b"],"route_refs":["Green"]},"geometry":{"type":"LineString","coordinates":[[-95.3289524,29.7435458],[-95.3289595,29.7435164],[-95.3305477,29.743803],[-95.3305407,29.7438325],[-95.3289524,29.7435458]]}},{"type":"Feature","properties":{"way_id":537328422,"route_colors":["#3cb44b"],"route_refs":["Green"]},"geometry":{"type":"LineString","coordinates":[[-95.3197879,29.7410699],[-95.3205257,29.7412972],[-95.3205436,29.7412533],[-95.3198058,29.741026],[-95.3197879,29.7410699]]}},{"type":"Feature","properties":{"way_id":536951678,"route_colors":["#3cb44b"],"route_refs":["Green"]},"geometry":{"type":"LineString","coordinates":[[-95.3080902,29.7374565],[-95.3080985,29.7374362],[-95.3078837,29.7373704],[-95.3075695,29.7372743],[-95.3073563,29.737209],[-95.3073481,29.7372293],[-95.3075612,29.7372946],[-95.3078754,29.7373908],[-95.3080902,29.7374565]]}},{"type":"Feature","properties":{"way_id":537332171,"route_colors":["#3cb44b"],"route_refs":["Green"]},"geometry":{"type":"LineString","coordinates":[[-95.3025251,29.7357929],[-95.3032717,29.7360154],[-95.3032891,29.7359714],[-95.3025425,29.7357489],[-95.3025251,29.7357929]]}},{"type":"Feature","properties":{"way_id":157100696,"route_colors":["#3cb44b","#911eb4"],"route_refs":["Green","Purple"]},"geometry":{"type":"LineString","coordinates":[[-95.3674514,29.7606356],[-95.3673196,29.7605528],[-95.3672216,29.7604912],[-95.3671361,29.7604398],[-95.3664747,29.7600422],[-95.3663773,29.7599837],[-95.3662785,29.7599239],[-95.3656031,29.7595149],[-95.3655151,29.7594616],[-95.365432,29.7594115],[-95.3647422,29.7589952],[-95.3646607,29.758946],[-95.3645807,29.7588978],[-95.3642747,29.7587134],[-95.3638594,29.7584632],[-95.3638312,29.7584462],[-95.3638113,29.7584341],[-95.3637577,29.758402],[-95.3637173,29.758378],[-95.3636838,29.7583571],[-95.3635567,29.7582781],[-95.3630079,29.7579493],[-95.3628934,29.7578807],[-95.3628158,29.7578341],[-95.3622746,29.7575093],[-95.3621134,29.7574126],[-95.3620324,29.757364],[-95.3619687,29.7573239],[-95.361785,29.7572081],[-95.3615902,29.7570854],[-95.3612941,29.7568988],[-95.3611939,29.7568348],[-95.3611079,29.7567797],[-95.3604389,29.7563755],[-95.360327,29.7563073],[-95.360291,29.7562858],[-95.3602457,29.7562587],[-95.3598802,29.7560376],[-95.3595841,29.7558613],[-95.3594748,29.7558003],[-95.3593962,29.7557565],[-95.3589967,29.7555267],[-95.3588375,29.7554305],[-95.3587084,29.7553523],[-95.3586114,29.7552935],[-95.3585239,29.7552406],[-95.3574839,29.7546147],[-95.3573491,29.7545335],[-95.3572736,29.7544881],[-95.3571973,29.7544435],[-95.3571358,29.7544065],[-95.3568192,29.7542159],[-95.3567119,29.7541565],[-95.3566127,29.7541136],[-95.3565183,29.7540868],[-95.3564119,29.7540669],[-95.3563237,29.7540596]]}},{"type":"Feature","properties":{"way_id":910263596,"route_colors":["#3cb44b","#911eb4"],"route_refs":["Green","Purple"]},"geometry":{"type":"LineString","coordinates":[[-95.3563237,29.7540596],[-95.356133,29.7540665],[-95.3559134,29.7541227],[-95.3557733,29.7541868],[-95.3556577,29.7542776],[-95.3555216,29.7544511]]}},{"type":"Feature","properties":{"way_id":910263595,"route_colors":["#3cb44b","#911eb4"],"route_refs":["Green","Purple"]},"geometry":{"type":"LineString","coordinates":[[-95.3555216,29.7544511],[-95.3554332,29.7545608],[-95.3553343,29.7546843],[-95.3552836,29.7547422],[-95.3552308,29.7547933],[-95.3550177,29.7549694],[-95.3549626,29.7550075],[-95.3548977,29.7550419],[-95.3548301,29.7550647],[-95.3547622,29.7550765],[-95.3547018,29.7550793],[-95.3546403,29.7550754],[-95.3545809,29.7550624],[-95.3545231,29.7550423],[-95.3544576,29.7550062],[-95.3539851,29.7547244],[-95.3539125,29.7546801],[-95.3536866,29.7545424],[-95.3532927,29.7543056],[-95.3532123,29.7542567],[-95.3531448,29.7542157],[-95.3530975,29.7541868],[-95.3523476,29.7537279],[-95.3516957,29.7533298],[-95.3516389,29.7532948],[-95.351232,29.7530455]]}},{"type":"Feature","properties":{"way_id":261157267,"route_colors":["#3cb44b"],"route_refs":["Green"]},"geometry":{"type":"LineString","coordinates":[[-95.351232,29.7530455],[-95.3510883,29.7529734],[-95.3508241,29.7528535],[-95.3507381,29.7528211],[-95.3506619,29.7527983],[-95.3505859,29.7527806],[-95.3505122,29.7527669],[-95.3504062,29.7527541],[-95.3503392,29.7527515],[-95.3502211,29.7527527],[-95.3501147,29.7527641],[-95.3488581,29.7529111],[-95.3485848,29.7529188],[-95.3483,29.7529169],[-95.3480367,29.7528922]]}},{"type":"Feature","properties":{"way_id":261157268,"route_colors":["#3cb44b"],"route_refs":["Green"]},"geometry":{"type":"LineString","coordinates":[[-95.3480367,29.7528922],[-95.3477084,29.7528408],[-95.3474182,29.7527578]]}},{"type":"Feature","properties":{"way_id":1445859759,"route_colors":["#3cb44b"],"route_refs":["Green"]},"geometry":{"type":"LineString","coordinates":[[-95.3474182,29.7527578],[-95.3471781,29.752673],[-95.3469103,29.7525574],[-95.3466539,29.752421],[-95.3463451,29.7522139],[-95.3461182,29.7520259],[-95.3459369,29.7518448],[-95.3457771,29.7516592],[-95.3455037,29.7512914],[-95.3453729,29.7511407],[-95.345243,29.7510139],[-95.3451323,29.7509173],[-95.3450495,29.7508451],[-95.3447638,29.7506019],[-95.3440187,29.7499654],[-95.3437952,29.7497909],[-95.3435698,29.7496335],[-95.3433582,29.7494994],[-95.3431461,29.7493704],[-95.3422062,29.7488024],[-95.3418586,29.7485922],[-95.3416608,29.7484682],[-95.3414819,29.7483521],[-95.3413844,29.748289],[-95.3413086,29.7482394],[-95.3410084,29.7480438],[-95.340834,29.7479349],[-95.3406271,29.7478092]]}},{"type":"Feature","properties":{"way_id":261287858,"route_colors":["#3cb44b"],"route_refs":["Green"]},"geometry":{"type":"LineString","coordinates":[[-95.3406271,29.7478092],[-95.3405542,29.7477649],[-95.3404724,29.7477158],[-95.339832,29.7473306],[-95.3397253,29.7472664],[-95.3391022,29.7468909],[-95.3387354,29.7466678],[-95.3385797,29.7465824],[-95.3384128,29.7465019],[-95.3382478,29.746435],[-95.3380906,29.7463766],[-95.3378223,29.7462869],[-95.3373437,29.7461366],[-95.3369975,29.7460101],[-95.3366182,29.7458486],[-95.3353838,29.7452874],[-95.3350975,29.7451604],[-95.3348063,29.7450447],[-95.3344696,29.7449191],[-95.3340393,29.7447623],[-95.3327986,29.7443169],[-95.3325879,29.7442438],[-95.3323786,29.7441778],[-95.3321981,29.7441246],[-95.3320286,29.7440796],[-95.3318444,29.7440341],[-95.3316516,29.7439905],[-95.3314728,29.7439547],[-95.3289841,29.7435074],[-95.3287461,29.7434645],[-95.3285928,29.7434362],[-95.3282427,29.7433762],[-95.3279895,29.74334],[-95.3277314,29.7433074],[-95.3270598,29.7432379],[-95.3268738,29.7432118],[-95.3266795,29.7431784],[-95.3264495,29.743128],[-95.3262541,29.7430765],[-95.3259615,29.742986],[-95.3252547,29.7427491],[-95.3250351,29.7426804],[-95.3245786,29.7425475],[-95.3243867,29.7424918],[-95.323922,29.742355],[-95.3235894,29.7422571],[-95.323349,29.7421844],[-95.3231082,29.7421053],[-95.3217927,29.741637],[-95.3215416,29.741554],[-95.3208682,29.7413443],[-95.3207965,29.7413219],[-95.3207186,29.7412974],[-95.3198229,29.7410159],[-95.3196865,29.7409726],[-95.3196586,29.7409644],[-95.3195728,29.7409387],[-95.319231,29.7408312],[-95.3189011,29.7407327],[-95.3184424,29.7406091],[-95.3182509,29.7405598],[-95.3180608,29.740504],[-95.3172876,29.7402638],[-95.3171096,29.7402099],[-95.3169309,29.740162],[-95.3165828,29.7400827]]}},{"type":"Feature","properties":{"way_id":261287859,"route_colors":["#3cb44b"],"route_refs":["Green"]},"geometry":{"type":"LineString","coordinates":[[-95.3165828,29.7400827],[-95.3160749,29.7399623],[-95.3158369,29.7398919],[-95.3146695,29.7395304],[-95.3145035,29.739466],[-95.3143308,29.7393914]]}},{"type":"Feature","properties":{"way_id":472723336,"route_colors":["#3cb44b"],"route_refs":["Green"]},"geometry":{"type":"LineString","coordinates":[[-95.3143308,29.7393914],[-95.3140249,29.7392555],[-95.3138484,29.7391864],[-95.3136966,29.7391399],[-95.3118893,29.7386693],[-95.3117133,29.7386152]]}},{"type":"Feature","properties":{"way_id":472723338,"route_colors":["#3cb44b"],"route_refs":["Green"]},"geometry":{"type":"LineString","coordinates":[[-95.3117133,29.7386152],[-95.3106597,29.738292],[-95.3102583,29.7381572],[-95.3102051,29.7381402],[-95.3096527,29.7379552],[-95.3092699,29.7378328]]}},{"type":"Feature","properties":{"way_id":910263602,"route_colors":["#3cb44b"],"route_refs":["Green"]},"geometry":{"type":"LineString","coordinates":[[-95.3092699,29.7378328],[-95.3082748,29.7375258],[-95.3073643,29.737245],[-95.3062921,29.7369143],[-95.3059063,29.7367983],[-95.305478,29.7366779]]}},{"type":"Feature","properties":{"way_id":910263600,"route_colors":["#3cb44b"],"route_refs":["Green"]},"geometry":{"type":"LineString","coordinates":[[-95.305478,29.7366779],[-95.305009,29.7365519]]}},{"type":"Feature","properties":{"way_id":127467785,"route_colors":["#3cb44b"],"route_refs":["Green"]},"geometry":{"type":"LineString","coordinates":[[-95.3026411,29.735766],[-95.3035485,29.7360355],[-95.3036841,29.7360809],[-95.3038232,29.7361329],[-95.3043087,29.7363271],[-95.3044312,29.7363761],[-95.3046015,29.7364349],[-95.3047614,29.7364844],[-95.305009,29.7365519]]}},{"type":"Feature","properties":{"way_id":537048601,"route_colors":["#3cb44b"],"route_refs":["Green"]},"geometry":{"type":"LineString","coordinates":[[-95.3091599,29.7378848],[-95.3091709,29.7378578],[-95.3089636,29.7377941],[-95.3086467,29.7376968],[-95.3084354,29.7376318],[-95.3084244,29.7376588],[-95.3086357,29.7377238],[-95.3089526,29.7378211],[-95.3091599,29.7378848]]}},{"type":"Feature","properties":{"way_id":533683013,"route_colors":["#3cb44b","#911eb4"],"route_refs":["Green","Purple"]},"geometry":{"type":"LineString","coordinates":[[-95.3566049,29.7551693],[-95.356621,29.755149],[-95.3560708,29.7548193],[-95.3560547,29.7548395],[-95.3566049,29.7551693]]}},{"type":"Feature","properties":{"way_id":533683016,"route_colors":["#3cb44b","#911eb4"],"route_refs":["Green","Purple"]},"geometry":{"type":"LineString","coordinates":[[-95.3616459,29.7581999],[-95.3616621,29.7581797],[-95.3622455,29.7585308],[-95.3622294,29.758551],[-95.3616459,29.7581999]]}},{"type":"Feature","properties":{"way_id":910263593,"route_colors":["#3cb44b","#911eb4"],"route_refs":["Green","Purple"]},"geometry":{"type":"LineString","coordinates":[[-95.3659241,29.7608053],[-95.3659399,29.7607849],[-95.3665443,29.7611379],[-95.3665285,29.7611584],[-95.3659241,29.7608053]]}},{"type":"Feature","properties":{"way_id":261267177,"route_colors":["#3cb44b"],"route_refs":["Green"]},"geometry":{"type":"LineString","coordinates":[[-95.3025664,29.7358181],[-95.3026157,29.7358329],[-95.3037474,29.736171],[-95.3038658,29.7362085],[-95.3039818,29.7362492],[-95.3042873,29.7363642],[-95.3044227,29.7364152],[-95.3045844,29.7364716],[-95.3047478,29.7365206],[-95.3049951,29.7365875]]}},{"type":"Feature","properties":{"way_id":910263601,"route_colors":["#3cb44b"],"route_refs":["Green"]},"geometry":{"type":"LineString","coordinates":[[-95.3049951,29.7365875],[-95.3054637,29.7367163]]}},{"type":"Feature","properties":{"way_id":910263603,"route_colors":["#3cb44b"],"route_refs":["Green"]},"geometry":{"type":"LineString","coordinates":[[-95.3054637,29.7367163],[-95.3058916,29.7368344],[-95.3062772,29.7369503],[-95.3082635,29.7375634],[-95.309161,29.7378404],[-95.3092542,29.7378692]]}},{"type":"Feature","properties":{"way_id":261287854,"route_colors":["#3cb44b"],"route_refs":["Green"]},"geometry":{"type":"LineString","coordinates":[[-95.3092542,29.7378692],[-95.3096614,29.7379954],[-95.3101934,29.7381774],[-95.310244,29.7381949],[-95.3106462,29.7383207],[-95.3117024,29.73864]]}},{"type":"Feature","properties":{"way_id":472723337,"route_colors":["#3cb44b"],"route_refs":["Green"]},"geometry":{"type":"LineString","coordinates":[[-95.3117024,29.73864],[-95.3118804,29.738693],[-95.3136809,29.7391739],[-95.3138309,29.7392202],[-95.3140031,29.7392833],[-95.3143159,29.7394205]]}},{"type":"Feature","properties":{"way_id":472723335,"route_colors":["#3cb44b"],"route_refs":["Green"]},"geometry":{"type":"LineString","coordinates":[[-95.3143159,29.7394205],[-95.3144872,29.739495],[-95.3146553,29.7395577],[-95.315823,29.7399304],[-95.3160635,29.7399989],[-95.3165686,29.7401181]]}},{"type":"Feature","properties":{"way_id":261287868,"route_colors":["#3cb44b"],"route_refs":["Green"]},"geometry":{"type":"LineString","coordinates":[[-95.3165686,29.7401181],[-95.3169181,29.7402008],[-95.3170968,29.7402482],[-95.3172728,29.7403016],[-95.318489,29.7406784],[-95.3195417,29.7410045],[-95.3195904,29.7410202],[-95.3196401,29.7410375],[-95.3204991,29.7413024],[-95.3206896,29.7413621],[-95.3207687,29.7413869],[-95.3208451,29.7414107],[-95.3221892,29.7418303],[-95.322396,29.7418981],[-95.3230896,29.7421403],[-95.3233371,29.742221],[-95.323576,29.7422951],[-95.3239075,29.7423921],[-95.3243728,29.7425282],[-95.3245627,29.7425837],[-95.3250223,29.7427187],[-95.3252396,29.7427847],[-95.3259457,29.7430223],[-95.3262375,29.7431135],[-95.3264371,29.7431658],[-95.3266702,29.7432172],[-95.3268668,29.7432511],[-95.3270521,29.7432784],[-95.3277222,29.7433592],[-95.3279753,29.7433931],[-95.328217,29.7434294],[-95.328563,29.7434913],[-95.3287161,29.7435185],[-95.3305101,29.7438397],[-95.3316437,29.7440438],[-95.3318302,29.7440814],[-95.3320132,29.7441228],[-95.3321796,29.7441642],[-95.3323555,29.7442127],[-95.3325708,29.7442802],[-95.3327819,29.7443525],[-95.3340231,29.7447978],[-95.3344514,29.7449528],[-95.3347887,29.7450801],[-95.3350781,29.7451954],[-95.3353624,29.7453197],[-95.3365975,29.7458835],[-95.336979,29.7460422],[-95.337327,29.7461714],[-95.3378133,29.7463264],[-95.3380731,29.7464134],[-95.3382274,29.7464724],[-95.3383833,29.7465378],[-95.3385513,29.7466206],[-95.3387156,29.7467133],[-95.3390622,29.7469374],[-95.3392696,29.7470722],[-95.3394092,29.7471601],[-95.3403985,29.7477571],[-95.3404261,29.7477737],[-95.3405078,29.747823],[-95.3405798,29.7478667]]}},{"type":"Feature","properties":{"way_id":1445859758,"route_colors":["#3cb44b"],"route_refs":["Green"]},"geometry":{"type":"LineString","coordinates":[[-95.3405798,29.7478667],[-95.3412712,29.748286],[-95.3413486,29.7483329],[-95.3414484,29.7483931],[-95.3425828,29.7490772],[-95.3427174,29.7491575],[-95.3431248,29.7494055],[-95.3433359,29.7495324],[-95.3435483,29.7496662],[-95.3437677,29.7498223],[-95.3439905,29.7499955],[-95.3448298,29.7507124],[-95.3450176,29.7508702],[-95.3450999,29.7509426],[-95.3452113,29.7510407],[-95.3453354,29.7511679],[-95.3454576,29.751315],[-95.3457333,29.7516812],[-95.3458987,29.7518743],[-95.3460853,29.7520576],[-95.3463147,29.7522463],[-95.3466283,29.7524576],[-95.3468832,29.7525954],[-95.3471612,29.7527139],[-95.3474381,29.7528074]]}},{"type":"Feature","properties":{"way_id":261267179,"route_colors":["#3cb44b"],"route_refs":["Green"]},"geometry":{"type":"LineString","coordinates":[[-95.3474381,29.7528074],[-95.3476975,29.7528763],[-95.3480458,29.7529375]]}},{"type":"Feature","properties":{"way_id":261250010,"route_colors":["#3cb44b"],"route_refs":["Green"]},"geometry":{"type":"LineString","coordinates":[[-95.3480458,29.7529375],[-95.3482951,29.7529632],[-95.3485806,29.7529706],[-95.3488612,29.7529515],[-95.3498375,29.7528397],[-95.3501181,29.7528025],[-95.3502197,29.7527932],[-95.350327,29.7527915],[-95.3503958,29.7527943],[-95.3504833,29.7528059],[-95.3505691,29.7528256],[-95.3506459,29.7528486],[-95.350731,29.75288],[-95.3509356,29.7529736],[-95.3510435,29.7530301]]}},{"type":"Feature","properties":{"way_id":127467786,"route_colors":["#3cb44b","#911eb4"],"route_refs":["Green","Purple"]},"geometry":{"type":"LineString","coordinates":[[-95.3510435,29.7530301],[-95.3513964,29.7532463],[-95.3522501,29.7537683],[-95.3524875,29.7539132],[-95.3526113,29.7539831],[-95.3529983,29.7541775],[-95.3530678,29.7542173],[-95.3531165,29.7542452],[-95.3531877,29.7542884],[-95.353268,29.754337],[-95.353657,29.7545755],[-95.3538733,29.7547052],[-95.3538875,29.7547137],[-95.3539596,29.7547569],[-95.3544337,29.7550415],[-95.3545013,29.7550822],[-95.3545629,29.7551077],[-95.354626,29.7551237],[-95.3547004,29.7551324],[-95.3547768,29.7551284],[-95.3548445,29.7551143],[-95.3549142,29.7550884],[-95.3549745,29.7550546],[-95.3550356,29.7550108],[-95.3552874,29.7548006],[-95.35535,29.7547533],[-95.3554131,29.75472],[-95.355486,29.7546915],[-95.3555586,29.7546817],[-95.3556428,29.7546831],[-95.3557468,29.7546906],[-95.3558535,29.7547355],[-95.3565515,29.7551527],[-95.3566031,29.7551836],[-95.3566827,29.7552306],[-95.3567717,29.7552848],[-95.3569549,29.7553972],[-95.3572183,29.7555565],[-95.3573185,29.7556173],[-95.3574986,29.7557234],[-95.3576905,29.7558399],[-95.3579321,29.7559858],[-95.3580101,29.7560318],[-95.3581238,29.756101],[-95.3583908,29.7562612],[-95.3586861,29.7564418],[-95.3588784,29.7565565],[-95.359689,29.7570457],[-95.3597291,29.7570699],[-95.3602852,29.7574048],[-95.3605924,29.7575889],[-95.3613711,29.7580525],[-95.3614536,29.7581016],[-95.3615365,29.7581517],[-95.3621956,29.7585499],[-95.3622316,29.7585717],[-95.3623114,29.7586199],[-95.3624132,29.7586804],[-95.3627518,29.7588817],[-95.3631096,29.7591021],[-95.3631321,29.7591159],[-95.3631687,29.7591377],[-95.3632261,29.759173],[-95.3632454,29.7591854],[-95.3633051,29.7592214],[-95.3639917,29.759636],[-95.3640719,29.7596844],[-95.3641675,29.7597443],[-95.3648257,29.7601573],[-95.3649132,29.7602122],[-95.3650123,29.7602719],[-95.3656852,29.7606777],[-95.365772,29.76073],[-95.365888,29.7607984],[-95.3664464,29.7611278]]}},{"type":"Feature","properties":{"way_id":533683004,"route_colors":["#911eb4"],"route_refs":["Purple"]},"geometry":{"type":"LineString","coordinates":[[-95.3458892,29.7391563],[-95.345922,29.739166],[-95.3461762,29.738522],[-95.3461434,29.7385122],[-95.3458892,29.7391563]]}},{"type":"Feature","properties":{"way_id":533683001,"route_colors":["#911eb4"],"route_refs":["Purple"]},"geometry":{"type":"LineString","coordinates":[[-95.3498683,29.7280784],[-95.3499313,29.7280794],[-95.3499184,29.7287238],[-95.3498553,29.7287229],[-95.3498683,29.7280784]]}},{"type":"Feature","properties":{"way_id":533682999,"route_colors":["#911eb4"],"route_refs":["Purple"]},"geometry":{"type":"LineString","coordinates":[[-95.3515098,29.7217616],[-95.3515339,29.7217689],[-95.3515605,29.7217769],[-95.351302,29.7224247],[-95.3512747,29.7224165],[-95.3512514,29.7224095],[-95.3515098,29.7217616]]}},{"type":"Feature","properties":{"way_id":533678245,"route_colors":["#911eb4"],"route_refs":["Purple"]},"geometry":{"type":"LineString","coordinates":[[-95.3415747,29.7161681],[-95.3415713,29.7161768],[-95.341565,29.7161925],[-95.3408258,29.7159708],[-95.3408314,29.7159565],[-95.3408355,29.7159464],[-95.3415747,29.7161681]]}},{"type":"Feature","properties":{"way_id":533405064,"route_colors":["#911eb4"],"route_refs":["Purple"]},"geometry":{"type":"LineString","coordinates":[[-95.3364156,29.7091256],[-95.3364473,29.7091135],[-95.3364796,29.7091769],[-95.3366912,29.7095932],[-95.3366742,29.7095997],[-95.3366594,29.7096054],[-95.3364156,29.7091256]]}},{"type":"Feature","properties":{"way_id":533852095,"route_colors":["#911eb4"],"route_refs":["Purple"]},"geometry":{"type":"LineString","coordinates":[[-95.3326853,29.696627],[-95.3327066,29.6965755],[-95.3319565,29.6963411],[-95.3319351,29.6963926],[-95.3326853,29.696627]]}},{"type":"Feature","properties":{"way_id":203300309,"route_colors":["#911eb4"],"route_refs":["Purple"]},"geometry":{"type":"LineString","coordinates":[[-95.351232,29.7530455],[-95.3505925,29.7526617],[-95.3504655,29.7525816],[-95.3502721,29.7524718],[-95.3497494,29.7521884],[-95.3495861,29.7520929],[-95.3482234,29.7512625],[-95.3481554,29.7512137],[-95.3480955,29.7511638],[-95.3480396,29.751111],[-95.3479916,29.7510604],[-95.3477669,29.7508067],[-95.3474485,29.7504409],[-95.3474049,29.7503757],[-95.3473658,29.7503094],[-95.3473161,29.7502062],[-95.3471142,29.749676],[-95.3467761,29.7487662],[-95.3467181,29.7485827],[-95.3466778,29.7483941],[-95.3463737,29.746395],[-95.3463534,29.7462134],[-95.3463513,29.7460391],[-95.3463641,29.7458914],[-95.3463828,29.7457639],[-95.3464204,29.745605],[-95.346467,29.7454601],[-95.3465211,29.7453213],[-95.346745,29.7448706],[-95.3468217,29.7447119],[-95.3468583,29.7446088],[-95.3468803,29.7445057],[-95.3468911,29.7443701],[-95.3468856,29.7442495],[-95.3468545,29.7441131],[-95.3468154,29.744001],[-95.346759,29.7438862],[-95.3466739,29.7437642],[-95.3465755,29.7436581],[-95.346466,29.7435667],[-95.3463555,29.7434925],[-95.3456255,29.7430529],[-95.345545,29.7429979],[-95.3454786,29.7429431],[-95.3454216,29.7428887],[-95.3453563,29.7428204],[-95.3452812,29.7427211],[-95.3452278,29.742631],[-95.3451818,29.7425359],[-95.3451483,29.7424357],[-95.3451211,29.7423186],[-95.3451095,29.742199],[-95.3451144,29.7420776],[-95.3451283,29.7419354],[-95.3451326,29.7419],[-95.3451417,29.7418258],[-95.345151,29.7417489],[-95.3451557,29.7417106],[-95.3452371,29.7410031],[-95.3452525,29.7408826],[-95.3452774,29.740762],[-95.3453269,29.740566],[-95.3453919,29.7403773],[-95.3455497,29.7399758],[-95.345829,29.7392664],[-95.3461197,29.7385343],[-95.3463034,29.7380752],[-95.3465871,29.7374259],[-95.3468085,29.7369263],[-95.3469936,29.7365195],[-95.3471698,29.736105],[-95.3472018,29.7360204],[-95.3472349,29.7359327],[-95.3475723,29.7350479],[-95.347597,29.7349836],[-95.3478601,29.7343328],[-95.347901,29.73423],[-95.3484682,29.7328028],[-95.3485033,29.7327144],[-95.3491219,29.7311673],[-95.3491699,29.7310422],[-95.3492137,29.7309192],[-95.3493419,29.7305398],[-95.3494003,29.7303823],[-95.3494691,29.7302324],[-95.3497325,29.7297314],[-95.3497823,29.72963],[-95.3498287,29.7295192],[-95.3498677,29.7293939],[-95.3499086,29.7292063],[-95.3499224,29.7290954],[-95.3499281,29.7289992],[-95.349944,29.7280985],[-95.3499455,29.728013],[-95.3499458,29.727936],[-95.3499493,29.7277535],[-95.3499469,29.7276887],[-95.3499526,29.7276203],[-95.3499558,29.7274849],[-95.3499589,29.7272027],[-95.3499569,29.7269518],[-95.3499523,29.7267365],[-95.349958,29.7264464],[-95.3499992,29.7260938],[-95.350024,29.7259702],[-95.3500549,29.725824],[-95.3501084,29.7255849],[-95.3501231,29.7255289],[-95.3501337,29.7254883],[-95.3501842,29.725324],[-95.3502365,29.7251884],[-95.3503152,29.7249819],[-95.3503632,29.7248339],[-95.350388,29.7247573],[-95.3504224,29.7246526],[-95.3504564,29.7245494],[-95.3505235,29.7243427],[-95.3506477,29.7239578],[-95.3507506,29.7236553],[-95.3508196,29.7234939],[-95.350895,29.7233348],[-95.3510466,29.7230284],[-95.351166,29.7227726],[-95.3512224,29.7226487],[-95.3512726,29.7225251],[-95.3513057,29.722443],[-95.3515685,29.7217916],[-95.3515778,29.7217677],[-95.3515854,29.7217481],[-95.3516965,29.7214678],[-95.3517812,29.721254],[-95.3518064,29.7211906],[-95.3519526,29.7208284],[-95.3520674,29.7205524],[-95.3521026,29.7204564],[-95.3521442,29.7203495],[-95.352177,29.720259],[-95.3521974,29.7201575],[-95.3521968,29.72006],[-95.3521808,29.7199792],[-95.3521617,29.7199232],[-95.3521384,29.719869],[-95.352093,29.7197956],[-95.3520424,29.719733],[-95.3519861,29.7196812],[-95.3519211,29.7196365],[-95.3518476,29.7195942],[-95.3517761,29.7195641],[-95.3516321,29.7195167],[-95.3514837,29.7194706],[-95.3508183,29.7192691],[-95.3507703,29.7192518],[-95.348512,29.7185654],[-95.3483829,29.7185268],[-95.34826,29.7184895],[-95.3478223,29.7183554],[-95.3476364,29.7182894],[-95.3474591,29.7182183],[-95.3472658,29.718123],[-95.3470195,29.7179937],[-95.3468242,29.7178893],[-95.3466131,29.7177787],[-95.3463568,29.7176669],[-95.3461001,29.7175767],[-95.3448107,29.717184],[-95.3446658,29.7171421],[-95.3415683,29.7162091],[-95.340857,29.7159951],[-95.3407957,29.7159772],[-95.3405332,29.7158972],[-95.3404465,29.7158639],[-95.3403667,29.7158288],[-95.3403077,29.715796],[-95.3402543,29.7157611],[-95.3402068,29.7157235],[-95.3401398,29.7156645],[-95.3401018,29.7156238],[-95.3400575,29.7155707],[-95.3400178,29.7155143],[-95.3399838,29.7154554],[-95.3399547,29.7153971],[-95.3397549,29.7149576],[-95.339663,29.7148133],[-95.339536,29.7146622],[-95.3394181,29.7145427]]}},{"type":"Feature","properties":{"way_id":260990549,"route_colors":["#911eb4"],"route_refs":["Purple"]},"geometry":{"type":"LineString","coordinates":[[-95.3394181,29.7145427],[-95.3386752,29.71384]]}},{"type":"Feature","properties":{"way_id":260990550,"route_colors":["#911eb4"],"route_refs":["Purple"]},"geometry":{"type":"LineString","coordinates":[[-95.3386752,29.71384],[-95.3383757,29.7135453],[-95.3382312,29.71338],[-95.3381059,29.7132051],[-95.3380031,29.7130287],[-95.3379307,29.7128711],[-95.3378355,29.7126057],[-95.3377636,29.7123734],[-95.3375196,29.7115764],[-95.337506,29.7115318],[-95.3374615,29.7113975],[-95.3374425,29.7113364],[-95.3373775,29.7111285],[-95.3373237,29.7109838],[-95.3372674,29.7108563],[-95.337148,29.710604],[-95.3368183,29.709954],[-95.3366926,29.7097061],[-95.3364133,29.709154],[-95.3363915,29.7091117],[-95.3363398,29.7090069],[-95.3362659,29.7088621],[-95.3362173,29.7087656],[-95.3354958,29.7073351],[-95.3353701,29.7070931],[-95.3352248,29.7068369],[-95.334961,29.7063601],[-95.3348745,29.7061961],[-95.3343733,29.7052083],[-95.3343185,29.7050661],[-95.3342988,29.7049983],[-95.3342772,29.7049238],[-95.3342506,29.7047712],[-95.3342427,29.7046118],[-95.3342479,29.7044654],[-95.3342664,29.7043305],[-95.3342982,29.7042013],[-95.3343396,29.7040777],[-95.3352079,29.7019041],[-95.3355502,29.7010499],[-95.3363991,29.698926],[-95.3364451,29.6987853],[-95.3364669,29.6986667],[-95.336477,29.6985515],[-95.3364725,29.6984509],[-95.336455,29.6983421],[-95.3364302,29.6982429],[-95.3363735,29.6981035],[-95.3362953,29.6979658],[-95.3362089,29.6978545],[-95.3361938,29.6978385],[-95.3361259,29.6977671],[-95.3360536,29.6977056],[-95.3359448,29.6976263],[-95.335787,29.6975394],[-95.3356215,29.6974765],[-95.3345213,29.6971302]]}},{"type":"Feature","properties":{"way_id":910263586,"route_colors":["#911eb4"],"route_refs":["Purple"]},"geometry":{"type":"LineString","coordinates":[[-95.3345213,29.6971302],[-95.3340592,29.6969843]]}},{"type":"Feature","properties":{"way_id":910263584,"route_colors":["#911eb4"],"route_refs":["Purple"]},"geometry":{"type":"LineString","coordinates":[[-95.3340592,29.6969843],[-95.332049,29.6963556]]}},{"type":"Feature","properties":{"way_id":533405061,"route_colors":["#911eb4"],"route_refs":["Purple"]},"geometry":{"type":"LineString","coordinates":[[-95.3365606,29.7096445],[-95.3363489,29.7092264],[-95.3363166,29.7091625],[-95.3363483,29.7091504],[-95.3365923,29.7096324],[-95.3365763,29.7096385],[-95.3365606,29.7096445]]}},{"type":"Feature","properties":{"way_id":533678244,"route_colors":["#911eb4"],"route_refs":["Purple"]},"geometry":{"type":"LineString","coordinates":[[-95.3415275,29.7162795],[-95.3415321,29.7162677],[-95.3415373,29.7162545],[-95.3407956,29.7160364],[-95.3407911,29.716048],[-95.3407859,29.7160614],[-95.3415275,29.7162795]]}},{"type":"Feature","properties":{"way_id":533683000,"route_colors":["#911eb4"],"route_refs":["Purple"]},"geometry":{"type":"LineString","coordinates":[[-95.3511739,29.722386],[-95.3511986,29.7223935],[-95.3512245,29.7224013],[-95.3514838,29.7217541],[-95.3514592,29.7217467],[-95.3514332,29.7217388],[-95.3511739,29.722386]]}},{"type":"Feature","properties":{"way_id":533683005,"route_colors":["#911eb4"],"route_refs":["Purple"]},"geometry":{"type":"LineString","coordinates":[[-95.3456974,29.7393494],[-95.345452,29.7399702],[-95.3454848,29.73998],[-95.3457302,29.7393592],[-95.3456974,29.7393494]]}},{"type":"Feature","properties":{"way_id":910263585,"route_colors":["#911eb4"],"route_refs":["Purple"]},"geometry":{"type":"LineString","coordinates":[[-95.3320176,29.6964327],[-95.3328273,29.6966837],[-95.3330448,29.6967458],[-95.3334548,29.6968468],[-95.3336832,29.6969085],[-95.3340439,29.6970213]]}},{"type":"Feature","properties":{"way_id":910263587,"route_colors":["#911eb4"],"route_refs":["Purple"]},"geometry":{"type":"LineString","coordinates":[[-95.3340439,29.6970213],[-95.3345046,29.6971658]]}},{"type":"Feature","properties":{"way_id":261118903,"route_colors":["#911eb4"],"route_refs":["Purple"]},"geometry":{"type":"LineString","coordinates":[[-95.3345046,29.6971658],[-95.3356051,29.697511],[-95.3357666,29.697574],[-95.335915,29.6976564],[-95.3360206,29.6977318],[-95.3360937,29.6977947],[-95.336106,29.6978082],[-95.3361777,29.6978788],[-95.3362561,29.6979822],[-95.3363318,29.6981159],[-95.3363876,29.6982538],[-95.3364128,29.6983495],[-95.336428,29.6984541],[-95.3364307,29.6985549],[-95.3364237,29.6986634],[-95.3364031,29.6987763],[-95.3363587,29.6989136],[-95.3355086,29.701038],[-95.3351648,29.7018958],[-95.3342966,29.7040654],[-95.3342559,29.7041908],[-95.3342243,29.7043229],[-95.3342043,29.7044654],[-95.3341982,29.7046106],[-95.334207,29.7047735],[-95.3342345,29.7049296],[-95.3342551,29.7050021],[-95.3342768,29.7050784],[-95.3343327,29.7052214],[-95.3348333,29.7062098],[-95.3349213,29.7063778],[-95.3351853,29.7068499],[-95.3353322,29.7071138],[-95.3354553,29.7073503],[-95.3361765,29.7087799],[-95.3362253,29.7088767],[-95.3362984,29.7090217],[-95.3363516,29.7091273],[-95.3365982,29.7096131],[-95.3366541,29.7097226],[-95.3369758,29.7103616],[-95.3371062,29.7106206],[-95.3372251,29.7108662],[-95.3372801,29.7109984],[-95.3373338,29.7111395],[-95.3373994,29.711348],[-95.3374187,29.7114093],[-95.33746,29.7115436],[-95.3374749,29.7115918],[-95.3375927,29.711972],[-95.3377938,29.7126164],[-95.33789,29.712885],[-95.3379643,29.713046],[-95.3380681,29.7132267],[-95.3381975,29.7134035],[-95.338339,29.7135668],[-95.3386447,29.713872]]}},{"type":"Feature","properties":{"way_id":260990552,"route_colors":["#911eb4"],"route_refs":["Purple"]},"geometry":{"type":"LineString","coordinates":[[-95.3386447,29.713872],[-95.3393796,29.7145825]]}},{"type":"Feature","properties":{"way_id":260990551,"route_colors":["#911eb4"],"route_refs":["Purple"]},"geometry":{"type":"LineString","coordinates":[[-95.3393796,29.7145825],[-95.3395164,29.7147107],[-95.3396348,29.7148473],[-95.3397184,29.7149783],[-95.3399151,29.7154151],[-95.3399445,29.7154717],[-95.3400379,29.7156118],[-95.3400458,29.7156237],[-95.3400887,29.7156706],[-95.3401333,29.7157151],[-95.3401414,29.7157221],[-95.3401769,29.7157527],[-95.3402262,29.7157888],[-95.3402839,29.7158271],[-95.3403549,29.7158668],[-95.3404287,29.7158995],[-95.34052,29.7159327],[-95.340782,29.7160124],[-95.3415019,29.7162308],[-95.3415549,29.7162465],[-95.3446513,29.7171829],[-95.344797,29.7172265],[-95.3460825,29.7176132],[-95.3463416,29.7177056],[-95.3465907,29.7178133],[-95.3468011,29.7179235],[-95.3470215,29.7180406],[-95.3473415,29.7182066],[-95.3474933,29.7182747],[-95.3476503,29.7183382],[-95.3478317,29.7184006],[-95.3482445,29.7185252],[-95.3483645,29.7185611],[-95.3484958,29.7186029],[-95.3507574,29.71929],[-95.3508041,29.7193045],[-95.3514807,29.7195112],[-95.3516119,29.7195542],[-95.3517425,29.7196079],[-95.3518024,29.7196455],[-95.3518588,29.7196891],[-95.3519136,29.7197455],[-95.3519665,29.7198169],[-95.352006,29.7198977],[-95.3520326,29.7199854],[-95.35204,29.7200484],[-95.3520394,29.7201165],[-95.3520301,29.7201772],[-95.3520138,29.7202391],[-95.3519812,29.720326],[-95.3519104,29.7205084],[-95.3516557,29.7211441],[-95.3516298,29.7212085],[-95.3514206,29.7217206],[-95.3512754,29.7220889],[-95.3511606,29.7223714],[-95.3511503,29.7223967],[-95.3511249,29.7224593],[-95.351018,29.7227254],[-95.3509069,29.7230093],[-95.3508434,29.7231571],[-95.3507769,29.7233246],[-95.3507246,29.7234798],[-95.3506755,29.7236338],[-95.3506227,29.7238166],[-95.3505672,29.7240003],[-95.3505452,29.7240738],[-95.350461,29.7243581],[-95.350406,29.7245494],[-95.3503784,29.7246399],[-95.3503463,29.7247449],[-95.35032,29.7248224],[-95.3502662,29.7249807],[-95.3501932,29.7251746],[-95.3501259,29.7253621],[-95.350079,29.7255193],[-95.350077,29.7255262],[-95.3500102,29.7258146],[-95.3499622,29.7260517],[-95.3499312,29.7262568],[-95.3499142,29.7264454],[-95.349908,29.7266093],[-95.3499103,29.7267814],[-95.3499123,29.726976],[-95.3499123,29.7272212],[-95.3499046,29.7273542],[-95.3498924,29.7274863],[-95.3498791,29.727612],[-95.34987,29.7276706],[-95.3498658,29.7277362],[-95.3498529,29.7279167],[-95.3498516,29.7279929],[-95.3498392,29.7287081],[-95.3498326,29.7290912],[-95.3498249,29.7292056],[-95.3498007,29.7293722],[-95.3497706,29.7295002],[-95.3497312,29.7296174],[-95.3496683,29.7297571],[-95.3494286,29.7302157],[-95.3493588,29.7303706],[-95.3493002,29.7305266],[-95.3491703,29.7309086],[-95.3491277,29.7310298],[-95.3490797,29.7311539],[-95.3484627,29.7327021],[-95.3484275,29.7327904],[-95.3478554,29.7342267],[-95.3478184,29.7343197],[-95.3475622,29.7349613],[-95.3475357,29.7350247],[-95.3471946,29.7359075],[-95.3471627,29.7359945],[-95.3471269,29.7360919],[-95.3469532,29.7365041],[-95.3467619,29.7369273],[-95.3465456,29.73741],[-95.3462636,29.7380614],[-95.3460774,29.7385236],[-95.3457881,29.7392548],[-95.3455057,29.7399664],[-95.3453492,29.7403653],[-95.3452852,29.7405541],[-95.3452334,29.7407527],[-95.3452098,29.7408731],[-95.3451925,29.740999],[-95.3451132,29.7416922],[-95.3451075,29.7417352],[-95.3450975,29.7418112],[-95.3450897,29.7418854],[-95.3450805,29.7419728],[-95.3450686,29.7420747],[-95.3450625,29.7422008],[-95.3450765,29.7423248],[-95.3451038,29.742444],[-95.3451396,29.7425471],[-95.3451875,29.7426483],[-95.3452743,29.742783],[-95.3453359,29.7428585],[-95.3453892,29.7429145],[-95.3454446,29.7429656],[-95.3455151,29.7430267],[-95.3455995,29.7430828],[-95.3463261,29.7435224],[-95.3464399,29.7435981],[-95.3465441,29.7436843],[-95.3466365,29.7437857],[-95.3467192,29.7439056],[-95.3467758,29.7440132],[-95.3468139,29.7441226],[-95.346839,29.7442535],[-95.3468475,29.7443707],[-95.3468366,29.7444986],[-95.3468134,29.7446007],[-95.3467791,29.744699],[-95.3467095,29.7448505],[-95.34648,29.7453105],[-95.3464259,29.7454461],[-95.3463795,29.7455893],[-95.3463427,29.7457391],[-95.3463198,29.745878],[-95.3463051,29.7460329],[-95.3463104,29.7462163],[-95.3463279,29.7463967],[-95.3466466,29.7484897],[-95.346671,29.7486498],[-95.3467111,29.7488099],[-95.3467812,29.7490332],[-95.3469736,29.7495448],[-95.3471306,29.7499621],[-95.3472338,29.7502333],[-95.3472761,29.7503234],[-95.3473219,29.7504092],[-95.3473756,29.7504788],[-95.347488,29.7506166],[-95.347807,29.750978],[-95.3478954,29.7510757],[-95.3479471,29.7511255],[-95.3479982,29.7511674],[-95.3480787,29.7512236],[-95.3481437,29.7512626],[-95.3504146,29.7526474],[-95.3505378,29.7527307],[-95.3506619,29.7527983],[-95.3510435,29.7530301]]}}]}