{"type":"FeatureCollection","features":[{"type":"Feature","properties":{"way_id":311521045,"route_colors":["#e6194b"],"route_refs":["1"]},"geometry":{"type":"LineString","coordinates":[[50.2819825,53.2121702],[50.2819015,53.2122407],[50.2832115,53.2127812],[50.2832456,53.2127515],[50.2832925,53.2127108],[50.2819825,53.2121702]]}},{"type":"Feature","properties":{"way_id":31449675,"route_colors":["#e6194b"],"route_refs":["1"]},"geometry":{"type":"LineString","coordinates":[[50.2831744,53.2127761],[50.2825566,53.2125206],[50.2815051,53.2120853],[50.2811565,53.2119699],[50.2807872,53.2118668],[50.2802191,53.2117487],[50.2795911,53.2116284],[50.2792761,53.21155],[50.2789807,53.2114517],[50.2787317,53.2113449],[50.2783751,53.2111757]]}},{"type":"Feature","properties":{"way_id":1274701200,"route_colors":["#e6194b"],"route_refs":["1"]},"geometry":{"type":"LineString","coordinates":[[50.2779747,53.2109308],[50.2783751,53.2111757]]}},{"type":"Feature","properties":{"way_id":744656226,"route_colors":["#e6194b"],"route_refs":["1"]},"geometry":{"type":"LineString","coordinates":[[50.2779747,53.2109308],[50.2775551,53.2107164],[50.2770103,53.210395]]}},{"type":"Feature","properties":{"way_id":31449677,"route_colors":["#e6194b"],"route_refs":["1"]},"geometry":{"type":"LineString","coordinates":[[50.2770103,53.210395],[50.2765191,53.2101753],[50.2758436,53.2099936],[50.2750682,53.2099031],[50.2745948,53.2099271],[50.2739841,53.21001],[50.2732379,53.210224],[50.2723497,53.2104615],[50.2717249,53.2106348],[50.2712109,53.2107832]]}},{"type":"Feature","properties":{"way_id":31451695,"route_colors":["#e6194b"],"route_refs":["1"]},"geometry":{"type":"LineString","coordinates":[[50.2712109,53.2107832],[50.2703201,53.211095],[50.2696252,53.2113378],[50.2684879,53.2117351],[50.261798,53.2137251],[50.2583432,53.2147661],[50.2564632,53.2152316],[50.2556656,53.2153447],[50.254968,53.2153521],[50.2544497,53.215322],[50.254302,53.21531],[50.2539074,53.2152488],[50.2533464,53.215058],[50.2502318,53.2137094],[50.2484114,53.2128671],[50.2469923,53.2121991],[50.2453018,53.211427],[50.2373779,53.2077437],[50.2357612,53.207015],[50.2342266,53.2063261],[50.2265882,53.2028386],[50.2255708,53.2023539],[50.2252643,53.2022078],[50.2246858,53.201951],[50.2243102,53.2018334],[50.2238161,53.2017341],[50.2232235,53.2016695],[50.2226022,53.2016419],[50.2204399,53.2015791],[50.2187478,53.2015299],[50.1995774,53.2009892],[50.1994788,53.2009874],[50.1962861,53.2008937],[50.1774393,53.2003361],[50.176509,53.2003022],[50.1746728,53.2002353],[50.1738183,53.2002042],[50.1669744,53.19984],[50.1654438,53.1999605],[50.1639671,53.2003322],[50.162701,53.2009342],[50.1605603,53.2028805],[50.1592646,53.2039044],[50.1519581,53.2096301],[50.1504668,53.2107773],[50.1500409,53.211105]]}},{"type":"Feature","properties":{"way_id":1055995846,"route_colors":["#e6194b"],"route_refs":["1"]},"geometry":{"type":"LineString","coordinates":[[50.1500409,53.211105],[50.1498288,53.2112733],[50.1490519,53.2119222],[50.1488644,53.212061],[50.1483495,53.2123862],[50.1477618,53.2126636],[50.1470723,53.2129183],[50.1463613,53.2131308],[50.1455877,53.2132752],[50.1447715,53.2133762],[50.1442291,53.2134215],[50.1436771,53.2134191],[50.1425789,53.2133238],[50.1419848,53.2131972],[50.1414374,53.2130188],[50.1410556,53.2128478],[50.1364491,53.2105639],[50.1356978,53.2102349],[50.1345942,53.2097884],[50.1341449,53.2096256]]}},{"type":"Feature","properties":{"way_id":1359889276,"route_colors":["#e6194b"],"route_refs":["1"]},"geometry":{"type":"LineString","coordinates":[[50.1341449,53.2096256],[50.1338792,53.2095293]]}},{"type":"Feature","properties":{"way_id":1055995845,"route_colors":["#e6194b"],"route_refs":["1"]},"geometry":{"type":"LineString","coordinates":[[50.1502544,53.210829],[50.1500409,53.211105]]}},{"type":"Feature","properties":{"way_id":31451694,"route_colors":["#e6194b"],"route_refs":["1"]},"geometry":{"type":"LineString","coordinates":[[50.1502544,53.210829],[50.1504938,53.2105773],[50.1507137,53.2103906],[50.1534904,53.2082529],[50.1552019,53.2069016],[50.1604491,53.2027584],[50.162598,53.2008914],[50.1639055,53.2002697],[50.1654122,53.1998905],[50.166967,53.1997681],[50.1673978,53.1997908],[50.1738268,53.2001291],[50.1747074,53.2001613],[50.1765171,53.2002274],[50.1774479,53.2002614],[50.1963037,53.2008117],[50.1995788,53.2009078],[50.2187497,53.201462],[50.2204412,53.2015097],[50.2226151,53.2015711],[50.2232329,53.2016007],[50.223889,53.2016682],[50.2244441,53.2017923],[50.2248039,53.2019332],[50.2260144,53.2024818],[50.2342907,53.20628],[50.2357934,53.2069571],[50.2374414,53.2076989],[50.2470516,53.2121572],[50.2484628,53.2128163],[50.2503047,53.2136584],[50.2526678,53.214616],[50.2534637,53.2149658],[50.2538253,53.215092],[50.2543161,53.2151664],[50.2548832,53.2152361],[50.2555402,53.2152322],[50.2565135,53.2150982],[50.2583799,53.2146369],[50.2617335,53.2136517],[50.2683563,53.2116477],[50.2693967,53.2112632],[50.2709858,53.2106759]]}},{"type":"Feature","properties":{"way_id":321042284,"route_colors":["#e6194b"],"route_refs":["1"]},"geometry":{"type":"LineString","coordinates":[[50.2709858,53.2106759],[50.2711737,53.2105624],[50.2719635,53.2101172],[50.2728878,53.2097722],[50.273577,53.2096499],[50.2743416,53.2095725],[50.2749935,53.2095976],[50.2756235,53.2097096],[50.2759248,53.2097929],[50.2762148,53.2098972],[50.2766597,53.2101313],[50.2770578,53.2103717]]}},{"type":"Feature","properties":{"way_id":31290670,"route_colors":["#e6194b"],"route_refs":["1"]},"geometry":{"type":"LineString","coordinates":[[50.2770578,53.2103717],[50.2775569,53.2106615],[50.2779107,53.2108451],[50.2781975,53.2109924],[50.2785739,53.2111659],[50.2789104,53.2113107],[50.2792825,53.2114469],[50.2797714,53.2115901],[50.2802442,53.211713],[50.2808356,53.2118269],[50.2812213,53.2119082],[50.2815974,53.2120048],[50.2819132,53.2121391],[50.2826212,53.2124236],[50.2832662,53.2126924]]}}]}