{"type":"FeatureCollection","metro_system":{"continent":"north-america","country":"United States","city":"Buffalo","official_website":null,"official_map":null,"wikipedia":null,"line_count":1,"segment_count":1,"station_count":14,"modes":["tram"],"audit":{"strategies_tried":[],"passed":true,"checks":[{"id":"has_lines","ok":true,"detail":"1 lines","level":"error"},{"id":"has_stations","ok":true,"detail":"14 stations","level":"error"},{"id":"stations_have_lines","ok":true,"detail":"14/14 站皆有所屬路線","level":"error"},{"id":"line_geometry_stations","ok":true,"detail":"14 個折點/端點皆為車站","level":"error"},{"id":"route_stations_match_geometry","ok":true,"detail":"各線車站列表與圖面一致","level":"error"},{"id":"interchange_rule","ok":true,"detail":"所有車站紅/藍點符合骨架＋路線色規則（藍＝端點、紅＝交叉）","level":"error"},{"id":"stations_named","ok":true,"detail":"14/14 站皆有名稱","level":"error"},{"id":"station_order","ok":true,"detail":"所有線路站序合理","level":"warn"},{"id":"line_wiki_stations","ok":true,"detail":"各線站數與 wiki 線路條目相符（營運中站數）","level":"error"},{"id":"line_wiki_coverage","ok":false,"detail":"1 條線無 wiki 站數對照：NFTA Metro Rail","level":"warn"}],"reasons":[],"warnings":["1 條線無 wiki 站數對照：NFTA Metro Rail"],"audited_at":"2026-07-27T02:39:34.706Z"}},"features":[{"type":"Feature","properties":{"seg_id":"buffalo-0","routes":[{"route_id":"rm11364344","route_name":"NFTA Metro Rail","route_name_local":"NFTA Metro Rail","route_name_en":null,"route_ref":"Metro","route_color":"#004990","wikipedia":null,"osm_route_ids":[3517747,11364343],"status":null,"order_suspect":0,"span_suspect":0,"stations":[{"station_id":"n13362479298","station_name":"DL&W"},{"station_id":"n7768180671","station_name":"Canalside"},{"station_id":"n486769924","station_name":"Seneca"},{"station_id":"n7768180669","station_name":"Church"},{"station_id":"n7768180667","station_name":"Lafayette Square"},{"station_id":"n7768216387","station_name":"Fountain Plaza"},{"station_id":"n7768366086","station_name":"Allen/Medical Campus"},{"station_id":"n7768366088","station_name":"Summer–Best"},{"station_id":"n7768366090","station_name":"Utica"},{"station_id":"n7768366092","station_name":"Delavan/Canisius College"},{"station_id":"n7768366096","station_name":"Humboldt–Hospital"},{"station_id":"n7768366103","station_name":"Amherst Street"},{"station_id":"n7768366110","station_name":"LaSalle"},{"station_id":"n7768318474","station_name":"University"}]}],"route_count":1,"route_refs":["Metro"],"route_colors":["#004990"],"city":"Buffalo","country":"United States"},"geometry":{"type":"MultiLineString","coordinates":[[[-78.87625583333333,42.8736332],[-78.87687823333333,42.87803363333334],[-78.87582086666667,42.8812459],[-78.87500126666667,42.88379916666667],[-78.8740857,42.88661820000001],[-78.87316146666666,42.8894682],[-78.86988646666667,42.89941076666667],[-78.86811913333332,42.9047265],[-78.86582033333333,42.91153536666667],[-78.85690803333333,42.9225463],[-78.8516161,42.92755813333334],[-78.83835953333333,42.9399301],[-78.82974666666667,42.947739266666666],[-78.8200724,42.954641699999996]]]}},{"type":"Feature","properties":{"station_id":"n486769924","station_name":"Seneca","station_name_local":"Seneca","station_name_en":null,"city":"Buffalo","country":"United States","lines":["Metro"],"wikipedia":null,"merged_from":3,"merged_names":null,"is_terminus":false,"routes":[{"ref":"Metro","name":"NFTA Metro Rail","route_color":"#004990"}],"pass_count":1,"station_degree":2,"codes":null,"is_interchange":false,"station_role":"normal"},"geometry":{"type":"Point","coordinates":[-78.87582086666667,42.8812459]},"__memberLines":{}},{"type":"Feature","properties":{"station_id":"n7768180667","station_name":"Lafayette Square","station_name_local":"Lafayette Square","station_name_en":null,"city":"Buffalo","country":"United States","lines":["Metro"],"wikipedia":null,"merged_from":3,"merged_names":null,"is_terminus":false,"routes":[{"ref":"Metro","name":"NFTA Metro Rail","route_color":"#004990"}],"pass_count":1,"station_degree":2,"codes":null,"is_interchange":false,"station_role":"normal"},"geometry":{"type":"Point","coordinates":[-78.8740857,42.88661820000001]},"__memberLines":{}},{"type":"Feature","properties":{"station_id":"n7768180669","station_name":"Church","station_name_local":"Church","station_name_en":null,"city":"Buffalo","country":"United States","lines":["Metro"],"wikipedia":null,"merged_from":3,"merged_names":null,"is_terminus":false,"routes":[{"ref":"Metro","name":"NFTA Metro Rail","route_color":"#004990"}],"pass_count":1,"station_degree":2,"codes":null,"is_interchange":false,"station_role":"normal"},"geometry":{"type":"Point","coordinates":[-78.87500126666667,42.88379916666667]},"__memberLines":{}},{"type":"Feature","properties":{"station_id":"n7768180671","station_name":"Canalside","station_name_local":"Canalside","station_name_en":null,"city":"Buffalo","country":"United States","lines":["Metro"],"wikipedia":null,"merged_from":3,"merged_names":null,"is_terminus":false,"routes":[{"ref":"Metro","name":"NFTA Metro Rail","route_color":"#004990"}],"pass_count":1,"station_degree":2,"codes":null,"is_interchange":false,"station_role":"normal"},"geometry":{"type":"Point","coordinates":[-78.87687823333333,42.87803363333334]},"__memberLines":{}},{"type":"Feature","properties":{"station_id":"n7768216387","station_name":"Fountain Plaza","station_name_local":"Fountain Plaza","station_name_en":null,"city":"Buffalo","country":"United States","lines":["Metro"],"wikipedia":null,"merged_from":3,"merged_names":null,"is_terminus":false,"routes":[{"ref":"Metro","name":"NFTA Metro Rail","route_color":"#004990"}],"pass_count":1,"station_degree":2,"codes":null,"is_interchange":false,"station_role":"normal"},"geometry":{"type":"Point","coordinates":[-78.87316146666666,42.8894682]},"__memberLines":{}},{"type":"Feature","properties":{"station_id":"n7768318474","station_name":"University","station_name_local":"University","station_name_en":null,"city":"Buffalo","country":"United States","lines":["Metro"],"wikipedia":null,"merged_from":3,"merged_names":null,"is_terminus":true,"routes":[{"ref":"Metro","name":"NFTA Metro Rail","route_color":"#004990"}],"pass_count":1,"station_degree":1,"codes":null,"is_interchange":false,"station_role":"terminus"},"geometry":{"type":"Point","coordinates":[-78.8200724,42.954641699999996]},"__memberLines":{}},{"type":"Feature","properties":{"station_id":"n7768366086","station_name":"Allen/Medical Campus","station_name_local":"Allen/Medical Campus","station_name_en":null,"city":"Buffalo","country":"United States","lines":["Metro"],"wikipedia":null,"merged_from":3,"merged_names":null,"is_terminus":false,"routes":[{"ref":"Metro","name":"NFTA Metro Rail","route_color":"#004990"}],"pass_count":1,"station_degree":2,"codes":null,"is_interchange":false,"station_role":"normal"},"geometry":{"type":"Point","coordinates":[-78.86988646666667,42.89941076666667]},"__memberLines":{}},{"type":"Feature","properties":{"station_id":"n7768366088","station_name":"Summer–Best","station_name_local":"Summer–Best","station_name_en":null,"city":"Buffalo","country":"United States","lines":["Metro"],"wikipedia":null,"merged_from":3,"merged_names":null,"is_terminus":false,"routes":[{"ref":"Metro","name":"NFTA Metro Rail","route_color":"#004990"}],"pass_count":1,"station_degree":2,"codes":null,"is_interchange":false,"station_role":"normal"},"geometry":{"type":"Point","coordinates":[-78.86811913333332,42.9047265]},"__memberLines":{}},{"type":"Feature","properties":{"station_id":"n7768366090","station_name":"Utica","station_name_local":"Utica","station_name_en":null,"city":"Buffalo","country":"United States","lines":["Metro"],"wikipedia":null,"merged_from":3,"merged_names":null,"is_terminus":false,"routes":[{"ref":"Metro","name":"NFTA Metro Rail","route_color":"#004990"}],"pass_count":1,"station_degree":2,"codes":null,"is_interchange":false,"station_role":"normal"},"geometry":{"type":"Point","coordinates":[-78.86582033333333,42.91153536666667]},"__memberLines":{}},{"type":"Feature","properties":{"station_id":"n7768366092","station_name":"Delavan/Canisius College","station_name_local":"Delavan/Canisius College","station_name_en":null,"city":"Buffalo","country":"United States","lines":["Metro"],"wikipedia":null,"merged_from":3,"merged_names":null,"is_terminus":false,"routes":[{"ref":"Metro","name":"NFTA Metro Rail","route_color":"#004990"}],"pass_count":1,"station_degree":2,"codes":null,"is_interchange":false,"station_role":"normal"},"geometry":{"type":"Point","coordinates":[-78.85690803333333,42.9225463]},"__memberLines":{}},{"type":"Feature","properties":{"station_id":"n7768366096","station_name":"Humboldt–Hospital","station_name_local":"Humboldt–Hospital","station_name_en":null,"city":"Buffalo","country":"United States","lines":["Metro"],"wikipedia":null,"merged_from":3,"merged_names":null,"is_terminus":false,"routes":[{"ref":"Metro","name":"NFTA Metro Rail","route_color":"#004990"}],"pass_count":1,"station_degree":2,"codes":null,"is_interchange":false,"station_role":"normal"},"geometry":{"type":"Point","coordinates":[-78.8516161,42.92755813333334]},"__memberLines":{}},{"type":"Feature","properties":{"station_id":"n7768366103","station_name":"Amherst Street","station_name_local":"Amherst Street","station_name_en":null,"city":"Buffalo","country":"United States","lines":["Metro"],"wikipedia":null,"merged_from":3,"merged_names":null,"is_terminus":false,"routes":[{"ref":"Metro","name":"NFTA Metro Rail","route_color":"#004990"}],"pass_count":1,"station_degree":2,"codes":null,"is_interchange":false,"station_role":"normal"},"geometry":{"type":"Point","coordinates":[-78.83835953333333,42.9399301]},"__memberLines":{}},{"type":"Feature","properties":{"station_id":"n7768366110","station_name":"LaSalle","station_name_local":"LaSalle","station_name_en":null,"city":"Buffalo","country":"United States","lines":["Metro"],"wikipedia":null,"merged_from":3,"merged_names":null,"is_terminus":false,"routes":[{"ref":"Metro","name":"NFTA Metro Rail","route_color":"#004990"}],"pass_count":1,"station_degree":2,"codes":null,"is_interchange":false,"station_role":"normal"},"geometry":{"type":"Point","coordinates":[-78.82974666666667,42.947739266666666]},"__memberLines":{}},{"type":"Feature","properties":{"station_id":"n13362479298","station_name":"DL&W","station_name_local":"DL&W","station_name_en":null,"city":"Buffalo","country":"United States","lines":["Metro"],"wikipedia":null,"merged_from":3,"merged_names":null,"is_terminus":true,"routes":[{"ref":"Metro","name":"NFTA Metro Rail","route_color":"#004990"}],"pass_count":1,"station_degree":1,"codes":null,"is_interchange":false,"station_role":"terminus"},"geometry":{"type":"Point","coordinates":[-78.87625583333333,42.8736332]},"__memberLines":{}}]}