{"type":"FeatureCollection","metro_system":{"continent":"europe","country":"Italy","city":"Turin","official_website":null,"official_map":"https://en.wikipedia.org/wiki/Turin_Metro","wikipedia":"en:Turin Metro","wiki":true,"wikipedia_zh":"zh:都灵地铁","line_count":1,"segment_count":1,"station_count":23,"modes":["metro"],"audit":{"strategies_tried":[],"passed":true,"checks":[{"id":"system_exists","ok":true,"detail":"matched OSM system metro-maps/europe/italy/eu-ita-turin/eu-ita-turin.geojson","level":"error"},{"id":"has_lines","ok":true,"detail":"1 lines","level":"error"},{"id":"has_stations","ok":true,"detail":"23 stations","level":"error"},{"id":"station_count_info","ok":true,"detail":"OSM 23 站（wiki List 記 23，計法含轉乘重複，僅參考）","level":"warn"},{"id":"stations_have_lines","ok":true,"detail":"23/23 站皆有所屬路線","level":"error"},{"id":"line_geometry_stations","ok":true,"detail":"23 個折點/端點皆為車站","level":"error"},{"id":"route_stations_match_geometry","ok":true,"detail":"各線車站列表與圖面一致","level":"error"},{"id":"interchange_rule","ok":true,"detail":"所有車站紅/藍點符合骨架＋路線色規則（藍＝端點、紅＝交叉）","level":"error"},{"id":"stations_named","ok":true,"detail":"23/23 站皆有名稱","level":"error"},{"id":"station_order","ok":true,"detail":"所有線路站序合理","level":"warn"},{"id":"line_wiki_stations","ok":true,"detail":"各線站數與 wiki 線路條目相符（營運中站數）","level":"error"},{"id":"line_wiki_coverage","ok":false,"detail":"1 條線無 wiki 站數對照：M1","level":"warn"}],"reasons":[],"warnings":["1 條線無 wiki 站數對照：M1"],"audited_at":"2026-07-27T02:38:22.623Z"}},"features":[{"type":"Feature","properties":{"seg_id":"turin-0","routes":[{"route_id":"rm9449959","route_name":"M1","route_name_local":"M1","route_name_en":null,"route_ref":"M1","route_color":"#fff200","wikipedia":null,"osm_route_ids":[386242,1204590],"status":null,"order_suspect":0,"span_suspect":0,"stations":[{"station_id":"n1481306407","station_name":"Fermi"},{"station_id":"n332648897","station_name":"Paradiso"},{"station_id":"n496268561","station_name":"Marche"},{"station_id":"n496268560","station_name":"Massaua"},{"station_id":"n496268559","station_name":"Pozzo Strada"},{"station_id":"n496268558","station_name":"Monte Grappa"},{"station_id":"n332648726","station_name":"Rivoli"},{"station_id":"n1095052533","station_name":"Racconigi"},{"station_id":"n332648606","station_name":"Bernini"},{"station_id":"n2081499942","station_name":"Principi d'Acaja"},{"station_id":"n432803698","station_name":"XVIII Dicembre"},{"station_id":"n432803701","station_name":"Porta Susa"},{"station_id":"n543360161","station_name":"Vinzaglio"},{"station_id":"n254594416","station_name":"Re Umberto"},{"station_id":"n254594415","station_name":"Porta Nuova"},{"station_id":"n1622042729","station_name":"Marconi"},{"station_id":"n1621697594","station_name":"Nizza"},{"station_id":"n893193542","station_name":"Dante"},{"station_id":"n3253332071","station_name":"Carducci-Molinette"},{"station_id":"n1621378603","station_name":"Spezia"},{"station_id":"n4076608590","station_name":"Lingotto"},{"station_id":"n6257614747","station_name":"Italia '61 - Regione Piemonte"},{"station_id":"n6257614746","station_name":"Bengasi"}]}],"route_count":1,"route_refs":["M1"],"route_colors":["#fff200"],"city":"Turin","country":"Italy"},"geometry":{"type":"MultiLineString","coordinates":[[[7.591176,45.0759955],[7.6023968,45.0738513],[7.6147998,45.0743535],[7.62014,45.0745688],[7.6291804,45.0749418],[7.6364023,45.0752393],[7.6442219,45.0755539],[7.6490993,45.0757511],[7.6557921,45.0760262],[7.6646405,45.0763861],[7.6679848,45.0737673],[7.6652976,45.0706476],[7.6663568,45.0672906],[7.6741445,45.0644868],[7.6789575,45.0627539],[7.6768522,45.0571422],[7.6746207,45.0514359],[7.6728829,45.0469037],[7.6711553,45.0424484],[7.6694941,45.0381342],[7.6668834,45.0314038],[7.6642899,45.0246783],[7.6613021,45.0169671]]]}},{"type":"Feature","properties":{"station_id":"n254594415","station_name":"Porta Nuova","station_name_local":"Porta Nuova","station_name_en":null,"city":"Turin","country":"Italy","lines":["M1"],"wikipedia":"it:Porta Nuova (metropolitana di Torino)","is_terminus":false,"codes":["8224"],"routes":[{"ref":"M1","name":"M1","route_color":"#fff200"}],"pass_count":1,"station_degree":2,"merged_from":null,"merged_names":null,"is_interchange":false,"station_role":"normal"},"geometry":{"type":"Point","coordinates":[7.6789575,45.0627539]},"__memberLines":{}},{"type":"Feature","properties":{"station_id":"n254594416","station_name":"Re Umberto","station_name_local":"Re Umberto","station_name_en":null,"city":"Turin","country":"Italy","lines":["M1"],"wikipedia":"it:Re Umberto (metropolitana di Torino)","is_terminus":false,"codes":["8223"],"routes":[{"ref":"M1","name":"M1","route_color":"#fff200"}],"pass_count":1,"station_degree":2,"merged_from":null,"merged_names":null,"is_interchange":false,"station_role":"normal"},"geometry":{"type":"Point","coordinates":[7.6741445,45.0644868]},"__memberLines":{}},{"type":"Feature","properties":{"station_id":"n332648606","station_name":"Bernini","station_name_local":"Bernini","station_name_en":null,"city":"Turin","country":"Italy","lines":["M1"],"wikipedia":"it:Bernini (metropolitana di Torino)","is_terminus":false,"codes":["8218"],"routes":[{"ref":"M1","name":"M1","route_color":"#fff200"}],"pass_count":1,"station_degree":2,"merged_from":null,"merged_names":null,"is_interchange":false,"station_role":"normal"},"geometry":{"type":"Point","coordinates":[7.6557921,45.0760262]},"__memberLines":{}},{"type":"Feature","properties":{"station_id":"n332648726","station_name":"Rivoli","station_name_local":"Rivoli","station_name_en":null,"city":"Turin","country":"Italy","lines":["M1"],"wikipedia":"it:Rivoli (metropolitana di Torino)","is_terminus":false,"codes":["8216"],"routes":[{"ref":"M1","name":"M1","route_color":"#fff200"}],"pass_count":1,"station_degree":2,"merged_from":null,"merged_names":null,"is_interchange":false,"station_role":"normal"},"geometry":{"type":"Point","coordinates":[7.6442219,45.0755539]},"__memberLines":{}},{"type":"Feature","properties":{"station_id":"n332648897","station_name":"Paradiso","station_name_local":"Paradiso","station_name_en":null,"city":"Turin","country":"Italy","lines":["M1"],"wikipedia":"it:Paradiso (metropolitana di Torino)","is_terminus":false,"codes":["8211"],"routes":[{"ref":"M1","name":"M1","route_color":"#fff200"}],"pass_count":1,"station_degree":2,"merged_from":null,"merged_names":null,"is_interchange":false,"station_role":"normal"},"geometry":{"type":"Point","coordinates":[7.6023968,45.0738513]},"__memberLines":{}},{"type":"Feature","properties":{"station_id":"n432803698","station_name":"XVIII Dicembre","station_name_local":"XVIII Dicembre","station_name_en":null,"city":"Turin","country":"Italy","lines":["M1"],"wikipedia":null,"is_terminus":false,"codes":["8220"],"routes":[{"ref":"M1","name":"M1","route_color":"#fff200"}],"pass_count":1,"station_degree":2,"merged_from":null,"merged_names":null,"is_interchange":false,"station_role":"normal"},"geometry":{"type":"Point","coordinates":[7.6679848,45.0737673]},"__memberLines":{}},{"type":"Feature","properties":{"station_id":"n432803701","station_name":"Porta Susa","station_name_local":"Porta Susa","station_name_en":null,"city":"Turin","country":"Italy","lines":["M1"],"wikipedia":"it:Porta Susa (metropolitana di Torino)","is_terminus":false,"codes":["8221"],"routes":[{"ref":"M1","name":"M1","route_color":"#fff200"}],"pass_count":1,"station_degree":2,"merged_from":null,"merged_names":null,"is_interchange":false,"station_role":"normal"},"geometry":{"type":"Point","coordinates":[7.6652976,45.0706476]},"__memberLines":{}},{"type":"Feature","properties":{"station_id":"n496268558","station_name":"Monte Grappa","station_name_local":"Monte Grappa","station_name_en":null,"city":"Turin","country":"Italy","lines":["M1"],"wikipedia":"it:Monte Grappa (metropolitana di Torino)","is_terminus":false,"codes":["8215"],"routes":[{"ref":"M1","name":"M1","route_color":"#fff200"}],"pass_count":1,"station_degree":2,"merged_from":null,"merged_names":null,"is_interchange":false,"station_role":"normal"},"geometry":{"type":"Point","coordinates":[7.6364023,45.0752393]},"__memberLines":{}},{"type":"Feature","properties":{"station_id":"n496268559","station_name":"Pozzo Strada","station_name_local":"Pozzo Strada","station_name_en":null,"city":"Turin","country":"Italy","lines":["M1"],"wikipedia":"it:Pozzo Strada (metropolitana di Torino)","is_terminus":false,"codes":["8214"],"routes":[{"ref":"M1","name":"M1","route_color":"#fff200"}],"pass_count":1,"station_degree":2,"merged_from":null,"merged_names":null,"is_interchange":false,"station_role":"normal"},"geometry":{"type":"Point","coordinates":[7.6291804,45.0749418]},"__memberLines":{}},{"type":"Feature","properties":{"station_id":"n496268560","station_name":"Massaua","station_name_local":"Massaua","station_name_en":null,"city":"Turin","country":"Italy","lines":["M1"],"wikipedia":"it:Massaua (metropolitana di Torino)","is_terminus":false,"codes":["8213"],"routes":[{"ref":"M1","name":"M1","route_color":"#fff200"}],"pass_count":1,"station_degree":2,"merged_from":null,"merged_names":null,"is_interchange":false,"station_role":"normal"},"geometry":{"type":"Point","coordinates":[7.62014,45.0745688]},"__memberLines":{}},{"type":"Feature","properties":{"station_id":"n496268561","station_name":"Marche","station_name_local":"Marche","station_name_en":null,"city":"Turin","country":"Italy","lines":["M1"],"wikipedia":"it:Marche (metropolitana di Torino)","is_terminus":false,"codes":["8212"],"routes":[{"ref":"M1","name":"M1","route_color":"#fff200"}],"pass_count":1,"station_degree":2,"merged_from":null,"merged_names":null,"is_interchange":false,"station_role":"normal"},"geometry":{"type":"Point","coordinates":[7.6147998,45.0743535]},"__memberLines":{}},{"type":"Feature","properties":{"station_id":"n543360161","station_name":"Vinzaglio","station_name_local":"Vinzaglio","station_name_en":null,"city":"Turin","country":"Italy","lines":["M1"],"wikipedia":"it:Vinzaglio (metropolitana di Torino)","is_terminus":false,"codes":["8222"],"routes":[{"ref":"M1","name":"M1","route_color":"#fff200"}],"pass_count":1,"station_degree":2,"merged_from":null,"merged_names":null,"is_interchange":false,"station_role":"normal"},"geometry":{"type":"Point","coordinates":[7.6663568,45.0672906]},"__memberLines":{}},{"type":"Feature","properties":{"station_id":"n893193542","station_name":"Dante","station_name_local":"Dante","station_name_en":null,"city":"Turin","country":"Italy","lines":["M1"],"wikipedia":"it:Dante (metropolitana di Torino)","is_terminus":false,"codes":["8227"],"routes":[{"ref":"M1","name":"M1","route_color":"#fff200"}],"pass_count":1,"station_degree":2,"merged_from":null,"merged_names":null,"is_interchange":false,"station_role":"normal"},"geometry":{"type":"Point","coordinates":[7.6728829,45.0469037]},"__memberLines":{}},{"type":"Feature","properties":{"station_id":"n1095052533","station_name":"Racconigi","station_name_local":"Racconigi","station_name_en":null,"city":"Turin","country":"Italy","lines":["M1"],"wikipedia":"it:Racconigi (metropolitana di Torino)","is_terminus":false,"codes":["8217"],"routes":[{"ref":"M1","name":"M1","route_color":"#fff200"}],"pass_count":1,"station_degree":2,"merged_from":null,"merged_names":null,"is_interchange":false,"station_role":"normal"},"geometry":{"type":"Point","coordinates":[7.6490993,45.0757511]},"__memberLines":{}},{"type":"Feature","properties":{"station_id":"n1481306407","station_name":"Fermi","station_name_local":"Fermi","station_name_en":null,"city":"Turin","country":"Italy","lines":["M1"],"wikipedia":"it:Fermi (metropolitana di Torino)","is_terminus":true,"codes":["8210"],"routes":[{"ref":"M1","name":"M1","route_color":"#fff200"}],"pass_count":1,"station_degree":1,"merged_from":null,"merged_names":null,"is_interchange":false,"station_role":"terminus"},"geometry":{"type":"Point","coordinates":[7.591176,45.0759955]},"__memberLines":{}},{"type":"Feature","properties":{"station_id":"n1621378603","station_name":"Spezia","station_name_local":"Spezia","station_name_en":null,"city":"Turin","country":"Italy","lines":["M1"],"wikipedia":"it:Spezia (metropolitana di Torino)","is_terminus":false,"codes":["8229"],"routes":[{"ref":"M1","name":"M1","route_color":"#fff200"}],"pass_count":1,"station_degree":2,"merged_from":null,"merged_names":null,"is_interchange":false,"station_role":"normal"},"geometry":{"type":"Point","coordinates":[7.6694941,45.0381342]},"__memberLines":{}},{"type":"Feature","properties":{"station_id":"n1621697594","station_name":"Nizza","station_name_local":"Nizza","station_name_en":null,"city":"Turin","country":"Italy","lines":["M1"],"wikipedia":"it:Nizza (metropolitana di Torino)","is_terminus":false,"codes":["8226"],"routes":[{"ref":"M1","name":"M1","route_color":"#fff200"}],"pass_count":1,"station_degree":2,"merged_from":null,"merged_names":null,"is_interchange":false,"station_role":"normal"},"geometry":{"type":"Point","coordinates":[7.6746207,45.0514359]},"__memberLines":{}},{"type":"Feature","properties":{"station_id":"n1622042729","station_name":"Marconi","station_name_local":"Marconi","station_name_en":null,"city":"Turin","country":"Italy","lines":["M1"],"wikipedia":"it:Marconi (metropolitana di Torino)","is_terminus":false,"codes":["8225"],"routes":[{"ref":"M1","name":"M1","route_color":"#fff200"}],"pass_count":1,"station_degree":2,"merged_from":null,"merged_names":null,"is_interchange":false,"station_role":"normal"},"geometry":{"type":"Point","coordinates":[7.6768522,45.0571422]},"__memberLines":{}},{"type":"Feature","properties":{"station_id":"n2081499942","station_name":"Principi d'Acaja","station_name_local":"Principi d'Acaja","station_name_en":null,"city":"Turin","country":"Italy","lines":["M1"],"wikipedia":"it:Principi d'Acaja (metropolitana di Torino)","is_terminus":false,"codes":["8219"],"routes":[{"ref":"M1","name":"M1","route_color":"#fff200"}],"pass_count":1,"station_degree":2,"merged_from":null,"merged_names":null,"is_interchange":false,"station_role":"normal"},"geometry":{"type":"Point","coordinates":[7.6646405,45.0763861]},"__memberLines":{}},{"type":"Feature","properties":{"station_id":"n3253332071","station_name":"Carducci-Molinette","station_name_local":"Carducci-Molinette","station_name_en":null,"city":"Turin","country":"Italy","lines":["M1"],"wikipedia":"it:Carducci-Molinette","is_terminus":false,"codes":["8228"],"routes":[{"ref":"M1","name":"M1","route_color":"#fff200"}],"pass_count":1,"station_degree":2,"merged_from":null,"merged_names":null,"is_interchange":false,"station_role":"normal"},"geometry":{"type":"Point","coordinates":[7.6711553,45.0424484]},"__memberLines":{}},{"type":"Feature","properties":{"station_id":"n4076608590","station_name":"Lingotto","station_name_local":"Lingotto","station_name_en":null,"city":"Turin","country":"Italy","lines":["M1"],"wikipedia":"it:Lingotto (metropolitana di Torino)","is_terminus":false,"codes":["8230"],"routes":[{"ref":"M1","name":"M1","route_color":"#fff200"}],"pass_count":1,"station_degree":2,"merged_from":null,"merged_names":null,"is_interchange":false,"station_role":"normal"},"geometry":{"type":"Point","coordinates":[7.6668834,45.0314038]},"__memberLines":{}},{"type":"Feature","properties":{"station_id":"n6257614746","station_name":"Bengasi","station_name_local":"Bengasi","station_name_en":null,"city":"Turin","country":"Italy","lines":["M1"],"wikipedia":"it:Bengasi (metropolitana di Torino)","is_terminus":true,"codes":["8233"],"routes":[{"ref":"M1","name":"M1","route_color":"#fff200"}],"pass_count":1,"station_degree":1,"merged_from":null,"merged_names":null,"is_interchange":false,"station_role":"terminus"},"geometry":{"type":"Point","coordinates":[7.6613021,45.0169671]},"__memberLines":{}},{"type":"Feature","properties":{"station_id":"n6257614747","station_name":"Italia '61 - Regione Piemonte","station_name_local":"Italia '61 - Regione Piemonte","station_name_en":null,"city":"Turin","country":"Italy","lines":["M1"],"wikipedia":"it:Italia '61 (metropolitana di Torino)","is_terminus":false,"codes":["8232"],"routes":[{"ref":"M1","name":"M1","route_color":"#fff200"}],"pass_count":1,"station_degree":2,"merged_from":null,"merged_names":null,"is_interchange":false,"station_role":"normal"},"geometry":{"type":"Point","coordinates":[7.6642899,45.0246783]},"__memberLines":{}}]}