{"type":"FeatureCollection","features":[{"type":"Feature","properties":{"way_id":1092273109,"route_colors":[],"route_refs":["3","1","4","4а"]},"geometry":{"type":"LineString","coordinates":[[44.7369415,48.8124566],[44.7370384,48.8124273],[44.7374432,48.8122929]]}},{"type":"Feature","properties":{"way_id":35855033,"route_colors":[],"route_refs":["3","1","4","4а"]},"geometry":{"type":"LineString","coordinates":[[44.7374432,48.8122929],[44.7383733,48.8120006],[44.7392768,48.8117266],[44.7403432,48.8114013],[44.7422946,48.810806],[44.7425367,48.8107346],[44.743559,48.8104154],[44.7444018,48.8101522],[44.7452524,48.8098866],[44.7471553,48.8093114],[44.7478444,48.8091031],[44.7479829,48.8090612],[44.7481841,48.8090004],[44.7505978,48.808256],[44.7524944,48.8076655],[44.7527079,48.8076017],[44.7530094,48.8075038],[44.7532548,48.8074325],[44.7548358,48.8069734],[44.7579843,48.8060029],[44.75822,48.80593],[44.758341,48.8058839],[44.7584483,48.805815],[44.7585449,48.8057196],[44.7586082,48.8056181],[44.7586454,48.8055474],[44.7586721,48.8054647],[44.7586897,48.8054025],[44.758691,48.8053266],[44.7586736,48.8052489],[44.7586314,48.8051788],[44.7584764,48.8049697],[44.7576005,48.8037236],[44.756472,48.8019875],[44.7556989,48.8009075],[44.7555757,48.8007354],[44.7555288,48.800606],[44.7555347,48.8005249],[44.7555698,48.8004323],[44.7556226,48.8003531],[44.7556988,48.8002817],[44.7558864,48.8001794],[44.7568317,48.7998863],[44.7587097,48.7993041],[44.7594837,48.7990647],[44.7605538,48.7987324],[44.76111,48.79856],[44.7628626,48.798021],[44.765874,48.7970949],[44.7663899,48.7969397],[44.7704837,48.7955852],[44.7707203,48.7955069],[44.770903,48.7954466],[44.77165,48.7952],[44.7738205,48.7944681],[44.773931,48.7944308],[44.7740436,48.7943928],[44.7752836,48.7939747],[44.7768127,48.7934591],[44.777134,48.7933507],[44.7771793,48.7933355],[44.7772495,48.7933118],[44.7775937,48.7931957],[44.77853,48.79288],[44.7790277,48.7927139],[44.7790741,48.7926984],[44.7795516,48.7925474]]}},{"type":"Feature","properties":{"way_id":856024961,"route_colors":[],"route_refs":["3"]},"geometry":{"type":"LineString","coordinates":[[44.7795516,48.7925474],[44.7797598,48.7924768],[44.7798429,48.7924432],[44.7799207,48.792399],[44.7799839,48.7923233],[44.7800092,48.7922409],[44.779995,48.7921493]]}},{"type":"Feature","properties":{"way_id":1089470275,"route_colors":[],"route_refs":["3","2","2а"]},"geometry":{"type":"LineString","coordinates":[[44.779995,48.7921493],[44.7797916,48.791869],[44.7797468,48.7918109],[44.7796807,48.7917404],[44.7796203,48.7916997],[44.7795459,48.7916697],[44.7794715,48.791656],[44.7794078,48.7916547],[44.7792388,48.7916763],[44.7789893,48.7917214],[44.7789544,48.7917284],[44.7786909,48.7917797],[44.7785414,48.7918022],[44.7784442,48.7918097],[44.7782946,48.7918097],[44.7781645,48.7918035],[44.7779788,48.7917788],[44.7776811,48.7917201],[44.7763265,48.7914348],[44.7737539,48.7908935],[44.7733873,48.7908104],[44.7726767,48.7906588],[44.7705702,48.7901935],[44.7693479,48.7899373],[44.769175,48.7899022],[44.7657902,48.78918],[44.7655226,48.7891232],[44.765417,48.7891004],[44.7642064,48.7888223],[44.76413,48.7888055],[44.7635877,48.7886911],[44.7634546,48.7886555],[44.7633527,48.7886016],[44.7632904,48.7885397],[44.7632562,48.7884589],[44.7632622,48.7883462],[44.7633279,48.7881885],[44.7633976,48.7880529]]}},{"type":"Feature","properties":{"way_id":35853439,"route_colors":[],"route_refs":["3","2","2а"]},"geometry":{"type":"LineString","coordinates":[[44.7633976,48.7880529],[44.764195,48.7864191],[44.7646223,48.7855436],[44.7647393,48.785309],[44.7648055,48.7851754],[44.765604,48.7835767],[44.7656993,48.783382],[44.7657532,48.7832891],[44.7665455,48.7816721],[44.7671106,48.7805236],[44.7671339,48.7804761],[44.7672007,48.7803404],[44.7672245,48.780267],[44.7672392,48.7801999],[44.7672366,48.7801477],[44.7672285,48.7800859],[44.7671896,48.7800346],[44.7671252,48.7799675],[44.7670133,48.7798798],[44.7667593,48.7796807],[44.7663126,48.7793308],[44.7661175,48.7791781],[44.764321,48.7777508],[44.7628875,48.7766533],[44.7626526,48.7764561],[44.7625248,48.7763505],[44.7624749,48.7763111],[44.7624252,48.776263],[44.7623823,48.7761918],[44.7623777,48.7761452],[44.7623858,48.7760816],[44.7624086,48.7760193],[44.7624394,48.7759755],[44.762489,48.7759296],[44.7642202,48.7749752],[44.7652468,48.7744007],[44.7675147,48.7731438]]}},{"type":"Feature","properties":{"way_id":1094735107,"route_colors":[],"route_refs":["3","2","2а"]},"geometry":{"type":"LineString","coordinates":[[44.7675147,48.7731438],[44.7676007,48.7730766],[44.7676295,48.7730112],[44.7676349,48.7729723],[44.7676256,48.7728008]]}},{"type":"Feature","properties":{"way_id":1090434120,"route_colors":[],"route_refs":["3","2","2а"]},"geometry":{"type":"LineString","coordinates":[[44.7676871,48.7731008],[44.7676389,48.7731273],[44.7652777,48.774428],[44.7642499,48.7749999],[44.7625843,48.775911],[44.7625159,48.775953],[44.7624649,48.7760095],[44.7624374,48.7760692],[44.7624307,48.776116],[44.7624268,48.7761675],[44.7624625,48.7762332],[44.762512,48.7762824],[44.7625687,48.776327],[44.7627633,48.7764889],[44.7629331,48.7766285],[44.7643647,48.777729],[44.7661879,48.7791811],[44.766351,48.7793091],[44.7668031,48.7796599],[44.7669656,48.7797861],[44.7670518,48.7798576],[44.7671588,48.7799462],[44.7672097,48.7799993],[44.7672558,48.780065],[44.7672822,48.7801504],[44.7672808,48.7802114],[44.7672661,48.7802829],[44.7672433,48.7803634],[44.7671752,48.7804995],[44.7665848,48.7816817],[44.7657942,48.7832977],[44.7657388,48.7833904],[44.7656446,48.7835854]]}},{"type":"Feature","properties":{"way_id":850190281,"route_colors":[],"route_refs":["3","2","2а"]},"geometry":{"type":"LineString","coordinates":[[44.7656446,48.7835854],[44.76486,48.7851871],[44.7647943,48.7853193],[44.7646769,48.785557],[44.7642472,48.7864313],[44.7634687,48.7880149],[44.7633773,48.7881988],[44.7633158,48.7883489],[44.7633152,48.7884505],[44.7633506,48.7885191],[44.7633997,48.7885786],[44.7634835,48.7886263],[44.7636146,48.7886646],[44.7641348,48.7887794],[44.7641866,48.7887889],[44.765436,48.7890658],[44.7656673,48.7891171],[44.7658063,48.7891485],[44.7691922,48.7898658],[44.7693624,48.7899034],[44.7705877,48.790162],[44.7726922,48.7906276],[44.7734004,48.7907849],[44.7737716,48.7908584],[44.7763403,48.7914039],[44.7776844,48.7916874],[44.7780076,48.7917488],[44.7781907,48.7917744],[44.7783644,48.7917801],[44.7785347,48.7917691],[44.7786795,48.7917466],[44.7789463,48.7916961],[44.7789934,48.7916869],[44.779277,48.7916383],[44.779401,48.7916277],[44.7794748,48.7916277],[44.7795486,48.7916361],[44.7796411,48.7916657],[44.779731,48.791732],[44.779784,48.7917914],[44.7798306,48.7918535],[44.7800415,48.7921338]]}},{"type":"Feature","properties":{"way_id":856024962,"route_colors":[],"route_refs":["3"]},"geometry":{"type":"LineString","coordinates":[[44.7800415,48.7921338],[44.7800581,48.792227],[44.7800495,48.79227],[44.7800263,48.7923324],[44.7799784,48.7924052],[44.7798885,48.7924653],[44.7797015,48.7925344],[44.7795668,48.7925849]]}},{"type":"Feature","properties":{"way_id":850193963,"route_colors":[],"route_refs":["3","1","4","4а"]},"geometry":{"type":"LineString","coordinates":[[44.7795668,48.7925849],[44.7791043,48.7927239],[44.7785516,48.7929081],[44.7776147,48.793224],[44.7772729,48.7933393],[44.7772011,48.7933635],[44.7769845,48.7934365],[44.7768345,48.7934871],[44.7753068,48.7940022],[44.7740647,48.7944211],[44.7739539,48.7944584],[44.7738416,48.7944963],[44.7716716,48.7952281],[44.7712046,48.7953806],[44.7709237,48.795475],[44.7707404,48.7955355],[44.7663557,48.7969804],[44.7658939,48.7971234],[44.7628827,48.7980496],[44.7611303,48.7985885],[44.7605747,48.7987607],[44.7595932,48.7990616],[44.7587297,48.7993327],[44.7568528,48.7999145],[44.7559122,48.8002061],[44.7557342,48.8003032],[44.7556644,48.8003686],[44.7556152,48.8004425],[44.7555822,48.8005295],[44.7555769,48.800603],[44.755621,48.8007249],[44.7558544,48.8010509],[44.7565153,48.8019743],[44.7576523,48.8037068],[44.7585431,48.804978],[44.7586826,48.8051788],[44.7587192,48.805248],[44.758734,48.8053354],[44.7587313,48.8054149],[44.7587165,48.8054776],[44.7586964,48.8055359],[44.7586374,48.8056472],[44.758577,48.805732],[44.7584791,48.805838],[44.7583424,48.8059193],[44.7582431,48.8059576],[44.7580049,48.8060313],[44.7548549,48.8070022],[44.7534648,48.8074028],[44.753274,48.8074596],[44.7530292,48.8075324],[44.7527278,48.8076281],[44.7506218,48.8082882],[44.7482062,48.8090299],[44.7479975,48.8090944],[44.7478671,48.8091347],[44.7471101,48.8093685],[44.7443928,48.8102063],[44.7435191,48.8104757],[44.742563,48.8107705],[44.7416117,48.8110495],[44.7403722,48.8114269],[44.7390551,48.8118279],[44.7377957,48.8122162],[44.7374679,48.8123231]]}},{"type":"Feature","properties":{"way_id":856024957,"route_colors":[],"route_refs":["2"]},"geometry":{"type":"LineString","coordinates":[[44.8455141,48.8391376],[44.8454753,48.839338],[44.8454216,48.8394183],[44.8453237,48.8394828],[44.8452151,48.8395101],[44.8450917,48.8395128],[44.8449697,48.8394845],[44.8448892,48.8394413],[44.8448195,48.839376],[44.8448034,48.8392877],[44.8448382,48.8391924],[44.8449683,48.8390812],[44.845152,48.8389752],[44.8458119,48.8387599]]}},{"type":"Feature","properties":{"way_id":1095131991,"route_colors":[],"route_refs":["2"]},"geometry":{"type":"LineString","coordinates":[[44.8555713,48.8354183],[44.8542838,48.8358703],[44.8529358,48.836335],[44.8470323,48.8383358],[44.8458119,48.8387599]]}},{"type":"Feature","properties":{"way_id":1095131992,"route_colors":[],"route_refs":["2"]},"geometry":{"type":"LineString","coordinates":[[44.856035,48.8352642],[44.8555713,48.8354183]]}},{"type":"Feature","properties":{"way_id":35854970,"route_colors":[],"route_refs":["2"]},"geometry":{"type":"LineString","coordinates":[[44.8665347,48.8263252],[44.8671636,48.8271256],[44.8675185,48.8275771],[44.8684204,48.8287379],[44.8684591,48.8287876],[44.8692209,48.8297679],[44.869312,48.8298907],[44.869359,48.8299922],[44.8693885,48.8300893],[44.8693898,48.8302279],[44.8693657,48.8303507],[44.8693228,48.8304796],[44.8692381,48.8306141],[44.8691002,48.8307506],[44.8689406,48.8308592],[44.868734,48.8309519],[44.8604665,48.8337711],[44.859112,48.8342419],[44.856035,48.8352642]]}},{"type":"Feature","properties":{"way_id":850119324,"route_colors":[],"route_refs":["2"]},"geometry":{"type":"LineString","coordinates":[[44.8665347,48.8263252],[44.8657201,48.8252812],[44.8651598,48.8245629],[44.8640296,48.8231142],[44.8638642,48.8229025],[44.8638119,48.8228356],[44.8637593,48.8227684],[44.8636098,48.8225771],[44.8627291,48.8214578],[44.8619782,48.8204688],[44.861652,48.820052],[44.8613521,48.8196707],[44.8604304,48.8184914],[44.8586998,48.816274],[44.8585142,48.8160389],[44.8571851,48.8143598],[44.8571155,48.8142711],[44.8565561,48.8135654],[44.8556629,48.8124033],[44.8551139,48.8116993],[44.8528973,48.8088411],[44.8513453,48.8068696]]}},{"type":"Feature","properties":{"way_id":850119326,"route_colors":[],"route_refs":["2"]},"geometry":{"type":"LineString","coordinates":[[44.8513453,48.8068696],[44.8512125,48.806776],[44.8510744,48.8067257],[44.8509523,48.8066921],[44.8508464,48.8066806],[44.8507351,48.8066789],[44.8506184,48.8066912],[44.8504964,48.806723],[44.8502203,48.8068183]]}},{"type":"Feature","properties":{"way_id":855911746,"route_colors":[],"route_refs":["2","7","7к"]},"geometry":{"type":"LineString","coordinates":[[44.8502203,48.8068183],[44.84998,48.8068944],[44.849198,48.8071485]]}},{"type":"Feature","properties":{"way_id":1092603592,"route_colors":[],"route_refs":["2","7","7к"]},"geometry":{"type":"LineString","coordinates":[[44.849198,48.8071485],[44.84716,48.807856],[44.8469563,48.8079252],[44.8467519,48.8079947]]}},{"type":"Feature","properties":{"way_id":35854974,"route_colors":[],"route_refs":["2","2а","1","7","7к"]},"geometry":{"type":"LineString","coordinates":[[44.8467519,48.8079947],[44.84362,48.80906],[44.8434516,48.8091174],[44.8431216,48.8092299],[44.8429715,48.809281],[44.8428165,48.8093339],[44.8391821,48.8105726],[44.837898,48.8110206],[44.8367343,48.8114253],[44.8367033,48.8114348],[44.8364176,48.8115226],[44.8362563,48.8115722],[44.8355111,48.8118012],[44.8333522,48.8125574],[44.8314767,48.813198],[44.8284929,48.8142016],[44.8281461,48.8143167],[44.8279355,48.8143893],[44.8277816,48.8144424],[44.8276377,48.8144914],[44.8220783,48.8163836]]}},{"type":"Feature","properties":{"way_id":1096249919,"route_colors":[],"route_refs":["2","2а","1"]},"geometry":{"type":"LineString","coordinates":[[44.8220783,48.8163836],[44.8205683,48.8169006],[44.8204188,48.8169556],[44.8193477,48.8173214],[44.8189481,48.8174592]]}},{"type":"Feature","properties":{"way_id":113578313,"route_colors":[],"route_refs":["2","2а","1"]},"geometry":{"type":"LineString","coordinates":[[44.8189481,48.8174592],[44.8188195,48.8175029],[44.8186532,48.8175271],[44.8184948,48.8175208],[44.8183823,48.8175046],[44.8182642,48.8174728],[44.8181851,48.8174393],[44.818117,48.8174073],[44.8156048,48.8161517],[44.8130701,48.8148827],[44.8079804,48.81235],[44.8077785,48.8122452],[44.8076584,48.812184],[44.8073628,48.8120316],[44.8068522,48.811786],[44.8037849,48.8102408],[44.8029317,48.8098156],[44.8027791,48.8097387],[44.8026719,48.8096847]]}},{"type":"Feature","properties":{"way_id":1185159826,"route_colors":[],"route_refs":["2","2а","1"]},"geometry":{"type":"LineString","coordinates":[[44.8026719,48.8096847],[44.8022397,48.8094748],[44.8021415,48.8094251],[44.8019668,48.8093395],[44.8014386,48.8090805]]}},{"type":"Feature","properties":{"way_id":35855031,"route_colors":[],"route_refs":["2","2а","1","4","4а"]},"geometry":{"type":"LineString","coordinates":[[44.8014386,48.8090805],[44.7994875,48.8081034],[44.7987636,48.8077391],[44.7986381,48.8076759],[44.7960782,48.8063873],[44.7927983,48.8047556],[44.7926212,48.8046675],[44.7924377,48.8045763],[44.7921208,48.8044186],[44.7906791,48.8037022],[44.7900514,48.8033348],[44.7896535,48.8030561],[44.7891569,48.8026299],[44.789113,48.80259],[44.7890523,48.8025371],[44.7890076,48.8024889],[44.7888306,48.8022981],[44.7886398,48.8020768],[44.7884609,48.8018693],[44.7879636,48.8013321],[44.7867775,48.7999321],[44.7864337,48.7995314],[44.7856122,48.7986488]]}},{"type":"Feature","properties":{"way_id":1087653003,"route_colors":[],"route_refs":["2","2а","1","4","4а"]},"geometry":{"type":"LineString","coordinates":[[44.7856122,48.7986488],[44.7849154,48.7978399],[44.784473,48.7973259],[44.7844011,48.7972424],[44.7843278,48.7971572],[44.7841909,48.7969982],[44.7821377,48.7946494],[44.7816697,48.7940992],[44.7815102,48.7939189],[44.781197,48.7935647],[44.7811201,48.7934754],[44.7806479,48.7929264],[44.7806031,48.792876],[44.7805431,48.7928083],[44.7804762,48.7927418]]}},{"type":"Feature","properties":{"way_id":1088930721,"route_colors":[],"route_refs":["2","2а"]},"geometry":{"type":"LineString","coordinates":[[44.7804762,48.7927418],[44.7804131,48.7926641],[44.7800581,48.792227],[44.779995,48.7921493]]}},{"type":"Feature","properties":{"way_id":850190370,"route_colors":[],"route_refs":["2","2а"]},"geometry":{"type":"LineString","coordinates":[[44.7800415,48.7921338],[44.7805229,48.7927208]]}},{"type":"Feature","properties":{"way_id":1087653004,"route_colors":[],"route_refs":["2","2а","1","4","4а"]},"geometry":{"type":"LineString","coordinates":[[44.7805229,48.7927208],[44.7806262,48.7928399],[44.7806783,48.7928933],[44.7811663,48.7934572],[44.7812837,48.7935929],[44.7815517,48.7939021],[44.7817092,48.7940839],[44.7821906,48.7946311],[44.7842375,48.796977],[44.784377,48.7971408],[44.7844493,48.7972256],[44.7845206,48.7973094],[44.7849616,48.7978271],[44.7856727,48.7986263]]}},{"type":"Feature","properties":{"way_id":850168659,"route_colors":[],"route_refs":["2","2а","1","4","4а"]},"geometry":{"type":"LineString","coordinates":[[44.7856727,48.7986263],[44.7864832,48.7995103],[44.7868317,48.7999118],[44.7880091,48.8013174],[44.7885051,48.8018561],[44.7886839,48.8020603],[44.7888755,48.8022791],[44.7890511,48.8024726],[44.7890952,48.8025212],[44.7891553,48.8025764],[44.7891971,48.8026166],[44.7896934,48.8030397],[44.7900729,48.803318],[44.7907005,48.8036837],[44.7921409,48.8044009],[44.7924588,48.8045572],[44.7926446,48.8046486],[44.7928195,48.8047345],[44.7961185,48.8063564],[44.7986659,48.8076522],[44.7989721,48.8078079],[44.7995109,48.808082],[44.8013928,48.8090218]]}},{"type":"Feature","properties":{"way_id":1185159827,"route_colors":[],"route_refs":["2","2а","1"]},"geometry":{"type":"LineString","coordinates":[[44.8013928,48.8090218],[44.8016224,48.8091338],[44.8019973,48.8093148],[44.8021666,48.8093965],[44.8025341,48.8095793],[44.8027314,48.8096817]]}},{"type":"Feature","properties":{"way_id":583489031,"route_colors":[],"route_refs":["2","2а","1"]},"geometry":{"type":"LineString","coordinates":[[44.8027314,48.8096817],[44.8029533,48.8097975],[44.8031223,48.8098815],[44.8035064,48.8100784],[44.8037939,48.8102268],[44.8041542,48.8104089],[44.8068492,48.8117422],[44.807019,48.8118217],[44.8072714,48.8119488],[44.8074676,48.8120496],[44.8076872,48.8121542],[44.8080212,48.8123187],[44.8131064,48.8148589],[44.815633,48.8161217],[44.8181716,48.8173876],[44.8182522,48.8174251],[44.8183675,48.8174675],[44.8184828,48.8174896],[44.8185694,48.8174962],[44.8187122,48.8174887],[44.8188262,48.8174684],[44.8189276,48.8174356]]}},{"type":"Feature","properties":{"way_id":850119328,"route_colors":[],"route_refs":["2","2а","1"]},"geometry":{"type":"LineString","coordinates":[[44.8189276,48.8174356],[44.8193236,48.8172936],[44.8205542,48.8168736]]}},{"type":"Feature","properties":{"way_id":850119327,"route_colors":[],"route_refs":["2","2а","1","7","7к"]},"geometry":{"type":"LineString","coordinates":[[44.8205542,48.8168736],[44.822084,48.8163451],[44.8276155,48.8144635],[44.827763,48.8144132],[44.8279132,48.8143612],[44.828125,48.8142878],[44.8284637,48.8141731],[44.831454,48.8131703],[44.8333287,48.8125277],[44.835489,48.8117733],[44.8362325,48.8115422],[44.8365462,48.8114446],[44.8366767,48.811404],[44.836708,48.8113943],[44.837875,48.8109917],[44.8391594,48.8105439],[44.8427937,48.809306],[44.8429494,48.809253],[44.8430999,48.8092017],[44.8434291,48.8090896],[44.843598,48.8090321],[44.8467301,48.8079668]]}},{"type":"Feature","properties":{"way_id":1092603593,"route_colors":[],"route_refs":["2","7","7к"]},"geometry":{"type":"LineString","coordinates":[[44.8467301,48.8079668],[44.8469359,48.8078968],[44.8471377,48.8078282],[44.8492672,48.807095]]}},{"type":"Feature","properties":{"way_id":855911747,"route_colors":[],"route_refs":["2","7","7к"]},"geometry":{"type":"LineString","coordinates":[[44.8492672,48.807095],[44.8497948,48.8069215],[44.8501738,48.8067956]]}},{"type":"Feature","properties":{"way_id":855324765,"route_colors":[],"route_refs":["2"]},"geometry":{"type":"LineString","coordinates":[[44.8501738,48.8067956],[44.8503233,48.8067445],[44.8504856,48.806693],[44.8506197,48.8066568],[44.8507485,48.8066426],[44.8508678,48.80664],[44.8509805,48.8066506],[44.8510998,48.8066797],[44.851238,48.8067433],[44.8513827,48.806855]]}},{"type":"Feature","properties":{"way_id":850119325,"route_colors":[],"route_refs":["2"]},"geometry":{"type":"LineString","coordinates":[[44.8513827,48.806855],[44.8529374,48.8088276],[44.8551555,48.8116842],[44.8557027,48.8123925],[44.8565966,48.8135513],[44.857179,48.8142811],[44.8572839,48.8144126],[44.8585576,48.816025],[44.858773,48.8162976],[44.860474,48.8184772],[44.8613835,48.8196597],[44.8616878,48.8200379],[44.8620245,48.8204564],[44.8627733,48.8214438],[44.863653,48.8225631],[44.8638022,48.822753],[44.8638559,48.8228213],[44.8639084,48.8228881],[44.8640775,48.8231033],[44.8651333,48.8244507],[44.8657705,48.825264],[44.8664712,48.8261581],[44.8665347,48.8263252]]}},{"type":"Feature","properties":{"way_id":856024958,"route_colors":[],"route_refs":["2"]},"geometry":{"type":"LineString","coordinates":[[44.8458119,48.8387599],[44.8456429,48.8388552],[44.8455799,48.8389055],[44.8455463,48.8389602],[44.8455141,48.8391376]]}},{"type":"Feature","properties":{"way_id":856024959,"route_colors":[],"route_refs":["1","4","4а"]},"geometry":{"type":"LineString","coordinates":[[44.7804762,48.7927418],[44.7803546,48.7926763],[44.7802025,48.7926186],[44.7800649,48.7925845],[44.7799135,48.7925621],[44.7797387,48.7925586],[44.7795668,48.7925849]]}},{"type":"Feature","properties":{"way_id":856024960,"route_colors":[],"route_refs":["1","4","4а"]},"geometry":{"type":"LineString","coordinates":[[44.7795516,48.7925474],[44.7797015,48.7925344],[44.7798328,48.7925283],[44.7799483,48.7925314],[44.7801183,48.7925577],[44.7802498,48.7925991],[44.7804131,48.7926641],[44.7805229,48.7927208]]}},{"type":"Feature","properties":{"way_id":850168660,"route_colors":[],"route_refs":["4","4а"]},"geometry":{"type":"LineString","coordinates":[[44.8013928,48.8090218],[44.801508,48.8090558],[44.8016394,48.8090761],[44.8018361,48.8090886],[44.8020029,48.8090755],[44.8021969,48.8090534],[44.8023428,48.8090253],[44.8024933,48.8089841],[44.8026277,48.8089319],[44.8028094,48.8088348]]}},{"type":"Feature","properties":{"way_id":850126957,"route_colors":[],"route_refs":["4","4а"]},"geometry":{"type":"LineString","coordinates":[[44.8028094,48.8088348],[44.80305,48.8086258],[44.8032356,48.8084647],[44.8040673,48.8077423],[44.8043878,48.8074756],[44.8045823,48.807328],[44.8047487,48.8072254],[44.8051954,48.8070391],[44.8053263,48.8069961],[44.812989,48.8044703],[44.8134773,48.8043173],[44.813804,48.8042117],[44.8142422,48.8040617],[44.814548,48.8039645],[44.8155043,48.8036236],[44.8188734,48.802519],[44.8194078,48.8023431],[44.8236493,48.8009257],[44.8253567,48.8003622],[44.8254784,48.8003218],[44.8255846,48.8002865],[44.8258043,48.8002136],[44.8294829,48.799004],[44.8298338,48.7988886],[44.830299,48.7987356],[44.8312595,48.79841],[44.8324974,48.7980258],[44.8340598,48.7974984],[44.8349529,48.797206],[44.8354679,48.7970646],[44.8365998,48.7968261],[44.8373924,48.79669],[44.8380026,48.7965637],[44.8394148,48.7962854],[44.8402973,48.7960884],[44.8413594,48.7958896],[44.8416008,48.795834],[44.8417148,48.7957951],[44.8417953,48.7957527],[44.8419052,48.795667],[44.8419709,48.7955902],[44.8420192,48.7954886],[44.842034,48.7953596],[44.8419937,48.7951732]]}},{"type":"Feature","properties":{"way_id":35854999,"route_colors":[],"route_refs":["4","4а","7","7к"]},"geometry":{"type":"LineString","coordinates":[[44.8419937,48.7951732],[44.8419072,48.7950586],[44.8405296,48.7933121],[44.8403227,48.7930917],[44.8401149,48.7929132],[44.8399231,48.792763],[44.8396777,48.7925969],[44.8395086,48.7924885],[44.8394772,48.7924675],[44.8391922,48.7923116],[44.8380817,48.7917717],[44.837302,48.7914275],[44.8363736,48.7909778],[44.8333761,48.7895722],[44.8322957,48.789038],[44.8316596,48.7887346],[44.8306262,48.7882485],[44.8296117,48.787763],[44.8281876,48.7870752],[44.826171,48.7861134],[44.8257931,48.7859371],[44.8252721,48.785694],[44.8247495,48.7854572],[44.8242202,48.7851867]]}},{"type":"Feature","properties":{"way_id":270880579,"route_colors":[],"route_refs":["4","4а","7","7к"]},"geometry":{"type":"LineString","coordinates":[[44.8242202,48.7851867],[44.82085,48.78355],[44.81877,48.78253],[44.8163894,48.781432]]}},{"type":"Feature","properties":{"way_id":270880576,"route_colors":[],"route_refs":["4","4а","7","7к"]},"geometry":{"type":"LineString","coordinates":[[44.8163894,48.781432],[44.8151635,48.7810572],[44.814443,48.7807063],[44.813033,48.7800326],[44.8122634,48.7796742],[44.8118178,48.7794289],[44.8114725,48.779242],[44.8095685,48.7783381],[44.8089241,48.778032],[44.8087714,48.7779566],[44.8085992,48.7778713],[44.8082549,48.7777207],[44.8070099,48.777131],[44.805388,48.776358],[44.8039542,48.775665],[44.8034212,48.7754094],[44.8032562,48.7753317],[44.8023669,48.7749217],[44.8017913,48.7746367],[44.8014874,48.7744884],[44.8012095,48.7743469],[44.8008039,48.7741544],[44.8006371,48.7740742],[44.8004079,48.7739639],[44.8002257,48.7738763],[44.7996824,48.7736258]]}},{"type":"Feature","properties":{"way_id":850167591,"route_colors":[],"route_refs":["4","4а","7","7к"]},"geometry":{"type":"LineString","coordinates":[[44.7996824,48.7736258],[44.7986364,48.773143],[44.7982636,48.7729793],[44.7976434,48.7726741],[44.7972826,48.7724899],[44.795964,48.7718783],[44.7950199,48.771428],[44.7948386,48.7713415],[44.7947502,48.7712993],[44.794317,48.7710927]]}},{"type":"Feature","properties":{"way_id":35853453,"route_colors":[],"route_refs":["4","7к"]},"geometry":{"type":"LineString","coordinates":[[44.794317,48.7710927],[44.7939528,48.7709033],[44.7938644,48.7708573],[44.7933282,48.7705857],[44.7932143,48.770531],[44.7914156,48.7696764],[44.7901797,48.7690679],[44.7901484,48.7690524],[44.7901178,48.7690382],[44.7900866,48.7690255],[44.7900536,48.7690147],[44.7900173,48.7690061],[44.7899765,48.7690001],[44.7899298,48.768997],[44.7898759,48.7689971],[44.7898135,48.7690009],[44.7897412,48.7690086]]}},{"type":"Feature","properties":{"way_id":35853455,"route_colors":[],"route_refs":["4","7к"]},"geometry":{"type":"LineString","coordinates":[[44.7897412,48.7690086],[44.7893765,48.7690643],[44.7893266,48.769071],[44.7892827,48.769077],[44.7892435,48.7690817],[44.7892074,48.7690846],[44.789173,48.7690851],[44.7891389,48.7690826],[44.7891036,48.7690765],[44.7890655,48.7690664],[44.7890234,48.7690516],[44.7889756,48.7690316],[44.7889342,48.7690127],[44.7886524,48.768889]]}},{"type":"Feature","properties":{"way_id":1095955177,"route_colors":[],"route_refs":["4","7к"]},"geometry":{"type":"LineString","coordinates":[[44.7886524,48.768889],[44.7884528,48.7688015]]}},{"type":"Feature","properties":{"way_id":1185159816,"route_colors":[],"route_refs":["4","7к"]},"geometry":{"type":"LineString","coordinates":[[44.7884528,48.7688015],[44.7883674,48.7687639],[44.7882935,48.7687088],[44.7882454,48.7686474],[44.7882277,48.7685776],[44.7882422,48.7685098],[44.7882951,48.7684347],[44.7883819,48.7683818],[44.7884766,48.7683542],[44.788589,48.7683468],[44.7887143,48.7683659],[44.7888396,48.7684199],[44.7893278,48.76864]]}},{"type":"Feature","properties":{"way_id":856027865,"route_colors":[],"route_refs":["4","7к"]},"geometry":{"type":"LineString","coordinates":[[44.7893278,48.76864],[44.7902127,48.7690528],[44.7914063,48.769634]]}},{"type":"Feature","properties":{"way_id":967222841,"route_colors":[],"route_refs":["4","7к"]},"geometry":{"type":"LineString","coordinates":[[44.7914063,48.769634],[44.7914462,48.7696533],[44.7932426,48.7705057],[44.7933547,48.7705595],[44.7939055,48.7708331],[44.793986,48.7708757],[44.7942352,48.7710078],[44.7943659,48.7710728]]}},{"type":"Feature","properties":{"way_id":850167592,"route_colors":[],"route_refs":["4","4а","7","7к"]},"geometry":{"type":"LineString","coordinates":[[44.7943659,48.7710728],[44.7947857,48.7712699],[44.7949844,48.7713633],[44.7950542,48.7713961],[44.7973172,48.7724591],[44.797669,48.7726477],[44.7982937,48.7729529],[44.7986651,48.7731179],[44.7997118,48.7735974]]}},{"type":"Feature","properties":{"way_id":850144351,"route_colors":[],"route_refs":["4","4а","7","7к"]},"geometry":{"type":"LineString","coordinates":[[44.7997118,48.7735974],[44.8003233,48.773882],[44.8004394,48.7739376],[44.8006663,48.7740462],[44.8008326,48.7741258],[44.8012352,48.7743224],[44.8015201,48.7744599],[44.8023992,48.7748945],[44.8032807,48.7753069],[44.803453,48.7753848],[44.803986,48.7756381],[44.8054174,48.7763278],[44.8070415,48.7771059],[44.8082172,48.7776627],[44.8082848,48.7776947],[44.808627,48.777847],[44.8087977,48.7779266],[44.8089571,48.778001],[44.8090113,48.7780291],[44.8115034,48.7792141],[44.8118467,48.7794035],[44.8122942,48.77965],[44.8135595,48.7802411],[44.8144758,48.7806808],[44.8151958,48.7810186],[44.8162831,48.7813621],[44.8164108,48.7814126]]}},{"type":"Feature","properties":{"way_id":850144350,"route_colors":[],"route_refs":["4","4а","7","7к"]},"geometry":{"type":"LineString","coordinates":[[44.8164108,48.7814126],[44.8187983,48.7825047],[44.8208781,48.7835246],[44.8242508,48.7851589]]}},{"type":"Feature","properties":{"way_id":850144349,"route_colors":[],"route_refs":["4","4а","7","7к"]},"geometry":{"type":"LineString","coordinates":[[44.8242508,48.7851589],[44.8247873,48.7854315],[44.8253044,48.7856685],[44.8258188,48.7859138],[44.8282237,48.7870608],[44.8296384,48.7877405],[44.8306561,48.7882252],[44.8316886,48.788707],[44.8323271,48.7890153],[44.83341,48.789546],[44.8364097,48.7909561],[44.8373303,48.7914026],[44.8381099,48.7917426],[44.8393491,48.7923504],[44.8395114,48.7924476],[44.8395437,48.7924634],[44.8397098,48.7925748],[44.8399606,48.7927436],[44.8401578,48.7928929],[44.840363,48.793074],[44.8405749,48.793302],[44.8419487,48.7950462],[44.8420313,48.7951599]]}},{"type":"Feature","properties":{"way_id":35853462,"route_colors":[],"route_refs":["4","4а"]},"geometry":{"type":"LineString","coordinates":[[44.8420313,48.7951599],[44.8420675,48.7952748],[44.8420756,48.7953605],[44.8420621,48.795485],[44.8420139,48.7955884],[44.8419629,48.7956652],[44.8418878,48.7957324],[44.8417805,48.7958039],[44.8416115,48.7958684],[44.8413701,48.7959197],[44.8403093,48.7961176],[44.8394282,48.7963163],[44.838012,48.7965946],[44.8374099,48.7967192],[44.8366119,48.7968552],[44.8354813,48.7970929],[44.8349664,48.797236],[44.8340826,48.7975266],[44.8325148,48.7980576],[44.831277,48.7984357],[44.8303245,48.7987684],[44.8295061,48.7990363],[44.8292584,48.7991173],[44.8258258,48.8002408],[44.8256036,48.8003135],[44.8254977,48.8003482],[44.8253757,48.8003881],[44.8236682,48.8009538],[44.8188917,48.8025464],[44.8185187,48.8026692],[44.8155271,48.8036536],[44.8145628,48.8039946],[44.8138276,48.8042408],[44.8134973,48.8043449],[44.8132204,48.8044337],[44.8130157,48.8044993],[44.8053502,48.8070233],[44.8052197,48.8070662],[44.8047807,48.8072467],[44.8046225,48.8073501],[44.8044254,48.8074932],[44.8041049,48.8077582],[44.8030668,48.8086632],[44.8028942,48.8088138],[44.8028254,48.8088737]]}},{"type":"Feature","properties":{"way_id":35853458,"route_colors":[],"route_refs":["4","4а"]},"geometry":{"type":"LineString","coordinates":[[44.8028254,48.8088737],[44.8026374,48.8089865],[44.8025263,48.809031],[44.8023665,48.8090771],[44.8022531,48.8090992],[44.802109,48.809122],[44.801954,48.8091364],[44.8017663,48.8091411],[44.8016224,48.8091338],[44.8014386,48.8090805]]}},{"type":"Feature","properties":{"way_id":850167594,"route_colors":[],"route_refs":["4а","7"]},"geometry":{"type":"LineString","coordinates":[[44.794317,48.7710927],[44.7942352,48.7710078],[44.7942084,48.7709481],[44.7942083,48.7709166],[44.794209,48.7708778],[44.7942283,48.7707525],[44.7942607,48.7705121],[44.7942811,48.7703768],[44.7943117,48.7702701],[44.794355,48.770181],[44.7944252,48.7700961],[44.7945399,48.7699852],[44.7954032,48.769222],[44.7956362,48.7690016],[44.79627,48.7683993],[44.7963399,48.7683345],[44.797622,48.7671699],[44.7977022,48.7670971],[44.7978258,48.7669848],[44.7988695,48.7660244],[44.7996693,48.7652927],[44.7997332,48.7652331],[44.8011467,48.763949],[44.801902,48.7632551],[44.802082,48.7630919]]}},{"type":"Feature","properties":{"way_id":1096219814,"route_colors":[],"route_refs":["4а","7"]},"geometry":{"type":"LineString","coordinates":[[44.8024962,48.7627592],[44.8019431,48.7632757],[44.8011781,48.7639655],[44.7997615,48.7652454],[44.7996937,48.765308],[44.7989328,48.766019],[44.7978579,48.7670062],[44.7978196,48.7670409],[44.7977379,48.7671151],[44.7963546,48.7683708],[44.7963048,48.7684177],[44.7956679,48.7690156],[44.7954251,48.769233],[44.7945896,48.7699953],[44.7944749,48.7701104],[44.7944048,48.7701928],[44.7943652,48.7702785],[44.7943308,48.7703877],[44.7943066,48.7705373],[44.7942732,48.7707737],[44.7942556,48.7708977],[44.7942582,48.7709439],[44.7942926,48.7710011],[44.7943659,48.7710728]]}},{"type":"Feature","properties":{"way_id":1096249918,"route_colors":[],"route_refs":["7"]},"geometry":{"type":"LineString","coordinates":[[44.8203932,48.8173351],[44.820357,48.8173064],[44.8203351,48.8172747],[44.8203088,48.8172366],[44.820294,48.8171744],[44.8202913,48.81712],[44.8203128,48.8170613],[44.8203592,48.8170066],[44.8204188,48.8169556],[44.8205542,48.8168736]]}},{"type":"Feature","properties":{"way_id":35854986,"route_colors":[],"route_refs":["7","7к"]},"geometry":{"type":"LineString","coordinates":[[44.8501738,48.8067956],[44.8502845,48.8067239],[44.8503502,48.8066621],[44.8504253,48.8065676],[44.8504816,48.8064695],[44.8505232,48.806345],[44.8505312,48.8062982],[44.8505339,48.8061683],[44.8505205,48.8060288],[44.8504736,48.8058901]]}},{"type":"Feature","properties":{"way_id":850119323,"route_colors":[],"route_refs":["7","7к"]},"geometry":{"type":"LineString","coordinates":[[44.8504736,48.8058901],[44.8496301,48.8048008]]}},{"type":"Feature","properties":{"way_id":270880578,"route_colors":[],"route_refs":["7","7к"]},"geometry":{"type":"LineString","coordinates":[[44.8496301,48.8048008],[44.8485824,48.803439],[44.8480087,48.8027008]]}},{"type":"Feature","properties":{"way_id":270880581,"route_colors":[],"route_refs":["7","7к"]},"geometry":{"type":"LineString","coordinates":[[44.8480087,48.8027008],[44.8470417,48.8014991],[44.8456742,48.7998053],[44.8437403,48.797363],[44.842603,48.7959482],[44.842329,48.7955955],[44.8420675,48.7952748],[44.8419937,48.7951732]]}},{"type":"Feature","properties":{"way_id":850134946,"route_colors":[],"route_refs":["7","7к"]},"geometry":{"type":"LineString","coordinates":[[44.8420313,48.7951599],[44.8423706,48.7955751],[44.8426523,48.7959349],[44.8437853,48.7973467],[44.8457273,48.7997944],[44.8470775,48.8014884],[44.8480523,48.8026861]]}},{"type":"Feature","properties":{"way_id":850134945,"route_colors":[],"route_refs":["7","7к"]},"geometry":{"type":"LineString","coordinates":[[44.8480523,48.8026861],[44.8486226,48.8034269],[44.8496693,48.8047876]]}},{"type":"Feature","properties":{"way_id":850119321,"route_colors":[],"route_refs":["7","7к"]},"geometry":{"type":"LineString","coordinates":[[44.8496693,48.8047876],[44.8505111,48.8058724]]}},{"type":"Feature","properties":{"way_id":855324764,"route_colors":[],"route_refs":["7","7к"]},"geometry":{"type":"LineString","coordinates":[[44.8505111,48.8058724],[44.8505715,48.8060208],[44.8505916,48.8061577],[44.8505849,48.8062876],[44.8505795,48.8063264],[44.8505674,48.8063892],[44.8505272,48.8064969],[44.850436,48.8066347],[44.850381,48.8066974],[44.8503233,48.8067445],[44.8502203,48.8068183]]}},{"type":"Feature","properties":{"way_id":1096249917,"route_colors":[],"route_refs":["7","7к"]},"geometry":{"type":"LineString","coordinates":[[44.8220783,48.8163836],[44.8219516,48.8164529],[44.8218296,48.8165315],[44.8216344,48.8166754],[44.8215426,48.8167597],[44.8214822,48.8168551],[44.8214427,48.816947]]}}]}