{"type":"FeatureCollection","metro_system":{"continent":"europe","country":"Russia","city":"Saratov","official_website":null,"official_map":null,"wikipedia":null,"line_count":2,"segment_count":4,"station_count":40,"modes":["tram"],"audit":{"strategies_tried":[],"passed":true,"checks":[{"id":"has_lines","ok":true,"detail":"2 lines","level":"error"},{"id":"has_stations","ok":true,"detail":"39 stations","level":"error"},{"id":"stations_have_lines","ok":true,"detail":"39/39 站皆有所屬路線","level":"error"},{"id":"line_geometry_stations","ok":true,"detail":"42 個折點/端點皆為車站","level":"error"},{"id":"route_stations_match_geometry","ok":true,"detail":"各線車站列表與圖面一致","level":"error"},{"id":"interchange_rule","ok":true,"detail":"所有車站紅/藍點符合骨架＋路線色規則（藍＝端點、紅＝交叉）","level":"error"},{"id":"stations_named","ok":true,"detail":"39/39 站皆有名稱","level":"error"},{"id":"station_order","ok":true,"detail":"所有線路站序合理","level":"warn"},{"id":"line_wiki_stations","ok":true,"detail":"各線站數與 wiki 線路條目相符（營運中站數）","level":"error"},{"id":"line_wiki_coverage","ok":false,"detail":"2 條線無 wiki 站數對照：Трамвай №3、Трамвай №11","level":"warn"}],"reasons":[],"warnings":["2 條線無 wiki 站數對照：Трамвай №3、Трамвай №11"],"audited_at":"2026-07-27T02:39:14.938Z"}},"features":[{"type":"Feature","properties":{"seg_id":"saratov-0","routes":[{"route_id":"rm1525325","route_name":"Трамвай №3","route_name_local":"Трамвай №3","route_name_en":null,"route_ref":"3","route_color":null,"wikipedia":null,"osm_route_ids":[1422102,1525320],"status":null,"order_suspect":0,"span_suspect":0,"stations":[{"station_id":"n3587523222","station_name":"6-я Дачная"},{"station_id":"n394919228","station_name":"5-я Дачная"},{"station_id":"n3596340948","station_name":"4-я Дачная"},{"station_id":"n3596340945","station_name":"Детский дом №2"},{"station_id":"n3600181279","station_name":"Молодёжный проезд"},{"station_id":"n387841996","station_name":"Коммерческий университет"},{"station_id":"n2489924882","station_name":"По требованию"},{"station_id":"n2488629783","station_name":"Площадь имени Ленина"},{"station_id":"n394943532","station_name":"Торговый центр"},{"station_id":"n2489690945","station_name":"Сапёрная улица"},{"station_id":"n10970197774","station_name":"2-я Дачная"},{"station_id":"n387841976","station_name":"Вишнёвая улица"},{"station_id":"n387841972","station_name":"Стрелка"},{"station_id":"n387841964","station_name":"Соколовая улица"},{"station_id":"n394943528","station_name":"Центральный колхозный рынок"},{"station_id":"n1145646799","station_name":"Губернский рынок"},{"station_id":"n10970206834","station_name":"Московская улица"},{"station_id":"n1148883655","station_name":"улица Вавилова"},{"station_id":"n394943523","station_name":"Детский парк"},{"station_id":"n394943524","station_name":"улица Рахова"},{"station_id":"n394943518","station_name":"Мирный переулок"},{"station_id":"n8145490629","station_name":"Деловой центр «Навигатор»"},{"station_id":"n3432213305","station_name":"1-я Дачная"}]}],"route_count":1,"route_refs":["3"],"route_colors":["#e11d48"],"city":"Saratov","country":"Russia"},"geometry":{"type":"MultiLineString","coordinates":[[[45.9285195,51.5882671],[45.932463150000004,51.587531850000005],[45.938275450000006,51.586534900000004],[45.94369365,51.585408150000006],[45.94925676666666,51.583833366666674],[45.960003,51.5843249],[45.9645898,51.5829987],[45.96965935,51.5804202],[45.9750473,51.577403000000004],[45.979741450000006,51.5734482],[45.9844528,51.5694484],[45.98882495,51.56593645],[45.99868625,51.5575148],[46.00655885,51.55514445],[46.015009799999994,51.546217066666664]]]}},{"type":"Feature","properties":{"seg_id":"saratov-1","routes":[{"route_id":"rm1525325","route_name":"Трамвай №3","route_name_local":"Трамвай №3","route_name_en":null,"route_ref":"3","route_color":null,"wikipedia":null,"osm_route_ids":[1422102,1525320],"status":null,"order_suspect":0,"span_suspect":0,"stations":[{"station_id":"n3587523222","station_name":"6-я Дачная"},{"station_id":"n394919228","station_name":"5-я Дачная"},{"station_id":"n3596340948","station_name":"4-я Дачная"},{"station_id":"n3596340945","station_name":"Детский дом №2"},{"station_id":"n3600181279","station_name":"Молодёжный проезд"},{"station_id":"n387841996","station_name":"Коммерческий университет"},{"station_id":"n2489924882","station_name":"По требованию"},{"station_id":"n2488629783","station_name":"Площадь имени Ленина"},{"station_id":"n394943532","station_name":"Торговый центр"},{"station_id":"n2489690945","station_name":"Сапёрная улица"},{"station_id":"n10970197774","station_name":"2-я Дачная"},{"station_id":"n387841976","station_name":"Вишнёвая улица"},{"station_id":"n387841972","station_name":"Стрелка"},{"station_id":"n387841964","station_name":"Соколовая улица"},{"station_id":"n394943528","station_name":"Центральный колхозный рынок"},{"station_id":"n1145646799","station_name":"Губернский рынок"},{"station_id":"n10970206834","station_name":"Московская улица"},{"station_id":"n1148883655","station_name":"улица Вавилова"},{"station_id":"n394943523","station_name":"Детский парк"},{"station_id":"n394943524","station_name":"улица Рахова"},{"station_id":"n394943518","station_name":"Мирный переулок"},{"station_id":"n8145490629","station_name":"Деловой центр «Навигатор»"},{"station_id":"n3432213305","station_name":"1-я Дачная"}]}],"route_count":1,"route_refs":["3"],"route_colors":["#e11d48"],"city":"Saratov","country":"Russia"},"geometry":{"type":"MultiLineString","coordinates":[[[46.01701585,51.5325597],[46.007442749999996,51.548779100000004],[45.9928868,51.5624745]]]}},{"type":"Feature","properties":{"seg_id":"saratov-2","routes":[{"route_id":"rm1525325","route_name":"Трамвай №3","route_name_local":"Трамвай №3","route_name_en":null,"route_ref":"3","route_color":null,"wikipedia":null,"osm_route_ids":[1422102,1525320],"status":null,"order_suspect":0,"span_suspect":0,"stations":[{"station_id":"n3587523222","station_name":"6-я Дачная"},{"station_id":"n394919228","station_name":"5-я Дачная"},{"station_id":"n3596340948","station_name":"4-я Дачная"},{"station_id":"n3596340945","station_name":"Детский дом №2"},{"station_id":"n3600181279","station_name":"Молодёжный проезд"},{"station_id":"n387841996","station_name":"Коммерческий университет"},{"station_id":"n2489924882","station_name":"По требованию"},{"station_id":"n2488629783","station_name":"Площадь имени Ленина"},{"station_id":"n394943532","station_name":"Торговый центр"},{"station_id":"n2489690945","station_name":"Сапёрная улица"},{"station_id":"n10970197774","station_name":"2-я Дачная"},{"station_id":"n387841976","station_name":"Вишнёвая улица"},{"station_id":"n387841972","station_name":"Стрелка"},{"station_id":"n387841964","station_name":"Соколовая улица"},{"station_id":"n394943528","station_name":"Центральный колхозный рынок"},{"station_id":"n1145646799","station_name":"Губернский рынок"},{"station_id":"n10970206834","station_name":"Московская улица"},{"station_id":"n1148883655","station_name":"улица Вавилова"},{"station_id":"n394943523","station_name":"Детский парк"},{"station_id":"n394943524","station_name":"улица Рахова"},{"station_id":"n394943518","station_name":"Мирный переулок"},{"station_id":"n8145490629","station_name":"Деловой центр «Навигатор»"},{"station_id":"n3432213305","station_name":"1-я Дачная"}]},{"route_id":"rm14937318","route_name":"Трамвай №11","route_name_local":"Трамвай №11","route_name_en":null,"route_ref":"11","route_color":null,"wikipedia":null,"osm_route_ids":[1517786,12089248],"status":null,"order_suspect":0,"span_suspect":0,"stations":[{"station_id":"n1065252221","station_name":"Геологический колледж"},{"station_id":"n1065252131","station_name":"Перспективная"},{"station_id":"n1065252091","station_name":"улица Бардина"},{"station_id":"n10931721862","station_name":"1-й микрорайон"},{"station_id":"n1109310666","station_name":"Посёлок Солнечный"},{"station_id":"n10982698295","station_name":"По требованию"},{"station_id":"n10128289331","station_name":"Сады"},{"station_id":"n10982698292","station_name":"Посёлок Мирный"},{"station_id":"n1065252322","station_name":"Просечная"},{"station_id":"n10982668555","station_name":"Стадион \"Авангард\""},{"station_id":"n2246929110","station_name":"Маршала Бирюзова"},{"station_id":"n2246929107","station_name":"Осипова"},{"station_id":"n2246929102","station_name":"Жуковского"},{"station_id":"n10982668552","station_name":"Геофизическая"},{"station_id":"n10982668550","station_name":"посёлок Пугачёвский"},{"station_id":"n2246929098","station_name":"Лакокраска"},{"station_id":"n2246929093","station_name":"1-я Садовая"},{"station_id":"n394943528","station_name":"Центральный колхозный рынок"},{"station_id":"n1145646799","station_name":"Губернский рынок"},{"station_id":"n10970206834","station_name":"Московская улица"},{"station_id":"n1148883655","station_name":"улица Вавилова"},{"station_id":"n394943523","station_name":"Детский парк"},{"station_id":"n394943524","station_name":"улица Рахова"},{"station_id":"n394943518","station_name":"Мирный переулок"}]}],"route_count":2,"route_refs":["3","11"],"route_colors":["#e11d48","#e11d48"],"city":"Saratov","country":"Russia"},"geometry":{"type":"MultiLineString","coordinates":[[[46.015009799999994,51.546217066666664],[46.012314200000006,51.5412567],[46.01070895,51.5386294],[46.008859599999994,51.5355699],[46.008425200000005,51.533143100000004],[46.0130162,51.5310318],[46.01701585,51.5325597]]]}},{"type":"Feature","properties":{"seg_id":"saratov-3","routes":[{"route_id":"rm14937318","route_name":"Трамвай №11","route_name_local":"Трамвай №11","route_name_en":null,"route_ref":"11","route_color":null,"wikipedia":null,"osm_route_ids":[1517786,12089248],"status":null,"order_suspect":0,"span_suspect":0,"stations":[{"station_id":"n1065252221","station_name":"Геологический колледж"},{"station_id":"n1065252131","station_name":"Перспективная"},{"station_id":"n1065252091","station_name":"улица Бардина"},{"station_id":"n10931721862","station_name":"1-й микрорайон"},{"station_id":"n1109310666","station_name":"Посёлок Солнечный"},{"station_id":"n10982698295","station_name":"По требованию"},{"station_id":"n10128289331","station_name":"Сады"},{"station_id":"n10982698292","station_name":"Посёлок Мирный"},{"station_id":"n1065252322","station_name":"Просечная"},{"station_id":"n10982668555","station_name":"Стадион \"Авангард\""},{"station_id":"n2246929110","station_name":"Маршала Бирюзова"},{"station_id":"n2246929107","station_name":"Осипова"},{"station_id":"n2246929102","station_name":"Жуковского"},{"station_id":"n10982668552","station_name":"Геофизическая"},{"station_id":"n10982668550","station_name":"посёлок Пугачёвский"},{"station_id":"n2246929098","station_name":"Лакокраска"},{"station_id":"n2246929093","station_name":"1-я Садовая"},{"station_id":"n394943528","station_name":"Центральный колхозный рынок"},{"station_id":"n1145646799","station_name":"Губернский рынок"},{"station_id":"n10970206834","station_name":"Московская улица"},{"station_id":"n1148883655","station_name":"улица Вавилова"},{"station_id":"n394943523","station_name":"Детский парк"},{"station_id":"n394943524","station_name":"улица Рахова"},{"station_id":"n394943518","station_name":"Мирный переулок"}]}],"route_count":1,"route_refs":["11"],"route_colors":["#e11d48"],"city":"Saratov","country":"Russia"},"geometry":{"type":"MultiLineString","coordinates":[[[45.98131935,51.60226350000001],[45.98587125,51.602123],[45.99385885,51.60187285],[45.99902215,51.6017072],[46.00733195,51.5995101],[46.015012425,51.597123925],[46.01987426666667,51.59448666666666],[46.02549345,51.58744515],[46.02779205,51.582670750000005],[46.0252481,51.575472500000004],[46.02394555,51.5704508],[46.02323215,51.566994050000005],[46.02141175,51.5652859],[46.0211799,51.5613409],[46.02146575,51.5596754],[46.01869415,51.5535795],[46.01814665,51.55050025],[46.015009799999994,51.546217066666664]]]}},{"type":"Feature","properties":{"station_id":"n387841964","station_name":"Соколовая улица","station_name_local":"Соколовая улица","station_name_en":null,"city":"Saratov","country":"Russia","lines":["3"],"wikipedia":null,"merged_from":2,"merged_names":null,"is_terminus":false,"routes":[{"ref":"3","name":"Трамвай №3","route_color":null}],"pass_count":1,"station_degree":2,"codes":null,"is_interchange":false,"station_role":"normal"},"geometry":{"type":"Point","coordinates":[46.00655885,51.55514445]},"__memberLines":{}},{"type":"Feature","properties":{"station_id":"n387841972","station_name":"Стрелка","station_name_local":"Стрелка","station_name_en":null,"city":"Saratov","country":"Russia","lines":["3"],"wikipedia":null,"merged_from":2,"merged_names":null,"is_terminus":false,"routes":[{"ref":"3","name":"Трамвай №3","route_color":null}],"pass_count":1,"station_degree":2,"codes":null,"is_interchange":false,"station_role":"normal"},"geometry":{"type":"Point","coordinates":[45.99868625,51.5575148]},"__memberLines":{}},{"type":"Feature","properties":{"station_id":"n387841976","station_name":"Вишнёвая улица","station_name_local":"Вишнёвая улица","station_name_en":null,"city":"Saratov","country":"Russia","lines":["3"],"wikipedia":null,"merged_from":2,"merged_names":null,"is_terminus":false,"routes":[{"ref":"3","name":"Трамвай №3","route_color":null}],"pass_count":1,"station_degree":2,"codes":null,"is_interchange":false,"station_role":"normal"},"geometry":{"type":"Point","coordinates":[45.98882495,51.56593645]},"__memberLines":{}},{"type":"Feature","properties":{"station_id":"n387841996","station_name":"Коммерческий университет","station_name_local":"Коммерческий университет","station_name_en":null,"city":"Saratov","country":"Russia","lines":["3"],"wikipedia":null,"merged_from":2,"merged_names":null,"is_terminus":false,"routes":[{"ref":"3","name":"Трамвай №3","route_color":null}],"pass_count":1,"station_degree":2,"codes":null,"is_interchange":false,"station_role":"normal"},"geometry":{"type":"Point","coordinates":[45.960003,51.5843249]},"__memberLines":{}},{"type":"Feature","properties":{"station_id":"n394919228","station_name":"5-я Дачная","station_name_local":"5-я Дачная","station_name_en":null,"city":"Saratov","country":"Russia","lines":["3"],"wikipedia":null,"merged_from":2,"merged_names":null,"is_terminus":false,"routes":[{"ref":"3","name":"Трамвай №3","route_color":null}],"pass_count":1,"station_degree":2,"codes":null,"is_interchange":false,"station_role":"normal"},"geometry":{"type":"Point","coordinates":[45.932463150000004,51.587531850000005]},"__memberLines":{}},{"type":"Feature","properties":{"station_id":"n394943518","station_name":"Мирный переулок","station_name_local":"Мирный переулок","station_name_en":null,"city":"Saratov","country":"Russia","lines":["3","11"],"wikipedia":null,"merged_from":2,"merged_names":null,"is_terminus":false,"routes":[{"ref":"3","name":"Трамвай №3","route_color":null},{"ref":"11","name":"Трамвай №11","route_color":null}],"pass_count":2,"station_degree":2,"codes":null,"is_interchange":true,"station_role":"interchange"},"geometry":{"type":"Point","coordinates":[46.01701585,51.5325597]},"__memberLines":{}},{"type":"Feature","properties":{"station_id":"n394943523","station_name":"Детский парк","station_name_local":"Детский парк","station_name_en":null,"city":"Saratov","country":"Russia","lines":["3","11"],"wikipedia":null,"merged_from":2,"merged_names":null,"is_terminus":false,"routes":[{"ref":"3","name":"Трамвай №3","route_color":null},{"ref":"11","name":"Трамвай №11","route_color":null}],"pass_count":2,"station_degree":2,"codes":null,"is_interchange":false,"station_role":"normal"},"geometry":{"type":"Point","coordinates":[46.008425200000005,51.533143100000004]},"__memberLines":{}},{"type":"Feature","properties":{"station_id":"n394943524","station_name":"улица Рахова","station_name_local":"улица Рахова","station_name_en":null,"city":"Saratov","country":"Russia","lines":["3","11"],"wikipedia":null,"is_terminus":false,"routes":[{"ref":"3","name":"Трамвай №3","route_color":null},{"ref":"11","name":"Трамвай №11","route_color":null}],"pass_count":2,"station_degree":2,"codes":null,"merged_from":null,"merged_names":null,"is_interchange":false,"station_role":"normal"},"geometry":{"type":"Point","coordinates":[46.0130162,51.5310318]},"__memberLines":{}},{"type":"Feature","properties":{"station_id":"n394943528","station_name":"Центральный колхозный рынок","station_name_local":"Центральный колхозный рынок","station_name_en":null,"city":"Saratov","country":"Russia","lines":["3","11"],"wikipedia":null,"merged_from":3,"merged_names":null,"is_terminus":false,"routes":[{"ref":"3","name":"Трамвай №3","route_color":null},{"ref":"11","name":"Трамвай №11","route_color":null}],"pass_count":2,"station_degree":3,"codes":null,"is_interchange":true,"station_role":"interchange"},"geometry":{"type":"Point","coordinates":[46.015009799999994,51.546217066666664]},"__memberLines":{}},{"type":"Feature","properties":{"station_id":"n394943532","station_name":"Торговый центр","station_name_local":"Торговый центр","station_name_en":null,"city":"Saratov","country":"Russia","lines":["3"],"wikipedia":null,"merged_from":2,"merged_names":null,"is_terminus":false,"routes":[{"ref":"3","name":"Трамвай №3","route_color":null}],"pass_count":1,"station_degree":2,"codes":null,"is_interchange":false,"station_role":"normal"},"geometry":{"type":"Point","coordinates":[45.9750473,51.577403000000004]},"__memberLines":{}},{"type":"Feature","properties":{"station_id":"n1065252091","station_name":"улица Бардина","station_name_local":"улица Бардина","station_name_en":null,"city":"Saratov","country":"Russia","lines":["11"],"wikipedia":null,"merged_from":2,"merged_names":null,"is_terminus":false,"routes":[{"ref":"11","name":"Трамвай №11","route_color":null}],"pass_count":1,"station_degree":2,"codes":null,"is_interchange":false,"station_role":"normal"},"geometry":{"type":"Point","coordinates":[45.99385885,51.60187285]},"__memberLines":{}},{"type":"Feature","properties":{"station_id":"n1065252131","station_name":"Перспективная","station_name_local":"Перспективная","station_name_en":null,"city":"Saratov","country":"Russia","lines":["11"],"wikipedia":null,"merged_from":2,"merged_names":null,"is_terminus":false,"routes":[{"ref":"11","name":"Трамвай №11","route_color":null}],"pass_count":1,"station_degree":2,"codes":null,"is_interchange":false,"station_role":"normal"},"geometry":{"type":"Point","coordinates":[45.98587125,51.602123]},"__memberLines":{}},{"type":"Feature","properties":{"station_id":"n1065252221","station_name":"Геологический колледж","station_name_local":"Геологический колледж","station_name_en":null,"city":"Saratov","country":"Russia","lines":["11"],"wikipedia":null,"merged_from":2,"merged_names":null,"is_terminus":true,"routes":[{"ref":"11","name":"Трамвай №11","route_color":null}],"pass_count":1,"station_degree":1,"codes":null,"is_interchange":false,"station_role":"terminus"},"geometry":{"type":"Point","coordinates":[45.98131935,51.60226350000001]},"__memberLines":{}},{"type":"Feature","properties":{"station_id":"n1065252322","station_name":"Просечная","station_name_local":"Просечная","station_name_en":null,"city":"Saratov","country":"Russia","lines":["11"],"wikipedia":null,"merged_from":2,"merged_names":null,"is_terminus":false,"routes":[{"ref":"11","name":"Трамвай №11","route_color":null}],"pass_count":1,"station_degree":2,"codes":null,"is_interchange":false,"station_role":"normal"},"geometry":{"type":"Point","coordinates":[46.02779205,51.582670750000005]},"__memberLines":{}},{"type":"Feature","properties":{"station_id":"n1109310666","station_name":"Посёлок Солнечный","station_name_local":"Посёлок Солнечный","station_name_en":null,"city":"Saratov","country":"Russia","lines":["11"],"wikipedia":null,"merged_from":2,"merged_names":null,"is_terminus":false,"routes":[{"ref":"11","name":"Трамвай №11","route_color":null}],"pass_count":1,"station_degree":2,"codes":null,"is_interchange":false,"station_role":"normal"},"geometry":{"type":"Point","coordinates":[46.00733195,51.5995101]},"__memberLines":{}},{"type":"Feature","properties":{"station_id":"n1145646799","station_name":"Губернский рынок","station_name_local":"Губернский рынок","station_name_en":null,"city":"Saratov","country":"Russia","lines":["3","11"],"wikipedia":null,"merged_from":2,"merged_names":null,"is_terminus":false,"routes":[{"ref":"3","name":"Трамвай №3","route_color":null},{"ref":"11","name":"Трамвай №11","route_color":null}],"pass_count":2,"station_degree":2,"codes":null,"is_interchange":false,"station_role":"normal"},"geometry":{"type":"Point","coordinates":[46.012314200000006,51.5412567]},"__memberLines":{}},{"type":"Feature","properties":{"station_id":"n1148883655","station_name":"улица Вавилова","station_name_local":"улица Вавилова","station_name_en":null,"city":"Saratov","country":"Russia","lines":["3","11"],"wikipedia":null,"merged_from":2,"merged_names":null,"is_terminus":false,"routes":[{"ref":"3","name":"Трамвай №3","route_color":null},{"ref":"11","name":"Трамвай №11","route_color":null}],"pass_count":2,"station_degree":2,"codes":null,"is_interchange":false,"station_role":"normal"},"geometry":{"type":"Point","coordinates":[46.008859599999994,51.5355699]},"__memberLines":{}},{"type":"Feature","properties":{"station_id":"n2246929093","station_name":"1-я Садовая","station_name_local":"1-я Садовая","station_name_en":null,"city":"Saratov","country":"Russia","lines":["11"],"wikipedia":null,"merged_from":2,"merged_names":null,"is_terminus":false,"routes":[{"ref":"11","name":"Трамвай №11","route_color":null}],"pass_count":1,"station_degree":2,"codes":null,"is_interchange":false,"station_role":"normal"},"geometry":{"type":"Point","coordinates":[46.01814665,51.55050025]},"__memberLines":{}},{"type":"Feature","properties":{"station_id":"n2246929098","station_name":"Лакокраска","station_name_local":"Лакокраска","station_name_en":null,"city":"Saratov","country":"Russia","lines":["11"],"wikipedia":null,"merged_from":2,"merged_names":null,"is_terminus":false,"routes":[{"ref":"11","name":"Трамвай №11","route_color":null}],"pass_count":1,"station_degree":2,"codes":null,"is_interchange":false,"station_role":"normal"},"geometry":{"type":"Point","coordinates":[46.01869415,51.5535795]},"__memberLines":{}},{"type":"Feature","properties":{"station_id":"n2246929102","station_name":"Жуковского","station_name_local":"Жуковского","station_name_en":null,"city":"Saratov","country":"Russia","lines":["11"],"wikipedia":null,"merged_from":2,"merged_names":null,"is_terminus":false,"routes":[{"ref":"11","name":"Трамвай №11","route_color":null}],"pass_count":1,"station_degree":2,"codes":null,"is_interchange":false,"station_role":"normal"},"geometry":{"type":"Point","coordinates":[46.02141175,51.5652859]},"__memberLines":{}},{"type":"Feature","properties":{"station_id":"n2246929107","station_name":"Осипова","station_name_local":"Осипова","station_name_en":null,"city":"Saratov","country":"Russia","lines":["11"],"wikipedia":null,"merged_from":2,"merged_names":null,"is_terminus":false,"routes":[{"ref":"11","name":"Трамвай №11","route_color":null}],"pass_count":1,"station_degree":2,"codes":null,"is_interchange":false,"station_role":"normal"},"geometry":{"type":"Point","coordinates":[46.02323215,51.566994050000005]},"__memberLines":{}},{"type":"Feature","properties":{"station_id":"n2246929110","station_name":"Маршала Бирюзова","station_name_local":"Маршала Бирюзова","station_name_en":null,"city":"Saratov","country":"Russia","lines":["11"],"wikipedia":null,"merged_from":2,"merged_names":null,"is_terminus":false,"routes":[{"ref":"11","name":"Трамвай №11","route_color":null}],"pass_count":1,"station_degree":2,"codes":null,"is_interchange":false,"station_role":"normal"},"geometry":{"type":"Point","coordinates":[46.02394555,51.5704508]},"__memberLines":{}},{"type":"Feature","properties":{"station_id":"n2488629783","station_name":"Площадь имени Ленина","station_name_local":"Площадь имени Ленина","station_name_en":null,"city":"Saratov","country":"Russia","lines":["3"],"wikipedia":null,"merged_from":2,"merged_names":null,"is_terminus":false,"routes":[{"ref":"3","name":"Трамвай №3","route_color":null}],"pass_count":1,"station_degree":2,"codes":null,"is_interchange":false,"station_role":"normal"},"geometry":{"type":"Point","coordinates":[45.96965935,51.5804202]},"__memberLines":{}},{"type":"Feature","properties":{"station_id":"n2489690945","station_name":"Сапёрная улица","station_name_local":"Сапёрная улица","station_name_en":null,"city":"Saratov","country":"Russia","lines":["3"],"wikipedia":null,"merged_from":2,"merged_names":null,"is_terminus":false,"routes":[{"ref":"3","name":"Трамвай №3","route_color":null}],"pass_count":1,"station_degree":2,"codes":null,"is_interchange":false,"station_role":"normal"},"geometry":{"type":"Point","coordinates":[45.979741450000006,51.5734482]},"__memberLines":{}},{"type":"Feature","properties":{"station_id":"n2489924882","station_name":"По требованию","station_name_local":"По требованию","station_name_en":null,"city":"Saratov","country":"Russia","lines":["3"],"wikipedia":null,"merged_from":2,"merged_names":null,"is_terminus":false,"routes":[{"ref":"3","name":"Трамвай №3","route_color":null}],"pass_count":1,"station_degree":2,"codes":null,"is_interchange":false,"station_role":"normal"},"geometry":{"type":"Point","coordinates":[45.9645898,51.5829987]},"__memberLines":{}},{"type":"Feature","properties":{"station_id":"n3432213305","station_name":"1-я Дачная","station_name_local":"1-я Дачная","station_name_en":null,"city":"Saratov","country":"Russia","lines":["3"],"wikipedia":null,"merged_from":2,"merged_names":null,"is_terminus":true,"routes":[{"ref":"3","name":"Трамвай №3","route_color":null}],"pass_count":1,"station_degree":1,"codes":null,"is_interchange":false,"station_role":"terminus"},"geometry":{"type":"Point","coordinates":[45.9928868,51.5624745]},"__memberLines":{}},{"type":"Feature","properties":{"station_id":"n3587523222","station_name":"6-я Дачная","station_name_local":"6-я Дачная","station_name_en":null,"city":"Saratov","country":"Russia","lines":["3"],"wikipedia":null,"is_terminus":true,"routes":[{"ref":"3","name":"Трамвай №3","route_color":null}],"pass_count":1,"station_degree":1,"codes":null,"merged_from":null,"merged_names":null,"is_interchange":false,"station_role":"terminus"},"geometry":{"type":"Point","coordinates":[45.9285195,51.5882671]},"__memberLines":{}},{"type":"Feature","properties":{"station_id":"n3596340945","station_name":"Детский дом №2","station_name_local":"Детский дом №2","station_name_en":null,"city":"Saratov","country":"Russia","lines":["3"],"wikipedia":null,"merged_from":2,"merged_names":null,"is_terminus":false,"routes":[{"ref":"3","name":"Трамвай №3","route_color":null}],"pass_count":1,"station_degree":2,"codes":null,"is_interchange":false,"station_role":"normal"},"geometry":{"type":"Point","coordinates":[45.94369365,51.585408150000006]},"__memberLines":{}},{"type":"Feature","properties":{"station_id":"n3596340948","station_name":"4-я Дачная","station_name_local":"4-я Дачная","station_name_en":null,"city":"Saratov","country":"Russia","lines":["3"],"wikipedia":null,"merged_from":2,"merged_names":null,"is_terminus":false,"routes":[{"ref":"3","name":"Трамвай №3","route_color":null}],"pass_count":1,"station_degree":2,"codes":null,"is_interchange":false,"station_role":"normal"},"geometry":{"type":"Point","coordinates":[45.938275450000006,51.586534900000004]},"__memberLines":{}},{"type":"Feature","properties":{"station_id":"n3600181279","station_name":"Молодёжный проезд","station_name_local":"Молодёжный проезд","station_name_en":null,"city":"Saratov","country":"Russia","lines":["3"],"wikipedia":null,"merged_from":3,"merged_names":null,"is_terminus":false,"routes":[{"ref":"3","name":"Трамвай №3","route_color":null}],"pass_count":1,"station_degree":2,"codes":null,"is_interchange":false,"station_role":"normal"},"geometry":{"type":"Point","coordinates":[45.94925676666666,51.583833366666674]},"__memberLines":{}},{"type":"Feature","properties":{"station_id":"n8145490629","station_name":"Деловой центр «Навигатор»","station_name_local":"Деловой центр «Навигатор»","station_name_en":null,"city":"Saratov","country":"Russia","lines":["3"],"wikipedia":null,"merged_from":2,"merged_names":null,"is_terminus":false,"routes":[{"ref":"3","name":"Трамвай №3","route_color":null}],"pass_count":1,"station_degree":2,"codes":null,"is_interchange":false,"station_role":"normal"},"geometry":{"type":"Point","coordinates":[46.007442749999996,51.548779100000004]},"__memberLines":{}},{"type":"Feature","properties":{"station_id":"n10128289331","station_name":"Сады","station_name_local":"Сады","station_name_en":null,"city":"Saratov","country":"Russia","lines":["11"],"wikipedia":null,"merged_from":3,"merged_names":null,"is_terminus":false,"routes":[{"ref":"11","name":"Трамвай №11","route_color":null}],"pass_count":1,"station_degree":2,"codes":null,"is_interchange":false,"station_role":"normal"},"geometry":{"type":"Point","coordinates":[46.01987426666667,51.59448666666666]},"__memberLines":{}},{"type":"Feature","properties":{"station_id":"n10931721862","station_name":"1-й микрорайон","station_name_local":"1-й микрорайон","station_name_en":null,"city":"Saratov","country":"Russia","lines":["11"],"wikipedia":null,"merged_from":2,"merged_names":null,"is_terminus":false,"routes":[{"ref":"11","name":"Трамвай №11","route_color":null}],"pass_count":1,"station_degree":2,"codes":null,"is_interchange":false,"station_role":"normal"},"geometry":{"type":"Point","coordinates":[45.99902215,51.6017072]},"__memberLines":{}},{"type":"Feature","properties":{"station_id":"n10970197774","station_name":"2-я Дачная","station_name_local":"2-я Дачная","station_name_en":null,"city":"Saratov","country":"Russia","lines":["3"],"wikipedia":null,"merged_from":2,"merged_names":null,"is_terminus":false,"routes":[{"ref":"3","name":"Трамвай №3","route_color":null}],"pass_count":1,"station_degree":2,"codes":null,"is_interchange":false,"station_role":"normal"},"geometry":{"type":"Point","coordinates":[45.9844528,51.5694484]},"__memberLines":{}},{"type":"Feature","properties":{"station_id":"n10970206834","station_name":"Московская улица","station_name_local":"Московская улица","station_name_en":null,"city":"Saratov","country":"Russia","lines":["3","11"],"wikipedia":null,"merged_from":2,"merged_names":null,"is_terminus":false,"routes":[{"ref":"3","name":"Трамвай №3","route_color":null},{"ref":"11","name":"Трамвай №11","route_color":null}],"pass_count":2,"station_degree":2,"codes":null,"is_interchange":false,"station_role":"normal"},"geometry":{"type":"Point","coordinates":[46.01070895,51.5386294]},"__memberLines":{}},{"type":"Feature","properties":{"station_id":"n10982668550","station_name":"посёлок Пугачёвский","station_name_local":"посёлок Пугачёвский","station_name_en":null,"city":"Saratov","country":"Russia","lines":["11"],"wikipedia":null,"merged_from":2,"merged_names":null,"is_terminus":false,"routes":[{"ref":"11","name":"Трамвай №11","route_color":null}],"pass_count":1,"station_degree":2,"codes":null,"is_interchange":false,"station_role":"normal"},"geometry":{"type":"Point","coordinates":[46.02146575,51.5596754]},"__memberLines":{}},{"type":"Feature","properties":{"station_id":"n10982668552","station_name":"Геофизическая","station_name_local":"Геофизическая","station_name_en":null,"city":"Saratov","country":"Russia","lines":["11"],"wikipedia":null,"is_terminus":false,"routes":[{"ref":"11","name":"Трамвай №11","route_color":null}],"pass_count":1,"station_degree":2,"codes":null,"merged_from":null,"merged_names":null,"is_interchange":false,"station_role":"normal"},"geometry":{"type":"Point","coordinates":[46.0211799,51.5613409]},"__memberLines":{}},{"type":"Feature","properties":{"station_id":"n10982668555","station_name":"Стадион \"Авангард\"","station_name_local":"Стадион \"Авангард\"","station_name_en":null,"city":"Saratov","country":"Russia","lines":["11"],"wikipedia":null,"merged_from":2,"merged_names":null,"is_terminus":false,"routes":[{"ref":"11","name":"Трамвай №11","route_color":null}],"pass_count":1,"station_degree":2,"codes":null,"is_interchange":false,"station_role":"normal"},"geometry":{"type":"Point","coordinates":[46.0252481,51.575472500000004]},"__memberLines":{}},{"type":"Feature","properties":{"station_id":"n10982698292","station_name":"Посёлок Мирный","station_name_local":"Посёлок Мирный","station_name_en":null,"city":"Saratov","country":"Russia","lines":["11"],"wikipedia":null,"merged_from":2,"merged_names":null,"is_terminus":false,"routes":[{"ref":"11","name":"Трамвай №11","route_color":null}],"pass_count":1,"station_degree":2,"codes":null,"is_interchange":false,"station_role":"normal"},"geometry":{"type":"Point","coordinates":[46.02549345,51.58744515]},"__memberLines":{}},{"type":"Feature","properties":{"station_id":"n10982698295","station_name":"По требованию","station_name_local":"По требованию","station_name_en":null,"city":"Saratov","country":"Russia","lines":["11"],"wikipedia":null,"merged_from":4,"merged_names":null,"is_terminus":false,"routes":[{"ref":"11","name":"Трамвай №11","route_color":null}],"pass_count":1,"station_degree":2,"codes":null,"is_interchange":false,"station_role":"normal"},"geometry":{"type":"Point","coordinates":[46.015012425,51.597123925]},"__memberLines":{}}]}