{"type":"FeatureCollection","features":[{"type":"Feature","properties":{"route_ref":"Blue","route_color":"#3bb4e6"},"geometry":{"type":"LineString","coordinates":[[-121.78919813771566,37.236684981672866],[-121.78899124743562,37.23740163371698],[-121.78921718755454,37.23800932943884],[-121.7906905270318,37.23922614062256],[-121.79164280735942,37.23971061854393],[-121.80324468179235,37.24275108044381],[-121.80403560000002,37.24284125],[-121.80463948100467,37.24301640943575],[-121.80510303333334,37.2429893],[-121.80518368755422,37.24308214441197],[-121.8053046,37.2430103],[-121.80539863873409,37.24310501426332],[-121.80551919999999,37.2430317],[-121.80661153715882,37.243146693096314],[-121.81457909999999,37.2432178],[-121.81537713270642,37.24329903053259],[-121.81549268729795,37.243219832625144],[-121.81900576262282,37.24328071797577],[-121.82068600467632,37.24349264566985],[-121.82222947452465,37.24381210686693],[-121.82359478428708,37.244269854264886],[-121.8252511,37.245028],[-121.84398279460174,37.25420444234764],[-121.84526349242034,37.25470148554106],[-121.84635259999999,37.2549621],[-121.84654207420336,37.25507925866833],[-121.84765546759347,37.25525648690178],[-121.8507933,37.25531403750001],[-121.85145321055035,37.25541130733083],[-121.85179368333334,37.2553424],[-121.85728636248032,37.25552239080732],[-121.85740224353175,37.255461423917446],[-121.85935813652046,37.25548410490001],[-121.85988848640655,37.25553330806024],[-121.86042476373194,37.25581897267866],[-121.86070823740921,37.25632890408341],[-121.86067279471064,37.25672607425597],[-121.85918203981537,37.25890946626251],[-121.85888804339199,37.259752835883866],[-121.85892791289353,37.26440449542146],[-121.85911273135211,37.266115459872275],[-121.85941281042699,37.26732569690255],[-121.85982243895718,37.26839989160745],[-121.8605114241147,37.26959833957162],[-121.86198222263478,37.27148741545783],[-121.86261259474583,37.27264962580771],[-121.86293351469774,37.273569124676705],[-121.86376137999999,37.27692454],[-121.86370869446596,37.2770322856387],[-121.86385281999998,37.27719436],[-121.8641800848889,37.278178854875776],[-121.8660950638365,37.282399705604455],[-121.86680289657008,37.28357429926601],[-121.86986428788151,37.287678943248835],[-121.8705729946842,37.28881174961878],[-121.87180214999998,37.29153405],[-121.874181768863,37.29759330790034],[-121.87470579633474,37.298733680024974],[-121.8754274812683,37.299941610117415],[-121.88485344897431,37.31195878950499],[-121.88459360000002,37.311691419999995],[-121.88428045733119,37.31123522068988],[-121.88582400000001,37.313006],[-121.88582830852485,37.31312491557284],[-121.88759878282309,37.31480090226245],[-121.8888397851706,37.31630073051518],[-121.88940786151491,37.31733498712864],[-121.89002943333334,37.31923758000001],[-121.89033810814753,37.3206581564134],[-121.89072195445867,37.32152550085812],[-121.89333724846459,37.32552639396667],[-121.89333355664084,37.325962562970645],[-121.89297225568846,37.32686111821078],[-121.89309220050289,37.32710685565318],[-121.89381227635913,37.32782994538751],[-121.89392550587162,37.32811998498186],[-121.8937993909258,37.32830785510891],[-121.8925311,37.3289613],[-121.89084638558629,37.32965108408303],[-121.88642227538905,37.331821687331406],[-121.88623346800527,37.33197465887122],[-121.88626277738494,37.33224850410425],[-121.89210473617463,37.34004091280086],[-121.89247977389061,37.34019162700481],[-121.8931248359142,37.339955735655856],[-121.89330134017074,37.33996877144659],[-121.89373428722175,37.340393061585],[-121.8993853458577,37.348020445554525],[-121.90380893999998,37.353768240000015],[-121.90815520179682,37.35982845321708],[-121.9094514593463,37.36143056903439],[-121.91638505950043,37.37081493060317],[-121.91960360736341,37.37501195163604],[-121.92026343538089,37.37603818224851],[-121.92513807475893,37.38245621557384],[-121.92578301601097,37.38343275787908],[-121.93118610969998,37.390525291372214],[-121.93986890212565,37.40255112603147],[-121.94346063048151,37.40736877484777],[-121.94384745107926,37.4077668102929],[-121.94469835208857,37.40898538402144],[-121.94470229590839,37.409236395783],[-121.9427074869033,37.41038970568113],[-121.94233088754125,37.410466477897465]]}},{"type":"Feature","properties":{"route_ref":"Orange","route_color":"#3bb4e6"},"geometry":{"type":"LineString","coordinates":[[-121.83208409850926,37.358162195283256],[-121.83385065254467,37.36075351161967],[-121.83468692000001,37.36172282],[-121.84421601315447,37.37124432264273],[-121.8481120067496,37.37528862659609],[-121.86108641157327,37.38703285232366],[-121.86541873627955,37.39126152590437],[-121.86828113900023,37.39428826318234],[-121.87395290967537,37.39816690984271],[-121.87914497531224,37.401380910445184],[-121.88289167526989,37.403882286418906],[-121.88487669358834,37.40501561860532],[-121.88972219416483,37.4081682800947],[-121.89802349404553,37.41212122280609],[-121.90115059999998,37.41384036666666],[-121.90129361189364,37.41383741896017],[-121.90346557948895,37.41517087762414],[-121.90437533770779,37.41551199965997],[-121.905464271161,37.41570044772231],[-121.91123625762793,37.41580306956463],[-121.91240052238571,37.4156595289033],[-121.91368092554397,37.41537735305061],[-121.91523273445036,37.4148920079449],[-121.91618760176608,37.414396332346165],[-121.91811990000001,37.4128117],[-121.91811894823846,37.41268324308965],[-121.91853390000001,37.412458],[-121.91862351604686,37.41227663099155],[-121.91949715880621,37.41174877736106],[-121.92040891372734,37.4113890591653],[-121.921296975929,37.41118442653339],[-121.92243411967263,37.41105841562706],[-121.92359340524692,37.41103392778734],[-121.92510560759028,37.41122841812975],[-121.92669249435035,37.41176266554744],[-121.9276996858823,37.41220152405009],[-121.9279930699437,37.41221190833568],[-121.92982912,37.41295302],[-121.9311576001397,37.413351830664034],[-121.93233898006505,37.4134691129715],[-121.93318012857955,37.41332373666259],[-121.93338297337255,37.413363585787764],[-121.93866677755193,37.41218254077564],[-121.93904840843359,37.41192848380186],[-121.93947841952551,37.41182902605316],[-121.9407849887741,37.41116240980273],[-121.94126961441884,37.411059092463326],[-121.94245702051806,37.41044161524275],[-121.9427074869033,37.41038970568113],[-121.94409561420792,37.40954656609037],[-121.94459292689797,37.40938797162907],[-121.94677090557667,37.40828791580502],[-121.9480621054878,37.407900246754345],[-121.94910005521767,37.40786013271126],[-121.95033392946395,37.40807356193683],[-121.95109406951426,37.4084290811353],[-121.95534866509561,37.410999743967494],[-121.9564557234566,37.411294840349],[-121.95785109363317,37.41128394101397],[-121.9588282670235,37.4110092705468],[-121.95965814433251,37.41053662383165],[-121.9602515992824,37.409980266794975],[-121.96125046505688,37.4087202415354],[-121.96223441848835,37.40810705436148],[-121.96605720854657,37.40668105715559],[-121.97173139935397,37.40414481751647],[-121.9733651967447,37.40367130014466],[-121.97508506270187,37.40342616934659],[-121.97849238880347,37.403291609672486],[-121.98065243446298,37.40336915779412],[-121.98084695730829,37.40330732768913],[-121.98099904341045,37.40338576276041],[-121.98228993907826,37.403372399002215],[-121.9854785,37.4036028],[-121.98817077672008,37.40351845452835],[-121.9893946987261,37.40356751102686],[-121.99169354752331,37.40331796711896],[-121.99665437296323,37.403455178636236],[-121.99900507307927,37.40335165202356],[-122.00429647284203,37.40330482638631],[-122.00517893383109,37.403190248457754],[-122.00658279999999,37.4025425],[-122.00734061191689,37.40237044179558],[-122.00973913161407,37.40280674279611],[-122.01016423738176,37.403090038941045],[-122.01021176574773,37.403414996207026],[-122.00967831907299,37.405151536964894],[-122.00957056909986,37.40591690200281],[-122.00969395833948,37.406725322488114],[-122.00983327517092,37.40708987223823],[-122.01056841420875,37.40819972847665],[-122.01070532363008,37.408252773797884],[-122.01092044999999,37.408611300000004],[-122.01193354910932,37.409637666142494],[-122.01196046570668,37.40977143383808],[-122.01239545585818,37.41013603123288],[-122.01348589614408,37.41068127625999],[-122.0214238438093,37.41240458307089],[-122.02217907485613,37.41276742562609],[-122.0239892255548,37.413977567152834],[-122.02464895426607,37.41416182240632],[-122.02509297064537,37.41415253198659],[-122.02547768457106,37.413977850717345],[-122.02571136748699,37.4136117874794],[-122.02734665064347,37.4088306893841],[-122.02730308259615,37.40823914523535],[-122.02659627728208,37.40680118619526],[-122.02631657024565,37.405697387870774],[-122.02646191141672,37.404559410083394],[-122.02685242518328,37.40405552776109],[-122.02887278320162,37.40310660929822],[-122.03007327153833,37.402744998989235],[-122.0322777690447,37.402431046352476],[-122.03574650183234,37.40234892635246],[-122.03751539465202,37.401840823822326],[-122.0386252050876,37.401775734697075],[-122.04018781877714,37.40204728096474],[-122.0462979911909,37.403385924865276],[-122.04768313233102,37.40374449146455],[-122.04883658571428,37.404263885714286],[-122.05000792052081,37.40465130453399],[-122.05026887760965,37.404841847525645],[-122.05061042419493,37.40491274340739],[-122.05091973715143,37.40486647689097],[-122.05118601852392,37.40452381877555],[-122.05110686790515,37.40374210779419],[-122.05071585874283,37.403200541759404],[-122.05002897718245,37.40264769061561],[-122.04986493607477,37.40198211871426],[-122.05080028490133,37.39917480152275],[-122.0519254,37.3964273],[-122.05238911963897,37.39514239082412],[-122.05230428051667,37.39509037560543],[-122.05251958368048,37.39475163221996],[-122.05282385201754,37.394406205695645],[-122.05338632920703,37.39406545227272],[-122.05695675389198,37.393035647057374],[-122.05797450686487,37.39232141462341],[-122.05958655,37.39142323333333],[-122.06007869838464,37.390987104731174],[-122.06057435926591,37.38972079741856],[-122.06120499105012,37.38920205564649],[-122.06195534825076,37.389082881667356],[-122.06287410422837,37.38930309952066],[-122.07001069603807,37.39215077777991],[-122.07487926445069,37.394240434801134],[-122.07680620035026,37.394931653465356]]}},{"type":"Feature","properties":{"route_ref":"Green","route_color":"#3bb4e6"},"geometry":{"type":"MultiLineString","coordinates":[[[-121.9035067,37.327581],[-121.90368178181816,37.329851681818184],[-121.9035969295855,37.330356452563436],[-121.90332100503264,37.330550207952946],[-121.90298243666484,37.33055938162331],[-121.90198761397659,37.33005798060454],[-121.9013417125032,37.32997332864369],[-121.8993286911364,37.33012758003246],[-121.89789081148925,37.33049661101183],[-121.89725426501059,37.33051956311506],[-121.89699727881654,37.33030302083761],[-121.89665937828543,37.329059376426606],[-121.8958785656701,37.32802775202669],[-121.89562461890537,37.32783638180442],[-121.89540855737323,37.3278087076976],[-121.89411329383759,37.328184441354786],[-121.8925311,37.3289613],[-121.89084638558629,37.32965108408303],[-121.88642227538905,37.331821687331406],[-121.88623346800527,37.33197465887122],[-121.88623227686384,37.33218973061757],[-121.89210473617463,37.34004091280086],[-121.89247977389061,37.34019162700481],[-121.8931248359142,37.339955735655856],[-121.89330134017074,37.33996877144659],[-121.89373428722175,37.340393061585],[-121.8993853458577,37.348020445554525],[-121.90380893999998,37.353768240000015],[-121.90815520179682,37.35982845321708],[-121.9094514593463,37.36143056903439],[-121.91638505950043,37.37081493060317],[-121.91960360736341,37.37501195163604],[-121.92026343538089,37.37603818224851],[-121.92513807475893,37.38245621557384],[-121.92578301601097,37.38343275787908],[-121.93118610969998,37.390525291372214],[-121.93986890212565,37.40255112603147],[-121.94465703793985,37.40895312747945],[-121.94517728217339,37.409067618630765],[-121.94672242145309,37.408309885932034],[-121.94793670335316,37.40790680556656],[-121.94895343350571,37.40784023525867],[-121.9498926447293,37.40794671020142],[-121.95107021406695,37.40841611981168],[-121.95534130514007,37.410996477596896],[-121.95632939001686,37.41126295725655],[-121.95765464827376,37.411311118952476],[-121.95866881302518,37.41107060044845],[-121.95954349987578,37.41061798208471],[-121.96004778528633,37.41020366532465],[-121.96128963646368,37.40868464042875],[-121.96213008599508,37.408151741565845],[-121.96502829248317,37.40709240172316],[-121.96722562043088,37.40616896740856],[-121.96515176250001,37.407045462499994],[-121.96223441848835,37.40810705436148],[-121.96154696031401,37.408467585979054],[-121.96097485494131,37.40901891751819],[-121.95996487802749,37.410283438515485],[-121.9594375373984,37.41069023307007],[-121.9588282670235,37.4110092705468],[-121.95752946412804,37.4113235068291],[-121.9564557234566,37.411294840349],[-121.95569135151511,37.41112443064639],[-121.9548124094995,37.41073133484635],[-121.95084689534893,37.4082973678835],[-121.95018052957855,37.40802184520495],[-121.94956927162322,37.407896317115124],[-121.94878650090114,37.40783968636435],[-121.94765687766738,37.40796948786474],[-121.94677090557667,37.40828791580502],[-121.94525164976038,37.409051091826576],[-121.94485694092408,37.40908727234975],[-121.94467449884583,37.40894905553758],[-121.93980893139596,37.402469006442516],[-121.93047990865091,37.389584678319224],[-121.92577508936472,37.38342203835621],[-121.9091697507641,37.361074629509275],[-121.90815325714286,37.35982948571428],[-121.9035047131305,37.353362716333294],[-121.89909326666668,37.34765533333333],[-121.8952960847439,37.34247124189935],[-121.89077768333333,37.33656931666666],[-121.88748064479337,37.332111954388786],[-121.88723264359061,37.33159595056694],[-121.88733800120824,37.33139716718314],[-121.88929418189846,37.330435493538616],[-121.88934807169656,37.330338363825255],[-121.89252983539038,37.32896145326399],[-121.89409600589909,37.32818992469305],[-121.89540813831928,37.32780536930064],[-121.89562521221063,37.3278334601635],[-121.8958267110044,37.3279860669053],[-121.89666128232437,37.329063084441096],[-121.89698018789765,37.330257442037095],[-121.89725716878837,37.3305182993607],[-121.89760175626563,37.330519572594454],[-121.89978275794465,37.330055386287896],[-121.90145148737896,37.32996954660148],[-121.90202881612949,37.33005910649627],[-121.90295251033736,37.33054771711161],[-121.9032493719229,37.330560286224156],[-121.90353453497747,37.3304271660081],[-121.90366295683219,37.32994054810147],[-121.90349944488968,37.32750347635923],[-121.9030120956004,37.32581922854452],[-121.90291668587605,37.32488671280045],[-121.90301705339006,37.32440978599538],[-121.90340113944002,37.32386445592969],[-121.914746875,37.313583875000006],[-121.91886249605048,37.30971251827947],[-121.91900373969854,37.309700082716624],[-121.91900267192106,37.3095881209783],[-121.92196764027412,37.30700732375329],[-121.92845316666669,37.301072900000015],[-121.92985867404443,37.29991689689528],[-121.93102135000002,37.29876955],[-121.93749639554451,37.2929360684811],[-121.9388,37.291496425000005],[-121.9422715747659,37.28701549545754],[-121.94350815938661,37.285264946932976],[-121.94794347784133,37.279599162679716]],[[-121.97909547640319,37.403342171999206],[-121.97849842537948,37.40329077161524],[-121.97564295444725,37.403356703014936],[-121.97333205908066,37.40366674470362],[-121.97144702181487,37.404253772579345],[-121.96722064132184,37.40615736266374],[-121.97130738662425,37.40431194976811],[-121.97304646587206,37.40374001448733],[-121.97566140096355,37.40336364225974],[-121.97814179978849,37.40335717220198],[-121.97849238880347,37.403291609672486],[-121.97968419502836,37.403339359147076]]]}}]}