{"type":"FeatureCollection","features":[{"type":"Feature","properties":{"route_ref":"1号線","route_color":"#23ac38"},"geometry":{"type":"LineString","coordinates":[[140.10248444499172,35.60742662797573],[140.1043078109975,35.60568017807673],[140.104771,35.605494],[140.1053688645314,35.605562731636795],[140.10968470094895,35.608466542468925],[140.110518123536,35.61002919687699],[140.1108196234308,35.61033543731368],[140.1113548495154,35.61047579081672],[140.11244051125652,35.610461685624955],[140.11274142499838,35.61057858448473],[140.11304728150623,35.61083608636798],[140.11460642828408,35.61279575056612],[140.11499917580673,35.6129350967666],[140.1160640658017,35.613016756806026],[140.11773828767352,35.61383196609695],[140.1180139730135,35.61385722949739],[140.11843218343307,35.613639022631105],[140.11876344328823,35.61235995339686],[140.11910553787288,35.61184357699319],[140.11986149523077,35.61104208968502],[140.12012295757592,35.60874790015944],[140.12004568765698,35.60803747853997],[140.1202260819132,35.60767246951366],[140.12104240543727,35.60677896998946],[140.12181712514823,35.60425599899453],[140.12215974469856,35.603685064777906]]}},{"type":"Feature","properties":{"route_ref":"2号線","route_color":"#23ac38"},"geometry":{"type":"LineString","coordinates":[[140.18855227157368,35.622330818374735],[140.18433912000003,35.62590961000001],[140.1840118180024,35.6262747654024],[140.18285171633258,35.62708285386093],[140.1795352970469,35.628302835801485],[140.17796752819336,35.628787649892296],[140.17645564017914,35.62892528841858],[140.17495245832035,35.628721927325635],[140.17239519660478,35.62798823121317],[140.1714216446357,35.627603196101745],[140.16969692794896,35.62674833905832],[140.1687736230674,35.62659079722619],[140.16792936241947,35.62670012936658],[140.16518591040966,35.627389448012835],[140.16432921936016,35.627765524435254],[140.16361944446092,35.62834390649906],[140.1632751112631,35.628814888682165],[140.1626712,35.6300998],[140.16216532266628,35.63067286924175],[140.16184408080215,35.63087894843249],[140.15003913003048,35.63583061481804],[140.14957833964684,35.63587580932832],[140.14903832288113,35.635654175625426],[140.14800657402006,35.6350112415754],[140.14585391367066,35.63344279007187],[140.14535137341312,35.63324978029183],[140.14461515131,35.63327484490654],[140.14414345893724,35.633510964989114],[140.14266040592636,35.63457443313837],[140.1402489151908,35.635510654052084],[140.13834454507287,35.63655457065739],[140.13731389298027,35.63698331161619],[140.1321147770446,35.640671362284635],[140.1312866041129,35.64105658536199],[140.13042007724835,35.64133401159986],[140.128438077141,35.64153299734479],[140.12782846226784,35.641674615628986],[140.12484987188668,35.642751355597206],[140.12447759716503,35.64306090449562],[140.12450343372726,35.64320522338847],[140.12424935000004,35.643443425],[140.12347264676674,35.64493995292876],[140.12319252834087,35.64516766471367],[140.12257875962428,35.64545111804919],[140.12154012291984,35.64570483288359],[140.12067619596465,35.64573693830503],[140.11928136725243,35.645162690752244],[140.11794999972753,35.645222508977696],[140.1175027161553,35.64514460932605],[140.11712860065185,35.64492919115644],[140.11672510420613,35.64436287538824],[140.11600132918295,35.64289460691324],[140.11558314301482,35.642323625038586],[140.11520879917703,35.64200345244504],[140.1132496172101,35.640884981385334],[140.11041866313985,35.638097396197566],[140.11027564231577,35.63775383307502],[140.1108377628464,35.635831798098934],[140.11158502772045,35.634900590791915],[140.11203431299893,35.63407538949364],[140.1130471657806,35.63047813915086],[140.11372947535565,35.6285768293924],[140.11514277158113,35.62600764208152],[140.11589013398614,35.62397555594279],[140.11735703333332,35.62110143333334],[140.11775398333333,35.62012333333333],[140.1183302977715,35.61820714144418],[140.11850533651753,35.614578015698356],[140.1181064691433,35.6140109584799],[140.11709410190733,35.61341001206518],[140.11605361418802,35.61301581959409],[140.11522504760651,35.61291811092224],[140.11477032667247,35.61277591373277],[140.11391401952724,35.611863483585275],[140.11391636666667,35.61175016666667],[140.1127059749407,35.61054850304043],[140.1120970909091,35.6104352],[140.11109900099504,35.61043317345422],[140.1108017565038,35.61032333612183],[140.11044413098864,35.60989414086086],[140.10987893974234,35.608706662178925],[140.1096556741775,35.60843880600506],[140.10550153595022,35.605614964168346],[140.1049681536035,35.60548319597985],[140.10441982786884,35.605603024879095],[140.1024629,35.60741440000001]]}}]}