{"type":"FeatureCollection","features":[{"type":"Feature","properties":{"route_ref":"B1","route_color":"#e6194b"},"geometry":{"type":"LineString","coordinates":[[28.948195000000002,40.2673618],[28.948306449293863,40.26729585378294],[28.948273,40.26719125714286],[28.94921524601711,40.265207762737965],[28.951849056168705,40.258879473187065],[28.95221121818182,40.25772642727272],[28.952990375000002,40.255871125],[28.95406262924441,40.25382078102324],[28.955409700000004,40.25211221],[28.956907462500002,40.2508704625],[28.962491927326642,40.24684280539573],[28.9666189,40.24363276666666],[28.97981631666668,40.233707633333346],[28.98482300779924,40.230341753374354],[28.98604967500001,40.22942565000001],[28.988233425714444,40.22802879820446],[28.99062229738595,40.22615967489521],[28.99482695108744,40.222203319234],[28.999851877693626,40.217317734820085],[29.000020399999997,40.217035366666664],[29.00097752967078,40.21610211772455],[29.0014569514221,40.21575867808374],[29.002766827184043,40.21430628840867],[29.00351078970923,40.21275504432786],[29.003803796569525,40.21243402953017],[29.004335633333337,40.2121243],[29.004895849542756,40.21197440432082],[29.005410249575974,40.21196209326898],[29.00694679075268,40.21240260953283],[29.008200201135555,40.212618786785626],[29.01168561491278,40.213078741695405],[29.013401061010075,40.21311374468761],[29.018108906762368,40.21279700294032],[29.019243721716492,40.21251480316453],[29.02123027646686,40.21182908731951],[29.023277428679034,40.21091804540184],[29.0246105468416,40.21003536599103],[29.02462229993578,40.209932642923704],[29.026803132631006,40.208022409200325],[29.028750008722906,40.206031018205415],[29.029326193621525,40.20553676549911],[29.029476278314128,40.20553081270505],[29.029595605826408,40.20533900506048],[29.029769988361362,40.205341392854926],[29.02998942429853,40.20508523977423],[29.030726984997013,40.20467229490586],[29.033289920909656,40.20343242467111],[29.03545515153607,40.202018166903365],[29.03667346606446,40.20138042437656],[29.039040837500004,40.2006336],[29.042885136290067,40.19983041379715],[29.045216864354224,40.19923450269789],[29.050960513444632,40.19714693208884],[29.055516731063634,40.19615924877818],[29.057472360000002,40.195896659999995],[29.058620263668644,40.195829985397445],[29.059460594087106,40.19561706845914],[29.059907590922716,40.19527121113518],[29.060094606257437,40.19479102532491],[29.0603089,40.1919217],[29.06072154901017,40.189470128756184],[29.060922255532848,40.18904054410723],[29.061129346332496,40.18887100761421],[29.06167276025692,40.18869061091039],[29.067942066854958,40.18736759739603],[29.070357910136874,40.187350424886795],[29.076600752125238,40.18756735491895],[29.077503511647468,40.187696549697485],[29.07825352105956,40.188214078299666],[29.0795176414681,40.18952707719683],[29.080933652018363,40.19121605392437],[29.081711670830675,40.19157500043252],[29.08224653085382,40.191646617754586],[29.0870074,40.19157314285716],[29.097112224945818,40.19159356196332],[29.099916808063927,40.191512278653725],[29.10284578673659,40.19156331427375],[29.105884785888502,40.19148365656546],[29.10599639683527,40.1915820790855],[29.106107549999997,40.19148225000001],[29.10621916539533,40.191582599062016],[29.106330316666668,40.191481950000004],[29.113112597528165,40.19156093019481],[29.116903699999998,40.1914869]]}},{"type":"Feature","properties":{"route_ref":"B2","route_color":"#e6194b"},"geometry":{"type":"MultiLineString","coordinates":[[[29.207025221921846,40.20260987351175],[29.206619985714287,40.20241627142857],[29.203996334927282,40.20036318485267],[29.20284889681788,40.19967989488324],[29.20140267974131,40.19905935880558],[29.199639091811456,40.19862011593413],[29.198338132135586,40.19848232734035],[29.197072500905843,40.19849265637836],[29.189266268191847,40.19940910001059],[29.188210211200563,40.199455189398385],[29.18651629049993,40.199337065025105],[29.170184884210524,40.197281563157894],[29.16694881111111,40.19671723333333],[29.165970166909855,40.19646515736044],[29.154353446047292,40.19451977989111],[29.15371152663238,40.19434371029745],[29.150326189999998,40.193798269999995],[29.14186321255724,40.192235741816845],[29.13837961750562,40.1916993128224],[29.134871957585432,40.1915491145886],[29.132643050000002,40.191614699999995],[29.131437975647074,40.191556203642904],[29.10694043333333,40.19158553333334],[29.103786216268848,40.19152297583241],[29.09955675,40.19161264999999],[29.09631692547133,40.1915613308851],[29.082479960611376,40.19166477566277],[29.0817079416519,40.19158505720185],[29.08093628816623,40.1912156503971],[29.07829354289025,40.18826035428619],[29.07750011521902,40.18770095042976],[29.076598495262637,40.18756727665999],[29.06830244907219,40.18734008799797],[29.061682168107815,40.18869251508009],[29.061054439797203,40.1889089694298],[29.06071460927322,40.189463076203104],[29.06032271421139,40.19182402730648],[29.060075978565294,40.194874807165725],[29.059907745004843,40.19527107458153],[29.05946064852354,40.195617086244646],[29.058633635734772,40.195831003102526],[29.055242315116814,40.19625881532668],[29.050961723605443,40.19714666716904],[29.04584580337325,40.19905611775478],[29.041414039272258,40.20018857928018],[29.03830656930425,40.20083156979683],[29.036865773632016,40.20131417326403],[29.035460041003347,40.202016330654],[29.033386357111418,40.20337714692323],[29.030087950480063,40.20507765705545],[29.028749185820814,40.206043228313646],[29.025895609090906,40.20892612727273],[29.024667373342858,40.21001322155242],[29.02287969131852,40.21113031346815],[29.021038396550352,40.211921137179154],[29.018934402017763,40.21261045418061],[29.01810868145849,40.21279701523197],[29.013388915362714,40.213115237486726],[29.011095165331028,40.21301836575973],[29.0068102850449,40.21241712013034],[29.00116846747433,40.21181309964146],[29.000528377953383,40.21180180604469],[28.999606425691784,40.21193700209828],[29.000754854364015,40.21179157620648],[29.001513513901212,40.21184118578491],[29.01217018774116,40.21310975830907],[29.013744351518095,40.21310245352695],[29.018108906762368,40.21279700294032],[29.01893437666335,40.21261046780076],[29.020738452069185,40.21201394321217],[29.022984527999107,40.21107275926434],[29.0246105468416,40.21003536599103],[29.02462229993578,40.209932642923704],[29.026803132631006,40.208022409200325],[29.028750008722906,40.206031018205415],[29.029326193621525,40.20553676549911],[29.029476278314128,40.20553081270505],[29.029595605826408,40.20533900506048],[29.029769988361362,40.205341392854926],[29.02998942429853,40.20508523977423],[29.030726984997013,40.20467229490586],[29.033289920909656,40.20343242467111],[29.03545515153607,40.202018166903365],[29.03667346606446,40.20138042437656],[29.039040837500004,40.2006336],[29.042885136290067,40.19983041379715],[29.045216864354224,40.19923450269789],[29.050960513444632,40.19714693208884],[29.055516731063634,40.19615924877818],[29.057472360000002,40.195896659999995],[29.058620263668644,40.195829985397445],[29.059460594087106,40.19561706845914],[29.059907590922716,40.19527121113518],[29.060094606257437,40.19479102532491],[29.0603089,40.1919217],[29.06072154901017,40.189470128756184],[29.060922255532848,40.18904054410723],[29.061129346332496,40.18887100761421],[29.06167276025692,40.18869061091039],[29.06830201455542,40.187340052833335],[29.076600752125238,40.18756735491895],[29.077503511647468,40.187696549697485],[29.07825352105956,40.188214078299666],[29.0795176414681,40.18952707719683],[29.080933652018363,40.19121605392437],[29.081711670830675,40.19157500043252],[29.08224653085382,40.191646617754586],[29.0870074,40.19157314285716],[29.097112224945818,40.19159356196332],[29.099916808063927,40.191512278653725],[29.10284578673659,40.19156331427375],[29.105884785888502,40.19148365656546],[29.10599639683527,40.1915820790855],[29.106107549999997,40.19148225000001],[29.10621916539533,40.191582599062016],[29.106330316666668,40.191481950000004],[29.112879330319586,40.19156184793634],[29.118327928571425,40.19148758571429],[29.123370796860474,40.1915537581774],[29.1326412,40.191508649999996],[29.138226596926163,40.191683744526145],[29.141838478910095,40.192178794459984],[29.14940422418185,40.19361645883082],[29.155393600000004,40.194598750000004],[29.157156701051708,40.194974006246575],[29.16083764,40.195550700000005],[29.17025809945064,40.19724644404648],[29.18673582050456,40.199343474363346],[29.188888896832953,40.199388446447614],[29.197184288058054,40.19847191711459],[29.199499944716443,40.1985971306904],[29.201509008725118,40.19908526361129],[29.203183649025373,40.19985789032963],[29.20414645291962,40.20046970813215],[29.207039800000004,40.2026109]],[[28.870044499999995,40.21809220000001],[28.8779219,40.217508959999996],[28.87956547586407,40.2174955244789],[28.881132155684217,40.217919112484154],[28.88627034323272,40.22022076931152],[28.8871880110767,40.22045089444194],[28.888186333670568,40.22052884492857],[28.889616395511847,40.22054075205218],[28.890660966666665,40.22043066666667],[28.89189205083581,40.22045127531279],[28.89961751111111,40.220179400000006],[28.907177725420937,40.22015202929249],[28.913066633333333,40.21972146666668],[28.91712136189915,40.21972906250635],[28.921444166666667,40.219374433333336],[28.926378468008238,40.21909722943568],[28.927119646029848,40.218933512652896],[28.928806265391064,40.21833974178761],[28.929402069156826,40.21795470082093],[28.93014862863441,40.21694088278946],[28.93052184345075,40.2166319727874],[28.931102065359774,40.21643291850259],[28.932633026843842,40.216251015488545],[28.933288800245887,40.21603119877016],[28.933727762855817,40.215475791258335],[28.934301092024363,40.21424733390686],[28.935254251007397,40.212646011443326],[28.93570301292714,40.212257903388476],[28.93658158653751,40.21202520459583],[28.939693386600542,40.21192739501312],[28.939820915321754,40.21199650261863],[28.940200976098232,40.21192707064684],[28.941707160127223,40.21197209414203],[28.941947340092053,40.212081561663226],[28.942076733333334,40.21198496666667],[28.94314474444444,40.21203712222223],[28.950422500000002,40.21254793333333],[28.95261545069816,40.21278366126267],[28.962173147505524,40.213411080774314],[28.965169368000968,40.213165862859626],[28.973930900137827,40.21165916197599],[28.976564959999997,40.21137196000001],[28.979835367275772,40.21136615260531],[28.996855463254995,40.212385378632895],[28.99806486529436,40.2122466461343],[28.99959669272981,40.21190733400316],[28.998193722222222,40.21222137777778],[28.996858353135597,40.21238525216672],[28.992719982598047,40.21210720736621],[28.98801518333333,40.21190728333333],[28.98777969813389,40.21180024285027],[28.987403957845125,40.211869147497886],[28.979837777892648,40.21136644530604],[28.97802809579056,40.21133534422203],[28.974095069808303,40.21168044590016],[28.964924588942303,40.213247209314105],[28.962169392795325,40.21341082762302],[28.9528375,40.21280039999999],[28.95101013017203,40.21260987593695],[28.9507054,40.2126657],[28.949377866666666,40.21257359999999],[28.94509177691438,40.212187578829884],[28.940350762617392,40.211974404154674],[28.936481319919164,40.212042712076475],[28.93569445754111,40.2122737857624],[28.935148628784,40.2127800041815],[28.933842541711993,40.21539679010369],[28.9334480982556,40.215908326401866],[28.932800494298164,40.21623526719559],[28.93111181449152,40.21644151583484],[28.930607452687003,40.21659666249119],[28.93015524937338,40.21693640584433],[28.929413636979188,40.217949259997134],[28.928830230336157,40.21834531176017],[28.92712310244938,40.218933907439954],[28.9263787,40.21909775],[28.916987179187185,40.21973795019225],[28.91353555507092,40.219730103734406],[28.91059306014443,40.22000244624084],[28.90940857759545,40.21999158733553],[28.90647439230769,40.220180169230765],[28.902455918392594,40.220146293189345],[28.9008974824931,40.22025118300087],[28.893813323329802,40.22037629089069],[28.890821,40.22053802857142],[28.888185371962365,40.22054407801833],[28.88718898966541,40.22045107232982],[28.886270591473966,40.22022086443248],[28.881133077673244,40.21791948752682],[28.879566762222538,40.217495944796255],[28.878383944883414,40.21748957794407],[28.8700597,40.218196299999995]]]}}]}