{"type":"FeatureCollection","features":[{"type":"Feature","properties":{"route_ref":"4","route_color":"#5071b9"},"geometry":{"type":"MultiLineString","coordinates":[[[17.182691141341586,48.189449930972096],[17.180404587302302,48.18924178390978],[17.179236490767682,48.188996996167305],[17.17838103077351,48.1887171885404],[17.175341634296977,48.18732220758612],[17.17312564538256,48.186519607584145],[17.171958421244547,48.18591970313085],[17.16315019418938,48.182793634147394],[17.148848717295376,48.1779986939903],[17.14672471034458,48.17702351934732],[17.145592148392627,48.17626491977243],[17.14484668358497,48.17560308392073],[17.130960928034803,48.16113136030123],[17.128248852560535,48.15842780940149],[17.130685526831996,48.16083868207473],[17.14484547385352,48.17560154193173],[17.14585434969467,48.176460137828016],[17.14672424024766,48.177022268841085],[17.14907378011947,48.17807845941131],[17.163059366964383,48.18276187775506],[17.171963417134105,48.18591629892776],[17.173453709850058,48.18666256744495],[17.175272990795683,48.18729509856342],[17.178280265611807,48.188678483709474],[17.18023906615677,48.189216261781745],[17.1832841,48.1894747]],[[17.092414672731884,48.14122006597151],[17.093032079449017,48.14088652760509],[17.09176517270773,48.14151968327769],[17.091238364884223,48.14167634537042],[17.082611565606573,48.143321563808],[17.08114190494249,48.14373038671158],[17.07719659696547,48.14565119486946],[17.076360081934233,48.146324428107505],[17.07566653749316,48.14725813112218],[17.074894896606693,48.14772803038168],[17.074381398246928,48.14790512339682],[17.073320834418904,48.148079628050986],[17.070640319090046,48.14822126972382],[17.065204132031642,48.148241366052154],[17.064261308941507,48.14840241267497],[17.06351139118726,48.148880038419854],[17.062238566746906,48.15070072202576],[17.062215999999996,48.1508899875],[17.062020271239664,48.15102780307265],[17.06162140419611,48.151781541930035],[17.060797232189227,48.152757273733634],[17.06034673322282,48.15301069126023],[17.059426451521947,48.15330630466935],[17.055664964600073,48.154227929289895],[17.054908303761913,48.154581876529775],[17.05427238674788,48.15508172621443],[17.05065548461538,48.160153699999995],[17.050097164567063,48.16086022057021],[17.04911081433791,48.16157897871947],[17.048640127675863,48.162068511383836],[17.04656062989309,48.16496572146751],[17.0464159,48.1653109],[17.046463227287923,48.166089256326885],[17.046782068129847,48.16657288832599],[17.04715693886391,48.16688698966489],[17.048927075164244,48.16792179429128],[17.049388686947857,48.16833657431679],[17.049636892874524,48.16883985853747],[17.049318765499777,48.17331524704858],[17.04887355656309,48.1748683736962],[17.048394328787378,48.17561679651612],[17.04760821329101,48.17640826462373],[17.04046607613869,48.18190266974008],[17.0387330202422,48.18340289771146],[17.037923373158698,48.18472740807314],[17.0338404,48.1950498]],[[17.119924193942992,48.15181725582799],[17.121675473438366,48.15315900149453],[17.11927072899976,48.15134092218115],[17.11806861628777,48.1507747054125],[17.117684064133712,48.15047845452473],[17.117083372486785,48.149236530056136],[17.116422372599807,48.1482677878245],[17.113800414766747,48.14587485488806],[17.112966158865042,48.14480343338243],[17.112820990951224,48.14442700110474],[17.11299871326465,48.143810082884706],[17.11297034052057,48.14339095435049],[17.109669182368602,48.14195528145413],[17.109446290938006,48.14177479719242],[17.10968193764597,48.140618654708184],[17.10956351910967,48.140100280520905],[17.109401725706686,48.13995010608792],[17.108366244078713,48.13985110778053],[17.1046984440328,48.139767953777834],[17.09783515671567,48.140036003148836],[17.095398124685282,48.140266014188356],[17.093756471906612,48.140592737933105],[17.093035274719323,48.140874237658394],[17.093802427055465,48.140586622111634],[17.094996320984716,48.1403366497875],[17.097189772806413,48.14008578977082],[17.102345185687533,48.13982553776062],[17.105414550000003,48.139766300000005],[17.11006673189617,48.139938226482165],[17.11621828049126,48.14095133488222],[17.11640325524561,48.14115269593683],[17.116261166666664,48.141363950000006],[17.113095878143703,48.14347812154577],[17.112816023858226,48.14433640460314],[17.11285989335128,48.144589298482394],[17.113778277732642,48.14584907122623],[17.11638187729019,48.14821861067859],[17.117088924640218,48.149258469377706],[17.117717247446897,48.15049821092899],[17.118151356913387,48.15082059537706],[17.119388896487344,48.15141928685255],[17.120467655356933,48.152237255297365]]]}},{"type":"Feature","properties":{"route_ref":"9","route_color":"#5071b9"},"geometry":{"type":"MultiLineString","coordinates":[[[17.0774118,48.1455385],[17.080985179369957,48.14379085442724],[17.08194070545532,48.143477395519966],[17.090528925,48.14179546666667],[17.091746914103936,48.14170142492425],[17.09292494545455,48.142088472727266],[17.10195917771599,48.14396579397051],[17.1024786,48.1441169],[17.103011224234553,48.144506852966096],[17.104104610402864,48.144647530864695],[17.104861564487756,48.14487210667643],[17.10564575891446,48.145224519706254],[17.106354476125055,48.14573436104647],[17.107535843115155,48.14599123962513],[17.108934540000007,48.14679671999999],[17.112945245949383,48.148770622653636],[17.114898397715354,48.15045095671348],[17.118252135149053,48.15262582052076],[17.118577590148096,48.15295493341425],[17.118972945379216,48.154046945632395],[17.11928131476043,48.154393406807756],[17.11958899665722,48.15444108598538],[17.12007981884918,48.154345545637355],[17.121917911711286,48.1536137277142],[17.1223751,48.15372339999999],[17.121916332286503,48.15361449710921],[17.12008299604309,48.15434311636628],[17.11967417217758,48.15443497492194],[17.11930232741645,48.15440367829395],[17.119048,48.1541621],[17.118784,48.153360299999996],[17.11844268254234,48.15278539200171],[17.117596088694473,48.152140849081746],[17.114846991202707,48.15041060400968],[17.11296510811661,48.14877836519619],[17.109065722150692,48.146863698833755],[17.107549472093314,48.145984352876845],[17.106430984518862,48.14576279399012],[17.10565382960416,48.14522921052478],[17.104861502786044,48.14487026068167],[17.103989080558147,48.14462257120767],[17.10299925926412,48.144501635590444],[17.102540897687366,48.14414713682799],[17.102201709896946,48.144035819387945],[17.09264486241162,48.142010477176164],[17.091707174086732,48.14169981972584],[17.090988096006292,48.141730480327894],[17.082611565606573,48.143321563808],[17.08114190494249,48.14373038671158],[17.07719659696547,48.14565119486946],[17.076360081934233,48.146324428107505],[17.07566653749316,48.14725813112218],[17.074894896606693,48.14772803038168],[17.074381398246928,48.14790512339682],[17.073320834418904,48.148079628050986],[17.070242053950896,48.148238203508136],[17.065204132031642,48.148241366052154],[17.064133157628422,48.14845230941385],[17.06351139118726,48.148880038419854],[17.062238566746906,48.15070072202576],[17.062215999999996,48.1508899875],[17.062020271239664,48.15102780307265],[17.06162140419611,48.151781541930035],[17.060797232189227,48.152757273733634],[17.06034673322282,48.15301069126023],[17.059426451521947,48.15330630466935],[17.055664964600073,48.154227929289895],[17.054908303761913,48.154581876529775],[17.05427238674788,48.15508172621443],[17.05065548461538,48.160153699999995],[17.050097164567063,48.16086022057021],[17.04911081433791,48.16157897871947],[17.048640127675863,48.162068511383836],[17.0465918,48.1649753]],[[17.12409193583502,48.15503028717078],[17.122412870752566,48.1537043684586],[17.126333426013232,48.156744736326246],[17.12726384931314,48.15769381112678],[17.127981211840893,48.15799239671359],[17.129482470933436,48.15799976808539],[17.130745873660537,48.157681877141485],[17.134089303861398,48.155097894038605],[17.1346876,48.1549716],[17.144292801914233,48.156151188751636],[17.17706658882482,48.15856077878083]]]}},{"type":"Feature","properties":{"route_ref":"3","route_color":"#5071b9"},"geometry":{"type":"MultiLineString","coordinates":[[[17.1665144,48.2162855],[17.161357801063968,48.21380854783259],[17.158134465792543,48.211490955754144],[17.157629452383564,48.211336945431405],[17.157080092075315,48.21131025227582],[17.155605979538212,48.21162313904178],[17.155288805357216,48.211560944191504],[17.15092610323665,48.20819121475485],[17.149590493232047,48.206766654148176],[17.149521130120675,48.206183377180665],[17.150028584179278,48.204893715453075],[17.149986101011365,48.20404937769344],[17.149486746341005,48.20295226982132],[17.147530049627804,48.1996468878412],[17.142423215076743,48.19426973847301],[17.13708518567155,48.18951335691649],[17.135470785481935,48.188232042436574],[17.13425773166662,48.186605750109166],[17.133216272731335,48.1855469473274],[17.132652015163792,48.1847606064026],[17.129731643215155,48.182128871553296],[17.129451743257324,48.18177300565011],[17.129181048270556,48.181285396310514],[17.128041410638495,48.177532254743554],[17.126992307083334,48.17190494404758],[17.126989762703985,48.17098739075285],[17.12745745,48.16799235],[17.127236188483494,48.16719885874916],[17.126089935379838,48.16491297516918],[17.123180325651663,48.16109740696769],[17.120042094053698,48.15728177200148],[17.118784099316493,48.15336111582817],[17.118156190666795,48.1520563759444],[17.117890908448203,48.1508799990078],[17.117083372486785,48.149236530056136],[17.116348177554894,48.148180840952314],[17.113800414766747,48.14587485488806],[17.112839606755216,48.14460117794602],[17.112824030941496,48.14432517068419],[17.113181394856934,48.14340863663219],[17.11638498240504,48.14124029992452]],[[17.109177416893072,48.09228767312769],[17.10970778397857,48.09872635303447],[17.109197332156125,48.10019793533992],[17.10766378719911,48.10254166088139],[17.107410734617186,48.10410298953404],[17.10828349230769,48.11558653076923],[17.108569640226197,48.11742309635341],[17.10873212521605,48.11790823242569],[17.1093166,48.11866740000001],[17.116391455479334,48.12595663133669],[17.116750864326622,48.12662323842602],[17.116824229730543,48.127789158520855],[17.11678329516844,48.1270697660551]],[[17.116991847524925,48.13525847290819],[17.116989139949087,48.13307514361161],[17.11670619764613,48.129257196952295],[17.11686590501452,48.12836658328569],[17.116821765744554,48.12773860553192],[17.116719800130358,48.12965411144448],[17.117015471510122,48.13310061888812],[17.11701794042553,48.1361420680851],[17.11736636558108,48.14005762377044],[17.117294012559764,48.140437945560365],[17.116975743297683,48.1408485921827],[17.115530254895983,48.1418017970746]]]}},{"type":"Feature","properties":{"route_ref":"1","route_color":"#5071b9"},"geometry":{"type":"LineString","coordinates":[[17.109842196824584,48.14044723957321],[17.110225956446257,48.14009676526047],[17.110771363636363,48.140041218181814],[17.116089368749996,48.14092316250001],[17.11638240763572,48.14110039046303],[17.116261166666664,48.141363950000006],[17.113095878143703,48.14347812154577],[17.112776168679257,48.14443778541333],[17.112542001083884,48.14475527213714],[17.111385376268657,48.14527962912587],[17.11018948852264,48.14552415564325],[17.10853432726685,48.14567664981309],[17.10797591945264,48.14583633701384],[17.107840950013575,48.14602446756689],[17.1079651,48.1462022],[17.109065722150692,48.146863698833755],[17.11296510811661,48.14877836519619],[17.114740277716972,48.15032965557938],[17.116475709284522,48.151472071808065],[17.114846991202707,48.15041060400968],[17.112945245949383,48.148770622653636],[17.108934540000007,48.14679671999999],[17.107860861652487,48.14609243660228],[17.107895238260156,48.14589401654121],[17.108222331609806,48.14574431381276],[17.111069654800797,48.14536683261047],[17.112272266872587,48.14488393417954]]}}]}