{"type":"FeatureCollection","features":[{"type":"Feature","properties":{"way_id":907849235,"route_colors":["#feca1b"],"route_refs":["1"]},"geometry":{"type":"LineString","coordinates":[[14.2398388,40.8929161],[14.2392068,40.8932513],[14.2389408,40.8933944],[14.2385565,40.8935975],[14.2383208,40.8937211],[14.2380728,40.8938459],[14.237844,40.8939539],[14.237595,40.8940547],[14.2373351,40.8941448],[14.2370605,40.8942356],[14.2365592,40.8944009],[14.2364163,40.894444],[14.236032,40.8945702],[14.2357469,40.8946627],[14.2352429,40.8948251]]}},{"type":"Feature","properties":{"way_id":135037484,"route_colors":["#feca1b"],"route_refs":["1"]},"geometry":{"type":"LineString","coordinates":[[14.2352429,40.8948251],[14.23472,40.8949966],[14.2344441,40.8950853],[14.2341953,40.8951644],[14.2339285,40.8952385],[14.2336579,40.8953003],[14.2333812,40.8953504],[14.2331023,40.8953868],[14.2328209,40.8954099],[14.232537,40.8954203],[14.2322559,40.8954181],[14.2319714,40.8954046],[14.231687,40.8953857],[14.2311046,40.895345],[14.2305535,40.8953024],[14.229988,40.8952607],[14.2294078,40.8952175],[14.2291364,40.8951982],[14.2288576,40.8951668],[14.2285804,40.8951232],[14.2283106,40.8950574],[14.2280468,40.8949786],[14.2277941,40.894882],[14.2275516,40.8947719],[14.2273023,40.8946371],[14.2270519,40.8944736],[14.2268247,40.8942917],[14.2266168,40.8940985],[14.226424,40.8938919],[14.2262364,40.893684],[14.2260453,40.8934785],[14.2258555,40.8932702],[14.2256696,40.8930698],[14.2253552,40.8927244],[14.2250276,40.89237],[14.2246944,40.892006],[14.2243769,40.8916602]]}},{"type":"Feature","properties":{"way_id":904819031,"route_colors":["#feca1b"],"route_refs":["1"]},"geometry":{"type":"LineString","coordinates":[[14.2243769,40.8916602],[14.2240512,40.8913048],[14.2239001,40.891135],[14.2236845,40.8909086],[14.2234954,40.8907017],[14.2231042,40.8902737],[14.2229389,40.8900936],[14.2227768,40.889917],[14.2226156,40.8897406],[14.2224621,40.8895603],[14.2223221,40.8893729],[14.2221977,40.8891776],[14.2221015,40.8889764],[14.2220224,40.8887715],[14.2219656,40.8885593],[14.2219333,40.8883468],[14.2219202,40.8881282],[14.2219345,40.8879014],[14.2219778,40.8876526],[14.222052,40.8874077],[14.2221554,40.8871704],[14.2222779,40.8869575],[14.2224128,40.8867676],[14.2225668,40.8865877],[14.222738,40.8864165],[14.2229288,40.8862578],[14.2231348,40.8861102],[14.2233524,40.8859746],[14.2235802,40.8858461],[14.2238081,40.8857166],[14.2240791,40.8855653]]}},{"type":"Feature","properties":{"way_id":495285147,"route_colors":["#feca1b"],"route_refs":["1"]},"geometry":{"type":"LineString","coordinates":[[14.2240791,40.8855653],[14.2245272,40.8853118],[14.2249271,40.8850858],[14.2253384,40.8848556],[14.2257278,40.8846364],[14.2261265,40.8844114],[14.2266812,40.8840992]]}},{"type":"Feature","properties":{"way_id":495285141,"route_colors":["#feca1b"],"route_refs":["1"]},"geometry":{"type":"LineString","coordinates":[[14.2266812,40.8840992],[14.2269497,40.883948],[14.2274094,40.8836902],[14.2278641,40.8834311],[14.2281015,40.8832861],[14.2283063,40.883157],[14.2285159,40.8830155],[14.2287279,40.8828683],[14.2289313,40.882718],[14.2291335,40.8825631],[14.2293292,40.8824038],[14.2295206,40.8822424],[14.2297014,40.8820798],[14.2298841,40.8819094],[14.2300612,40.8817355],[14.2302278,40.8815633],[14.2303897,40.8813867],[14.230557,40.8811971],[14.2307373,40.880979],[14.2309044,40.8807592],[14.2310657,40.8805363],[14.2312282,40.8802973],[14.2313563,40.8801011],[14.2315145,40.8798494],[14.2316598,40.879592],[14.2317873,40.8793287],[14.2318971,40.8790625],[14.2319956,40.8787934],[14.2320764,40.8785185],[14.2321388,40.8782436],[14.2321625,40.8781163],[14.2321848,40.8779664],[14.2322045,40.8778162],[14.2322169,40.8776588]]}},{"type":"Feature","properties":{"way_id":1237517572,"route_colors":["#feca1b"],"route_refs":["1"]},"geometry":{"type":"LineString","coordinates":[[14.2322169,40.8776588],[14.2322277,40.8774162],[14.2322276,40.8772828],[14.2322225,40.8771078],[14.2322055,40.8768894]]}},{"type":"Feature","properties":{"way_id":495285136,"route_colors":["#feca1b"],"route_refs":["1"]},"geometry":{"type":"LineString","coordinates":[[14.2322055,40.8768894],[14.2321716,40.8765779],[14.2321341,40.8762992],[14.2321002,40.8760221],[14.2320656,40.8757442],[14.2320314,40.8754665],[14.2319753,40.875005],[14.2319021,40.8744152]]}},{"type":"Feature","properties":{"way_id":1237517570,"route_colors":["#feca1b"],"route_refs":["1"]},"geometry":{"type":"LineString","coordinates":[[14.2319021,40.8744152],[14.2318529,40.8740134],[14.2318086,40.8736628]]}},{"type":"Feature","properties":{"way_id":495285130,"route_colors":["#feca1b"],"route_refs":["1"]},"geometry":{"type":"LineString","coordinates":[[14.2318086,40.8736628],[14.23179,40.8735162],[14.231768,40.8733683],[14.2317443,40.8732321],[14.2317103,40.8730903],[14.231674,40.8729627],[14.2316266,40.8728155],[14.2315641,40.8726569],[14.2315148,40.8725474],[14.2314515,40.8724233],[14.2313731,40.8722849],[14.2313093,40.8721768],[14.2312075,40.8720318],[14.2311207,40.8719188],[14.2310152,40.871791],[14.2309214,40.8716866],[14.2307949,40.871561],[14.2306495,40.8714238],[14.2305314,40.8713218]]}},{"type":"Feature","properties":{"way_id":1237261849,"route_colors":["#feca1b"],"route_refs":["1"]},"geometry":{"type":"LineString","coordinates":[[14.2305314,40.8713218],[14.2304644,40.8712645],[14.2302609,40.8710986],[14.2301391,40.8709992],[14.2300117,40.8708947],[14.2298142,40.8707327],[14.2298171,40.8707351]]}},{"type":"Feature","properties":{"way_id":1237261853,"route_colors":["#feca1b"],"route_refs":["1"]},"geometry":{"type":"LineString","coordinates":[[14.2298171,40.8707351],[14.2298142,40.8707327],[14.2296654,40.8706112],[14.2294883,40.8704648]]}},{"type":"Feature","properties":{"way_id":1237261855,"route_colors":["#feca1b"],"route_refs":["1"]},"geometry":{"type":"LineString","coordinates":[[14.2294883,40.8704648],[14.2291505,40.870183],[14.2286646,40.8697775],[14.2282254,40.869411]]}},{"type":"Feature","properties":{"way_id":845134862,"route_colors":["#feca1b"],"route_refs":["1"]},"geometry":{"type":"LineString","coordinates":[[14.2282254,40.869411],[14.2276351,40.8689193],[14.2274598,40.8687844],[14.2272296,40.8686329],[14.2269502,40.8684712],[14.2266854,40.8683231],[14.2264058,40.8681918],[14.2260945,40.8680649],[14.2257347,40.8679586],[14.22526,40.86785],[14.224774,40.867754],[14.2242657,40.8676368],[14.2237486,40.8674536],[14.223281,40.8672413],[14.2229314,40.8670237],[14.2226059,40.8667702],[14.2223273,40.8664883],[14.222101,40.8662509],[14.2219329,40.8660119],[14.2217425,40.8656691],[14.2215108,40.8652031],[14.221287,40.8647141],[14.2212077,40.8645105],[14.2211286,40.8642378],[14.2205224,40.8616439],[14.2204214,40.8611473],[14.2203203,40.8606506],[14.220135,40.8597486],[14.2199811,40.8588582],[14.2200361,40.8579552],[14.2205728,40.8571178],[14.2211893,40.8566158],[14.2220764,40.8562758],[14.223196,40.856128],[14.2243734,40.8561016],[14.2250312,40.8560873],[14.2256899,40.8560731],[14.2263844,40.8560546],[14.2270726,40.8560044],[14.2276593,40.8559043],[14.2281733,40.8557379],[14.2285916,40.8555559],[14.2290631,40.8552948],[14.2294608,40.8550131],[14.2298002,40.8546882],[14.230086,40.8542915],[14.230357,40.8537293]]}},{"type":"Feature","properties":{"way_id":1237261860,"route_colors":["#feca1b"],"route_refs":["1"]},"geometry":{"type":"LineString","coordinates":[[14.230357,40.8537293],[14.2304232,40.8535267],[14.2304984,40.8530737],[14.2306766,40.8518604],[14.2307044,40.8516724],[14.2307432,40.8514106],[14.2307812,40.8511538],[14.2308412,40.8505693],[14.2309188,40.8500023],[14.2312343,40.8476975]]}},{"type":"Feature","properties":{"way_id":845134864,"route_colors":["#feca1b"],"route_refs":["1"]},"geometry":{"type":"LineString","coordinates":[[14.2312343,40.8476975],[14.2315681,40.8453436],[14.2316625,40.8446154],[14.2317746,40.84392],[14.2318373,40.8435311],[14.2318719,40.8432953],[14.2318951,40.8430783],[14.2318994,40.8428094],[14.2318483,40.8425509],[14.2317433,40.8423229],[14.2315827,40.8421169],[14.2312975,40.841826],[14.2309774,40.8415746],[14.2303279,40.8412043],[14.2296136,40.8409418],[14.2289153,40.8407914],[14.2280727,40.8407708],[14.2272437,40.8408726],[14.2264977,40.8410909],[14.2257671,40.8415061],[14.2252847,40.8419765],[14.2248735,40.8424844],[14.2246261,40.8429138],[14.2244742,40.8433662],[14.2243941,40.8437994],[14.2243852,40.8440948],[14.2243887,40.8443949],[14.2244385,40.8447065],[14.2245007,40.8449995],[14.2246239,40.8454053],[14.224753,40.8457979],[14.2249567,40.8463732],[14.2252102,40.847089],[14.2253896,40.8475362],[14.2256144,40.8479108],[14.225883,40.8482106],[14.2261827,40.8484452],[14.2266453,40.8486919],[14.2272305,40.8488755],[14.2301921,40.8495897],[14.2341355,40.8505406],[14.2347733,40.8507123],[14.235201,40.8508593],[14.2356542,40.8510402],[14.2361859,40.8512774],[14.2367645,40.8515509]]}},{"type":"Feature","properties":{"way_id":904819034,"route_colors":["#feca1b"],"route_refs":["1"]},"geometry":{"type":"LineString","coordinates":[[14.2367645,40.8515509],[14.2373452,40.8518253],[14.2377365,40.8520271],[14.2381488,40.8522765],[14.2417771,40.8548616],[14.2421916,40.8551557],[14.2428855,40.8556513],[14.2434387,40.8559622],[14.2445361,40.8564654],[14.2457925,40.8569995],[14.2465911,40.8573364],[14.2472393,40.8575379],[14.2479457,40.8576676],[14.2485902,40.8576685],[14.2494502,40.8575368],[14.250172,40.85736],[14.2506235,40.8571727],[14.2510594,40.8569066],[14.251357,40.8566519],[14.2517189,40.8563296],[14.251952,40.8560184],[14.252101,40.8557212],[14.2522016,40.8553666],[14.2522754,40.8550085],[14.2522478,40.8546991],[14.2521767,40.8544028]]}},{"type":"Feature","properties":{"way_id":904819035,"route_colors":["#feca1b"],"route_refs":["1"]},"geometry":{"type":"LineString","coordinates":[[14.2521767,40.8544028],[14.2520224,40.853873],[14.2518711,40.8533936],[14.2517162,40.8529026],[14.2515769,40.8525377],[14.2514093,40.8521399],[14.2512026,40.8516534],[14.2510922,40.8513645],[14.250996,40.8510986],[14.2509528,40.8509468],[14.2508347,40.8505113],[14.2508027,40.850378],[14.2507634,40.8502399],[14.2507317,40.8501452],[14.2506909,40.8500479],[14.2506362,40.8499476],[14.2505821,40.8498584],[14.25049,40.8497263],[14.2503846,40.8495265],[14.2503418,40.8494098]]}},{"type":"Feature","properties":{"way_id":904819036,"route_colors":["#feca1b"],"route_refs":["1"]},"geometry":{"type":"LineString","coordinates":[[14.2503418,40.8494098],[14.2501834,40.8489293],[14.2499301,40.8481605],[14.249749,40.8476146],[14.2495988,40.8471385],[14.2494857,40.8467794],[14.249394,40.8464121],[14.249317,40.845992],[14.249258,40.8455748],[14.2489353,40.8424341],[14.2488907,40.8419999],[14.2488739,40.841899],[14.2488521,40.8418059],[14.2488229,40.8417078],[14.2487948,40.8416192],[14.2487609,40.8415055],[14.2487347,40.8414059],[14.2487132,40.8412946],[14.2487055,40.8411909],[14.2487186,40.8410475],[14.2487579,40.8408395],[14.2488238,40.8406349],[14.2489883,40.8403492],[14.249175,40.8401236],[14.2493573,40.8399395],[14.2496048,40.8397775],[14.2498886,40.839643],[14.2501611,40.8395551],[14.2504763,40.8394906],[14.250765,40.839461],[14.2510757,40.8394492],[14.2513139,40.8394649],[14.2514631,40.8394815],[14.2516069,40.8395064],[14.2517288,40.8395364],[14.251824,40.8395635],[14.2524341,40.8397418],[14.2530442,40.8399201],[14.2532073,40.8399711]]}},{"type":"Feature","properties":{"way_id":845130957,"route_colors":["#feca1b"],"route_refs":["1"]},"geometry":{"type":"LineString","coordinates":[[14.2532073,40.8399711],[14.253347,40.8400196],[14.253468,40.8400697],[14.2536339,40.8401447],[14.2537868,40.8402299],[14.2539135,40.840321],[14.2540261,40.8404259],[14.2541372,40.8405472],[14.2542392,40.8406717],[14.254335,40.8408138],[14.2544021,40.8409398],[14.2544686,40.8410956],[14.2545181,40.8412469],[14.2545485,40.8413793],[14.2545646,40.8415148],[14.2546044,40.8421246],[14.254621,40.8422592],[14.2546449,40.8424307],[14.2546711,40.842554],[14.2547134,40.8426819],[14.2547581,40.8427793],[14.2548495,40.8429201],[14.2549518,40.8430557],[14.2550601,40.8431922],[14.2554627,40.8436227],[14.2558726,40.8440216],[14.2559592,40.8440998],[14.2560473,40.8441722],[14.2561469,40.8442481],[14.25627,40.844337],[14.2563875,40.8444158],[14.2565003,40.8444858],[14.2566211,40.8445543],[14.2567509,40.8446197],[14.2571325,40.8448171],[14.2573025,40.8449092],[14.2576023,40.8450877],[14.258986,40.8459837],[14.2605064,40.8469674],[14.2615658,40.8476545],[14.262887,40.8485113],[14.2667014,40.8509896],[14.266946,40.8511457],[14.2672031,40.8512963],[14.2674065,40.8513996],[14.2676154,40.8514974],[14.2678068,40.8515753],[14.2679781,40.8516324],[14.2682105,40.851698],[14.2684863,40.8517563],[14.2687125,40.8517968],[14.2689285,40.8518271],[14.2691564,40.8518519],[14.2693843,40.8518759],[14.2700334,40.8519414]]}},{"type":"Feature","properties":{"way_id":845133572,"route_colors":["#feca1b"],"route_refs":["1"]},"geometry":{"type":"LineString","coordinates":[[14.2700334,40.8519414],[14.2706819,40.8520069],[14.2708608,40.8520228],[14.2711086,40.8520444],[14.2713604,40.8520615],[14.2715886,40.8520608],[14.2717736,40.8520492],[14.2719396,40.8520344],[14.2721182,40.8520124],[14.272306,40.8519757],[14.2724749,40.8519306],[14.2727657,40.8518473],[14.278063,40.8502933],[14.2785078,40.850171],[14.2788727,40.8500869],[14.279216,40.8500254],[14.2795046,40.8500075],[14.2797633,40.8500189],[14.2800619,40.8500654],[14.2803525,40.8501164],[14.2806401,40.8501996],[14.2809381,40.850321],[14.2812379,40.8504752],[14.2814547,40.8506034],[14.2817279,40.8507748],[14.2820422,40.851054],[14.2822273,40.8512418],[14.2823737,40.8514181],[14.2824281,40.8514914],[14.2824774,40.8515655],[14.2825299,40.8516519],[14.2825785,40.8517471],[14.2826282,40.8518484],[14.2826654,40.8519472],[14.2826905,40.8520495],[14.2827058,40.8521564],[14.2827081,40.8522392],[14.2827055,40.852321],[14.282696,40.8524352],[14.2826774,40.8526011],[14.2826445,40.852801],[14.2824632,40.8539024],[14.2824594,40.8539257],[14.2824115,40.8542171],[14.2823943,40.8543214],[14.2823691,40.8544759]]}},{"type":"Feature","properties":{"way_id":845125486,"route_colors":["#feca1b"],"route_refs":["1"]},"geometry":{"type":"LineString","coordinates":[[14.2823691,40.8544759],[14.2822555,40.8551591]]}},{"type":"Feature","properties":{"way_id":1374426016,"route_colors":["#feca1b"],"route_refs":["1"]},"geometry":{"type":"LineString","coordinates":[[14.2822555,40.8551591],[14.2822325,40.8552794],[14.282206,40.8554005],[14.2821716,40.8555351],[14.2820683,40.8559115],[14.2819506,40.8563662],[14.2818917,40.8565928],[14.2818359,40.8568194],[14.2817302,40.8573514],[14.2816891,40.8575646],[14.281598,40.8580543]]}},{"type":"Feature","properties":{"way_id":1374426015,"route_colors":["#feca1b"],"route_refs":["1"]},"geometry":{"type":"LineString","coordinates":[[14.2816387,40.8580584],[14.2817298,40.8575689],[14.2817469,40.8574798],[14.2817709,40.8573552],[14.2818771,40.8568242],[14.2819322,40.8565982],[14.2819909,40.8563718],[14.2821087,40.8559167],[14.2822119,40.855541],[14.2822462,40.8554063],[14.282273,40.8552845],[14.2822966,40.8551635]]}},{"type":"Feature","properties":{"way_id":845125485,"route_colors":["#feca1b"],"route_refs":["1"]},"geometry":{"type":"LineString","coordinates":[[14.2822966,40.8551635],[14.2824137,40.8544801]]}},{"type":"Feature","properties":{"way_id":845133573,"route_colors":["#feca1b"],"route_refs":["1"]},"geometry":{"type":"LineString","coordinates":[[14.2824137,40.8544801],[14.2824393,40.8543252],[14.2824564,40.8542213],[14.2825043,40.8539299],[14.2825079,40.8539082],[14.2826895,40.8528048],[14.2827224,40.8526049],[14.2827467,40.8524382],[14.2827588,40.8523227],[14.2827634,40.8522374],[14.2827665,40.8521509],[14.2827586,40.8520426],[14.2827437,40.8519427],[14.2827164,40.8518296],[14.2826821,40.8517249],[14.282637,40.8516189],[14.2825862,40.851524],[14.2825407,40.8514431],[14.2824869,40.8513686],[14.2823468,40.8511707],[14.2821484,40.8509465],[14.2818539,40.8506849],[14.2816,40.8505157],[14.2813381,40.8503582],[14.2810184,40.8501978],[14.2807297,40.8500887],[14.2804168,40.8499876],[14.2800904,40.8499321],[14.2797939,40.8499023],[14.2794512,40.8498888],[14.2791751,40.8499149],[14.278833,40.8499808],[14.2784434,40.8500687],[14.278015,40.8501865],[14.2724771,40.8517645],[14.2722997,40.8518131],[14.2721329,40.8518503],[14.2719874,40.8518774],[14.2717904,40.8519089],[14.2715976,40.8519314],[14.27138,40.8519414],[14.2711289,40.8519356],[14.2708767,40.8519219],[14.2706992,40.8519088],[14.2700504,40.8518434]]}},{"type":"Feature","properties":{"way_id":164049494,"route_colors":["#feca1b"],"route_refs":["1"]},"geometry":{"type":"LineString","coordinates":[[14.2700504,40.8518434],[14.2694015,40.8517779],[14.2691737,40.8517537],[14.268949,40.8517292],[14.2687355,40.8516994],[14.2685141,40.8516599],[14.2682503,40.8516037],[14.2680279,40.851541],[14.2678624,40.8514857],[14.2676773,40.85141],[14.2674775,40.8513166],[14.2672839,40.8512185],[14.2670301,40.8510701],[14.2667871,40.8509146],[14.2629722,40.848436],[14.2616509,40.8475792],[14.2605915,40.8468923],[14.2590733,40.8459101],[14.2581311,40.8452937],[14.2578691,40.8451276],[14.2576851,40.8450111],[14.2573844,40.8448322],[14.2572024,40.8447335],[14.2568208,40.844536],[14.2566967,40.8444734],[14.2565806,40.8444075],[14.2564699,40.844339],[14.2563572,40.844263],[14.2562398,40.8441784],[14.2561417,40.8441033],[14.2560595,40.8440362],[14.2559733,40.8439583],[14.2555684,40.8435645],[14.2551667,40.8431355],[14.2550587,40.8429991],[14.2549626,40.84287],[14.2548797,40.8427429],[14.2548381,40.8426521],[14.2547988,40.8425329],[14.2547747,40.8424172],[14.2547519,40.8422529],[14.254735,40.8421194],[14.2546954,40.8415078],[14.2546477,40.8412318],[14.2545943,40.8410679],[14.254525,40.8409051],[14.2544528,40.8407708],[14.2543517,40.8406206],[14.2542426,40.8404884],[14.2541267,40.8403625],[14.2540117,40.8402554],[14.253879,40.8401597],[14.2537055,40.8400618],[14.2535366,40.8399856],[14.2534026,40.83993],[14.2532626,40.8398813]]}},{"type":"Feature","properties":{"way_id":337969593,"route_colors":["#feca1b"],"route_refs":["1"]},"geometry":{"type":"LineString","coordinates":[[14.2532626,40.8398813],[14.2530913,40.8398279],[14.2524812,40.8396496],[14.2518711,40.8394713],[14.2517657,40.8394413],[14.2516407,40.8394109],[14.2514881,40.8393843],[14.2513332,40.8393671],[14.2510814,40.8393504],[14.2507579,40.8393621],[14.2504595,40.8393924],[14.2501204,40.8394612],[14.2498242,40.8395569],[14.249523,40.8397003],[14.2492645,40.8398698],[14.2490678,40.8400669],[14.2488724,40.8403035],[14.2487035,40.8405962],[14.2486327,40.8408101],[14.2485887,40.8410361],[14.2485749,40.8411924],[14.2485829,40.8413033],[14.2486058,40.8414231],[14.2486333,40.8415262],[14.2486661,40.8416374],[14.248695,40.8417273],[14.2487236,40.841824],[14.248745,40.8419161],[14.2487604,40.8420087],[14.2488046,40.8424395],[14.2491277,40.8455836],[14.2491871,40.8460039],[14.2492648,40.8464278],[14.2493578,40.8468001],[14.2494713,40.8471599],[14.2496223,40.8476392],[14.2498025,40.8481821],[14.2500568,40.8489538],[14.2502151,40.8494342]]}},{"type":"Feature","properties":{"way_id":183947328,"route_colors":["#feca1b"],"route_refs":["1"]},"geometry":{"type":"LineString","coordinates":[[14.2502151,40.8494342],[14.2502591,40.8495544],[14.2503702,40.8497618],[14.2504747,40.8499013],[14.2505488,40.84999],[14.2506056,40.8500761],[14.2506497,40.850165],[14.2506864,40.8502574],[14.2507337,40.8503903],[14.2507704,40.8505193],[14.2508946,40.8509563],[14.2509377,40.851108],[14.2509905,40.8513699],[14.2510442,40.8516617],[14.251135,40.852162],[14.2512259,40.8525386],[14.2513679,40.8529643],[14.251523,40.8534553],[14.2516744,40.8539347],[14.2518253,40.8544583]]}},{"type":"Feature","properties":{"way_id":183947327,"route_colors":["#feca1b"],"route_refs":["1"]},"geometry":{"type":"LineString","coordinates":[[14.2518253,40.8544583],[14.251877,40.8547354],[14.2518742,40.8549951],[14.2518137,40.8553311],[14.2517256,40.8556068],[14.2515729,40.8558731],[14.251387,40.8561294],[14.2509842,40.8564819],[14.2506855,40.8567418],[14.2503883,40.8569393],[14.2499888,40.8571405],[14.2493717,40.857315],[14.2485705,40.8574273],[14.2479412,40.8574351],[14.2472933,40.8573449],[14.2466665,40.8571726],[14.2458974,40.856852],[14.2446664,40.8562951],[14.2436371,40.8557656],[14.2431287,40.8554559],[14.2424339,40.8549611],[14.2420197,40.8546661],[14.2383912,40.8520818],[14.2378938,40.8517784],[14.2375342,40.8515965],[14.2369557,40.8513232]]}},{"type":"Feature","properties":{"way_id":183947329,"route_colors":["#feca1b"],"route_refs":["1"]},"geometry":{"type":"LineString","coordinates":[[14.2369557,40.8513232],[14.2363747,40.8510487],[14.2358426,40.8507985],[14.2353278,40.8505963],[14.2348961,40.8504595],[14.2342421,40.8502877],[14.2302906,40.8493341],[14.2273376,40.8486215],[14.2267787,40.8483999],[14.2264338,40.848212],[14.2261631,40.8480142],[14.2259791,40.8478093],[14.2257159,40.8474694],[14.2255457,40.847021],[14.2252906,40.8463002],[14.2250889,40.8457299],[14.2250009,40.8453754],[14.2249433,40.8450353],[14.2249186,40.8447427],[14.2249235,40.8444097],[14.2249386,40.8441185],[14.224966,40.8438228],[14.2250475,40.8434031],[14.2251848,40.8430536],[14.2254028,40.8426788],[14.2258009,40.8422449],[14.2263023,40.8418588],[14.2268462,40.8415893],[14.227363,40.8414163],[14.2280532,40.8413088],[14.2286909,40.8412828],[14.2294218,40.8413582],[14.230142,40.8415962],[14.2307075,40.8418759],[14.2310257,40.8420651],[14.2313139,40.8422694],[14.231497,40.8424363],[14.2316331,40.842625],[14.2317293,40.8428153],[14.2317706,40.843066],[14.2317776,40.8432926],[14.2317715,40.8435252],[14.2317433,40.8437235],[14.2317158,40.843917],[14.231579,40.8448779],[14.2315528,40.8450748],[14.2315146,40.8453398],[14.2311764,40.8476881]]}},{"type":"Feature","properties":{"way_id":1237261859,"route_colors":["#feca1b"],"route_refs":["1"]},"geometry":{"type":"LineString","coordinates":[[14.2311764,40.8476881],[14.2308583,40.8499984],[14.2307799,40.8505677],[14.230667,40.8511984],[14.2306305,40.8514024],[14.2303644,40.8530923],[14.2303496,40.8531865],[14.2302906,40.853474],[14.2301906,40.8536947]]}},{"type":"Feature","properties":{"way_id":845134861,"route_colors":["#feca1b"],"route_refs":["1"]},"geometry":{"type":"LineString","coordinates":[[14.2301906,40.8536947],[14.2298809,40.85421],[14.2295419,40.8545672],[14.2292337,40.854848],[14.228863,40.8551042],[14.2284191,40.8553328],[14.2280395,40.8554976],[14.2275533,40.8556511],[14.2270222,40.8557418],[14.2263623,40.8557859],[14.2256797,40.8558032],[14.2250207,40.8558175],[14.2243631,40.8558318],[14.2231874,40.8558581],[14.2219309,40.8560282],[14.2209604,40.8564085],[14.2202676,40.8569781],[14.2196872,40.8578964],[14.2196211,40.8588702],[14.2197781,40.8597908],[14.219963,40.8606922],[14.2200642,40.8611889],[14.2201654,40.8616855],[14.2207773,40.8642856],[14.2208526,40.8645755],[14.2209488,40.8648064],[14.2211754,40.8652946],[14.2214046,40.8657613],[14.2216155,40.8661309],[14.2217927,40.8663862],[14.2220494,40.8666552],[14.2223693,40.8669619],[14.2226858,40.8672066],[14.2230804,40.8674273],[14.2236087,40.8676233],[14.224175,40.867794],[14.2247036,40.8679075],[14.2251908,40.8679874],[14.2256661,40.8680887],[14.2260229,40.8681882],[14.2263215,40.868299],[14.2265928,40.8684206],[14.2268491,40.8685628],[14.2271254,40.8687218],[14.227346,40.8688653],[14.2275214,40.868998],[14.2281224,40.8694829]]}},{"type":"Feature","properties":{"way_id":1237261854,"route_colors":["#feca1b"],"route_refs":["1"]},"geometry":{"type":"LineString","coordinates":[[14.2281224,40.8694829],[14.2285634,40.8698482],[14.2292609,40.870426],[14.229391,40.8705338]]}},{"type":"Feature","properties":{"way_id":1237261850,"route_colors":["#feca1b"],"route_refs":["1"]},"geometry":{"type":"LineString","coordinates":[[14.229391,40.8705338],[14.2297189,40.8708005]]}},{"type":"Feature","properties":{"way_id":1237261847,"route_colors":["#feca1b"],"route_refs":["1"]},"geometry":{"type":"LineString","coordinates":[[14.2297189,40.8708005],[14.2299186,40.8709631],[14.2300368,40.8710602],[14.2301625,40.8711636],[14.2303735,40.8713346],[14.2304349,40.8713861]]}},{"type":"Feature","properties":{"way_id":845040186,"route_colors":["#feca1b"],"route_refs":["1"]},"geometry":{"type":"LineString","coordinates":[[14.2304349,40.8713861],[14.2305147,40.8714537],[14.2307002,40.8716194],[14.2308196,40.8717325],[14.2309194,40.8718392],[14.2310199,40.8719549],[14.2311154,40.8720718],[14.2312179,40.8722102],[14.2312876,40.8723146],[14.2313673,40.872447],[14.2314336,40.8725691],[14.2314987,40.8727012],[14.2315548,40.8728311],[14.2316078,40.8729718],[14.2316496,40.8730987],[14.2316884,40.8732407],[14.231716,40.8733722],[14.2317422,40.8735217],[14.2317617,40.8736666]]}},{"type":"Feature","properties":{"way_id":1237517569,"route_colors":["#feca1b"],"route_refs":["1"]},"geometry":{"type":"LineString","coordinates":[[14.2317617,40.8736666],[14.2318044,40.8740179],[14.2318546,40.8744182]]}},{"type":"Feature","properties":{"way_id":845040181,"route_colors":["#feca1b"],"route_refs":["1"]},"geometry":{"type":"LineString","coordinates":[[14.2318546,40.8744182],[14.231928,40.8750085],[14.2319849,40.8754704],[14.2320189,40.875749],[14.2320532,40.8760257],[14.23209,40.8763024],[14.2321232,40.8765822],[14.2321582,40.8768925]]}},{"type":"Feature","properties":{"way_id":1237517571,"route_colors":["#feca1b"],"route_refs":["1"]},"geometry":{"type":"LineString","coordinates":[[14.2321582,40.8768925],[14.2321755,40.8771084],[14.2321799,40.8772801],[14.2321806,40.8774137],[14.2321683,40.8776569]]}},{"type":"Feature","properties":{"way_id":845040180,"route_colors":["#feca1b"],"route_refs":["1"]},"geometry":{"type":"LineString","coordinates":[[14.2321683,40.8776569],[14.2321554,40.8778097],[14.2321365,40.8779625],[14.2321139,40.8781142],[14.2320903,40.8782383],[14.23205,40.8784162],[14.2320283,40.8785122],[14.2319477,40.8787842],[14.2318518,40.8790526],[14.23174,40.8793174],[14.2316129,40.8795785],[14.2314696,40.8798334],[14.2313123,40.8800855],[14.231184,40.8802817],[14.2310212,40.8805195],[14.2308607,40.88074],[14.230694,40.8809555],[14.2305178,40.8811721],[14.2303503,40.8813651],[14.2301877,40.8815428],[14.2300239,40.8817133],[14.2298474,40.8818864],[14.2296603,40.8820621],[14.2294838,40.8822175],[14.2293009,40.8823737],[14.2290997,40.8825366],[14.2289015,40.8826899],[14.2286959,40.8828404],[14.228501,40.8829763],[14.2282739,40.8831286],[14.2280816,40.883251],[14.2278333,40.8834017],[14.2273781,40.8836609],[14.2269203,40.8839197],[14.2266501,40.8840694]]}},{"type":"Feature","properties":{"way_id":845040178,"route_colors":["#feca1b"],"route_refs":["1"]},"geometry":{"type":"LineString","coordinates":[[14.2266501,40.8840694],[14.2260977,40.8843831],[14.2256986,40.8846055],[14.2253073,40.8848259],[14.2248974,40.8850568],[14.2244965,40.8852818],[14.2240507,40.8855338]]}},{"type":"Feature","properties":{"way_id":845040177,"route_colors":["#feca1b"],"route_refs":["1"]},"geometry":{"type":"LineString","coordinates":[[14.2240507,40.8855338],[14.2237797,40.885687],[14.2235525,40.8858148],[14.2233234,40.8859447],[14.2231019,40.8860831],[14.2228939,40.8862328],[14.2227022,40.886394],[14.2225273,40.8865662],[14.2223721,40.8867491],[14.222235,40.886941],[14.2221116,40.8871565],[14.222007,40.8873987],[14.2219328,40.8876449],[14.221887,40.8878984],[14.2218727,40.8881286],[14.2218833,40.8883496],[14.2219187,40.8885663],[14.2219745,40.8887805],[14.2220555,40.8889882],[14.2221574,40.8891914],[14.2222778,40.8893899],[14.2224194,40.8895777],[14.2225776,40.8897593],[14.2227381,40.8899362],[14.2228997,40.8901133],[14.223061,40.8902906],[14.2232056,40.8904349],[14.2234566,40.890722],[14.2236455,40.8909264],[14.2238599,40.8911607],[14.2240113,40.8913251],[14.2243369,40.8916813]]}},{"type":"Feature","properties":{"way_id":845040171,"route_colors":["#feca1b"],"route_refs":["1"]},"geometry":{"type":"LineString","coordinates":[[14.2243369,40.8916813],[14.224656,40.8920281],[14.2249886,40.8923915],[14.225316,40.8927484],[14.2256302,40.8930897],[14.2258147,40.8932927],[14.2260052,40.8934998],[14.2261954,40.8937064],[14.2263857,40.8939145],[14.2265794,40.894121],[14.2267873,40.8943172],[14.2270178,40.8945003],[14.2272726,40.8946672],[14.2275245,40.8948027],[14.2277732,40.8949148],[14.2280282,40.8950115],[14.2282939,40.8950918],[14.2285688,40.8951565],[14.2288504,40.8952032],[14.2291325,40.8952345],[14.229402,40.8952559],[14.229984,40.8952991],[14.2305494,40.895341],[14.2311013,40.8953816],[14.2316822,40.8954229],[14.2319673,40.8954431],[14.2322536,40.8954556],[14.2325399,40.8954575],[14.2328255,40.8954458],[14.23311,40.8954232],[14.2333927,40.8953858],[14.2336696,40.8953354],[14.2339445,40.8952737],[14.2342102,40.8951982],[14.2344628,40.8951186],[14.2347385,40.8950297],[14.2352596,40.8948598]]}},{"type":"Feature","properties":{"way_id":907849236,"route_colors":["#feca1b"],"route_refs":["1"]},"geometry":{"type":"LineString","coordinates":[[14.2352596,40.8948598],[14.235767,40.8946965],[14.2360514,40.8946032],[14.236437,40.8944778],[14.2365774,40.8944328],[14.23708,40.894267],[14.2373548,40.894177],[14.2376132,40.8940858],[14.2378674,40.8939846],[14.2381013,40.8938764],[14.2383482,40.8937515],[14.2385839,40.8936276],[14.2389674,40.8934224],[14.2392373,40.893281],[14.2398675,40.8929464]]}},{"type":"Feature","properties":{"way_id":913788307,"route_colors":["#0099cc"],"route_refs":["6"]},"geometry":{"type":"LineString","coordinates":[[14.1936371,40.8243395],[14.1937131,40.8246946],[14.193759,40.8248497],[14.1938624,40.825055],[14.1940265,40.8252318],[14.1941704,40.8253179],[14.1943609,40.825392],[14.1945687,40.8254518],[14.194911,40.8255248],[14.195341,40.8256099],[14.1969977,40.8259376],[14.1977301,40.826054],[14.1983433,40.8261378],[14.1988837,40.8262018],[14.1998974,40.8263218],[14.2040329,40.8267793],[14.2040404,40.8267733],[14.2045621,40.8268347],[14.2048899,40.8268729],[14.2052839,40.8269356],[14.2056743,40.8270288],[14.2060224,40.827157],[14.2068927,40.8274792],[14.2085374,40.8280946],[14.2091299,40.8283145],[14.2101523,40.8286962],[14.2102511,40.8287331],[14.2122084,40.8294638],[14.2130832,40.8297622],[14.2137129,40.8299524],[14.2142845,40.8300981],[14.2149536,40.8302404],[14.2157327,40.8303789],[14.2165541,40.830503],[14.2168748,40.830546],[14.2173641,40.8306116],[14.2178327,40.8306744],[14.2180263,40.8307004],[14.2192505,40.8308646],[14.2197714,40.8309633],[14.2205519,40.8311569],[14.2231371,40.8317848],[14.2239331,40.8319582],[14.224284,40.8320222],[14.2246638,40.8320858],[14.2250396,40.8321557],[14.2254023,40.8322409],[14.2258857,40.8323607],[14.2266896,40.8325587],[14.2274867,40.8327553],[14.2278485,40.8328278],[14.2324791,40.8336027],[14.2328647,40.833666],[14.2333015,40.8337126],[14.233639,40.8337166],[14.2347026,40.8336413],[14.2350387,40.8336144],[14.23534,40.8335838],[14.2356646,40.8335305],[14.2360271,40.8334514],[14.236445,40.8333639],[14.2368305,40.8332705],[14.2389546,40.8327931],[14.2393137,40.8327237],[14.2395225,40.8326899],[14.2397449,40.8326687],[14.2401286,40.8326532],[14.2404906,40.8326494],[14.2407195,40.8326609],[14.2410429,40.8327045],[14.2413267,40.8327653],[14.2414951,40.8328219],[14.2418537,40.832981],[14.2421477,40.8331043],[14.2423451,40.8332146],[14.242577,40.8333734],[14.2427567,40.833535],[14.2432012,40.8339333],[14.2434182,40.8341956],[14.2436443,40.8344681],[14.2442477,40.8350472],[14.2445816,40.8352921],[14.2450202,40.83556],[14.2467656,40.8366402],[14.2470804,40.8368439],[14.2484131,40.8377061],[14.2495701,40.8383885],[14.2499634,40.8385664],[14.2503042,40.8386861],[14.2514737,40.8390182],[14.2516924,40.8390802],[14.2517577,40.8390999],[14.2518248,40.8391217],[14.2519197,40.8391555],[14.252208,40.8392752],[14.252283,40.8393036],[14.2523574,40.8393284],[14.2524333,40.8393507],[14.2528027,40.8394547]]}},{"type":"Feature","properties":{"way_id":132787505,"route_colors":["#0099cc"],"route_refs":["6"]},"geometry":{"type":"LineString","coordinates":[[14.2528634,40.8393312],[14.252494,40.8392272],[14.2524172,40.8392067],[14.252346,40.8391882],[14.2522607,40.8391695],[14.2519414,40.8391094],[14.25184,40.8390864],[14.2517724,40.8390706],[14.2517065,40.8390526],[14.2514802,40.8389884],[14.2503193,40.8386588],[14.2499817,40.8385402],[14.2495923,40.838364],[14.2484379,40.8376832],[14.2471058,40.8368214],[14.2467907,40.8366175],[14.2450462,40.8355378],[14.2446076,40.8352699],[14.2442768,40.8350273],[14.2436763,40.834451],[14.2434514,40.8341799],[14.2432329,40.8339158],[14.2427866,40.8335159],[14.2426052,40.8333528],[14.2423699,40.8331917],[14.2421689,40.8330793],[14.2418731,40.8329553],[14.2417555,40.8329031],[14.241513,40.8327955],[14.24134,40.8327374],[14.2410517,40.8326756],[14.2407242,40.8326315],[14.2404916,40.8326198],[14.2401273,40.8326236],[14.2397414,40.8326392],[14.2395159,40.8326607],[14.2393048,40.8326949],[14.2389442,40.8327646],[14.236819,40.8332422],[14.2364338,40.8333355],[14.2360165,40.8334229],[14.235655,40.8335018],[14.2353332,40.8335546],[14.235034,40.833585],[14.2346987,40.8336118],[14.2336375,40.833687],[14.2333045,40.833683],[14.2328716,40.8336368],[14.2324875,40.8335738],[14.2278577,40.832799],[14.2274978,40.8327269],[14.2267017,40.8325305],[14.2258978,40.8323326],[14.2254142,40.8322127],[14.2250501,40.8321272],[14.2246727,40.832057],[14.2242928,40.8319934],[14.2239431,40.8319296],[14.2231485,40.8317565],[14.220564,40.8311287],[14.2197823,40.8309348],[14.2192587,40.8308356],[14.2180331,40.8306712],[14.2178395,40.8306452],[14.2173709,40.8305824],[14.2168822,40.8305169],[14.2165622,40.830474],[14.2157411,40.8303499],[14.2149591,40.8302107],[14.2142961,40.8300698],[14.2137264,40.8299246],[14.2130985,40.8297349],[14.2122251,40.829437],[14.2103245,40.8287274],[14.2091472,40.8282879],[14.2085547,40.828068],[14.20691,40.8274526],[14.2060396,40.8271303],[14.2056889,40.8270012],[14.2052939,40.8269069],[14.2048969,40.8268437],[14.2045678,40.8268053],[14.2040384,40.8267499],[14.1999033,40.8262925],[14.1992103,40.8262104],[14.1983498,40.8261085],[14.1977376,40.8260249],[14.1970067,40.8259087],[14.195037,40.8255191],[14.1949213,40.8254962],[14.194581,40.8254236],[14.1943769,40.8253648],[14.1941917,40.8252928],[14.1940545,40.8252107],[14.1938956,40.825039],[14.193796,40.8248397],[14.1937517,40.8246899],[14.1936757,40.8243348]]}},{"type":"Feature","properties":{"way_id":845116979,"route_colors":["#eb6a2d"],"route_refs":["11"]},"geometry":{"type":"LineString","coordinates":[[14.2396958,40.8930049],[14.2389218,40.8934189],[14.2383005,40.8937476],[14.2376182,40.8940907],[14.2371376,40.894317],[14.236442,40.8946588],[14.2359094,40.8948662],[14.235199,40.8951091],[14.2342766,40.8954059],[14.2307216,40.8965188],[14.2280131,40.8976682],[14.2272664,40.8979375],[14.2260902,40.8983088],[14.2246558,40.8988898],[14.2235966,40.8995349],[14.2226656,40.9003068],[14.2220264,40.9010378],[14.2219041,40.9011724],[14.2213301,40.9020701],[14.2212658,40.9021763],[14.2210619,40.9026953],[14.2208484,40.9032589],[14.220798,40.9033975],[14.2204665,40.9046933],[14.2201929,40.905741],[14.219184,40.9096462],[14.2184241,40.9124363],[14.2182788,40.9130069],[14.2180561,40.914018],[14.217955,40.9151607],[14.2179,40.9198031],[14.2179086,40.9212243],[14.2179336,40.923558],[14.2177089,40.9260473],[14.2176694,40.9264921],[14.2175861,40.9273306],[14.2175691,40.9275056],[14.2175273,40.927948],[14.2174802,40.9284096],[14.2174636,40.9288373],[14.2174299,40.9307009],[14.2173658,40.9324773],[14.2172647,40.9332243],[14.2169472,40.9343748],[14.2166512,40.9350632],[14.2149551,40.9379679],[14.2142767,40.9390761],[14.2096002,40.9468488],[14.2093147,40.9475818],[14.2089719,40.9486993],[14.2087229,40.9501903],[14.2086254,40.9514031],[14.2086254,40.9523571],[14.2087734,40.9537553],[14.2091487,40.9554096],[14.2097477,40.9573637],[14.2101952,40.958928],[14.21076,40.9608097],[14.2111211,40.9620118],[14.2114094,40.9629937],[14.2119088,40.9647558],[14.2128045,40.9678368],[14.2133786,40.9698001],[14.2135521,40.9704918],[14.2136108,40.9708309],[14.2136261,40.9719888],[14.2136159,40.9731023],[14.2136115,40.9735019],[14.2136264,40.9740648]]}},{"type":"Feature","properties":{"way_id":135037523,"route_colors":["#eb6a2d"],"route_refs":["11"]},"geometry":{"type":"LineString","coordinates":[[14.2136734,40.9740654],[14.2136701,40.9737444],[14.2136693,40.9728591],[14.2136655,40.9714252],[14.2136525,40.9708188],[14.2135998,40.9704463],[14.2133444,40.9695348],[14.210806,40.960802],[14.2103131,40.9591417],[14.210114,40.9584553],[14.2091041,40.9550095],[14.2088161,40.9536461],[14.2086624,40.9522537],[14.2087008,40.9510497],[14.2087968,40.9499909],[14.2089313,40.9491641],[14.2090333,40.9485989],[14.2093213,40.9476996],[14.209667,40.9468728],[14.2162736,40.9358473],[14.2166743,40.9350751],[14.2169815,40.9343622],[14.2172914,40.9332408],[14.2174066,40.9324718],[14.2174332,40.931768],[14.217521,40.9285982],[14.2175306,40.9284114],[14.2175742,40.9279508],[14.217622,40.9275088],[14.2176415,40.9273365],[14.2177286,40.9264954],[14.2177522,40.9262892],[14.2180077,40.9235625],[14.2179557,40.9212243],[14.2179496,40.9191791],[14.2179686,40.9166659],[14.2180149,40.914926],[14.2180984,40.9141026],[14.2181403,40.9138713],[14.2183254,40.913012],[14.2184718,40.912439],[14.2192413,40.9096502],[14.2200237,40.90649],[14.2208248,40.9033683],[14.221287,40.9021745],[14.2219259,40.9011728],[14.2226968,40.9003199],[14.2236151,40.8995586],[14.2246837,40.898917],[14.2260957,40.8983393],[14.2273004,40.8979574],[14.2280093,40.8977095],[14.2285287,40.897495],[14.2307502,40.896558],[14.2333254,40.8957605],[14.2352102,40.8951544],[14.2359233,40.8949235],[14.2364738,40.8947019],[14.2376512,40.8941309],[14.2383345,40.8937801],[14.2389575,40.8934505],[14.2397246,40.8930351]]}},{"type":"Feature","properties":{"way_id":758753617,"route_colors":["#025257"],"route_refs":["2"]},"geometry":{"type":"LineString","coordinates":[[14.1260153,40.8276688],[14.1270172,40.8268837]]}},{"type":"Feature","properties":{"way_id":302033193,"route_colors":["#025257"],"route_refs":["2"]},"geometry":{"type":"LineString","coordinates":[[14.1270172,40.8268837],[14.127262,40.8266984]]}},{"type":"Feature","properties":{"way_id":302033199,"route_colors":["#025257"],"route_refs":["2"]},"geometry":{"type":"LineString","coordinates":[[14.127262,40.8266984],[14.1275372,40.8264948],[14.1277892,40.8263202],[14.1282182,40.8260538],[14.1283841,40.8259489],[14.1287171,40.8257717],[14.1289669,40.8256388],[14.1297338,40.8252981],[14.1305098,40.8249972],[14.1309247,40.8248403]]}},{"type":"Feature","properties":{"way_id":302033195,"route_colors":["#025257"],"route_refs":["2"]},"geometry":{"type":"LineString","coordinates":[[14.1309247,40.8248403],[14.131129,40.8247606]]}},{"type":"Feature","properties":{"way_id":302033197,"route_colors":["#025257"],"route_refs":["2"]},"geometry":{"type":"LineString","coordinates":[[14.131129,40.8247606],[14.131415,40.8246555],[14.1338331,40.8237465],[14.1352001,40.8232239]]}},{"type":"Feature","properties":{"way_id":302033201,"route_colors":["#025257"],"route_refs":["2"]},"geometry":{"type":"LineString","coordinates":[[14.1352001,40.8232239],[14.1357612,40.8230129],[14.1365631,40.8227343],[14.1373941,40.8225094],[14.1382527,40.8223286],[14.1438183,40.8213054]]}},{"type":"Feature","properties":{"way_id":804308363,"route_colors":["#025257"],"route_refs":["2"]},"geometry":{"type":"LineString","coordinates":[[14.1438183,40.8213054],[14.1523123,40.8197438],[14.1532686,40.8195733],[14.1541389,40.8194502],[14.1554473,40.8192885]]}},{"type":"Feature","properties":{"way_id":302030656,"route_colors":["#025257"],"route_refs":["2"]},"geometry":{"type":"LineString","coordinates":[[14.1554473,40.8192885],[14.1559512,40.8192264],[14.1564857,40.8191617],[14.1568105,40.8191277],[14.1571365,40.8190969],[14.1574534,40.8190713],[14.1577712,40.8190498],[14.1580727,40.8190331],[14.1583732,40.8190199],[14.1589627,40.8190072]]}},{"type":"Feature","properties":{"way_id":302030652,"route_colors":["#025257"],"route_refs":["2"]},"geometry":{"type":"LineString","coordinates":[[14.1589627,40.8190072],[14.1593045,40.8190071],[14.1596482,40.8190119]]}},{"type":"Feature","properties":{"way_id":302030655,"route_colors":["#025257"],"route_refs":["2"]},"geometry":{"type":"LineString","coordinates":[[14.1596482,40.8190119],[14.1602392,40.8190323],[14.1608508,40.819066],[14.1615572,40.8191122],[14.1622643,40.8191575],[14.1629742,40.8192034],[14.1636557,40.8192483],[14.164295,40.8192901],[14.1648864,40.8193273],[14.1654779,40.8193663],[14.1656742,40.8193806]]}},{"type":"Feature","properties":{"way_id":302030653,"route_colors":["#025257"],"route_refs":["2"]},"geometry":{"type":"LineString","coordinates":[[14.1656742,40.8193806],[14.1658398,40.8193916]]}},{"type":"Feature","properties":{"way_id":1068491416,"route_colors":["#025257"],"route_refs":["2"]},"geometry":{"type":"LineString","coordinates":[[14.1658398,40.8193916],[14.1660674,40.8194061],[14.1666613,40.8194428],[14.1670753,40.8194617],[14.1674187,40.819472],[14.1677039,40.819475],[14.1679044,40.8194738],[14.1680943,40.8194687],[14.1682965,40.8194627],[14.1686122,40.8194484],[14.1689294,40.8194275],[14.1693185,40.8193909]]}},{"type":"Feature","properties":{"way_id":1068491417,"route_colors":["#025257"],"route_refs":["2"]},"geometry":{"type":"LineString","coordinates":[[14.1693185,40.8193909],[14.1694566,40.8193763]]}},{"type":"Feature","properties":{"way_id":544665446,"route_colors":["#025257"],"route_refs":["2"]},"geometry":{"type":"LineString","coordinates":[[14.1694566,40.8193763],[14.1695532,40.8193659],[14.1698578,40.8193281],[14.170173,40.8192841],[14.1707895,40.81919],[14.1714316,40.8190896],[14.1721251,40.8189813],[14.1728192,40.818874],[14.1735167,40.8187654],[14.1742044,40.8186573],[14.1749052,40.8185483],[14.1752729,40.8184909]]}},{"type":"Feature","properties":{"way_id":1068491421,"route_colors":["#025257"],"route_refs":["2"]},"geometry":{"type":"LineString","coordinates":[[14.1752729,40.8184909],[14.1754679,40.8184602]]}},{"type":"Feature","properties":{"way_id":1068491420,"route_colors":["#025257"],"route_refs":["2"]},"geometry":{"type":"LineString","coordinates":[[14.1754679,40.8184602],[14.1755949,40.8184412],[14.1761794,40.8183492],[14.176761,40.8182582],[14.1771101,40.8182074],[14.1775159,40.8181541]]}},{"type":"Feature","properties":{"way_id":924943949,"route_colors":["#025257"],"route_refs":["2"]},"geometry":{"type":"LineString","coordinates":[[14.1775159,40.8181541],[14.1777083,40.8181313]]}},{"type":"Feature","properties":{"way_id":1068491426,"route_colors":["#025257"],"route_refs":["2"]},"geometry":{"type":"LineString","coordinates":[[14.1777083,40.8181313],[14.1778482,40.8181168],[14.1781422,40.8180898],[14.1784362,40.8180675],[14.1787689,40.8180493]]}},{"type":"Feature","properties":{"way_id":1068491427,"route_colors":["#025257"],"route_refs":["2"]},"geometry":{"type":"LineString","coordinates":[[14.1787689,40.8180493],[14.1793773,40.8180337]]}},{"type":"Feature","properties":{"way_id":924943946,"route_colors":["#025257"],"route_refs":["2"]},"geometry":{"type":"LineString","coordinates":[[14.1793773,40.8180337],[14.1795402,40.818035],[14.1798299,40.8180412],[14.1801195,40.8180536],[14.1803743,40.8180683],[14.1805911,40.8180857],[14.1807822,40.8181033],[14.1809594,40.81812],[14.181166,40.8181464],[14.1813195,40.8181662],[14.1814866,40.8181895],[14.1816353,40.8182128],[14.1817368,40.8182292],[14.181858,40.8182516],[14.1820619,40.8182909],[14.1822849,40.8183355],[14.1825105,40.8183822],[14.1826612,40.8184147],[14.1829596,40.8184836],[14.1833146,40.8185707],[14.183717,40.8186749],[14.1840508,40.8187699],[14.1842262,40.8188192],[14.1844608,40.8188902],[14.1845434,40.8189142],[14.184909,40.8190279]]}},{"type":"Feature","properties":{"way_id":909168454,"route_colors":["#025257"],"route_refs":["2"]},"geometry":{"type":"LineString","coordinates":[[14.184909,40.8190279],[14.1855118,40.8191934],[14.186668,40.8195918],[14.187693,40.8199576],[14.1886137,40.8202796]]}},{"type":"Feature","properties":{"way_id":923300358,"route_colors":["#025257"],"route_refs":["2"]},"geometry":{"type":"LineString","coordinates":[[14.1886137,40.8202796],[14.1907551,40.8210559],[14.1913249,40.8212515],[14.191864,40.8214392],[14.1923054,40.8215867],[14.192487,40.8216506],[14.1926995,40.8217254],[14.1931877,40.8218898],[14.1936544,40.8220563],[14.1940757,40.8222068],[14.1945343,40.8223682]]}},{"type":"Feature","properties":{"way_id":358754803,"route_colors":["#025257"],"route_refs":["2"]},"geometry":{"type":"LineString","coordinates":[[14.1945343,40.8223682],[14.1952342,40.8226074],[14.1958149,40.8228042],[14.1962709,40.8229605],[14.1967322,40.8231239],[14.1971332,40.8232619],[14.1976656,40.8234466],[14.1981082,40.8235979],[14.1982734,40.8236529],[14.1984877,40.8237318],[14.198772,40.8238211],[14.1992039,40.823948],[14.1994305,40.8240139],[14.1996863,40.8240772]]}},{"type":"Feature","properties":{"way_id":925844517,"route_colors":["#025257"],"route_refs":["2"]},"geometry":{"type":"LineString","coordinates":[[14.1996863,40.8240772],[14.2000132,40.8241529],[14.2003017,40.8242155],[14.2005238,40.8242748],[14.2006545,40.824304],[14.2008911,40.8243535]]}},{"type":"Feature","properties":{"way_id":544665448,"route_colors":["#025257"],"route_refs":["2"]},"geometry":{"type":"LineString","coordinates":[[14.2008911,40.8243535],[14.2011719,40.8243942],[14.2014085,40.8244248],[14.2023258,40.8245499]]}},{"type":"Feature","properties":{"way_id":4199238,"route_colors":["#025257"],"route_refs":["2"]},"geometry":{"type":"LineString","coordinates":[[14.2023258,40.8245499],[14.2031534,40.8246771],[14.2034341,40.8247202],[14.2119101,40.8260229],[14.2125804,40.8261527],[14.2131983,40.8262976],[14.2138043,40.826464],[14.2144399,40.8266755],[14.2150996,40.8269252],[14.2156953,40.8272069],[14.2163411,40.8275424],[14.2167152,40.8278034],[14.2171159,40.8281612],[14.2174058,40.8285148],[14.217646,40.8288971],[14.2178948,40.8293415],[14.2180437,40.829622]]}},{"type":"Feature","properties":{"way_id":132784475,"route_colors":["#025257"],"route_refs":["2"]},"geometry":{"type":"LineString","coordinates":[[14.2180437,40.829622],[14.2181136,40.8297679],[14.2181826,40.8299212],[14.2182449,40.8300707],[14.2183136,40.8302621],[14.2183758,40.8304636],[14.2184421,40.8306941],[14.2184718,40.8307994],[14.2186062,40.8312898],[14.2186853,40.8315766]]}},{"type":"Feature","properties":{"way_id":804308362,"route_colors":["#025257"],"route_refs":["2"]},"geometry":{"type":"LineString","coordinates":[[14.2186853,40.8315766],[14.2187641,40.8318645],[14.2188439,40.8321504],[14.2188869,40.8323071],[14.2189445,40.8324937],[14.2190223,40.8327355],[14.2190649,40.8328682],[14.2191342,40.833091],[14.2192032,40.8333121],[14.2192303,40.8334049],[14.2192448,40.8334557]]}},{"type":"Feature","properties":{"way_id":132784473,"route_colors":["#025257"],"route_refs":["2"]},"geometry":{"type":"LineString","coordinates":[[14.2192448,40.8334557],[14.2192878,40.8335993],[14.2193502,40.833867],[14.2194064,40.8340888],[14.2194722,40.8343054],[14.2195405,40.8345009]]}},{"type":"Feature","properties":{"way_id":236933077,"route_colors":["#025257"],"route_refs":["2"]},"geometry":{"type":"LineString","coordinates":[[14.2195405,40.8345009],[14.2195855,40.8346192],[14.2196184,40.8347064],[14.2196767,40.8348447],[14.2197292,40.8349594],[14.2197879,40.8350777]]}},{"type":"Feature","properties":{"way_id":704625366,"route_colors":["#025257"],"route_refs":["2"]},"geometry":{"type":"LineString","coordinates":[[14.2197879,40.8350777],[14.2199423,40.8353679],[14.2201383,40.8356638],[14.2202972,40.835869],[14.2205106,40.8361133],[14.2207938,40.8363676],[14.2211403,40.8366126],[14.2215017,40.8368263],[14.22201,40.8370687],[14.2225344,40.837268],[14.2231242,40.8374413],[14.2237441,40.8375751],[14.224368,40.8376857],[14.2249465,40.8377537],[14.2256986,40.8378294],[14.2292718,40.8381507],[14.2323235,40.8384241],[14.232547,40.8384441],[14.2331216,40.8384956],[14.2336962,40.838547],[14.2340601,40.8385796],[14.2353424,40.8387254],[14.2363176,40.8388746],[14.237183,40.8391062],[14.2378749,40.8394075],[14.2385899,40.8397986],[14.2393848,40.8403296],[14.2402009,40.8409664],[14.2408817,40.8415849],[14.2415268,40.8422432],[14.2420752,40.8430376],[14.242596,40.8440366],[14.2429846,40.8449401],[14.2433247,40.8458198],[14.2437637,40.8471826],[14.2439011,40.8476118],[14.244039,40.8480426],[14.2442497,40.8486888],[14.244486,40.8493346],[14.2446456,40.8497485],[14.2447811,40.8500762],[14.2449659,40.8504477],[14.2452319,40.8508962],[14.2455256,40.8512817],[14.2457721,40.8515601],[14.2460251,40.8517754],[14.2463346,40.8519599],[14.2467806,40.8521661],[14.2472318,40.8523429],[14.2478498,40.8525151],[14.2485755,40.8526612],[14.2493634,40.8528142],[14.2506174,40.8531231],[14.2509561,40.8532239],[14.2513389,40.8533588],[14.2516651,40.8535227],[14.2520082,40.8537518],[14.2524348,40.854072],[14.2527935,40.8543227],[14.2531694,40.8545548],[14.2535478,40.8547516],[14.2540544,40.8549694],[14.2545677,40.8551901],[14.255081,40.8554109],[14.2554002,40.8555481],[14.2557577,40.8556848],[14.2561388,40.8558094],[14.2565899,40.8559348],[14.2570711,40.8560426],[14.2574566,40.8560983],[14.2578069,40.8561199],[14.2581609,40.8561183],[14.2585381,40.8560686],[14.2589207,40.8559966],[14.2592901,40.8558855],[14.2597304,40.8557248],[14.2602638,40.8555319],[14.2610277,40.8552778],[14.2629637,40.8546333]]}},{"type":"Feature","properties":{"way_id":1037779471,"route_colors":["#025257"],"route_refs":["2"]},"geometry":{"type":"LineString","coordinates":[[14.2629637,40.8546333],[14.2636349,40.8544289],[14.2641705,40.8542564],[14.2645269,40.8541254],[14.2648169,40.8540006],[14.265505,40.8536907],[14.2661517,40.8533809],[14.2668964,40.8530112],[14.2672718,40.8528369],[14.267464,40.8527509],[14.2676459,40.8526745],[14.2677995,40.8526166],[14.2680295,40.8525353],[14.2682716,40.8524624],[14.2685786,40.8523897],[14.2687087,40.852365],[14.2688279,40.8523518],[14.2689574,40.8523488],[14.2690924,40.8523539],[14.269223,40.8523616],[14.2695604,40.8523942],[14.2704645,40.8524863]]}},{"type":"Feature","properties":{"way_id":804308360,"route_colors":["#025257"],"route_refs":["2"]},"geometry":{"type":"LineString","coordinates":[[14.2704645,40.8524863],[14.2713682,40.8525784],[14.271727,40.8526148],[14.2719282,40.8526335],[14.2721463,40.8526509],[14.2724409,40.8526644],[14.272715,40.8526726],[14.2729398,40.8526724],[14.2732629,40.8526661],[14.2737858,40.8526483],[14.274426,40.8526121],[14.2754003,40.8525676],[14.2765154,40.8525545],[14.276868,40.8525642],[14.2772803,40.8525884],[14.2774251,40.852599]]}},{"type":"Feature","properties":{"way_id":727518372,"route_colors":["#025257"],"route_refs":["2"]},"geometry":{"type":"LineString","coordinates":[[14.2774251,40.852599],[14.2784783,40.8527001],[14.2791286,40.8527808],[14.2793687,40.8528153],[14.2796275,40.8528589],[14.2801774,40.8529573],[14.2821174,40.8533076]]}},{"type":"Feature","properties":{"way_id":907333474,"route_colors":["#025257"],"route_refs":["2"]},"geometry":{"type":"LineString","coordinates":[[14.2821174,40.8533076],[14.2822805,40.8533355],[14.2825284,40.8533733],[14.2827085,40.8533959],[14.2831007,40.8534382],[14.2836995,40.8535]]}},{"type":"Feature","properties":{"way_id":906813926,"route_colors":["#025257"],"route_refs":["2"]},"geometry":{"type":"LineString","coordinates":[[14.2836995,40.8535],[14.2844768,40.8535749],[14.2847611,40.8536035],[14.2854969,40.85368]]}},{"type":"Feature","properties":{"way_id":201382449,"route_colors":["#025257"],"route_refs":["2"]},"geometry":{"type":"LineString","coordinates":[[14.2854969,40.85368],[14.2871229,40.853839],[14.2875475,40.8538828],[14.2877992,40.8539066],[14.2880304,40.8539256],[14.2881661,40.8539326],[14.2882692,40.8539377],[14.2884187,40.8539405],[14.2885644,40.8539407],[14.2887199,40.8539379],[14.2888901,40.8539332],[14.288918,40.8539313],[14.2890383,40.8539232],[14.2891974,40.8539095],[14.2893717,40.8538912],[14.2895294,40.8538719],[14.2896576,40.8538533],[14.2898687,40.853818],[14.2900714,40.8537781],[14.290272,40.8537314],[14.290486,40.8536767],[14.2906968,40.8536214],[14.2911331,40.8535064],[14.2912289,40.8534811],[14.2918114,40.853327],[14.2927689,40.8530734],[14.2932814,40.852939],[14.2935085,40.8528795],[14.2938318,40.8527942],[14.2939864,40.8527515],[14.2941058,40.8527186],[14.2942549,40.8526728],[14.2943828,40.8526291],[14.2944721,40.8525972],[14.2946282,40.8525343],[14.2947761,40.8524673],[14.2949217,40.8523962],[14.2950384,40.8523329],[14.2951469,40.8522723],[14.2952609,40.8521991],[14.2953668,40.8521286],[14.2954676,40.8520572],[14.2955688,40.8519799],[14.2956716,40.8518938],[14.2957964,40.8517794],[14.2958901,40.851689],[14.2959745,40.8515985],[14.2961312,40.8514072],[14.2962019,40.8513093],[14.2962956,40.8511706],[14.2963671,40.851048],[14.2964371,40.8509178],[14.2965111,40.8507605],[14.2965698,40.8506223],[14.2966251,40.8504716],[14.2966738,40.850315],[14.2967099,40.8501684],[14.2967402,40.8500099],[14.296757,40.8498876],[14.2967756,40.8496926],[14.2967783,40.8495454],[14.2967753,40.8493945],[14.2967625,40.8492317],[14.2967487,40.8491191],[14.2967332,40.8490214],[14.2967011,40.8488753],[14.2966742,40.8487532],[14.2966256,40.8485956],[14.2965724,40.8484447],[14.2965016,40.8482809],[14.2964286,40.8481275],[14.2963388,40.8479662],[14.2956992,40.8468617],[14.295629,40.8467355],[14.2955411,40.846571],[14.2954997,40.8464778],[14.2954328,40.8463403],[14.2953406,40.8461203],[14.2952549,40.8459088],[14.2950913,40.8455177]]}},{"type":"Feature","properties":{"way_id":131711217,"route_colors":["#025257"],"route_refs":["2"]},"geometry":{"type":"LineString","coordinates":[[14.2950913,40.8455177],[14.2949409,40.845156],[14.2948322,40.8448969],[14.2946715,40.8445107],[14.2945393,40.8441899]]}},{"type":"Feature","properties":{"way_id":804331639,"route_colors":["#025257"],"route_refs":["2"]},"geometry":{"type":"LineString","coordinates":[[14.2945393,40.8441899],[14.2944036,40.8438658],[14.294292,40.8435898],[14.294227,40.8434087],[14.2941692,40.8432307],[14.2941147,40.8430277],[14.2941022,40.842974],[14.2940765,40.8428422],[14.2940593,40.8427199],[14.2940399,40.8425419],[14.2940355,40.8424384],[14.294036,40.8423183],[14.2940395,40.8421975],[14.2940486,40.8420911],[14.2940648,40.8419614],[14.2940776,40.8418778],[14.2940991,40.8417752],[14.2941248,40.841665],[14.2941563,40.8415523],[14.2942239,40.8413571],[14.2942886,40.8412061],[14.294358,40.8410583],[14.2944431,40.8409065]]}},{"type":"Feature","properties":{"way_id":731205987,"route_colors":["#025257"],"route_refs":["2"]},"geometry":{"type":"LineString","coordinates":[[14.2944431,40.8409065],[14.2945233,40.8407795],[14.2946076,40.8406535],[14.2947045,40.8405246],[14.2948142,40.8403942],[14.2949205,40.8402775],[14.2950438,40.8401543],[14.2951657,40.8400372],[14.2953428,40.8398893],[14.2955838,40.8396988],[14.2960646,40.8393366],[14.296403,40.8390857],[14.2970071,40.838652],[14.2982773,40.8377785],[14.2990425,40.8372494],[14.2996827,40.8368093],[14.2998755,40.8366761],[14.3002629,40.836411],[14.3006643,40.8361494],[14.3015185,40.8356327]]}},{"type":"Feature","properties":{"way_id":392318211,"route_colors":["#025257"],"route_refs":["2"]},"geometry":{"type":"LineString","coordinates":[[14.3015185,40.8356327],[14.3020803,40.835244],[14.3024982,40.834961]]}},{"type":"Feature","properties":{"way_id":913871648,"route_colors":["#025257"],"route_refs":["2"]},"geometry":{"type":"LineString","coordinates":[[14.3024982,40.834961],[14.302955,40.8346916],[14.3032729,40.8344798]]}},{"type":"Feature","properties":{"way_id":913871649,"route_colors":["#025257"],"route_refs":["2"]},"geometry":{"type":"LineString","coordinates":[[14.3032729,40.8344798],[14.303781,40.8341811],[14.3041336,40.8339687],[14.3044373,40.8337848],[14.3045924,40.8336859],[14.304775,40.833568],[14.3053849,40.83315]]}},{"type":"Feature","properties":{"way_id":913871645,"route_colors":["#025257"],"route_refs":["2"]},"geometry":{"type":"LineString","coordinates":[[14.3016829,40.8353895],[14.3023099,40.8350216],[14.3030463,40.8345824],[14.3035121,40.834265],[14.3040476,40.8338958],[14.3052672,40.8330515]]}},{"type":"Feature","properties":{"way_id":111561624,"route_colors":["#025257"],"route_refs":["2"]},"geometry":{"type":"LineString","coordinates":[[14.294385,40.840896],[14.2944676,40.8407621],[14.2945534,40.8406345],[14.2946505,40.8405058],[14.2947561,40.8403741],[14.2948674,40.8402502],[14.2949872,40.8401269],[14.295116,40.8400074],[14.2952889,40.8398634],[14.2954267,40.8397479],[14.2959114,40.8393868],[14.2963694,40.8390534],[14.2969775,40.8386249],[14.2982455,40.8377547],[14.2990157,40.8372239],[14.2992739,40.8370482],[14.2996585,40.8367787],[14.2998459,40.8366528],[14.3002337,40.8363878],[14.3006766,40.8360857],[14.3016829,40.8353895]]}},{"type":"Feature","properties":{"way_id":804331638,"route_colors":["#025257"],"route_refs":["2"]},"geometry":{"type":"LineString","coordinates":[[14.294495,40.8441876],[14.2943662,40.8438772],[14.2942519,40.8435984],[14.2941889,40.8434235],[14.2941287,40.8432362],[14.2940568,40.8429663],[14.2940314,40.8428382],[14.294014,40.8427102],[14.2939966,40.8425516],[14.2939916,40.8424375],[14.2939908,40.842317],[14.2939932,40.8421958],[14.294002,40.8420849],[14.2940177,40.8419611],[14.29403,40.8418758],[14.2940501,40.8417691],[14.2940737,40.8416563],[14.2941054,40.8415444],[14.2941711,40.8413466],[14.294236,40.8411944],[14.2943072,40.8410429],[14.294385,40.840896]]}},{"type":"Feature","properties":{"way_id":731205988,"route_colors":["#025257"],"route_refs":["2"]},"geometry":{"type":"LineString","coordinates":[[14.2950675,40.8455733],[14.2948976,40.8451655],[14.294792,40.8449077],[14.2946715,40.8446156],[14.294495,40.8441876]]}},{"type":"Feature","properties":{"way_id":448932049,"route_colors":["#025257"],"route_refs":["2"]},"geometry":{"type":"LineString","coordinates":[[14.2950675,40.8455733],[14.2951619,40.8457934],[14.2953015,40.8461302],[14.2953613,40.8462803],[14.2953915,40.8463505],[14.2954516,40.8464936],[14.2955581,40.8467526],[14.2955933,40.8468321],[14.2956456,40.8469498],[14.2957019,40.8470705],[14.2957547,40.8471775],[14.295832,40.8473181],[14.2959098,40.8474571],[14.2960973,40.8477808],[14.2962467,40.848043],[14.2963094,40.8481554],[14.2963872,40.8483068],[14.296462,40.8484704],[14.2965181,40.8486172],[14.2965682,40.8487718],[14.2966024,40.8488945],[14.2966332,40.8490288],[14.2966486,40.8491259],[14.2966671,40.8492368],[14.2966837,40.8493986],[14.2966898,40.8495541],[14.2966898,40.8496915],[14.2966785,40.8498804],[14.2966625,40.8500003],[14.296634,40.8501629],[14.2966068,40.850303],[14.29656,40.850462],[14.2965105,40.8506085],[14.2964555,40.8507485],[14.2963861,40.8509057],[14.2963244,40.8510277],[14.2962511,40.8511535],[14.29617,40.8512787],[14.2960904,40.8513882],[14.2959359,40.8515767],[14.2958527,40.8516664],[14.295759,40.8517578],[14.2956379,40.8518702],[14.2955363,40.8519541],[14.2954386,40.8520275],[14.2953373,40.8521018],[14.2952311,40.8521715],[14.2951157,40.8522419],[14.2950072,40.8523048],[14.2948962,40.8523651],[14.2947565,40.8524345],[14.2946058,40.8525007],[14.2944489,40.8525649],[14.2943583,40.8525976],[14.2942342,40.8526397],[14.2941014,40.8526787],[14.2939724,40.8527164],[14.2938198,40.8527588],[14.2934927,40.8528442],[14.2932726,40.8529027],[14.292078,40.8532201],[14.2917877,40.8532946],[14.2912117,40.8534475],[14.2911199,40.8534719],[14.2906808,40.8535855],[14.2904671,40.8536427],[14.2902542,40.8536962],[14.2900591,40.8537425],[14.2898569,40.8537798],[14.2896485,40.8538157],[14.2895372,40.8538325],[14.2893706,40.8538551],[14.2891898,40.8538748],[14.289032,40.8538873],[14.2889152,40.8538947]]}},{"type":"Feature","properties":{"way_id":1031389737,"route_colors":["#025257"],"route_refs":["2"]},"geometry":{"type":"LineString","coordinates":[[14.2889152,40.8538947],[14.2888923,40.8538959],[14.2887238,40.853903],[14.288567,40.8539049],[14.2884224,40.8539052],[14.2882752,40.8539019],[14.288167,40.8538963],[14.288034,40.8538891],[14.2878047,40.8538701],[14.2875538,40.8538468],[14.2871281,40.8538043],[14.2854965,40.8536414]]}},{"type":"Feature","properties":{"way_id":907333475,"route_colors":["#025257"],"route_refs":["2"]},"geometry":{"type":"LineString","coordinates":[[14.2852234,40.8536136],[14.2854965,40.8536414]]}},{"type":"Feature","properties":{"way_id":906813925,"route_colors":["#025257"],"route_refs":["2"]},"geometry":{"type":"LineString","coordinates":[[14.2821295,40.8532702],[14.2822985,40.8533006],[14.2824786,40.8533293],[14.2826514,40.8533523],[14.2828777,40.8533789],[14.2831964,40.8534131],[14.2840266,40.8534951],[14.2852234,40.8536136]]}},{"type":"Feature","properties":{"way_id":845070170,"route_colors":["#025257"],"route_refs":["2"]},"geometry":{"type":"LineString","coordinates":[[14.2774295,40.8525594],[14.278484,40.8526605],[14.2793933,40.852778],[14.2811797,40.8530975],[14.2821295,40.8532702]]}},{"type":"Feature","properties":{"way_id":926840796,"route_colors":["#025257"],"route_refs":["2"]},"geometry":{"type":"LineString","coordinates":[[14.2704774,40.8524135],[14.2713811,40.8525056],[14.2717399,40.852542],[14.2719413,40.8525609],[14.2721599,40.8525788],[14.2724539,40.852601],[14.2727236,40.8526186],[14.2729408,40.8526243],[14.2732551,40.8526279],[14.2737805,40.8526087],[14.2744187,40.8525726],[14.2753933,40.8525281],[14.2765129,40.8525147],[14.2768631,40.8525246],[14.2772827,40.8525487],[14.2774295,40.8525594]]}},{"type":"Feature","properties":{"way_id":1037779470,"route_colors":["#025257"],"route_refs":["2"]},"geometry":{"type":"LineString","coordinates":[[14.2629471,40.8546047],[14.2636194,40.8544],[14.2641537,40.8542279],[14.2645063,40.8540984],[14.2647951,40.853974],[14.2660249,40.8534291],[14.2661288,40.8533549],[14.2668745,40.8529847],[14.2672503,40.8528103],[14.2674438,40.8527237],[14.2676267,40.8526469],[14.2677833,40.8525879],[14.2680149,40.8525061],[14.2682582,40.8524329],[14.2685645,40.8523536],[14.26872,40.8523207],[14.2688631,40.8522993],[14.2690208,40.8522865],[14.2691279,40.8522853],[14.2692377,40.8522896],[14.2695735,40.8523215],[14.2704774,40.8524135]]}},{"type":"Feature","properties":{"way_id":845070171,"route_colors":["#025257"],"route_refs":["2"]},"geometry":{"type":"LineString","coordinates":[[14.2198262,40.835066],[14.21998,40.835355],[14.2201746,40.8356489],[14.2203323,40.8358525],[14.2205437,40.8360946],[14.2208238,40.836346],[14.2211672,40.8365888],[14.2215255,40.8368007],[14.2220306,40.8370416],[14.2225514,40.8372395],[14.2231378,40.8374118],[14.2237549,40.8375449],[14.2243756,40.837655],[14.2249522,40.8377227],[14.2257046,40.8377984],[14.2292766,40.8381197],[14.2323283,40.838393],[14.2325519,40.8384131],[14.2331265,40.8384646],[14.2337011,40.838516],[14.2340656,40.8385486],[14.2353496,40.8386946],[14.2363286,40.8388444],[14.2372003,40.8390777],[14.2378974,40.8393812],[14.2386157,40.8397742],[14.2394134,40.840307],[14.2402317,40.8409455],[14.2409142,40.8415656],[14.2415619,40.8422266],[14.2421128,40.8430246],[14.2426349,40.844026],[14.2430241,40.8449309],[14.2433646,40.8458117],[14.2438039,40.8471752],[14.2439413,40.8476045],[14.2440792,40.8480352],[14.2442897,40.8486809],[14.2445258,40.8493263],[14.2446852,40.8497395],[14.2448202,40.850066],[14.2450041,40.8504358],[14.2452687,40.850882],[14.2455607,40.8512652],[14.2458049,40.8515409],[14.2460536,40.8517526],[14.2463582,40.8519342],[14.2468009,40.8521389],[14.2472485,40.8523142],[14.2478634,40.8524855],[14.248586,40.852631],[14.2493749,40.8527842],[14.2506314,40.8530937],[14.2509724,40.8531952],[14.2513592,40.8533315],[14.2516903,40.8534978],[14.2520365,40.853729],[14.2524634,40.8540494],[14.2528206,40.8542991],[14.2531942,40.8545298],[14.2535698,40.8547251],[14.2540748,40.8549422],[14.2545881,40.8551629],[14.2551014,40.8553837],[14.2554197,40.8555205],[14.2557752,40.8556565],[14.2561534,40.8557801],[14.2566029,40.8559052],[14.2570809,40.8560122],[14.2574622,40.8560673],[14.2577251,40.8560835],[14.2578085,40.8560887],[14.2581572,40.8560871],[14.2585296,40.856038],[14.258908,40.8559668],[14.2592735,40.8558569],[14.2597125,40.8556966],[14.2602466,40.8555035],[14.2610111,40.8552492],[14.2629471,40.8546047]]}},{"type":"Feature","properties":{"way_id":845070172,"route_colors":["#025257"],"route_refs":["2"]},"geometry":{"type":"LineString","coordinates":[[14.219582,40.8344931],[14.2196239,40.834608],[14.2196571,40.8346959],[14.2197147,40.8348332],[14.2197675,40.8349493],[14.2198262,40.835066]]}},{"type":"Feature","properties":{"way_id":236933078,"route_colors":["#025257"],"route_refs":["2"]},"geometry":{"type":"LineString","coordinates":[[14.2192865,40.8334488],[14.2193297,40.8335931],[14.2193922,40.8338612],[14.2194481,40.8340819],[14.2195135,40.8342972],[14.219582,40.8344931]]}},{"type":"Feature","properties":{"way_id":132784471,"route_colors":["#025257"],"route_refs":["2"]},"geometry":{"type":"LineString","coordinates":[[14.2187384,40.831568],[14.218818,40.8318571],[14.2188945,40.8321411],[14.2189392,40.8322969],[14.2189951,40.8324834],[14.2190685,40.8327261],[14.21911,40.8328588],[14.2191788,40.8330831],[14.2192452,40.8333045],[14.2192865,40.8334488]]}},{"type":"Feature","properties":{"way_id":804308361,"route_colors":["#025257"],"route_refs":["2"]},"geometry":{"type":"LineString","coordinates":[[14.2180831,40.8296102],[14.2181565,40.8297559],[14.2182103,40.8298719],[14.2182267,40.8299078],[14.2182907,40.8300615],[14.2183229,40.8301467],[14.2183598,40.8302522],[14.2184273,40.8304575],[14.218495,40.8306894],[14.2185227,40.8307906],[14.2186589,40.8312813],[14.2187384,40.831568]]}},{"type":"Feature","properties":{"way_id":37544909,"route_colors":["#025257"],"route_refs":["2"]},"geometry":{"type":"LineString","coordinates":[[14.2023347,40.8245174],[14.2027111,40.8245753],[14.2038937,40.8247572],[14.2119192,40.8259916],[14.2125916,40.8261217],[14.2132119,40.8262672],[14.2138202,40.8264343],[14.2144579,40.8266464],[14.2151204,40.8268972],[14.2157185,40.82718],[14.2163676,40.8275172],[14.2167458,40.8277812],[14.2171508,40.8281428],[14.2174432,40.8284999],[14.2176843,40.8288835],[14.2179338,40.8293289],[14.2180831,40.8296102]]}},{"type":"Feature","properties":{"way_id":132685752,"route_colors":["#025257"],"route_refs":["2"]},"geometry":{"type":"LineString","coordinates":[[14.2007694,40.8242238],[14.2013441,40.8243457],[14.201589,40.8243941],[14.2018014,40.8244334],[14.202029,40.8244724],[14.2021912,40.8244964],[14.2023347,40.8245174]]}},{"type":"Feature","properties":{"way_id":925844518,"route_colors":["#025257"],"route_refs":["2"]},"geometry":{"type":"LineString","coordinates":[[14.1997199,40.824002],[14.2001528,40.8241074],[14.2003664,40.8241529],[14.2007694,40.8242238]]}},{"type":"Feature","properties":{"way_id":923300357,"route_colors":["#025257"],"route_refs":["2"]},"geometry":{"type":"LineString","coordinates":[[14.1945969,40.8222572],[14.1958061,40.8226763],[14.1965438,40.8229477],[14.1972802,40.8232252],[14.1975865,40.8233363],[14.1979581,40.8234727],[14.1983512,40.8236046],[14.1990921,40.8238308],[14.1994172,40.8239192],[14.1997199,40.824002]]}},{"type":"Feature","properties":{"way_id":544665450,"route_colors":["#025257"],"route_refs":["2"]},"geometry":{"type":"LineString","coordinates":[[14.1865899,40.8194429],[14.1871289,40.8196609],[14.1877429,40.8198751],[14.1889922,40.8203213],[14.18951,40.8204992],[14.1922772,40.8214536],[14.1937563,40.8219587],[14.1945969,40.8222572]]}},{"type":"Feature","properties":{"way_id":924943947,"route_colors":["#025257"],"route_refs":["2"]},"geometry":{"type":"LineString","coordinates":[[14.1792833,40.8180022],[14.1795365,40.8180009],[14.1798298,40.8180059],[14.18012,40.8180145],[14.1803793,40.8180272],[14.1805959,40.818041],[14.1808901,40.8180633],[14.1811759,40.8180888],[14.1814113,40.8181152],[14.1816522,40.8181461],[14.1818981,40.8181798],[14.1820847,40.8182089],[14.1823146,40.8182448],[14.1825418,40.8182848],[14.1830014,40.8183759],[14.1833627,40.8184592],[14.1837306,40.8185495],[14.1840894,40.8186476],[14.1845649,40.8187842],[14.1849046,40.81889],[14.1852778,40.8190103],[14.1857293,40.8191614],[14.1865899,40.8194429]]}},{"type":"Feature","properties":{"way_id":1068491425,"route_colors":["#025257"],"route_refs":["2"]},"geometry":{"type":"LineString","coordinates":[[14.1786838,40.8180209],[14.1792833,40.8180022]]}},{"type":"Feature","properties":{"way_id":1068491424,"route_colors":["#025257"],"route_refs":["2"]},"geometry":{"type":"LineString","coordinates":[[14.1776392,40.8181062],[14.1778418,40.8180829],[14.1781363,40.8180555],[14.1784294,40.8180345],[14.1786838,40.8180209]]}},{"type":"Feature","properties":{"way_id":924943948,"route_colors":["#025257"],"route_refs":["2"]},"geometry":{"type":"LineString","coordinates":[[14.1774476,40.8181291],[14.1776392,40.8181062]]}},{"type":"Feature","properties":{"way_id":1068491419,"route_colors":["#025257"],"route_refs":["2"]},"geometry":{"type":"LineString","coordinates":[[14.1754762,40.8184262],[14.1755849,40.8184086],[14.1761693,40.8183174],[14.1766731,40.8182364],[14.1767515,40.8182248],[14.1769515,40.8181951],[14.1772396,40.8181541],[14.1774476,40.8181291]]}},{"type":"Feature","properties":{"way_id":1068491422,"route_colors":["#025257"],"route_refs":["2"]},"geometry":{"type":"LineString","coordinates":[[14.1752813,40.8184563],[14.1754762,40.8184262]]}},{"type":"Feature","properties":{"way_id":544665452,"route_colors":["#025257"],"route_refs":["2"]},"geometry":{"type":"LineString","coordinates":[[14.1694524,40.8193442],[14.1695462,40.8193341],[14.1698512,40.8192957],[14.1701646,40.819252],[14.1707791,40.8191567],[14.1714201,40.8190579],[14.1721177,40.8189494],[14.1728107,40.8188418],[14.1735044,40.8187329],[14.1741943,40.8186258],[14.1748945,40.818517],[14.1752813,40.8184563]]}},{"type":"Feature","properties":{"way_id":1068491415,"route_colors":["#025257"],"route_refs":["2"]},"geometry":{"type":"LineString","coordinates":[[14.1693124,40.8193596],[14.1694524,40.8193442]]}},{"type":"Feature","properties":{"way_id":1068491414,"route_colors":["#025257"],"route_refs":["2"]},"geometry":{"type":"LineString","coordinates":[[14.1658425,40.8193591],[14.1660707,40.8193745],[14.1666654,40.81941],[14.1670769,40.8194294],[14.1674199,40.8194396],[14.1677033,40.8194422],[14.1679011,40.8194405],[14.1680917,40.8194368],[14.1682952,40.8194307],[14.1686061,40.8194168],[14.1689212,40.8193948],[14.1693124,40.8193596]]}},{"type":"Feature","properties":{"way_id":302030648,"route_colors":["#025257"],"route_refs":["2"]},"geometry":{"type":"LineString","coordinates":[[14.1656745,40.8193474],[14.1658425,40.8193591]]}},{"type":"Feature","properties":{"way_id":302030649,"route_colors":["#025257"],"route_refs":["2"]},"geometry":{"type":"LineString","coordinates":[[14.1596497,40.8189784],[14.1602441,40.8190003],[14.1608542,40.819034],[14.1615583,40.8190774],[14.1622659,40.8191251],[14.1629765,40.8191704],[14.1636607,40.8192159],[14.1643004,40.8192581],[14.1648916,40.8192958],[14.1654811,40.8193343],[14.1656745,40.8193474]]}},{"type":"Feature","properties":{"way_id":243418435,"route_colors":["#025257"],"route_refs":["2"]},"geometry":{"type":"LineString","coordinates":[[14.1589641,40.8189749],[14.159306,40.8189756],[14.1596497,40.8189784]]}},{"type":"Feature","properties":{"way_id":243418436,"route_colors":["#025257"],"route_refs":["2"]},"geometry":{"type":"LineString","coordinates":[[14.1554411,40.819256],[14.1559472,40.8191936],[14.1564838,40.8191292],[14.1568066,40.8190941],[14.1571317,40.8190635],[14.1574489,40.8190389],[14.1577664,40.8190173],[14.1580679,40.8190009],[14.1583703,40.8189886],[14.1589641,40.8189749]]}},{"type":"Feature","properties":{"way_id":804308364,"route_colors":["#025257"],"route_refs":["2"]},"geometry":{"type":"LineString","coordinates":[[14.1438081,40.8212735],[14.1523022,40.8197119],[14.1532596,40.8195412],[14.1541314,40.8194179],[14.1554411,40.819256]]}},{"type":"Feature","properties":{"way_id":30014686,"route_colors":["#025257"],"route_refs":["2"]},"geometry":{"type":"LineString","coordinates":[[14.1351807,40.8231945],[14.1357424,40.8229833],[14.1365467,40.8227039],[14.137381,40.8224781],[14.1382418,40.8222968],[14.1438081,40.8212735]]}},{"type":"Feature","properties":{"way_id":46608326,"route_colors":["#025257"],"route_refs":["2"]},"geometry":{"type":"LineString","coordinates":[[14.1311084,40.8247306],[14.1313884,40.8246209],[14.1338134,40.823718],[14.1351807,40.8231945]]}},{"type":"Feature","properties":{"way_id":121162772,"route_colors":["#025257"],"route_refs":["2"]},"geometry":{"type":"LineString","coordinates":[[14.1309087,40.8248065],[14.1311084,40.8247306]]}},{"type":"Feature","properties":{"way_id":121162774,"route_colors":["#025257"],"route_refs":["2"]},"geometry":{"type":"LineString","coordinates":[[14.1272136,40.8266799],[14.1275258,40.8264594],[14.1278166,40.8262587],[14.1281827,40.8260205],[14.1282299,40.8259926],[14.1283397,40.8259275],[14.1289528,40.8256022],[14.1293048,40.8254298],[14.1296948,40.8252712],[14.1304834,40.8249673],[14.1309087,40.8248065]]}},{"type":"Feature","properties":{"way_id":121162773,"route_colors":["#025257"],"route_refs":["2"]},"geometry":{"type":"LineString","coordinates":[[14.1269786,40.8268638],[14.1272136,40.8266799]]}},{"type":"Feature","properties":{"way_id":121162778,"route_colors":["#025257"],"route_refs":["2"]},"geometry":{"type":"LineString","coordinates":[[14.1259885,40.8276537],[14.1265504,40.8271933],[14.1269786,40.8268638]]}}]}