{"type":"FeatureCollection","features":[{"type":"Feature","properties":{"route_ref":"BL","route_color":"#007ec7"},"geometry":{"type":"LineString","coordinates":[[121.4194773,24.9596999],[121.42241446,24.961748140000005],[121.42358208608954,24.962179748301793],[121.42470797777777,24.962477211111114],[121.42559477011963,24.962840590812526],[121.42743141189023,24.963989297200644],[121.43020277348181,24.96478744513053],[121.43171024676539,24.965407565802735],[121.43364147312003,24.96551222000722],[121.43442015000001,24.965653400000008],[121.43507546310471,24.96591179116006],[121.4388376956383,24.96869024950098],[121.4412976982579,24.969764542660464],[121.44191754253794,24.970146212834187],[121.44245774429928,24.97070508615231],[121.44327900845883,24.971962703985838],[121.44365092575342,24.97236450880117],[121.44376633076922,24.972390561538464],[121.44445339332094,24.973227885700222],[121.4470563901729,24.97592179023864],[121.44781668701337,24.97722775540826],[121.44803686534357,24.977822843221478],[121.44856468576627,24.980711725073004],[121.44858517343799,24.981337371314726],[121.44839052949273,24.982520736259797],[121.44838898912938,24.98306371737316],[121.44903484739521,24.98672396188401],[121.4483873,24.9908474],[121.4483775948188,24.991311411292475],[121.44850220044154,24.991803398893627],[121.44930716080046,24.99269706470042],[121.45062544666666,24.993784806666667],[121.45116374240928,24.99445940425235],[121.45188440999999,24.996066530000004],[121.45326538192936,25.00045843231883],[121.45380362768198,25.00179184012538],[121.45541725496707,25.004797104750235],[121.45716331048598,25.006685897397233],[121.46018624683663,25.009664553213767],[121.46049805254881,25.010287388926177],[121.46102954220227,25.011900122402945],[121.4636876447281,25.015298525693197],[121.46398142160686,25.01598747417376],[121.46397040699566,25.016377368555116],[121.46405784,25.01646396],[121.46413752077055,25.017170480924477],[121.46432627824363,25.017817299806328],[121.46718301578947,25.021541326315795],[121.46790268947368,25.02264511578948],[121.47084483928387,25.0278571618754],[121.4715219956522,25.028809552173914],[121.4758461218387,25.033884348541463],[121.47719994741507,25.03528646091865],[121.47829743299474,25.03596741454169],[121.47934657443263,25.03621213936672],[121.47974982000001,25.036205320000004],[121.47984230696989,25.03630123779994],[121.48041510183252,25.036225154124097],[121.48359933413693,25.036193242337706],[121.48468725873015,25.036106947619047],[121.48478865343834,25.036160535446644],[121.48498520634921,25.036097961904762],[121.48508662795786,25.036152281925972],[121.48528315396824,25.036088976190477],[121.48538460247734,25.036144028405296],[121.4855811015873,25.036079990476193],[121.48568257699684,25.03613577488462],[121.48587904920635,25.036071004761904],[121.48598055151632,25.036127521363948],[121.4861769968254,25.03606201904762],[121.48627852603583,25.03611926784327],[121.48637562857142,25.036056028571434],[121.48995078928861,25.03594577374077],[121.49305557999999,25.035615760000002],[121.49683254226845,25.035480508452572],[121.49737772,25.035336880000003],[121.49831692661378,25.03531017087753],[121.4984082,25.0352466],[121.50399293999999,25.035091200000004],[121.50466036864752,25.035146618727985],[121.50528262223891,25.035315178525384],[121.50581566006274,25.035561571951675],[121.50637474999999,25.0359625],[121.50679657068169,25.036440915411546],[121.50710582108115,25.036991111335055],[121.50770508100534,25.039644684254952],[121.5097268,25.046551849999997],[121.51001765,25.046983650000005],[121.51046455000001,25.047355600000007],[121.51089397500547,25.04756786045357],[121.51154035909585,25.047685234945146],[121.51228095726434,25.047596691761814],[121.51424502,25.04690872],[121.51848223507822,25.045853514693615],[121.5198337150777,25.045407463989044],[121.52092366050036,25.045245314364614],[121.52114841043966,25.04528390155381],[121.52223054629334,25.04499632170179],[121.52232626267713,25.045037921594304],[121.5223932774299,25.044961950001834],[121.52757319627752,25.04374108505172],[121.53167813333333,25.042577800000004],[121.53418783923591,25.042047463386083],[121.5366968763855,25.041704125206966],[121.54862722,25.041467800000003],[121.54872706926783,25.041528454906317],[121.54882243246729,25.04146317978422],[121.54890659555369,25.041523955115576],[121.54898781387404,25.041459488663786],[121.55040906999999,25.041431480000007],[121.55050720650516,25.04149050508118],[121.55060248999999,25.041427760000005],[121.57754078189687,25.04080442247626],[121.5782568375573,25.04099208448125],[121.57898486912612,25.041342948734595],[121.57978766076232,25.041858209250798],[121.58061274593312,25.04254071599644],[121.58151799999999,25.043530900000004],[121.58434422826916,25.047526488300385],[121.58500300204007,25.048136054355286],[121.58618714611667,25.04876341902083],[121.59276054285714,25.05028707142857],[121.59284068919332,25.050366956273308],[121.59295342857142,25.05033201428571],[121.59492515000001,25.050793625000004],[121.5951959012642,25.05091927774718],[121.59530075715209,25.050883896273344],[121.5953556094689,25.051016087127365],[121.59547684024879,25.050925775965442],[121.59725957671402,25.051167198905794],[121.59774784285715,25.051102242857148],[121.59907948506499,25.051163075238726],[121.60873529801913,25.05230946901205],[121.60979576739567,25.052701287089732],[121.6118125220711,25.053819599353126],[121.61296314568668,25.05418473701607],[121.61567489116567,25.054472299055995],[121.61843836153845,25.05456156923077],[121.61853759202836,25.0546328488803],[121.6186431,25.0545694]]}},{"type":"Feature","properties":{"route_ref":"BR","route_color":"#a74c00"},"geometry":{"type":"LineString","coordinates":[[121.6184392,25.0551794],[121.61729338194719,25.05535519667304],[121.61703346212269,25.055478873495318],[121.61693445594726,25.05565605366097],[121.61710592837763,25.058794924057445],[121.61693416726862,25.0592493395947],[121.61660042385925,25.05955392080657],[121.61513921299716,25.060338006317657],[121.61456789305345,25.060769779703907],[121.61357896253546,25.061940871044495],[121.612306664103,25.06312883714587],[121.6113647,25.0648802],[121.61107087456648,25.06563238078354],[121.61104861050113,25.066319057283067],[121.61130519248296,25.06695316356988],[121.61204270861954,25.068162957905063],[121.61212571086092,25.068683286032485],[121.61209121313783,25.06925876982929],[121.61169257234471,25.07006727117778],[121.6098820193314,25.07140384698129],[121.60877232321671,25.072000961241752],[121.6066263,25.072934700000005],[121.60630623272446,25.07313447953212],[121.60614166187597,25.073351186852907],[121.60608923146414,25.07364991850468],[121.60615954423261,25.073868242422044],[121.60704724822001,25.075100922133863],[121.60723748112558,25.075833313484587],[121.60708125000001,25.07805665],[121.60723335939026,25.080380734188303],[121.60713494773573,25.08084968338553],[121.60666202493684,25.08172012843698],[121.60618853047173,25.08237883837974],[121.60572151477031,25.082708697032064],[121.60517448686326,25.082918616393325],[121.60396808379546,25.083071856219053],[121.60319627799844,25.083280036464668],[121.60145559583924,25.084284241447044],[121.6008556015058,25.08454247216909],[121.59983987918582,25.08467809853979],[121.59802674631916,25.08466061408066],[121.59642229517294,25.084463733822922],[121.59504436701961,25.08411048051674],[121.59211590011294,25.081940497916733],[121.58981271873115,25.079639268068586],[121.58934808549873,25.079284328360483],[121.58886554628747,25.07905339121803],[121.58800427692755,25.07880935877647],[121.5867986770989,25.078606788897858],[121.58013613333334,25.078447800000003],[121.57928449115825,25.07850655698166],[121.5786253201765,25.078695952320103],[121.57525825337115,25.080069492663835],[121.56962745927747,25.081970568216583],[121.5681894095113,25.082134747982067],[121.56808661818182,25.082078690909096],[121.56669025774139,25.08213319137094],[121.56530929299532,25.082436693851495],[121.56421714999999,25.08286510000001],[121.56153185866559,25.08429680458247],[121.55990757713526,25.084834586455717],[121.55891477110664,25.084977729712733],[121.55773188661738,25.084512141236303],[121.55705767381217,25.084464940597424],[121.55279579948647,25.085673382127716],[121.5519875,25.0857166],[121.55095035981097,25.08543457126868],[121.54968498368076,25.084559869417124],[121.54950886764466,25.084348419068192],[121.54914065359432,25.083458922143436],[121.54871186153845,25.081506630769226],[121.54841169554214,25.08078152341638],[121.54795126433335,25.080246776687165],[121.54541747653353,25.07834860484218],[121.54509686685384,25.07801656375571],[121.54489288018425,25.077482280269027],[121.5449287,25.076981449999998],[121.54513395000002,25.076583824999997],[121.5455110322229,25.076229218892937],[121.55025179999998,25.074631079999996],[121.55079470753273,25.07435564474484],[121.55106991381552,25.074073987500885],[121.5512470258039,25.073719371624765],[121.55131066249999,25.073204825],[121.55122984674914,25.071503425313843],[121.55436433561644,25.065027682191786],[121.55457605,25.06437915],[121.55452538405696,25.063937484249326],[121.5543360191611,25.063575722309082],[121.55406815,25.063306650000005],[121.55364181405646,25.06310383526387],[121.55296307655506,25.063028658095334],[121.54988075764686,25.06302921251923],[121.54942266104551,25.06319850005073],[121.54787329550753,25.06438942471674],[121.54655781200174,25.065148712153217],[121.54502268823852,25.066374249568316],[121.54460148385746,25.06643012914919],[121.54433239918885,25.066092192598163],[121.54347942933046,25.027929644511246],[121.54351432534361,25.025044135243846],[121.54367463486919,25.024903538326797],[121.54406688235659,25.02483762162762],[121.55198390397624,25.02441475318532],[121.55252898188068,25.024306477040877],[121.55361887894735,25.02338232631579],[121.55818804252509,25.0190346942583],[121.55917446606186,25.018212761432782],[121.56013300369129,25.01714897355729],[121.56031148631968,25.01668977778139],[121.56034386814392,25.016260951467732],[121.560318786225,25.010482343965517],[121.56023487776741,25.009753819766477],[121.56003901071523,25.009203594804987],[121.55950698999999,25.008363340000017],[121.558222771107,25.006735417836094],[121.55729455368125,25.005871482022435],[121.55687307169207,25.005101752014703],[121.5567938,25.0047887],[121.55728520620487,25.003183087837428],[121.55724425041122,25.00281394388169],[121.5568351135552,25.00214281180715],[121.55676205400337,25.001830193944812],[121.55715681992822,25.00028636955145],[121.5575234255206,24.999835265682737],[121.5587585297834,24.999003207397],[121.55936052182358,24.997859944333072],[121.55983460179958,24.99740119990132],[121.56040556633246,24.99721852231596],[121.56177459057298,24.997122664067177],[121.56399140688647,24.9979500976558],[121.56647556710637,24.998480038928218],[121.56704802684567,24.998570197431878],[121.5698533875,24.998681237499994],[121.57111491586735,24.99865578966526],[121.57692321373203,24.997442118071913],[121.5777071124153,24.997422661640584],[121.57849871630086,24.99773998449912],[121.58247353846154,25.000140176923082],[121.58333477806589,25.000433038289522],[121.58384809999998,25.0008105]]}},{"type":"Feature","properties":{"route_ref":"G","route_color":"#1e7b54"},"geometry":{"type":"LineString","coordinates":[[121.53740639999998,24.957101400000003],[121.53737340897514,24.957202305576995],[121.53745961818181,24.957272836363636],[121.53795639971011,24.959027266080508],[121.53820784250753,24.959535064102337],[121.53817970130127,24.959740768866045],[121.53834801666666,24.959887300000002],[121.5382794525414,24.960007356445786],[121.53841136666665,24.96005558333334],[121.53867505480167,24.960866355162825],[121.53905834285712,24.96160008571429],[121.54109892365724,24.966515580647034],[121.542627,24.97096366666667],[121.5429124181818,24.972059836363634],[121.54292536906107,24.975567284277425],[121.54283260119114,24.977261210481576],[121.54269986615216,24.97805476533307],[121.54161245737157,24.981366235772967],[121.5411483313197,24.983895732801],[121.54052731189357,24.985385865546146],[121.539712076832,24.98677781976905],[121.53934260000001,24.98814225],[121.539346110522,24.988981814766046],[121.53946291725038,24.989622100321647],[121.54022121704041,24.991464376114326],[121.54089881141347,24.9934658449976],[121.54100927998122,24.99357283652686],[121.54120163933636,24.994928621706073],[121.54091092056271,24.99710409731075],[121.53935791818182,25.00070949090909],[121.53860494563963,25.003053072602835],[121.53857435,25.0038147],[121.53897709215212,25.005732841019732],[121.5388278,25.0066995],[121.5385848629437,25.007417418628872],[121.53797693333334,25.008333900000007],[121.53755488115895,25.009192193630266],[121.53724707596915,25.010203416610256],[121.5372414209182,25.010496181998302],[121.53672750134177,25.011957941979386],[121.53596526711574,25.01302962005331],[121.53450165000001,25.014499450000013],[121.53452956146549,25.014644087050204],[121.53423532408999,25.01475440683837],[121.53356815000001,25.015393200000005],[121.53027994164017,25.01873972846143],[121.52491320000001,25.023619500000006],[121.516723975,25.034591225],[121.51618576299138,25.034986989744375],[121.51553080739876,25.035219387318882],[121.5121675254842,25.035516683027826],[121.51102763300612,25.0358126698096],[121.50939606451631,25.036380185497563],[121.50905206892179,25.036613626584057],[121.50867031786173,25.037064438660718],[121.50841654022446,25.03764501378305],[121.50805187692309,25.038957307692314],[121.5079740701517,25.039823884894854],[121.50938231469797,25.04509756153612],[121.50969087476567,25.04596528534648],[121.50976046666668,25.046529766666666],[121.50987394862761,25.046712929028043],[121.50982560000001,25.046959300000005],[121.50993860612331,25.048026327369623],[121.51065098137646,25.050975698739766],[121.51091663049907,25.051388379627234],[121.5114708,25.05187803333333],[121.51391956414481,25.05345813699063],[121.51454537270905,25.05374453864],[121.51501136666667,25.053832033333332],[121.51594298571428,25.053735557142858],[121.5216639249191,25.052369556968955],[121.52281465424213,25.05223577826818],[121.52601781692628,25.052107747847074],[121.52611863636365,25.0521612090909],[121.5411688,25.05200156666666],[121.54697987894735,25.051871257894735],[121.5500358642898,25.05171507387518],[121.55181658249998,25.051738192499997],[121.55201482190776,25.05167881388214],[121.55211606499998,25.051731884999995],[121.55231430899963,25.051672685352155],[121.5524155475,25.0517255775],[121.55261379609145,25.05166655682217],[121.55271502999999,25.05171927],[121.55291328318329,25.051660428292184],[121.55301451249998,25.051712962499998],[121.5675015125,25.051363475],[121.57030533587142,25.051136209561736],[121.57090365119737,25.050917842578567],[121.57213288345451,25.050148813606793],[121.57289509998466,25.04998782143404],[121.57761274,25.0501111],[121.57811425666411,25.050062624362557],[121.5782924,25.0501598],[121.57893596873373,25.05020919482335],[121.57988036972485,25.050466208941742],[121.5822835,25.051468799999988]]}},{"type":"Feature","properties":{"route_ref":"TY-A","route_color":"#8246af"},"geometry":{"type":"LineString","coordinates":[[121.51513243385959,25.048525677123653],[121.51289601161876,25.049070085417306],[121.51104668710131,25.049777907948307],[121.50949100588235,25.050088164705876],[121.50863445232513,25.050158856428503],[121.50698543093365,25.049924724451866],[121.50604585015998,25.05007604653228],[121.5051140989737,25.050359148848234],[121.50395965590702,25.05096893192352],[121.50083146836778,25.053679798634032],[121.50000840415179,25.054271525406655],[121.49913677769153,25.05464142425504],[121.49799256753289,25.054778773272886],[121.496901788329,25.05457704611854],[121.49592424733856,25.054097336566524],[121.48848407170053,25.047894018951357],[121.48803390488912,25.047658699890526],[121.48765462557343,25.047579056381508],[121.4872666719308,25.0475778142878],[121.48679582775958,25.04772781131786],[121.4863069039386,25.04805833351572],[121.48592452309624,25.048604030808065],[121.4834497052999,25.05341709059504],[121.48298498461538,25.054529476923072],[121.4811537256654,25.05784112605105],[121.4793249,25.061456681818182],[121.47816792017268,25.063212480468177],[121.47746743645956,25.063977420278963],[121.47633289868675,25.06494671056814],[121.47455526363636,25.06604464545454],[121.47079755955109,25.067888354139118],[121.46968438485166,25.068189786927878],[121.46853595915059,25.068145248236352],[121.4676290226617,25.067845306890156],[121.46671767803367,25.06721226113878],[121.46374584818798,25.06311051476362],[121.46256345836811,25.062262235621876],[121.4613829573654,25.061956317623636],[121.4537766051282,25.061168810256405],[121.45140791413317,25.06075915694541],[121.44820569145335,25.06034312790054],[121.44748704998949,25.060119455281754],[121.44670972857143,25.059743442857137],[121.44378770057536,25.058124481339853],[121.44299116313577,25.05759161566465],[121.4419232,25.0564583],[121.42698867062875,25.03685992031414],[121.426281273593,25.036060923858773],[121.42468935173461,25.03455838586305],[121.42174396617617,25.0325286027316],[121.42086376558976,25.03216056390863],[121.41830025937928,25.032156146739585],[121.41654745,25.031847149999994],[121.41504963054241,25.03118948200677],[121.41233632998764,25.02942131989509],[121.41108987076096,25.02896769200796],[121.40927946909294,25.028833660275854],[121.40568489836804,25.028912610448717],[121.40466548611714,25.029176225018826],[121.4014465,25.030578662499995],[121.39927203299706,25.031159437970263],[121.39850204195973,25.031486413673935],[121.39536359078758,25.033339485188986],[121.39215299381634,25.035903493796052],[121.39179766391898,25.036094666007006],[121.3912636,25.0366186],[121.39070655687128,25.036980695136844],[121.3891243072056,25.037453478938705],[121.38661154431068,25.037855704635096],[121.38594565907295,25.03823498711089],[121.38564541460737,25.03850893611942],[121.38535437985928,25.039118909116112],[121.38534374037233,25.039691983572673],[121.38564051266745,25.045719855256422],[121.38581126666666,25.047209066666667],[121.38562172457613,25.04815351195158],[121.38518907216142,25.048660342411882],[121.38475833173247,25.048926529178914],[121.38276566937905,25.04967885089249],[121.38149995953526,25.050344225864215],[121.3804348108177,25.051056275412265],[121.37926884721107,25.051995638249217],[121.37303973165096,25.058068615469907],[121.37008029151829,25.06126485094019],[121.3691454434393,25.062829369769272],[121.36876209132785,25.063287176496196],[121.36701147016879,25.064539543673025],[121.36604143,25.065098929999998],[121.36491124883696,25.06548457510545],[121.3636320714379,25.06571339620215],[121.35719015050442,25.065893587482588],[121.35470301815094,25.06604777107007],[121.35346824340152,25.06622159473451],[121.35217446010805,25.066552799838043],[121.35103162634914,25.066953882487166],[121.3492294893284,25.067870436441655],[121.34828985521867,25.068228046763174],[121.34677379239758,25.068421627794734],[121.3435325590909,25.06805467272727],[121.34118101254222,25.06764828141035],[121.33958454347827,25.06712058260869],[121.33589604667253,25.065644138816296],[121.33475093683566,25.065290273405775],[121.3333041672888,25.06510792733519],[121.33193122577704,25.065234473246175],[121.32986313424139,25.065758875299622],[121.32862215377045,25.06618118812795],[121.32758508128052,25.066870335959823],[121.32681155517045,25.0676198970296],[121.32285030309752,25.072293721351677],[121.3217150049361,25.073176512928914],[121.32072857567569,25.073643595097618],[121.32003516138846,25.073867538788438],[121.31737058551694,25.0743685400851],[121.31622827261512,25.074719927760178],[121.3149814926847,25.075453733862524],[121.31385757753439,25.076550377676107],[121.31298685989104,25.077221636833332],[121.31169166118985,25.077781216399966],[121.30814044615386,25.07885083846153],[121.3044142923077,25.07985395384615],[121.30281838105778,25.080266617948546],[121.30153389090908,25.080491854545453],[121.29479365880329,25.080670809136265],[121.2914923,25.080871419999998],[121.28891232178242,25.080685421166805],[121.2810614605409,25.080880886219767],[121.27986227306671,25.081028843714144],[121.27490788797114,25.082515394450095],[121.2724329538317,25.083371038850224],[121.25978172173913,25.0898742],[121.25785460822385,25.090776662692416],[121.25705706983607,25.09104273094574],[121.25604528850955,25.09119788147626],[121.25400852241297,25.091037283450582],[121.25235198024765,25.0904094262999],[121.24970765,25.089059899999995],[121.24319539684701,25.084040304123786],[121.24111385714286,25.082815742857143],[121.23689089999999,25.0793681],[121.23591605243176,25.07889568682833],[121.23396315714285,25.078327271428567],[121.23308848771633,25.07797485914937],[121.22918262727273,25.074888254545456],[121.22914739702792,25.074786331152747],[121.22903115454545,25.07476857575757],[121.2286145817062,25.07437021981963],[121.22487672713378,25.071533621884043],[121.2244562912314,25.071358483209266],[121.22314331999999,25.071066459999994],[121.22234286666668,25.07062663333333],[121.22065380000001,25.069308749999994],[121.21706719008503,25.06606322440537],[121.21456751892856,25.06408801269475],[121.21247343389796,25.061997009660093],[121.21092914796765,25.060691056826677],[121.21051167728825,25.060167643478724],[121.21021903200094,25.059404459003737],[121.21005829326839,25.05731824296361],[121.21011051906453,25.056892427736393],[121.21128273663707,25.054489127411834],[121.21200399249614,25.05249860894301],[121.21225158734613,25.05166753465023],[121.21256452131009,25.049524096152965],[121.2127557979331,25.048933530462836],[121.2140031402352,25.046954976047463],[121.21538685149828,25.042910750690634],[121.21552779810608,25.041414724674386],[121.2153962431903,25.040291143201074],[121.21502413749361,25.038653678828304],[121.21504036341791,25.038275304987476],[121.21517154285715,25.037735328571426],[121.21616787318328,25.03559017277502],[121.21636760658502,25.03497584400445],[121.21681935434957,25.030687396377402],[121.21680395000003,25.02932168],[121.2169469187856,25.028083448369497],[121.2171946077397,25.02753093180546],[121.21786427882023,25.026802013220994],[121.22271873149653,25.022741298351495],[121.22298246689482,25.02241896807888],[121.22308340044033,25.021951618626268],[121.22295117116762,25.02156218256576],[121.22265902890511,25.021210433519517],[121.21813312388116,25.01667951344426],[121.21734228051663,25.01611002121994],[121.21634865686086,25.015748695948737],[121.21583769290011,25.015426114301054],[121.21270639375,25.012312812499992],[121.21229491869192,25.01174610610201],[121.2117060109122,25.010280515019744],[121.21131875070006,25.009725502929452],[121.20276397692307,25.00124946153846],[121.20210779983381,25.000539184007984],[121.20196101398885,25.000234473781845],[121.20190859926977,24.9998190706127],[121.20218428221972,24.99869750436709],[121.20374278099243,24.99663899831991],[121.20728373032344,24.989837879015163],[121.20779498719848,24.989170144861717],[121.2086278222805,24.988466913916277],[121.2123318237221,24.98644051622406],[121.21293546475157,24.98597045800396],[121.21555117182845,24.98155843018062],[121.2180135301933,24.97715268336763],[121.2181869,24.9763481],[121.21781803619979,24.974757056851864],[121.21791598340553,24.974014861424276],[121.21811090323854,24.973599975669213],[121.21937648076955,24.972239825673157],[121.21983282055784,24.971614679331744],[121.22044036320042,24.97043246182522],[121.22069324811882,24.969234344029033],[121.22063339944388,24.966681509242054],[121.2193262,24.9585904]]}},{"type":"Feature","properties":{"route_ref":"R","route_color":"#ff0000"},"geometry":{"type":"LineString","coordinates":[[121.4448506,25.1682141],[121.44959855984608,25.164779381471632],[121.45140441261013,25.16329977607524],[121.452075462771,25.16231150045365],[121.45260771239869,25.160894809577734],[121.4532170748971,25.16016206852248],[121.45406636980469,25.159587338244513],[121.45633562004821,25.158768018543398],[121.45713860809445,25.158353252385208],[121.45801675718323,25.157595207969166],[121.4585216587461,25.156776838840496],[121.4587407250211,25.155881480733296],[121.45888358238864,25.15332584710393],[121.45919703528469,25.151462623970268],[121.45937295579463,25.148574572785645],[121.45946537402898,25.13982811263312],[121.45940541494379,25.139325699921343],[121.45952053470964,25.135991199534672],[121.45944788029657,25.135306843409136],[121.45927963509752,25.13477551022454],[121.45819877865884,25.132697730613764],[121.45808841246514,25.131672440038603],[121.45840088528759,25.130599821612627],[121.46042178235294,25.126902847058822],[121.4616084551697,25.124920184824784],[121.46212157374391,25.124388261683077],[121.46313673667296,25.123853217375494],[121.46387175627683,25.12370896208854],[121.46508320077034,25.123869540283252],[121.4659475877857,25.124292678285716],[121.46668857225387,25.12502750057257],[121.46746795140963,25.12618589774889],[121.46837739656496,25.127202175936006],[121.47075915026522,25.129104236959776],[121.47239702274719,25.130158711574918],[121.47803366716137,25.1346484166124],[121.47904617958709,25.13531257041701],[121.47916890000002,25.1353028],[121.48299985512323,25.13698074301353],[121.48400020015247,25.13724946143509],[121.4891213225064,25.138073087246315],[121.490182870449,25.138078007228334],[121.49119652843444,25.137867684903856],[121.49392432107896,25.136457583970326],[121.4956624,25.13535366666666],[121.4999216,25.13015076666666],[121.50048349999999,25.12903365],[121.50096842,25.12591026],[121.50148141181536,25.123693011587665],[121.50173279013337,25.123022694738435],[121.50234459999999,25.12213550000001],[121.5029352154359,25.121684153624948],[121.50377597142857,25.12128902857143],[121.5056005,25.12088392],[121.51015435954758,25.12012169693736],[121.51129119068256,25.11979849511709],[121.5119822199323,25.119374460579227],[121.5124962657787,25.118866296579036],[121.51316302293039,25.117984268802136],[121.51524808571429,25.114842242857147],[121.51701660260275,25.11240701364332],[121.51858541428572,25.109968371428582],[121.52082271438681,25.10690706836287],[121.52192955744955,25.105224178113517],[121.52226631035161,25.10430758052684],[121.52256076000002,25.102284400000006],[121.52278722325156,25.101355977578827],[121.52484927683784,25.097318394730017],[121.52485513333336,25.097125616666673],[121.525368361521,25.095928685001734],[121.52627214285715,25.093015285714284],[121.52680161806873,25.09166359390717],[121.52724424312036,25.090058142588596],[121.52731439311529,25.089179698104225],[121.52722466333745,25.088568968128122],[121.52694023054087,25.08799727891665],[121.52570201692517,25.086400985687686],[121.52532630146457,25.08573263496456],[121.52495215000002,25.084543599999993],[121.52458916754216,25.08276458373548],[121.52385263206888,25.080036086158277],[121.52325632393682,25.078775435424284],[121.52141953846153,25.075419153846155],[121.52033855683614,25.072987533791604],[121.51988872857143,25.070258671428565],[121.51961219109316,25.067468429342533],[121.5190118776666,25.064410239997727],[121.51911796816768,25.063275441615694],[121.52044022373519,25.060156975549187],[121.52061085,25.059325150000003],[121.52021301824723,25.05072034701937],[121.5198837275979,25.049772628112706],[121.51865513333333,25.04837716666666],[121.51743628133686,25.046227535964757],[121.51676967144354,25.04371920644236],[121.51634908461538,25.042616607692313],[121.515163775,25.0384906],[121.51522048,25.03743982],[121.51563478095639,25.036439182673625],[121.51920981705108,25.03164530015286],[121.51970615719328,25.03124222511592],[121.52040811221109,25.030999609942757],[121.52120047099741,25.031021027843806],[121.52179109161617,25.031246090597342],[121.5222203741876,25.03157740537495],[121.52258204232884,25.0321133667531],[121.52290752891341,25.033889238432973],[121.52359734999999,25.03462355],[121.52465334356285,25.035063318174196],[121.52551735140177,25.034891961995445],[121.52680735661856,25.03420654832897],[121.52737551265847,25.034007689687996],[121.5306925834121,25.03358799032296],[121.56545967142857,25.032790642857144],[121.5714549,25.032768600000008]]}},{"type":"Feature","properties":{"route_ref":"Y","route_color":"#fedb00"},"geometry":{"type":"LineString","coordinates":[[121.54314620000001,24.982859400000002],[121.5380441675081,24.98280990357673],[121.53088479091666,24.982544213303548],[121.5303378877866,24.982581409895886],[121.5297894087079,24.982751375905895],[121.52903114666668,24.983266413333347],[121.52846652493606,24.983805763359896],[121.52687875000001,24.9850011],[121.52645533342098,24.985626857212836],[121.5265435,24.9863714],[121.52735522519008,24.989017475999248],[121.52733242395254,24.989323931978795],[121.52713642342943,24.98973535885751],[121.52667499211523,24.99007055571755],[121.52191138560373,24.990670039112924],[121.5181083766337,24.991922995187046],[121.50380730095695,24.993623421282987],[121.5034515286691,24.993798817380064],[121.50280649230768,24.99431305384616],[121.50104603937527,24.995967702016237],[121.49998884467104,24.998204511812215],[121.49703864762819,25.000997615698125],[121.49685722707851,25.00132701195586],[121.49672344062832,25.002073824672394],[121.49652897497648,25.00228304072383],[121.49623516625672,25.002356258137358],[121.49356536915693,25.002190672292947],[121.49112460547293,25.00330034651746],[121.49080225841216,25.00359417259284],[121.48986038549874,25.005224830218484],[121.48926472050111,25.00572728084584],[121.48829297302565,25.00627140528037],[121.47676358300552,25.011834203274635],[121.47194556478449,25.01482065489648],[121.47099805004761,25.015318503551455],[121.46910234729864,25.015912110373684],[121.46848873856185,25.01597876154536],[121.4677683449393,25.015937524831443],[121.46722994880565,25.01579830400205],[121.46596951291264,25.014869584773596],[121.46545079937886,25.014706785989553],[121.46511295863203,25.01483633673059],[121.46344198770683,25.015954423864116],[121.46324279171414,25.01634247558837],[121.46343243536451,25.016743756675634],[121.46636554374811,25.020355690829007],[121.4674486025983,25.021975895090893],[121.46758654144341,25.022573773967395],[121.4675773345155,25.023126326482323],[121.46735807997786,25.024687363788043],[121.46578388151477,25.02793457895156],[121.46531896459936,25.02878596741656],[121.46516725920078,25.028839760079816],[121.4649845989008,25.029131550590243],[121.46389855142516,25.031359125325068],[121.46379078711331,25.031601736755512],[121.46384513260656,25.031714336016385],[121.4636753005007,25.03185509258103],[121.46324375545079,25.033298405102208],[121.46222507288549,25.035831940320982],[121.46168630250023,25.037016996404112],[121.46104493636365,25.03798873636364],[121.46067446414119,25.038736207601126],[121.46013266784972,25.040608139999136],[121.45996212142859,25.0490605],[121.46000418154135,25.054175645347243],[121.45994414,25.054264619999998],[121.46001124567657,25.054443955584677],[121.45994172000002,25.054532860000002],[121.45993565454548,25.05852352727273],[121.46000397089648,25.059694111604834],[121.45983059551672,25.060583239871097],[121.45982608968245,25.061656967887142],[121.45972682854186,25.062010906676633]]}},{"type":"Feature","properties":{"route_ref":"O","route_color":"#f58231"},"geometry":{"type":"MultiLineString","coordinates":[[[121.4078653264729,25.02115888219954],[121.40815461666668,25.0212641],[121.41055650881518,25.021555788145843],[121.41304428540239,25.022682053622574],[121.4131700939757,25.022651481426397],[121.4133141,25.0227989],[121.41639759436849,25.024412243440946],[121.4170731796087,25.02500020065439],[121.41802161121055,25.02695637110824],[121.41823996003733,25.02724058283384],[121.41876095216597,25.027700027777584],[121.41965097500001,25.028049324999987],[121.43388856523949,25.03252524227536],[121.44277916997352,25.034016032560434],[121.45431567777779,25.03660271111111],[121.45517665,25.036737749999993],[121.45703545095776,25.036842315540817],[121.45709353333334,25.036955599999995],[121.45728110269873,25.036963756856327],[121.45807339375001,25.03752026249999],[121.46618664870417,25.04246539064909],[121.46874998,25.04499085999999],[121.46949175,25.045589399999997],[121.47102581818183,25.04622715454545],[121.47594438978287,25.047708744061644],[121.47721972427652,25.04820709570577],[121.4780562697779,25.048947844013558],[121.4788286052289,25.050288682227844],[121.48061647142858,25.05385223571428],[121.48142124101241,25.05485803442662],[121.48241812532788,25.055398449249857],[121.48532825503555,25.056066371734115],[121.4868294496903,25.05664640540782],[121.48791059230233,25.057318378764876],[121.4905029,25.059234454545457],[121.49302589444972,25.060960289020294],[121.4937078128347,25.0612605390575],[121.49519507581972,25.06147623678829],[121.4969826942109,25.06187061928885],[121.50148780608309,25.063524924340516],[121.50310067376066,25.064295724313165],[121.50385234999999,25.06444265],[121.50435305998536,25.064458583351605],[121.50867814,25.064040600000002],[121.50942665549282,25.063853671691724],[121.51035608820399,25.063435029026735],[121.5113325,25.0632354],[121.51234267592663,25.06320595719115],[121.5124367,25.063266149999997],[121.51263386980325,25.0632186918535],[121.51272788000001,25.063279139999995],[121.51440482737205,25.06333419023344],[121.5165583,25.063055199999997],[121.52084305,25.062936116666663],[121.52384770425078,25.062749189041917],[121.52906976372934,25.062608735056955],[121.52977872774836,25.062608508710053],[121.53121980840483,25.06278118340265],[121.53196133372144,25.062681913652632],[121.5324720001747,25.06243705088324],[121.53290666666668,25.062045399999995],[121.53316357637952,25.06160564999303],[121.5332847456127,25.061043115729916],[121.53324686470587,25.059649005882356],[121.5331790933112,25.059562310062628],[121.53324108823529,25.059472135294122],[121.53303100000001,25.0434505],[121.53277329446168,25.037284746095516],[121.53278136056458,25.035230348759026],[121.5326592,25.034878050000007],[121.53221784649512,25.034301879970016],[121.53176090290327,25.033987890493215],[121.53103840659173,25.033766381184943],[121.53035344421298,25.033767862034903],[121.52732734011211,25.0341876680915],[121.52669090807005,25.034412652059178],[121.52538770001154,25.035072743784713],[121.52472392544796,25.035224349385516],[121.52408345,25.035179000000003],[121.52352679999998,25.034978499999994],[121.52297836666666,25.03456286666667],[121.52266076666666,25.034105966666665],[121.52241668619402,25.033520883748857],[121.52254839999999,25.032347549999997],[121.52252155247935,25.031770005392193],[121.52220295155972,25.030445925650103],[121.52174795356777,25.029237183424996],[121.52172433333332,25.0284321],[121.52204688107298,25.02777471121442],[121.52526978400546,25.023283565492587],[121.52552070449231,25.022595191412734],[121.52548490022258,25.021717049588943],[121.52520066624514,25.02108310730016],[121.52475113333333,25.02050623333333],[121.52412327933013,25.01999570171853],[121.52353954,25.019669020000002],[121.52248910955174,25.019205622509],[121.52167485897459,25.019013531267436],[121.51949809142648,25.019023902083653],[121.51880650809571,25.01891829380456],[121.51800339147584,25.018607112413846],[121.51756303333333,25.018294966666673],[121.51740152539433,25.018320538206808],[121.5173953,25.018171833333337],[121.51671681442,25.01755300041728],[121.51626468444987,25.01645581921331],[121.51329360355493,25.005748198288426],[121.51296772857143,25.004927514285725],[121.51265970945462,25.00447433684113],[121.50634661973271,24.997350239722802],[121.50597740524515,24.99678931846833],[121.5049897,24.99368985],[121.50495138433074,24.992950788084883],[121.50507866919568,24.992405524972785],[121.50532192993862,24.992014922193288],[121.5058847147835,24.991511835169625],[121.50754519262969,24.990596732332836],[121.5098109,24.989575999999992]],[[121.4615598,25.0975976],[121.46071770055453,25.09635794000539],[121.46032405128084,25.09547342444001],[121.46042948519528,25.094673392022525],[121.46102344,25.09380192],[121.46182022157946,25.09302088386264],[121.46238297610515,25.092627148356613],[121.46734312839544,25.09018988704298],[121.4684990139097,25.089406112719633],[121.47267323333334,25.08590166666667],[121.47486333018558,25.084188683734766],[121.4752210155662,25.08368323318265],[121.47599510967514,25.08189033709597],[121.47616769422312,25.081687356921805],[121.47843691238552,25.08111960755886],[121.4794457,25.0807052],[121.48076581380582,25.08003254657014],[121.48415890092842,25.078015467137245],[121.48427688001715,25.078015059710292],[121.48441108846154,25.07786931923077],[121.48452973832869,25.07786986327704],[121.48457948076924,25.077772265384628],[121.48592661923078,25.076995834615392],[121.486045692382,25.076996981527294],[121.48617920769232,25.076850253846153],[121.48629835139089,25.076851501235673],[121.48634753491149,25.076753108132145],[121.48786347000001,25.075863639999998],[121.48892012438351,25.075372502257437],[121.49178094879399,25.073803013530682],[121.4974224526316,25.069859489473686],[121.49866299586509,25.06907872239597],[121.50048150097248,25.06754427613836],[121.5032405,25.065010000000008],[121.50385146704524,25.064636592262406],[121.50429814280514,25.064481749694345],[121.507903520957,25.064045139637603],[121.50953260165055,25.063753098922724],[121.51046935603301,25.06333950199272],[121.51070429648321,25.06335698179515],[121.51130254517662,25.063135293716712],[121.51432004117416,25.0632791173872],[121.51716619999999,25.062890153846155],[121.5268920125,25.0626082875],[121.52699093053289,25.062660269926358],[121.52718312500001,25.062600075000006],[121.52728205369355,25.062652367631642],[121.52766831250001,25.062586387500005],[121.52776725825063,25.062639176460102],[121.52795942499999,25.062578175000002],[121.52805838141128,25.06263127416539],[121.52844461250001,25.062564487500005],[121.52854358596836,25.062618082993854],[121.528735725,25.062556275000006],[121.52883476576109,25.062611828583663],[121.52922215000001,25.0625508],[121.5293196,25.0626508],[121.5295145,25.0625508],[121.52961194999999,25.0626508],[121.5297094,25.0625508],[121.53029141173312,25.062614134932467],[121.53120303333333,25.062450366666667],[121.53195134999999,25.0621453],[121.5325939078904,25.061634550048183],[121.53294944999999,25.061128599999996],[121.53312218181819,25.06023180909091],[121.53268723888888,25.043898022222223],[121.53278060875084,25.03829703563898],[121.53271705,25.035657200000003],[121.53282581558378,25.03555946638914],[121.53269710000001,25.0353887],[121.53258448109399,25.034856206669325],[121.53232009999999,25.034540399999997],[121.53234047738627,25.034429955995442],[121.5317392082201,25.034011778890243],[121.53103204973621,25.033782540561067],[121.53034721201207,25.033769597319356],[121.527221425,25.034212774999997],[121.52526515006623,25.035141060523475],[121.52443681968319,25.03536963446893],[121.52396537905103,25.035353175910892],[121.52333268585977,25.035151542869286],[121.52289945,25.034851899999996],[121.52250897370838,25.034344667620957],[121.52232668656515,25.03357264825196],[121.52247680495599,25.03193203179609],[121.52220893461393,25.030629874682145],[121.52174731829041,25.029240244074057],[121.52170456592488,25.028510357841643],[121.52183221237176,25.02811434116118],[121.52214686306255,25.027626311216974],[121.52515646162767,25.023452135011613],[121.5253627902783,25.023022875784854],[121.52547871693785,25.022455821204428],[121.52540532459257,25.0217212542148],[121.5248207,25.0208081],[121.5244372346057,25.020396472208247],[121.52394979999998,25.020028466666666],[121.52320890281881,25.019645109713064],[121.52175890023751,25.01907133782935],[121.51964378220352,25.019086605914897],[121.51876155,25.018961599999997],[121.51848294580044,25.01886309699329],[121.51843556076938,25.01873823094466],[121.51821748596268,25.01875995918283],[121.51742488994931,25.018337572926185],[121.51675880041175,25.017720874984086],[121.51639063333336,25.016905599999998],[121.51586268695655,25.015167434782605],[121.51469166065908,25.01075904569135],[121.51298612569435,25.004971230168927],[121.51266127816208,25.004476362035852],[121.50647351863697,24.99749256819874],[121.50597784479639,24.996794709163876],[121.50497976863979,24.993653679644904],[121.50493492634284,24.99306098723541],[121.50507959472174,24.992403731841065],[121.50531496673999,24.992005356113573],[121.50597278039497,24.99145400608694],[121.50770257647059,24.990453005882355],[121.50825174384259,24.990239226335458],[121.5083070882353,24.990145252941183],[121.50974099999999,24.9894308]]]}},{"type":"Feature","properties":{"route_ref":"V","route_color":"#febeb5"},"geometry":{"type":"LineString","coordinates":[[121.45898799999998,25.1550049],[121.45889182003364,25.15642920481057],[121.45878054467217,25.156895374350547],[121.45648627069328,25.160804040807037],[121.45622538869497,25.161676068841775],[121.4561969455509,25.162368377510443],[121.45644879903735,25.163250180562642],[121.45677806739488,25.163764976063916],[121.4598183557509,25.16668017426909],[121.46054100745171,25.16761398974437],[121.46078250509625,25.168249216551615],[121.46087128660875,25.169111992595205],[121.46066285770108,25.16990579151855],[121.4589833090909,25.17256284545454],[121.45846765416273,25.17327242177091],[121.457846051812,25.173871934998495],[121.4567535890096,25.17549710909449],[121.45624456495123,25.17672827233363],[121.45425670228192,25.179589669994595],[121.45292002399357,25.1807343694422],[121.44899266054198,25.183198489273696],[121.4476817593315,25.18435489925168],[121.44712136647416,25.18529644139817],[121.44694912771018,25.185756430986864],[121.44677915890085,25.186901571495742],[121.44689907811168,25.188438025837634],[121.4466324943462,25.188823233887025],[121.44619888506753,25.18897010372061],[121.44519140255024,25.188912678392],[121.44379935459834,25.189081029126907],[121.44269776112024,25.1890660419563],[121.43813210034133,25.189682049330145],[121.43777519252377,25.189644898973285],[121.43764839293452,25.189742053377092],[121.43514665555556,25.190055477777776],[121.43463890196954,25.190047957099516],[121.4345702,25.190127],[121.42696709090909,25.191094799999995],[121.42409520327504,25.191318128427003],[121.42219650809864,25.191823433522337],[121.42102919175969,25.190620222634617],[121.419216637728,25.18920588790362],[121.41742554999999,25.187653299999994],[121.41695722344599,25.187122528153346],[121.4172105,25.186486000000002],[121.41782442029613,25.185520510525155],[121.41841876686958,25.18465971353469],[121.41903588335353,25.18405288189996],[121.4193433613709,25.18349726361309],[121.41945787142217,25.182850848356136],[121.41937779333263,25.182584704569315],[121.41832895888437,25.181854029843265]]}},{"type":"Feature","properties":{"route_ref":"K","route_color":"#c3b091"},"geometry":{"type":"LineString","coordinates":[[121.4868823475081,24.945094180908402],[121.48669296666984,24.94548340933327],[121.48636014735001,24.945544087832154],[121.48611692187977,24.945301297773263],[121.48600931829775,24.944766123745804],[121.48674462461503,24.943225460418642],[121.4869431125532,24.942993926917662],[121.48709850362579,24.942967884999746],[121.48760438460141,24.94326315620889],[121.48793940843892,24.94362739859985],[121.48871621828972,24.94477714667548],[121.48919558245301,24.945687087250374],[121.48989426141584,24.946633731621],[121.49268991793554,24.94974439841514],[121.49586808017065,24.9524075087787],[121.49649204554359,24.952733781717995],[121.50109116846752,24.954243287274895],[121.50906416504779,24.954708448097442],[121.50983919023754,24.955106294184787],[121.51215792801523,24.956869703846337],[121.51432592953674,24.957655611528626],[121.51465260325176,24.95785523528363],[121.51485921671522,24.958308840078253],[121.51481905978228,24.95960814168843],[121.51515290251137,24.960837730960183],[121.51545354521444,24.961518848035787],[121.5166701304297,24.963278868276735],[121.51716675558725,24.96494925510956],[121.5173601,24.9651443],[121.51735360844637,24.965442088553193],[121.51903200999998,24.970631320000003],[121.51973329720947,24.97308610746928],[121.5197256459324,24.973397377608915],[121.51956433821475,24.973698789874877],[121.51818708407022,24.975017862100298],[121.51745614766834,24.97590778553627],[121.51677318409048,24.977550882899795],[121.5169328324474,24.980353016092188],[121.51725989087947,24.981119289247427],[121.51799990548827,24.982222081949214],[121.51799325776062,24.983263833481548],[121.51815726595943,24.983393028495655],[121.51895076231392,24.983444946158635],[121.51933884517133,24.983568848550163],[121.52163394812554,24.985534456332392],[121.5220525,24.9857365],[121.52260232475605,24.98574699967496],[121.52598788510228,24.98532979023485],[121.5263489196052,24.98513860741533],[121.52751244346582,24.984203868488287]]}},{"type":"Feature","properties":{"route_ref":"LB","route_color":"#6db7d0"},"geometry":{"type":"LineString","coordinates":[[121.41936770000001,24.959590599999995],[121.41763913039584,24.958600302254204],[121.41411057060867,24.95618138135195],[121.41025090000001,24.9509264],[121.40944073888461,24.950277203185944],[121.40805125350315,24.949758888793202],[121.40745093333334,24.949340266666663],[121.40688145,24.9486431],[121.40629433333334,24.947275433333335],[121.40486213529412,24.946100852941175],[121.40355000863232,24.944815526016512],[121.39925673263792,24.94222022806766],[121.39619491398543,24.94105520903403],[121.39473315000001,24.939701300000003],[121.3907155342053,24.937188053916586],[121.38985059342411,24.936320121711105],[121.38937662323598,24.936196289214703],[121.389194098829,24.936246519515237],[121.38893395833334,24.936478325000003],[121.38622383460743,24.939604787811575],[121.38587542954625,24.939843818181473],[121.3855730378836,24.939935688081825],[121.38509384,24.93993698],[121.38084030545403,24.939399659653667],[121.38008014264794,24.93944227002481],[121.37883373273237,24.939738220144324],[121.37850418423763,24.939725977202613],[121.37822322856564,24.939460176084282],[121.37795852864288,24.938487702414843],[121.37772894989683,24.93830943133039],[121.37743377955822,24.938268291185402],[121.37700553751024,24.93846420700153],[121.37494932529536,24.940332869774462],[121.37350737015538,24.941007083914826],[121.37295465242528,24.941136495271767],[121.37202783333333,24.94119733333333],[121.3693352294553,24.94122715851572],[121.3689443561459,24.941126525467755],[121.36862227043791,24.940824724755142],[121.36833847393838,24.939441743863384],[121.36801115773952,24.939078398498655],[121.36768661540437,24.939008304379605],[121.36554606666667,24.938960666666667],[121.36371800904882,24.938756189733944],[121.36298587995446,24.93890096338257],[121.36267354794803,24.93912859648007],[121.36239075867394,24.93955566825394],[121.36233594680058,24.94012411205059],[121.36246747430516,24.940487004813097],[121.36472420000001,24.9429202],[121.36670292141648,24.944721635967316],[121.36694396843029,24.945220908512205],[121.36695566473497,24.945803291357713],[121.36676613214269,24.94624124949343],[121.36649006013405,24.94655378100543],[121.36331226666667,24.948962266666665],[121.36279394213486,24.949441520407596],[121.36160136666668,24.950848042857146],[121.3592912352653,24.953922763427858],[121.35869614471798,24.954193361218117],[121.35808405441443,24.954115132966365],[121.35376263333335,24.951746150000005],[121.35329795735794,24.951563048666973],[121.35280986666666,24.951602033333337],[121.34894876666667,24.952792833333334],[121.3480216,24.952982833333337],[121.34692042500001,24.9529323],[121.34438253252068,24.95227134852789],[121.34384120484194,24.95228143913595],[121.34348639387822,24.952607437671336],[121.34280800000002,24.953830450000005],[121.34226986524146,24.95540550171085],[121.3422973849442,24.95591027567334],[121.34296679519146,24.957067399066467],[121.34296314507449,24.9575291468393],[121.34274979527915,24.95788937216632],[121.3421837721717,24.958208763889655],[121.34084268,24.958417259999997],[121.3383477067799,24.95831988610403],[121.33512718484884,24.9601629315644],[121.3341013636754,24.961360173149725],[121.33376646092354,24.96318141121555],[121.33361928913,24.963553561237713],[121.33144748753638,24.96679117206531],[121.33110837521345,24.96710716622323],[121.33072873744969,24.967238830534342],[121.33038662051979,24.967166164300895],[121.3298558,24.966785999999995]]}},{"type":"Feature","properties":{"route_ref":"TY-G","route_color":"#33a94e"},"geometry":{"type":"MultiLineString","coordinates":[[[121.26631496495526,25.086262603304455],[121.26367386666666,25.084858633333326],[121.26303082027668,25.084422334550077],[121.26269015205776,25.083888309571574],[121.26238833664648,25.082934579178843],[121.2615719383535,25.081425614494943],[121.26046913855313,25.080060041463884],[121.25944479549497,25.07929210001423],[121.2593021358262,25.0789392969487],[121.259352660675,25.078436213373834],[121.26006397957417,25.076925882353173],[121.26035609011122,25.075598756149883],[121.26041265729975,25.07458037455638],[121.26030159019302,25.073010501125975],[121.26039235460401,25.071885998518564],[121.26258747154446,25.065118708240295],[121.26311093235066,25.064365384744022],[121.26384551824606,25.063864402796586],[121.26616507100434,25.0628886896477],[121.27490559215389,25.05891618780521],[121.27539210178138,25.05866012460644],[121.27560900098499,25.05842395846465],[121.275860388901,25.057236637347287],[121.27645806468772,25.05627640952542],[121.2765962,25.0557949],[121.27654007684494,25.055422392965372],[121.27587150504274,25.05441217959791],[121.27576973181135,25.053659100097324],[121.27580663641959,25.048177493689042],[121.27596110757247,25.047298752186208],[121.27626653691667,25.046655065542826],[121.27873960000001,25.04260406666667],[121.27989725328369,25.041223869542375],[121.2857750290789,25.035929905188997],[121.28617452191702,25.035462620892357],[121.28666844517691,25.034557866387214],[121.28715345,25.033996200000004],[121.28886053214286,25.032449575],[121.29102228235294,25.03091570588235],[121.29211134375001,25.029760231250002],[121.30023740434785,25.01237122173913],[121.30139662962962,25.010210588888896],[121.30279769375,25.007667071875],[121.31012233333333,24.996134833333333],[121.311066675,24.994917124999994],[121.31145319999999,24.99403953333334],[121.31189894999999,24.993304499999994],[121.3140301,24.987842249999996],[121.31423428999999,24.98668382],[121.31412580224602,24.986008206654837],[121.31367569848155,24.985667719958776],[121.312619125,24.985477637499997],[121.31116237014594,24.98546777033272],[121.31054851941389,24.98517966113234],[121.3100929,24.984152725],[121.30986402500001,24.983856275],[121.30455014000002,24.979492259999997],[121.30426153809523,24.979130242857142],[121.30251158,24.976023500000004],[121.30236847222223,24.975143766666665],[121.30237336666667,24.973548733333335],[121.30161306666668,24.971148400000004],[121.30150615,24.96973242857143],[121.30003318181818,24.962697318181817],[121.297550375,24.947689525],[121.29739074615384,24.946420115384615],[121.29747761904761,24.94016461904762],[121.29729093774854,24.93945933384585],[121.2967544,24.93893326666667],[121.296079375,24.938579425],[121.29411542857142,24.937965257142857],[121.29282740000001,24.9376633],[121.29171653333333,24.9374991],[121.28865853333333,24.937378366666668],[121.2867131,24.937026650000004],[121.28387463333333,24.937244466666666],[121.28274513333335,24.937027133333334],[121.28155450000001,24.9365414],[121.28121626774964,24.93625327711349],[121.28107017272727,24.935684350000002],[121.2810495,24.9295749]],[[121.25188670000001,24.940259],[121.25413619444444,24.937081527777785],[121.25570182499999,24.936251710937505],[121.26118417500001,24.9337847890625],[121.26340785000001,24.932903333333332],[121.26451475714285,24.931878757142858],[121.26527404285713,24.931377757142865],[121.26649097500001,24.9309961],[121.27454569076923,24.92964134153846],[121.27539578048781,24.92935603414634],[121.27928331951219,24.929240365853662],[121.2800114,24.929144200000003]]]}},{"type":"Feature","properties":{"route_ref":"縱貫線","route_color":"#1f4e96"},"geometry":{"type":"MultiLineString","coordinates":[[[121.16622316724686,24.913434579957695],[121.17353979561842,24.913246652987336],[121.17477194381553,24.91341379083694],[121.17592792239161,24.913708243084294],[121.17702072100406,24.914095748824064],[121.17848440309047,24.914833316866538],[121.17981356679505,24.91581440782274],[121.18103768930433,24.917016135238516],[121.18603247952865,24.922173128044392],[121.18818350539921,24.92474168765496],[121.18944332,24.925873759999998],[121.19031698571429,24.926390928571422],[121.19716126363636,24.92984822727272],[121.20426482210964,24.93326152123178],[121.20590319455381,24.93415819773418],[121.20685529809393,24.934866859258047],[121.20799791759117,24.9360553925605],[121.21077673561419,24.93954809752774],[121.21372501596981,24.942120825502204],[121.21497070844079,24.9433806375929],[121.21989375416074,24.949762015078313],[121.22067164580582,24.95064230566452],[121.22140313621173,24.951268562962223],[121.22256830658768,24.95195909666296],[121.22707191980419,24.95367791942044],[121.22882332115994,24.95462419053546],[121.23548415443018,24.957368229276664],[121.23909317582573,24.95946076161247],[121.24198995897127,24.961295313113464],[121.25210370000002,24.969574884615373],[121.25486149821616,24.971181531890117],[121.2561316197689,24.97182402964945],[121.25750713333335,24.972335866666665],[121.2627973,24.973936674999997],[121.26631428069304,24.97485679954629],[121.26733676346684,24.97521697266496],[121.26831596243319,24.975667187415585],[121.26963558398967,24.976474558440774],[121.27294536363634,24.978905099999995],[121.27562215863787,24.980731999367432],[121.27792489815006,24.981712145279474],[121.27988655714287,24.982408614285706],[121.28204003333335,24.982876866666665],[121.29215110265417,24.984127431744685],[121.29369734832773,24.984395097678625],[121.30313475263344,24.987089244711974],[121.3077317,24.987737449999997],[121.30955402914574,24.987839731978173],[121.31290527164673,24.98850721957881],[121.31483941146134,24.989055916349923],[121.31668947895146,24.989827774507937],[121.31818413371953,24.99025408357005],[121.31904988616226,24.990364660383232],[121.31982980227303,24.99032137295608],[121.32058510174295,24.990138595273546],[121.32126746676596,24.989833556433634],[121.32200783573842,24.98929401704998],[121.32270757203746,24.988508690479705],[121.32951256537756,24.979583377003294],[121.33043456882734,24.978541563739448],[121.3327262909618,24.976373857564184],[121.33422974701965,24.974781899088093],[121.33517997592622,24.974011887110727],[121.3371611224356,24.972136597163846],[121.33836226338069,24.971340821467706],[121.33905423437028,24.97023574989389],[121.33935647312417,24.969084967231467],[121.33925449139582,24.968007285900747],[121.33892750335761,24.967181567547616],[121.33792351498604,24.965358332563838],[121.33774337519588,24.964635205546482],[121.33772474988629,24.964089875519566],[121.33788545734602,24.963182687428468],[121.3388561142857,24.960489714285714],[121.33886916070038,24.95930449400001],[121.33843526815684,24.95813914991027],[121.33667028970346,24.95544583038839],[121.33606340667959,24.954315433347936],[121.33578303604494,24.953203195915716],[121.33582076310772,24.95194406073112],[121.33601109005299,24.951279540224323],[121.33662725969455,24.95019482609337],[121.33710695126685,24.94965799153194],[121.33811810208788,24.948837296680814],[121.33877988418222,24.94847459171655],[121.33950154313315,24.94823718037613],[121.34039642430969,24.94812950535691],[121.34141507587688,24.948230861874436],[121.34210712506257,24.948440023045716],[121.344780844102,24.94975639241729],[121.34584073602325,24.950136128664294],[121.34879434416588,24.950579896644275],[121.34982379443484,24.95092690801969],[121.35068729947528,24.951429788713796],[121.35753975682339,24.95606169624291],[121.3580788489947,24.95638826967139],[121.35878655346775,24.956655147414324],[121.3594714238392,24.956814206472824],[121.36024727792031,24.956828124561007],[121.36347131273634,24.956256261840505],[121.36432252715,24.956220870567144],[121.36552473619642,24.9563465010854],[121.36713348128721,24.956794475965317],[121.37198218067931,24.95879222383258],[121.37343675421532,24.95959890944318],[121.37757136640369,24.962280336143934],[121.38217532803692,24.965606629288796],[121.38628058333335,24.96829267222222],[121.38877156393292,24.969718408977112],[121.38956135991087,24.97035926481461],[121.3908184659826,24.971660622855406],[121.39165509515023,24.97230194715607],[121.39252891530941,24.972714324990132],[121.39347564057124,24.972977761947508],[121.3966348977488,24.973467268831232],[121.39815549365774,24.974076713231415],[121.40122701367666,24.97553828779763],[121.40253275822798,24.976352752169124],[121.406802951039,24.97948794504244],[121.42123533714005,24.986692356083477],[121.4219562141941,24.98722256167514],[121.42281137361213,24.988168327486783],[121.42909768999999,25.000262499999995],[121.43165863138462,25.003251629244513],[121.43239354999999,25.00389804999999],[121.4332795333185,25.004419355684597],[121.43455992857142,25.004857999999995],[121.43588732741388,25.004983690899373],[121.43975683333333,25.00476723333333],[121.44201557727273,25.004477981818177],[121.44210279115136,25.004393655669727],[121.44357097770087,25.004272214174794],[121.45307210757456,25.003769518206575],[121.45433988901351,25.00393585344122],[121.4553753392918,25.00436461085129],[121.45624379118452,25.005065286493448],[121.4567735244456,25.005635429286535],[121.46152311246303,25.011001722138904],[121.46153502173914,25.011105321739134],[121.46170437645318,25.011210459341132],[121.463251,25.0131857],[121.46402952454548,25.01393365280917],[121.46550473333333,25.01506283333333],[121.46680998437397,25.015713342894706],[121.46846749305584,25.01670728857654],[121.48140576249999,25.025819737499987],[121.48249282599065,25.02636586755029],[121.48327274565548,25.026640349057214],[121.48776323206806,25.02717677526326],[121.4896347655684,25.02766140430692],[121.49119077990221,25.028618664154376],[121.49538080592512,25.03237175150269],[121.495835307585,25.032713461405013],[121.49644933618589,25.03300669370725],[121.49728248955975,25.033187822932558],[121.50115559515882,25.03336591232873],[121.50392476810626,25.03367483554959],[121.50464107648534,25.033912694290198],[121.50522183906507,25.034277239441654],[121.50569840868582,25.034788614165553],[121.50608642369376,25.03543291416807],[121.5092959284802,25.0468342239404],[121.50989775348096,25.047669049747398],[121.51088309799316,25.048302833660117],[121.51204144458916,25.048548624707124],[121.51493188567441,25.048204877130296],[121.51625707168645,25.04816529537011],[121.51862046666666,25.047758333333334],[121.52035687391403,25.047186863008005],[121.52577369390822,25.04595650697136],[121.52665421374279,25.045825758587743],[121.53111332948046,25.045859559202324],[121.53245336078605,25.04565704445929],[121.53457569220087,25.045067648406803],[121.5358716293569,25.044846600957957],[121.54107267785504,25.0446348733639],[121.5451608306643,25.045093715210793],[121.54625923617569,25.0451278408238],[121.54840007142859,25.044974228571423],[121.55264162100376,25.044503002405413],[121.55367736866948,25.044473241334238],[121.5551997273319,25.044650783136525],[121.55802490081958,25.045249205931206],[121.56054860347453,25.04625545453496],[121.5626664076923,25.047220746153844],[121.56547859333334,25.048256],[121.56717184545455,25.04871664545454],[121.5696389647057,25.049244065877843],[121.5709874,25.049394779999997],[121.57249051363635,25.049425054545452],[121.57898029782666,25.049316770022248],[121.58169644258108,25.049381870387705],[121.60895932857143,25.05358757142857],[121.61566013636363,25.05434951818182],[121.61889901525053,25.054468501174508],[121.62062776,25.05464002],[121.6233726,25.0546663],[121.624511,25.054489849999996],[121.6267884,25.0537132],[121.62752733333333,25.053640500000004],[121.62828592432432,25.053696583783786],[121.6323372,25.054302925],[121.63323021250001,25.054520800000002],[121.63521550101616,25.05520220257581],[121.63607839807386,25.05570570015608],[121.63690583962776,25.056383671395366],[121.63827735887938,25.057728447714542],[121.6393903,25.059131799999992],[121.64065321071747,25.060101156126382],[121.64647485186251,25.062516198021257],[121.64724368692876,25.06270998680764],[121.65020711928612,25.06309411385921],[121.65028480000001,25.063183],[121.65050765328753,25.063198391761087],[121.65127199326604,25.063553396362963],[121.6538895,25.064525562499995],[121.65400684839906,25.064502848498694],[121.65407280000001,25.064593674999998],[121.65428058639885,25.064607694674528],[121.65434775000001,25.06469584375],[121.65893220518376,25.066382331586635],[121.65967862499365,25.066715933196754],[121.66312239999999,25.069649499999993],[121.66339745960377,25.069779520721085]],[[121.66387460549227,25.070194619251613],[121.66467234032352,25.07097574780825],[121.6652574903435,25.071845996996863],[121.66552977456541,25.072853713870327],[121.66557066159375,25.074556550778993],[121.66574747431598,25.07541269200746],[121.66624054760071,25.076505505673026],[121.6668907,25.077354800000002],[121.66803543846154,25.078253553846146],[121.67276417058822,25.08126423529411],[121.67399818402394,25.081937084021625],[121.67480793690443,25.082207751763775],[121.67581077947966,25.08238169541523],[121.67670935178955,25.082405652875003],[121.67770999090908,25.082284118181814],[121.6790867,25.08196637692307],[121.6850433952381,25.080101990476187],[121.69099679999998,25.077909699999992]]]}},{"type":"Feature","properties":{"route_ref":"台灣高速鐵路","route_color":"#e9530e"},"geometry":{"type":"LineString","coordinates":[[121.18537609198657,24.9835981063501],[121.21097925882354,25.00925499411764],[121.23018991428572,25.028264699999994],[121.23647967142857,25.03422199285714],[121.24842007857144,25.04508702857142],[121.2499063,25.046336574999994],[121.25282303333331,25.04856409999999],[121.25692723636362,25.051207827272723],[121.26008972857143,25.052947842857137],[121.2635110875,25.054538575],[121.26744319,25.056070749999993],[121.27158390000001,25.05733040909091],[121.27465762222222,25.05809313333333],[121.2779703,25.0587208],[121.28191947389035,25.059217284900186],[121.28632993529412,25.059470417647052],[121.29096976875,25.059397018749998],[121.2948884,25.059076449999996],[121.2988107,25.058489224999995],[121.30278447599999,25.057597952],[121.30655470000002,25.05653167499999],[121.31031427885604,25.05523511992726],[121.31433646905327,25.053464395874432],[121.32186338571428,25.049378614285715],[121.3284298152174,25.045685345652167],[121.32898204939693,25.045284563566394],[121.32927851265035,25.045192877644087],[121.33278354497682,25.04322777650694],[121.38727414861029,25.012541256495584],[121.39047001283707,25.011004541522546],[121.39484507928833,25.009192403958046],[121.39726482585247,25.008370836762264],[121.39949131708573,25.007694877679736],[121.40347608676142,25.006692394695747],[121.40782001867474,25.005885310565024],[121.42022585184692,25.00401303366043],[121.42258631470631,25.003749961982695],[121.42447622364865,25.003643627780786],[121.42692866978234,25.003662719686268],[121.42839108412726,25.003789029688356],[121.43383643636363,25.004631818181814],[121.4356700013948,25.004737807894315],[121.43982023480059,25.004543172486166],[121.44503290362229,25.004047732126658],[121.45259797728876,25.003682170147684],[121.45396046916157,25.00376739674642],[121.45500953630246,25.004062466774695],[121.45581604391157,25.004538839893623],[121.45632847098732,25.004998438013942],[121.46248947142858,25.011992028571424],[121.46424610000003,25.013768549999995],[121.46564005,25.0147642],[121.4660051784867,25.01490181310904],[121.46601555576947,25.015022834144368],[121.46614667040595,25.014999702820962],[121.46615600715903,25.015120373248564],[121.46692038571429,25.015641128571428],[121.46704632895012,25.015630141192734],[121.46731502178325,25.015889990813772],[121.4680762452292,25.016313872573853],[121.48097312653621,25.0254578303861],[121.4820112046604,25.025951452454606],[121.48321132393782,25.026344815737364],[121.48838539067117,25.027156427198747],[121.48991085132306,25.02765711223447],[121.49120912348957,25.02847921519783],[121.49548083788298,25.032285159643646],[121.49628756125888,25.032797565251283],[121.49745377566656,25.03307821891538],[121.50015117756713,25.03313795624373],[121.50350965594332,25.033488867077953],[121.50444501240254,25.03372092914616],[121.50524738194277,25.03417476075533],[121.50588941033405,25.034877266013094],[121.50631564045035,25.035873138389864],[121.50941595216408,25.046806821990877],[121.5097630948219,25.047349243682493],[121.51026285975023,25.047827094497027],[121.51067099260128,25.048082583506915],[121.51139336007704,25.048333016478537],[121.51222546134646,25.048446153287294],[121.51358892778148,25.048272211886975],[121.51600250494025,25.0477080138717],[121.52156346666666,25.046864266666667],[121.52618590715775,25.04579797829233],[121.5276074516703,25.045706119503393],[121.53049042233619,25.045763648879728],[121.53183048003993,25.045656642025843],[121.53530226150446,25.044779970555435],[121.54090879093094,25.04449448837551],[121.54536523464432,25.0449674063726],[121.54696296099708,25.044989345877447],[121.55216730293701,25.044390561232838],[121.5538444010551,25.04434791461234],[121.55607525779672,25.044701042817334],[121.55807822256672,25.045143992171848],[121.55925034244694,25.045565501984424],[121.5631069462332,25.047268880772535],[121.5652974,25.0480595],[121.5670392669456,25.048580511133082],[121.5697579,25.04914854285714],[121.57093322857142,25.049272957142854],[121.57242161999999,25.04929768],[121.57731988515982,25.049163534886656],[121.58158753333333,25.049194800000002],[121.59932701894736,25.052034802105265],[121.60229109945406,25.052382634507403],[121.60452088461538,25.052897515384615],[121.61042504827586,25.053755448275858],[121.61261337218933,25.05394552010855],[121.6147022909091,25.054259027272725],[121.62066864049176,25.05458045763951]]}}]}