{"type":"FeatureCollection","features":[{"type":"Feature","properties":{"way_id":845503271,"route_colors":[],"route_refs":["2","1"]},"geometry":{"type":"LineString","coordinates":[[103.6080382,52.7711155],[103.6088258,52.7715083],[103.6114238,52.7727503],[103.6163113,52.7751005],[103.6197513,52.7767582],[103.6198349,52.7767985],[103.6199135,52.7768268],[103.6200004,52.7768477],[103.6201121,52.7768619],[103.6202128,52.7768677],[103.6202776,52.7768682],[103.6203134,52.7768685],[103.6204031,52.7768602],[103.6204886,52.7768452],[103.6205727,52.7768202],[103.6206513,52.7767901],[103.620781,52.7767209],[103.6209672,52.7766016]]}},{"type":"Feature","properties":{"way_id":261546082,"route_colors":[],"route_refs":["2","1"]},"geometry":{"type":"LineString","coordinates":[[103.6209672,52.7766016],[103.6210801,52.7765259],[103.621792,52.7760593],[103.623166,52.7752671],[103.6249739,52.7742189],[103.6278546,52.7725255],[103.6303969,52.7710581],[103.632494,52.7697828],[103.6353952,52.7681285]]}},{"type":"Feature","properties":{"way_id":849163829,"route_colors":[],"route_refs":["2","1"]},"geometry":{"type":"LineString","coordinates":[[103.6353952,52.7681285],[103.6360765,52.7677363],[103.6374873,52.7668908],[103.6381147,52.7665026],[103.638304,52.7663504],[103.6388248,52.7658953],[103.6389344,52.7658034],[103.6400244,52.7649967]]}},{"type":"Feature","properties":{"way_id":261546064,"route_colors":[],"route_refs":["2","4","1"]},"geometry":{"type":"LineString","coordinates":[[103.6400244,52.7649967],[103.6408931,52.7643719],[103.6421666,52.7634562],[103.6432458,52.7626505],[103.6437904,52.7622653],[103.6442871,52.7619225],[103.6447903,52.7615829],[103.6450594,52.7614012],[103.6451192,52.7613452],[103.6451414,52.7612733],[103.6451497,52.761158],[103.6451768,52.7610748],[103.6452232,52.7609885],[103.6452666,52.7609404],[103.6456459,52.7606907],[103.6467772,52.7598469],[103.6475522,52.7592964],[103.6486124,52.758551],[103.6487319,52.758467]]}},{"type":"Feature","properties":{"way_id":261546075,"route_colors":[],"route_refs":["2","4"]},"geometry":{"type":"LineString","coordinates":[[103.6487319,52.758467],[103.6488919,52.7583527],[103.6491446,52.7581684],[103.6492629,52.7580864],[103.6493884,52.7579929]]}},{"type":"Feature","properties":{"way_id":845503272,"route_colors":[],"route_refs":["2","3","4"]},"geometry":{"type":"LineString","coordinates":[[103.6493884,52.7579929],[103.6501401,52.7574104],[103.6512815,52.7566077],[103.6518693,52.7561857],[103.6521632,52.7559747],[103.6523259,52.7558579],[103.6560465,52.7532301],[103.6564343,52.752958],[103.6566538,52.752804],[103.6567889,52.7527268],[103.6577175,52.7523455],[103.6580438,52.7522167],[103.6592475,52.7518165],[103.6610231,52.751229],[103.6615861,52.7510445],[103.6618981,52.7509423],[103.6646619,52.7499957],[103.6650382,52.7498078],[103.6652088,52.749657],[103.6656756,52.7488326],[103.6657218,52.7487511],[103.6658356,52.7485501],[103.6659482,52.7483513],[103.667006,52.7466157],[103.6671338,52.7463964],[103.6671864,52.7463083],[103.6673189,52.7460807],[103.6683227,52.7443557],[103.6685708,52.7439278],[103.6687209,52.743669],[103.6687548,52.7434808],[103.6687701,52.7427119],[103.668781,52.7417799],[103.6687809,52.7411171],[103.6688235,52.7408514],[103.6689039,52.7404579],[103.668972,52.7401806],[103.6692535,52.7392495],[103.6693049,52.7390588],[103.6693294,52.7388518],[103.669287,52.7386497],[103.6691965,52.7384265],[103.6691061,52.7382967],[103.6689687,52.7381736],[103.6688101,52.7380404],[103.6687006,52.7379693],[103.6685871,52.7379034],[103.6683588,52.73778],[103.6678629,52.7375102],[103.6658771,52.7364633],[103.6638945,52.7354239],[103.6630173,52.7349523],[103.6628893,52.7348835],[103.6626112,52.7347347],[103.662294,52.7345623],[103.6620594,52.7344386],[103.6619488,52.7343803],[103.6614127,52.7341118],[103.660871,52.7338237],[103.6601942,52.7334612],[103.6597854,52.7332529],[103.6594626,52.7331095],[103.6579659,52.7325096],[103.6570534,52.7321491],[103.6569058,52.7320894],[103.6564581,52.7319084],[103.6561342,52.7317805],[103.6553789,52.7314751],[103.651408,52.7298831],[103.6513013,52.7298353],[103.6512121,52.7297897],[103.6511552,52.7297353],[103.6511318,52.7296587],[103.6511434,52.729637],[103.6511595,52.7295919],[103.6511902,52.7295503]]}},{"type":"Feature","properties":{"way_id":261546069,"route_colors":[],"route_refs":["2","3","4"]},"geometry":{"type":"LineString","coordinates":[[103.6511902,52.7295503],[103.6512313,52.729518],[103.651274,52.7294956],[103.6513343,52.7294776],[103.6513863,52.7294719],[103.6514781,52.7294715],[103.6515686,52.7294813],[103.6516331,52.7295051],[103.651693,52.7295335],[103.6517354,52.7295706],[103.6517763,52.7296372],[103.6518026,52.7296848],[103.6518567,52.7298494],[103.6518782,52.7299013],[103.651902,52.7299658],[103.6519565,52.730029],[103.6519895,52.7300512],[103.6520909,52.7301044],[103.6554165,52.7314426],[103.6561751,52.7317458],[103.6564932,52.7318737],[103.656807,52.7319991],[103.6569429,52.7320532],[103.6580039,52.7324758],[103.6594972,52.7330778],[103.65982,52.7332191],[103.66024,52.7334301],[103.6609157,52.7337926],[103.6614541,52.7340801],[103.6619862,52.7343495],[103.6620977,52.734405],[103.6623264,52.734519],[103.6626492,52.7346914],[103.6629295,52.7348423],[103.6630678,52.7349163],[103.6639504,52.7353887],[103.665934,52.7364302],[103.6679523,52.7374953],[103.6681947,52.7376251],[103.6684113,52.7377394],[103.6685286,52.7378023],[103.668647,52.7378693],[103.6687609,52.7379423],[103.6688737,52.7380133],[103.6690346,52.7381465],[103.6691641,52.7382791],[103.6692602,52.7384096],[103.6693529,52.7386355],[103.669402,52.7388525],[103.6693741,52.7390622],[103.6693239,52.7392556],[103.6690458,52.740186],[103.6690323,52.74023],[103.6689776,52.7404633],[103.6688916,52.7408521],[103.6688425,52.7411199],[103.6688402,52.7417778],[103.6688313,52.7427123],[103.6688142,52.7430279],[103.6688132,52.7434736],[103.6687715,52.7436684],[103.6683649,52.7443651],[103.6674291,52.7459713],[103.6673591,52.7460914],[103.6671753,52.746407],[103.6670484,52.7466248],[103.6659885,52.7483595],[103.665876,52.7485589],[103.6657633,52.7487585],[103.6652489,52.7496697],[103.6650717,52.7498264],[103.6646871,52.7500184],[103.6621078,52.7509101],[103.6619119,52.7509754],[103.6616137,52.7510749],[103.6611805,52.7512194],[103.6592736,52.7518431],[103.6580661,52.7522403],[103.6579484,52.7522869],[103.6577397,52.7523695],[103.656822,52.7527461],[103.6566838,52.7528263],[103.6560831,52.753251],[103.6526608,52.7556639],[103.6523602,52.7558754],[103.6521974,52.7559923],[103.6513157,52.7566254],[103.6501741,52.7574281],[103.6495153,52.7579411],[103.6494229,52.758013]]}},{"type":"Feature","properties":{"way_id":261546067,"route_colors":[],"route_refs":["2","4"]},"geometry":{"type":"LineString","coordinates":[[103.6494229,52.758013],[103.6491854,52.7581821],[103.6487719,52.7584795]]}},{"type":"Feature","properties":{"way_id":261546063,"route_colors":[],"route_refs":["2","4","1"]},"geometry":{"type":"LineString","coordinates":[[103.6487719,52.7584795],[103.6475868,52.7593137],[103.6468117,52.7598643],[103.6456799,52.7607085],[103.645432,52.7608716],[103.6453052,52.7609551],[103.645263,52.761007],[103.6452208,52.7610815],[103.6451926,52.7611576],[103.6451749,52.7612703],[103.6451511,52.7613589],[103.645095,52.7614179],[103.6443208,52.7619405],[103.6438274,52.7622832],[103.6432802,52.7626679],[103.6422012,52.7634735],[103.6409271,52.7643897],[103.6406208,52.764616]]}},{"type":"Feature","properties":{"way_id":849163830,"route_colors":[],"route_refs":["2","1"]},"geometry":{"type":"LineString","coordinates":[[103.6406208,52.764616],[103.6401226,52.7649842],[103.6389966,52.7658276],[103.6388947,52.7659163],[103.6383742,52.7663698],[103.6381573,52.7665373],[103.6375193,52.7669099],[103.6361151,52.7677596]]}},{"type":"Feature","properties":{"way_id":261546086,"route_colors":[],"route_refs":["2","1"]},"geometry":{"type":"LineString","coordinates":[[103.6361151,52.7677596],[103.6352559,52.7682645],[103.6325257,52.769802],[103.6304284,52.7710775],[103.6274808,52.7727906],[103.625005,52.7742385],[103.6231972,52.7752867],[103.6218239,52.7760785],[103.6211203,52.7765518],[103.621014,52.7766258]]}},{"type":"Feature","properties":{"way_id":120502798,"route_colors":[],"route_refs":["2","1"]},"geometry":{"type":"LineString","coordinates":[[103.621014,52.7766258],[103.6209354,52.7766842],[103.6208651,52.7767517],[103.6208086,52.7768377],[103.6207741,52.7769295],[103.6207603,52.7770371],[103.6207644,52.7771372],[103.6207851,52.7772248],[103.6208223,52.7773074],[103.6208734,52.7773916],[103.6209327,52.7774667],[103.621014,52.7775326],[103.6211285,52.7776044],[103.6246247,52.7793046],[103.6247695,52.7793713],[103.6249253,52.779428],[103.6251074,52.7794889],[103.6252715,52.7795407],[103.6254039,52.7795941],[103.6269472,52.780359],[103.6271554,52.78046],[103.627234,52.7804917],[103.6273016,52.78051],[103.6273816,52.780525],[103.6274602,52.78053],[103.6275278,52.7805275],[103.6276009,52.7805175],[103.6278891,52.7804683],[103.6279871,52.7804525],[103.628067,52.780445],[103.6281319,52.7804458],[103.6281981,52.7804533],[103.6282629,52.7804691],[103.6283263,52.7804933],[103.6283732,52.7805192],[103.6284242,52.7805617],[103.628456,52.7806051],[103.6284629,52.7806443],[103.6284615,52.7806852],[103.6284518,52.7807269],[103.6284229,52.7807695],[103.6283829,52.780807],[103.628336,52.7808362],[103.6282725,52.7808587],[103.6281994,52.7808746],[103.6281167,52.7808829],[103.6280408,52.7808821],[103.627965,52.7808721],[103.6279002,52.7808571],[103.6278284,52.7808287],[103.6275104,52.7806768]]}},{"type":"Feature","properties":{"way_id":1185965690,"route_colors":[],"route_refs":["2","1"]},"geometry":{"type":"LineString","coordinates":[[103.6275104,52.7806768],[103.6269113,52.7803907],[103.6253611,52.7796216],[103.6252384,52.7795699],[103.6250798,52.7795198],[103.6248909,52.7794572],[103.6247295,52.7793972],[103.6245805,52.7793288],[103.6210885,52.7776302]]}},{"type":"Feature","properties":{"way_id":120502784,"route_colors":[],"route_refs":["2","1"]},"geometry":{"type":"LineString","coordinates":[[103.6210885,52.7776302],[103.6208141,52.7774701],[103.6205534,52.777269],[103.6203479,52.7771213],[103.6201104,52.7769744],[103.6198004,52.7768218]]}},{"type":"Feature","properties":{"way_id":261546076,"route_colors":[],"route_refs":["2","1"]},"geometry":{"type":"LineString","coordinates":[[103.6198004,52.7768218],[103.6195269,52.7766907],[103.6162703,52.7751288],[103.6113813,52.7727845],[103.6086579,52.7714835],[103.6073942,52.7708569],[103.6073128,52.7707993],[103.6072797,52.7707484],[103.6072631,52.7706983],[103.6072645,52.7706474],[103.6072838,52.7706015],[103.6073238,52.770559],[103.6073804,52.7705206],[103.6074535,52.7704947],[103.6075335,52.7704814],[103.6076135,52.7704814],[103.607699,52.7704906],[103.6077679,52.7705123],[103.6078258,52.7705431],[103.6078838,52.7705865],[103.6079086,52.7706333],[103.6079141,52.770685],[103.6079031,52.7707459],[103.6078865,52.7708135],[103.60787,52.7708886],[103.6078714,52.7709361],[103.6078851,52.7709795],[103.6079224,52.7710304],[103.6079693,52.7710705],[103.6080382,52.7711155]]}},{"type":"Feature","properties":{"way_id":32123067,"route_colors":[],"route_refs":["3"]},"geometry":{"type":"LineString","coordinates":[[103.6494229,52.758013],[103.6493443,52.7580539],[103.6492629,52.7580864],[103.6491912,52.7581056],[103.6490885,52.7581287],[103.6490312,52.758129],[103.6489443,52.7581307],[103.6489022,52.7581281],[103.6488602,52.7581256],[103.6488013,52.7581186],[103.6487554,52.7581131],[103.6485413,52.7580869]]}},{"type":"Feature","properties":{"way_id":261546072,"route_colors":[],"route_refs":["3","1"]},"geometry":{"type":"LineString","coordinates":[[103.6485413,52.7580869],[103.6479741,52.7580018],[103.6469819,52.7578761],[103.6448856,52.7576001],[103.6436222,52.7574765],[103.6424892,52.7573656],[103.6420691,52.7573107],[103.641528,52.7572399],[103.6398911,52.7570042],[103.639775,52.7569837],[103.6395808,52.7569494],[103.6392567,52.7568729],[103.6389867,52.7567791],[103.638768,52.7567032],[103.6386071,52.7566328],[103.6383154,52.7564901],[103.6374301,52.7560569],[103.6367968,52.7557316],[103.6364017,52.7555287],[103.6352132,52.7549275],[103.6339153,52.7542429],[103.6334976,52.7540389],[103.6333245,52.7539544],[103.6330798,52.7538349],[103.6326819,52.7537191],[103.632476,52.7536871],[103.6322886,52.7536737],[103.6319077,52.7536658],[103.6315064,52.7536785],[103.6310865,52.7536742],[103.6307233,52.7536473],[103.6304722,52.7535864],[103.6293694,52.7530621],[103.6291147,52.7529321],[103.6290626,52.7529055],[103.628037,52.7523821],[103.6277954,52.7522224],[103.6277675,52.7521909],[103.6277257,52.7521439],[103.6277014,52.752047]]}},{"type":"Feature","properties":{"way_id":1305013358,"route_colors":[],"route_refs":["3","1"]},"geometry":{"type":"LineString","coordinates":[[103.6277014,52.752047],[103.6277324,52.7519604],[103.6277937,52.7518714],[103.6279233,52.7517684],[103.6279768,52.7517259],[103.6310354,52.7495336],[103.6327993,52.7483167],[103.6330409,52.7481449]]}},{"type":"Feature","properties":{"way_id":261546561,"route_colors":[],"route_refs":["3","1"]},"geometry":{"type":"LineString","coordinates":[[103.6330733,52.7481659],[103.6328366,52.7483342],[103.6310696,52.7495512],[103.627975,52.7517757],[103.6279618,52.7517874],[103.6278343,52.7518996],[103.6277977,52.7519616],[103.6277611,52.7520235],[103.6277782,52.7521175],[103.6278105,52.7521589],[103.6278408,52.7521978],[103.6280801,52.7523642],[103.6291545,52.7529023],[103.6292589,52.7529546],[103.6300059,52.7533084],[103.6304853,52.7535394],[103.6307717,52.7536094],[103.6310942,52.7536329],[103.6320418,52.753626],[103.6323168,52.7536382],[103.6325682,52.7536565],[103.6327519,52.7536878],[103.6331088,52.7537902],[103.6333668,52.7539165],[103.6335494,52.7540059],[103.6339531,52.7542104],[103.6352887,52.7549122],[103.6364401,52.7555018],[103.6368436,52.7557101],[103.6374907,52.756044],[103.6383542,52.7564608],[103.638649,52.7566031],[103.6388116,52.756673],[103.6390189,52.756745],[103.6392801,52.7568357],[103.6397825,52.7569409],[103.6400004,52.756973],[103.6415225,52.7571973],[103.6421251,52.7572769],[103.6425049,52.757327],[103.6436244,52.7574334],[103.6449012,52.7575547],[103.6483948,52.7580261],[103.6485692,52.7580539]]}},{"type":"Feature","properties":{"way_id":261546083,"route_colors":[],"route_refs":["3"]},"geometry":{"type":"LineString","coordinates":[[103.6485692,52.7580539],[103.6487637,52.7580831],[103.6488392,52.7580909],[103.6488685,52.7580939],[103.6489581,52.7580973],[103.6490694,52.7580924],[103.6491305,52.7580864],[103.649205,52.7580714],[103.649307,52.7580388],[103.6493884,52.7579929]]}},{"type":"Feature","properties":{"way_id":120502786,"route_colors":[],"route_refs":["1"]},"geometry":{"type":"LineString","coordinates":[[103.6485692,52.7580539],[103.6486809,52.7580814],[103.6487554,52.7581131],[103.6487836,52.7581306],[103.6488092,52.7581465],[103.6488437,52.7581757],[103.648874,52.75822],[103.6488864,52.7582634],[103.6488947,52.7583084],[103.6488919,52.7583527],[103.6488423,52.7584153],[103.6487719,52.7584795]]}},{"type":"Feature","properties":{"way_id":120502785,"route_colors":[],"route_refs":["1"]},"geometry":{"type":"LineString","coordinates":[[103.6487319,52.758467],[103.648805,52.7584044],[103.648834,52.7583568],[103.6488423,52.7583134],[103.6488368,52.7582634],[103.6488202,52.758225],[103.648805,52.7582052],[103.6487926,52.7581891],[103.648754,52.758153],[103.6487016,52.7581231],[103.6486382,52.7581014],[103.6485413,52.7580869]]}}]}