{"type":"FeatureCollection","metro_system":{"continent":"asia","country":"India","city":"Pune","official_website":null,"official_map":"https://en.wikipedia.org/wiki/Pune_Metro","wikipedia":"en:Pune Metro","wiki":true,"wikipedia_zh":"zh:浦那地鐵","line_count":2,"segment_count":2,"station_count":28,"modes":["metro"],"audit":{"strategies_tried":[],"passed":true,"checks":[{"id":"system_exists","ok":true,"detail":"matched OSM system metro-maps/asia/india/as-ind-pune/as-ind-pune.geojson","level":"error"},{"id":"has_lines","ok":true,"detail":"2 lines","level":"error"},{"id":"has_stations","ok":true,"detail":"28 stations","level":"error"},{"id":"station_count_info","ok":true,"detail":"OSM 28 站（wiki List 記 28，計法含轉乘重複，僅參考）","level":"warn"},{"id":"stations_have_lines","ok":true,"detail":"28/28 站皆有所屬路線","level":"error"},{"id":"line_geometry_stations","ok":true,"detail":"29 個折點/端點皆為車站","level":"error"},{"id":"route_stations_match_geometry","ok":true,"detail":"各線車站列表與圖面一致","level":"error"},{"id":"interchange_rule","ok":true,"detail":"所有車站紅/藍點符合骨架＋路線色規則（藍＝端點、紅＝交叉）","level":"error"},{"id":"stations_named","ok":true,"detail":"28/28 站皆有名稱","level":"error"},{"id":"station_order","ok":true,"detail":"所有線路站序合理","level":"warn"},{"id":"line_wiki_stations","ok":true,"detail":"各線站數與 wiki 線路條目相符（營運中站數）","level":"error"}],"reasons":[],"warnings":[],"audited_at":"2026-07-27T02:38:22.597Z"}},"features":[{"type":"Feature","properties":{"seg_id":"pune-0","routes":[{"route_id":"rm13916711","route_name":"Aqua Line","route_name_local":"Aqua Line: Vanaz ⇔ Ramwadi","route_name_en":"Aqua Line","route_ref":"2","route_color":"#42d4f4","wikipedia":"en:Aqua Line (Pune Metro)","osm_route_ids":[13916704,13916710],"status":null,"order_suspect":0,"span_suspect":0,"stations":[{"station_id":"n11699340657","station_name":"Ramwadi"},{"station_id":"n11699340655","station_name":"Kalyani Nagar"},{"station_id":"n11699340652","station_name":"Yerwada"},{"station_id":"n11699340649","station_name":"Bund Garden"},{"station_id":"n7944584984","station_name":"Ruby Hall Clinic"},{"station_id":"n1494691943","station_name":"Pune Railway Station"},{"station_id":"n1532296305","station_name":"Mangalwar Peth"},{"station_id":"n11097510274","station_name":"District Court"},{"station_id":"n7944584980","station_name":"PMC Bhavan"},{"station_id":"n11097527718","station_name":"Chhatrapati Sambhaji Udyan"},{"station_id":"n11097527725","station_name":"Deccan Gymkhana"},{"station_id":"n9599243857","station_name":"Garware College"},{"station_id":"n9599243856","station_name":"SNDT College"},{"station_id":"n9599243855","station_name":"Paud Phata"},{"station_id":"n9599243854","station_name":"Anandnagar"},{"station_id":"n9599243853","station_name":"Vanaz"}]}],"route_count":1,"route_refs":["2"],"route_colors":["#42d4f4"],"city":"Pune","country":"India"},"geometry":{"type":"MultiLineString","coordinates":[[[73.90855583333332,18.557032333333336],[73.9056926,18.544465],[73.88664323333334,18.5453066],[73.88343713333335,18.540590833333333],[73.8777476,18.5327201],[73.87253453333334,18.529753566666667],[73.86507186666667,18.530075166666666],[73.85716765714287,18.527006885714286],[73.853305025,18.52272245],[73.84738906666666,18.520090133333333],[73.84444316666666,18.516447466666666],[73.8380509,18.5119887],[73.8287807,18.5073569],[73.82214316666666,18.508885266666667],[73.8140758,18.509571166666667],[73.8052159,18.5071906]]]}},{"type":"Feature","properties":{"seg_id":"pune-1","routes":[{"route_id":"rm13917129","route_name":"Purple Line: PCMC Bhavan ⇔ Phugewadi & Civil Court ⇔ Shivaji Nagar","route_name_local":"Purple Line: PCMC Bhavan ⇔ Phugewadi & Civil Court ⇔ Shivaji Nagar","route_name_en":null,"route_ref":"1","route_color":"#911eb4","wikipedia":"en:Purple Line (Pune Metro)","osm_route_ids":[13917122,13917123],"status":null,"order_suspect":0,"span_suspect":0,"stations":[{"station_id":"n7944597710","station_name":"Swargate"},{"station_id":"n12211960101","station_name":"Mahatma Phule Mandai"},{"station_id":"n12211880200","station_name":"Kasba Peth"},{"station_id":"n11097510274","station_name":"District Court"},{"station_id":"n11097510271","station_name":"Shivaji Nagar"},{"station_id":"n13644302877","station_name":"Khadki"},{"station_id":"n7944597711","station_name":"Bopodi"},{"station_id":"n7944584975","station_name":"Dapodi"},{"station_id":"n7944584963","station_name":"Phugewadi"},{"station_id":"n7944597699","station_name":"Kasarwadi"},{"station_id":"n7944597706","station_name":"Nashik Phata"},{"station_id":"n7944597690","station_name":"Sant Tukaram Nagar"},{"station_id":"n9572921031","station_name":"PCMC Bhavan"}]}],"route_count":1,"route_refs":["1"],"route_colors":["#911eb4"],"city":"Pune","country":"India"},"geometry":{"type":"MultiLineString","coordinates":[[[73.85746203333333,18.499741833333335],[73.85701610000001,18.512911199999998],[73.8596209,18.521386533333335],[73.85716765714287,18.527006885714286],[73.85009310000001,18.53222675],[73.84208403333334,18.562262399999998],[73.83810520000002,18.5696561],[73.8337717,18.583748166666666],[73.83114646666667,18.591106233333335],[73.82726286666667,18.5996205],[73.82009663333334,18.6093041],[73.81574426666667,18.614524266666667],[73.80328713333334,18.62931706666667]]]}},{"type":"Feature","properties":{"station_id":"n7944584963","station_name":"Phugewadi","station_name_local":"Phugewadi","station_name_en":null,"city":"Pune","country":"India","lines":["1"],"wikipedia":null,"merged_from":3,"merged_names":null,"is_terminus":false,"routes":[{"ref":"1","name":"Purple Line: PCMC Bhavan ⇔ Phugewadi & Civil Court ⇔ Shivaji Nagar","route_color":"#911eb4"}],"pass_count":1,"station_degree":2,"codes":null,"is_interchange":false,"station_role":"normal"},"geometry":{"type":"Point","coordinates":[73.83114646666667,18.591106233333335]},"__memberLines":{}},{"type":"Feature","properties":{"station_id":"n7944584975","station_name":"Dapodi","station_name_local":"Dapodi","station_name_en":null,"city":"Pune","country":"India","lines":["1"],"wikipedia":null,"merged_from":3,"merged_names":null,"is_terminus":false,"routes":[{"ref":"1","name":"Purple Line: PCMC Bhavan ⇔ Phugewadi & Civil Court ⇔ Shivaji Nagar","route_color":"#911eb4"}],"pass_count":1,"station_degree":2,"codes":null,"is_interchange":false,"station_role":"normal"},"geometry":{"type":"Point","coordinates":[73.8337717,18.583748166666666]},"__memberLines":{}},{"type":"Feature","properties":{"station_id":"n7944584980","station_name":"PMC Bhavan","station_name_local":"PMC Bhavan","station_name_en":null,"city":"Pune","country":"India","lines":["2"],"wikipedia":null,"merged_from":4,"merged_names":null,"is_terminus":false,"routes":[{"ref":"2","name":"Aqua Line","route_color":"#42d4f4"}],"pass_count":1,"station_degree":2,"codes":null,"is_interchange":false,"station_role":"normal"},"geometry":{"type":"Point","coordinates":[73.853305025,18.52272245]},"__memberLines":{}},{"type":"Feature","properties":{"station_id":"n7944584984","station_name":"Ruby Hall Clinic","station_name_local":"Ruby Hall Clinic","station_name_en":null,"city":"Pune","country":"India","lines":["2"],"wikipedia":null,"merged_from":3,"merged_names":null,"is_terminus":false,"routes":[{"ref":"2","name":"Aqua Line","route_color":"#42d4f4"}],"pass_count":1,"station_degree":2,"codes":null,"is_interchange":false,"station_role":"normal"},"geometry":{"type":"Point","coordinates":[73.8777476,18.5327201]},"__memberLines":{}},{"type":"Feature","properties":{"station_id":"n11097510274","station_name":"District Court","station_name_local":"District Court (Purple Line)","station_name_en":"District Court","city":"Pune","country":"India","lines":["1","2"],"wikipedia":null,"merged_from":7,"merged_names":null,"is_terminus":false,"routes":[{"ref":"1","name":"Purple Line: PCMC Bhavan ⇔ Phugewadi & Civil Court ⇔ Shivaji Nagar","route_color":"#911eb4"},{"ref":"2","name":"Aqua Line","route_color":"#42d4f4"}],"pass_count":2,"station_degree":4,"codes":null,"is_interchange":true,"station_role":"interchange"},"geometry":{"type":"Point","coordinates":[73.85716765714287,18.527006885714286]},"__memberLines":{}},{"type":"Feature","properties":{"station_id":"n7944597690","station_name":"Sant Tukaram Nagar","station_name_local":"Sant Tukaram Nagar","station_name_en":null,"city":"Pune","country":"India","lines":["1"],"wikipedia":null,"merged_from":3,"merged_names":null,"is_terminus":false,"routes":[{"ref":"1","name":"Purple Line: PCMC Bhavan ⇔ Phugewadi & Civil Court ⇔ Shivaji Nagar","route_color":"#911eb4"}],"pass_count":1,"station_degree":2,"codes":null,"is_interchange":false,"station_role":"normal"},"geometry":{"type":"Point","coordinates":[73.81574426666667,18.614524266666667]},"__memberLines":{}},{"type":"Feature","properties":{"station_id":"n7944597699","station_name":"Kasarwadi","station_name_local":"Kasarwadi","station_name_en":null,"city":"Pune","country":"India","lines":["1"],"wikipedia":null,"merged_from":3,"merged_names":null,"is_terminus":false,"routes":[{"ref":"1","name":"Purple Line: PCMC Bhavan ⇔ Phugewadi & Civil Court ⇔ Shivaji Nagar","route_color":"#911eb4"}],"pass_count":1,"station_degree":2,"codes":null,"is_interchange":false,"station_role":"normal"},"geometry":{"type":"Point","coordinates":[73.82726286666667,18.5996205]},"__memberLines":{}},{"type":"Feature","properties":{"station_id":"n7944597706","station_name":"Nashik Phata","station_name_local":"Nashik Phata","station_name_en":null,"city":"Pune","country":"India","lines":["1"],"wikipedia":null,"merged_from":3,"merged_names":null,"is_terminus":false,"routes":[{"ref":"1","name":"Purple Line: PCMC Bhavan ⇔ Phugewadi & Civil Court ⇔ Shivaji Nagar","route_color":"#911eb4"}],"pass_count":1,"station_degree":2,"codes":null,"is_interchange":false,"station_role":"normal"},"geometry":{"type":"Point","coordinates":[73.82009663333334,18.6093041]},"__memberLines":{}},{"type":"Feature","properties":{"station_id":"n7944597710","station_name":"Swargate","station_name_local":"Swargate","station_name_en":"Swargate","city":"Pune","country":"India","lines":["1"],"wikipedia":"en:Swargate metro station","merged_from":3,"merged_names":null,"is_terminus":true,"routes":[{"ref":"1","name":"Purple Line: PCMC Bhavan ⇔ Phugewadi & Civil Court ⇔ Shivaji Nagar","route_color":"#911eb4"}],"pass_count":1,"station_degree":1,"codes":null,"is_interchange":false,"station_role":"terminus"},"geometry":{"type":"Point","coordinates":[73.85746203333333,18.499741833333335]},"__memberLines":{}},{"type":"Feature","properties":{"station_id":"n7944597711","station_name":"Bopodi","station_name_local":"Bopodi","station_name_en":null,"city":"Pune","country":"India","lines":["1"],"wikipedia":null,"merged_from":3,"merged_names":null,"is_terminus":false,"routes":[{"ref":"1","name":"Purple Line: PCMC Bhavan ⇔ Phugewadi & Civil Court ⇔ Shivaji Nagar","route_color":"#911eb4"}],"pass_count":1,"station_degree":2,"codes":null,"is_interchange":false,"station_role":"normal"},"geometry":{"type":"Point","coordinates":[73.83810520000002,18.5696561]},"__memberLines":{}},{"type":"Feature","properties":{"station_id":"n9599243853","station_name":"Vanaz","station_name_local":"Vanaz","station_name_en":null,"city":"Pune","country":"India","lines":["2"],"wikipedia":null,"merged_from":3,"merged_names":null,"is_terminus":true,"routes":[{"ref":"2","name":"Aqua Line","route_color":"#42d4f4"}],"pass_count":1,"station_degree":1,"codes":null,"is_interchange":false,"station_role":"terminus"},"geometry":{"type":"Point","coordinates":[73.8052159,18.5071906]},"__memberLines":{}},{"type":"Feature","properties":{"station_id":"n9599243854","station_name":"Anandnagar","station_name_local":"Anandnagar","station_name_en":null,"city":"Pune","country":"India","lines":["2"],"wikipedia":null,"merged_from":3,"merged_names":null,"is_terminus":false,"routes":[{"ref":"2","name":"Aqua Line","route_color":"#42d4f4"}],"pass_count":1,"station_degree":2,"codes":null,"is_interchange":false,"station_role":"normal"},"geometry":{"type":"Point","coordinates":[73.8140758,18.509571166666667]},"__memberLines":{}},{"type":"Feature","properties":{"station_id":"n9599243855","station_name":"Paud Phata","station_name_local":"Paud Phata","station_name_en":null,"city":"Pune","country":"India","lines":["2"],"wikipedia":null,"merged_from":3,"merged_names":null,"is_terminus":false,"routes":[{"ref":"2","name":"Aqua Line","route_color":"#42d4f4"}],"pass_count":1,"station_degree":2,"codes":null,"is_interchange":false,"station_role":"normal"},"geometry":{"type":"Point","coordinates":[73.82214316666666,18.508885266666667]},"__memberLines":{}},{"type":"Feature","properties":{"station_id":"n9599243856","station_name":"SNDT College","station_name_local":"SNDT College","station_name_en":null,"city":"Pune","country":"India","lines":["2"],"wikipedia":null,"merged_from":3,"merged_names":null,"is_terminus":false,"routes":[{"ref":"2","name":"Aqua Line","route_color":"#42d4f4"}],"pass_count":1,"station_degree":2,"codes":null,"is_interchange":false,"station_role":"normal"},"geometry":{"type":"Point","coordinates":[73.8287807,18.5073569]},"__memberLines":{}},{"type":"Feature","properties":{"station_id":"n9599243857","station_name":"Garware College","station_name_local":"Garware College","station_name_en":null,"city":"Pune","country":"India","lines":["2"],"wikipedia":null,"merged_from":3,"merged_names":null,"is_terminus":false,"routes":[{"ref":"2","name":"Aqua Line","route_color":"#42d4f4"}],"pass_count":1,"station_degree":2,"codes":null,"is_interchange":false,"station_role":"normal"},"geometry":{"type":"Point","coordinates":[73.8380509,18.5119887]},"__memberLines":{}},{"type":"Feature","properties":{"station_id":"n9572921031","station_name":"PCMC Bhavan / Pimpri Chinchwad Municipal Corporation (PCMC)","station_name_local":"PCMC Bhavan / Pimpri Chinchwad Municipal Corporation (PCMC)","station_name_en":null,"city":"Pune","country":"India","lines":["1"],"wikipedia":null,"merged_from":3,"merged_names":[{"station_id":"n9572921031","station_name":"PCMC Bhavan","station_name_local":"PCMC Bhavan","lines":["1"]},{"station_id":"n10214268972","station_name":"Pimpri Chinchwad Municipal Corporation (PCMC)","station_name_local":"Pimpri Chinchwad Municipal Corporation (PCMC)","lines":["1"]}],"is_terminus":true,"routes":[{"ref":"1","name":"Purple Line: PCMC Bhavan ⇔ Phugewadi & Civil Court ⇔ Shivaji Nagar","route_color":"#911eb4"}],"pass_count":1,"station_degree":1,"codes":null,"is_interchange":false,"station_role":"terminus"},"geometry":{"type":"Point","coordinates":[73.80328713333334,18.62931706666667]},"__memberLines":{}},{"type":"Feature","properties":{"station_id":"n11097510271","station_name":"Shivaji Nagar","station_name_local":"Shivaji Nagar","station_name_en":"Shivaji Nagar","city":"Pune","country":"India","lines":["1"],"wikipedia":"en:Shivaji Nagar metro station (Pune)","merged_from":4,"merged_names":null,"is_terminus":false,"routes":[{"ref":"1","name":"Purple Line: PCMC Bhavan ⇔ Phugewadi & Civil Court ⇔ Shivaji Nagar","route_color":"#911eb4"}],"pass_count":1,"station_degree":2,"codes":null,"is_interchange":false,"station_role":"normal"},"geometry":{"type":"Point","coordinates":[73.85009310000001,18.53222675]},"__memberLines":{}},{"type":"Feature","properties":{"station_id":"n11097527718","station_name":"Chhatrapati Sambhaji Udyan","station_name_local":"Chhatrapati Sambhaji Udyan","station_name_en":null,"city":"Pune","country":"India","lines":["2"],"wikipedia":null,"merged_from":3,"merged_names":null,"is_terminus":false,"routes":[{"ref":"2","name":"Aqua Line","route_color":"#42d4f4"}],"pass_count":1,"station_degree":2,"codes":null,"is_interchange":false,"station_role":"normal"},"geometry":{"type":"Point","coordinates":[73.84738906666666,18.520090133333333]},"__memberLines":{}},{"type":"Feature","properties":{"station_id":"n11097527725","station_name":"Deccan Gymkhana","station_name_local":"Deccan Gymkhana","station_name_en":null,"city":"Pune","country":"India","lines":["2"],"wikipedia":null,"merged_from":3,"merged_names":null,"is_terminus":false,"routes":[{"ref":"2","name":"Aqua Line","route_color":"#42d4f4"}],"pass_count":1,"station_degree":2,"codes":null,"is_interchange":false,"station_role":"normal"},"geometry":{"type":"Point","coordinates":[73.84444316666666,18.516447466666666]},"__memberLines":{}},{"type":"Feature","properties":{"station_id":"n11699340649","station_name":"Bund Garden","station_name_local":"Bund Garden","station_name_en":null,"city":"Pune","country":"India","lines":["2"],"wikipedia":"en:Bund Garden metro station","merged_from":3,"merged_names":null,"is_terminus":false,"routes":[{"ref":"2","name":"Aqua Line","route_color":"#42d4f4"}],"pass_count":1,"station_degree":2,"codes":null,"is_interchange":false,"station_role":"normal"},"geometry":{"type":"Point","coordinates":[73.88343713333335,18.540590833333333]},"__memberLines":{}},{"type":"Feature","properties":{"station_id":"n11699340652","station_name":"Yerwada","station_name_local":"Yerwada","station_name_en":null,"city":"Pune","country":"India","lines":["2"],"wikipedia":"en:Yerwada metro station","merged_from":3,"merged_names":null,"is_terminus":false,"routes":[{"ref":"2","name":"Aqua Line","route_color":"#42d4f4"}],"pass_count":1,"station_degree":2,"codes":null,"is_interchange":false,"station_role":"normal"},"geometry":{"type":"Point","coordinates":[73.88664323333334,18.5453066]},"__memberLines":{}},{"type":"Feature","properties":{"station_id":"n11699340655","station_name":"Kalyani Nagar","station_name_local":"Kalyani Nagar","station_name_en":null,"city":"Pune","country":"India","lines":["2"],"wikipedia":"en:Kalyani Nagar metro station","merged_from":3,"merged_names":null,"is_terminus":false,"routes":[{"ref":"2","name":"Aqua Line","route_color":"#42d4f4"}],"pass_count":1,"station_degree":2,"codes":null,"is_interchange":false,"station_role":"normal"},"geometry":{"type":"Point","coordinates":[73.9056926,18.544465]},"__memberLines":{}},{"type":"Feature","properties":{"station_id":"n11699340657","station_name":"Ramwadi","station_name_local":"Ramwadi","station_name_en":"Ramwadi","city":"Pune","country":"India","lines":["2"],"wikipedia":"en:Ramwadi metro station","merged_from":3,"merged_names":null,"is_terminus":true,"routes":[{"ref":"2","name":"Aqua Line","route_color":"#42d4f4"}],"pass_count":1,"station_degree":1,"codes":null,"is_interchange":false,"station_role":"terminus"},"geometry":{"type":"Point","coordinates":[73.90855583333332,18.557032333333336]},"__memberLines":{}},{"type":"Feature","properties":{"station_id":"n12211880200","station_name":"Kasba Peth","station_name_local":"Kasba Peth कसबा पेठ","station_name_en":"Kasba Peth","city":"Pune","country":"India","lines":["1"],"wikipedia":"en:Kasba Peth metro station","merged_from":3,"merged_names":null,"is_terminus":false,"routes":[{"ref":"1","name":"Purple Line: PCMC Bhavan ⇔ Phugewadi & Civil Court ⇔ Shivaji Nagar","route_color":"#911eb4"}],"pass_count":1,"station_degree":2,"codes":null,"is_interchange":false,"station_role":"normal"},"geometry":{"type":"Point","coordinates":[73.8596209,18.521386533333335]},"__memberLines":{}},{"type":"Feature","properties":{"station_id":"n13644302877","station_name":"Khadki","station_name_local":"Khadki","station_name_en":null,"city":"Pune","country":"India","lines":["1"],"wikipedia":null,"merged_from":3,"merged_names":null,"is_terminus":false,"routes":[{"ref":"1","name":"Purple Line: PCMC Bhavan ⇔ Phugewadi & Civil Court ⇔ Shivaji Nagar","route_color":"#911eb4"}],"pass_count":1,"station_degree":2,"codes":null,"is_interchange":false,"station_role":"normal"},"geometry":{"type":"Point","coordinates":[73.84208403333334,18.562262399999998]},"__memberLines":{}},{"type":"Feature","properties":{"station_id":"n1494691943","station_name":"Pune Railway Station","station_name_local":"Pune Railway Station","station_name_en":"Pune Railway Station","city":"Pune","country":"India","lines":["2"],"wikipedia":null,"merged_from":3,"merged_names":null,"is_terminus":false,"routes":[{"ref":"2","name":"Aqua Line","route_color":"#42d4f4"}],"pass_count":1,"station_degree":2,"codes":null,"is_interchange":false,"station_role":"normal"},"geometry":{"type":"Point","coordinates":[73.87253453333334,18.529753566666667]},"__memberLines":{}},{"type":"Feature","properties":{"station_id":"n1532296305","station_name":"Mangalwar Peth","station_name_local":"Mangalwar Peth","station_name_en":"Mangalwar Peth","city":"Pune","country":"India","lines":["2"],"wikipedia":"en:Mangalwar Peth metro station","merged_from":3,"merged_names":null,"is_terminus":false,"routes":[{"ref":"2","name":"Aqua Line","route_color":"#42d4f4"}],"pass_count":1,"station_degree":2,"codes":null,"is_interchange":false,"station_role":"normal"},"geometry":{"type":"Point","coordinates":[73.86507186666667,18.530075166666666]},"__memberLines":{}},{"type":"Feature","properties":{"station_id":"n12211960101","station_name":"Mahatma Phule Mandai","station_name_local":"महात्मा फुले मंदाई","station_name_en":"Mahatma Phule Mandai","city":"Pune","country":"India","lines":["1"],"wikipedia":null,"merged_from":2,"merged_names":null,"is_terminus":false,"routes":[{"ref":"1","name":"Purple Line: PCMC Bhavan ⇔ Phugewadi & Civil Court ⇔ Shivaji Nagar","route_color":"#911eb4"}],"pass_count":1,"station_degree":2,"codes":null,"is_interchange":false,"station_role":"normal"},"geometry":{"type":"Point","coordinates":[73.85701610000001,18.512911199999998]},"__memberLines":{}}]}