{"type":"FeatureCollection","railway_system":{"continent":"asia","country":"Japan","country_zh":"日本","city":"Japan","city_zh":"日本","unit":"country","company":null,"company_zh":null,"company_en":null,"osm_networks":["上越新幹線","九州新幹線","北海道新幹線","北陸新幹線","山形新幹線","山陽新幹線","東北新幹線","東海道新幹線","秋田新幹線","西九州新幹線"],"operator":null,"line_count":10,"segment_count":126,"station_count":118,"interchange_count":8,"rail_class":"high_speed","class_zh":"新幹線","class_en":"Shinkansen","audit":{"passed":true,"checks":[{"id":"has_lines","ok":true,"level":"error","detail":"10 條路線"},{"id":"has_stations","ok":true,"level":"error","detail":"118 個車站"},{"id":"stations_have_lines","ok":true,"level":"error","detail":"118/118 車站皆有線"},{"id":"lines_have_stations","ok":true,"level":"error","detail":"每條線皆 ≥2 站"},{"id":"vertices_on_stations","ok":true,"level":"error","detail":"所有折點皆為車站點"},{"id":"no_fake_long_segment","ok":true,"level":"error","detail":"最長段 60.7km（皆為真實站間距）"},{"id":"degree_distribution","ok":true,"level":"warn","detail":"degree 分佈正常（以 2 為主）"},{"id":"no_adjacent_dup_names","ok":true,"level":"error","detail":"無相鄰同名未併站"}],"audited_at":null}},"metro_system":{"continent":"asia","country":"Japan","country_zh":"日本","city":"Japan","city_zh":"日本","unit":"country","company":null,"company_zh":null,"company_en":null,"osm_networks":["上越新幹線","九州新幹線","北海道新幹線","北陸新幹線","山形新幹線","山陽新幹線","東北新幹線","東海道新幹線","秋田新幹線","西九州新幹線"],"operator":null,"line_count":10,"segment_count":126,"station_count":118,"interchange_count":8,"rail_class":"high_speed","class_zh":"新幹線","class_en":"Shinkansen","kind":"railway","audit":{"passed":true,"checks":[{"id":"has_lines","ok":true,"level":"error","detail":"10 條路線"},{"id":"has_stations","ok":true,"level":"error","detail":"118 個車站"},{"id":"stations_have_lines","ok":true,"level":"error","detail":"118/118 車站皆有線"},{"id":"lines_have_stations","ok":true,"level":"error","detail":"每條線皆 ≥2 站"},{"id":"vertices_on_stations","ok":true,"level":"error","detail":"所有折點皆為車站點"},{"id":"no_fake_long_segment","ok":true,"level":"error","detail":"最長段 60.7km（皆為真實站間距）"},{"id":"degree_distribution","ok":true,"level":"warn","detail":"degree 分佈正常（以 2 為主）"},{"id":"no_adjacent_dup_names","ok":true,"level":"error","detail":"無相鄰同名未併站"}],"audited_at":null}},"features":[{"type":"Feature","properties":{"station_id":"sn13365956443","station_name":"博多","station_name_local":"博多","operator":"西日本旅客鉄道","city":"Japan","country":"Japan","lines":["九州新幹線","山陽新幹線"],"line_ids":["rw-as-jpn-hsr-%E4%B9%9D%E5%B7%9E%E6%96%B0%E5%B9%B9%E7%B7%9A","rw-as-jpn-hsr-%E5%B1%B1%E9%99%BD%E6%96%B0%E5%B9%B9%E7%B7%9A"],"line_names":["九州新幹線","山陽新幹線"],"station_role":"interchange","station_degree":2,"is_interchange":true,"is_terminus":false,"wikidata":"Q800875","wikipedia":"ja:博多駅"},"geometry":{"type":"Point","coordinates":[130.42084016666664,33.59001063333333]}},{"type":"Feature","properties":{"station_id":"sn7887750907","station_name":"新鳥栖","station_name_local":"新鳥栖","operator":"九州旅客鉄道","city":"Japan","country":"Japan","lines":["九州新幹線"],"line_ids":["rw-as-jpn-hsr-%E4%B9%9D%E5%B7%9E%E6%96%B0%E5%B9%B9%E7%B7%9A"],"line_names":["九州新幹線"],"station_role":"normal","station_degree":2,"is_interchange":false,"is_terminus":false,"wikidata":"Q1136568","wikipedia":"ja:新鳥栖駅"},"geometry":{"type":"Point","coordinates":[130.49111445,33.36972745]}},{"type":"Feature","properties":{"station_id":"sn265889297","station_name":"久留米","station_name_local":"久留米","operator":"九州旅客鉄道","city":"Japan","country":"Japan","lines":["九州新幹線"],"line_ids":["rw-as-jpn-hsr-%E4%B9%9D%E5%B7%9E%E6%96%B0%E5%B9%B9%E7%B7%9A"],"line_names":["九州新幹線"],"station_role":"normal","station_degree":2,"is_interchange":false,"is_terminus":false,"wikidata":"Q1122628","wikipedia":"ja:久留米駅"},"geometry":{"type":"Point","coordinates":[130.5014036,33.3206417]}},{"type":"Feature","properties":{"station_id":"sn8447295315","station_name":"筑後船小屋","station_name_local":"筑後船小屋","operator":"九州旅客鉄道","city":"Japan","country":"Japan","lines":["九州新幹線"],"line_ids":["rw-as-jpn-hsr-%E4%B9%9D%E5%B7%9E%E6%96%B0%E5%B9%B9%E7%B7%9A"],"line_names":["九州新幹線"],"station_role":"normal","station_degree":2,"is_interchange":false,"is_terminus":false,"wikidata":"Q1136543","wikipedia":"ja:筑後船小屋駅"},"geometry":{"type":"Point","coordinates":[130.49202235,33.17818525]}},{"type":"Feature","properties":{"station_id":"sn8447296024","station_name":"新大牟田","station_name_local":"新大牟田","operator":null,"city":"Japan","country":"Japan","lines":["九州新幹線"],"line_ids":["rw-as-jpn-hsr-%E4%B9%9D%E5%B7%9E%E6%96%B0%E5%B9%B9%E7%B7%9A"],"line_names":["九州新幹線"],"station_role":"normal","station_degree":2,"is_interchange":false,"is_terminus":false,"wikidata":"Q1136564","wikipedia":"ja:新大牟田駅"},"geometry":{"type":"Point","coordinates":[130.4887598,33.0711991]}},{"type":"Feature","properties":{"station_id":"sn8447296025","station_name":"新玉名","station_name_local":"新玉名","operator":null,"city":"Japan","country":"Japan","lines":["九州新幹線"],"line_ids":["rw-as-jpn-hsr-%E4%B9%9D%E5%B7%9E%E6%96%B0%E5%B9%B9%E7%B7%9A"],"line_names":["九州新幹線"],"station_role":"normal","station_degree":2,"is_interchange":false,"is_terminus":false,"wikidata":"Q1136695","wikipedia":"ja:新玉名駅"},"geometry":{"type":"Point","coordinates":[130.5737758,32.9423867]}},{"type":"Feature","properties":{"station_id":"sn12501680993","station_name":"熊本","station_name_local":"熊本","operator":"九州旅客鉄道","city":"Japan","country":"Japan","lines":["九州新幹線"],"line_ids":["rw-as-jpn-hsr-%E4%B9%9D%E5%B7%9E%E6%96%B0%E5%B9%B9%E7%B7%9A"],"line_names":["九州新幹線"],"station_role":"normal","station_degree":2,"is_interchange":false,"is_terminus":false,"wikidata":"Q969324","wikipedia":"ja:熊本駅"},"geometry":{"type":"Point","coordinates":[130.6862112,32.79036085]}},{"type":"Feature","properties":{"station_id":"sn835388256","station_name":"新八代","station_name_local":"新八代","operator":"九州旅客鉄道","city":"Japan","country":"Japan","lines":["九州新幹線"],"line_ids":["rw-as-jpn-hsr-%E4%B9%9D%E5%B7%9E%E6%96%B0%E5%B9%B9%E7%B7%9A"],"line_names":["九州新幹線"],"station_role":"normal","station_degree":2,"is_interchange":false,"is_terminus":false,"wikidata":"Q1187743","wikipedia":"ja:新八代駅"},"geometry":{"type":"Point","coordinates":[130.6348392,32.5180397]}},{"type":"Feature","properties":{"station_id":"sn2011577947","station_name":"新水俣","station_name_local":"新水俣","operator":"九州旅客鉄道","city":"Japan","country":"Japan","lines":["九州新幹線"],"line_ids":["rw-as-jpn-hsr-%E4%B9%9D%E5%B7%9E%E6%96%B0%E5%B9%B9%E7%B7%9A"],"line_names":["九州新幹線"],"station_role":"normal","station_degree":2,"is_interchange":false,"is_terminus":false,"wikidata":"Q1136460","wikipedia":"ja:新水俣駅"},"geometry":{"type":"Point","coordinates":[130.4286671,32.2105785]}},{"type":"Feature","properties":{"station_id":"sn8259015626","station_name":"出水","station_name_local":"出水","operator":"九州旅客鉄道","city":"Japan","country":"Japan","lines":["九州新幹線"],"line_ids":["rw-as-jpn-hsr-%E4%B9%9D%E5%B7%9E%E6%96%B0%E5%B9%B9%E7%B7%9A"],"line_names":["九州新幹線"],"station_role":"normal","station_degree":2,"is_interchange":false,"is_terminus":false,"wikidata":"Q1136682","wikipedia":"ja:出水駅"},"geometry":{"type":"Point","coordinates":[130.3577842,32.089725]}},{"type":"Feature","properties":{"station_id":"sn6055017024","station_name":"川内","station_name_local":"川内","operator":null,"city":"Japan","country":"Japan","lines":["九州新幹線"],"line_ids":["rw-as-jpn-hsr-%E4%B9%9D%E5%B7%9E%E6%96%B0%E5%B9%B9%E7%B7%9A"],"line_names":["九州新幹線"],"station_role":"normal","station_degree":2,"is_interchange":false,"is_terminus":false,"wikidata":"Q1136688","wikipedia":"ja:川内駅 (鹿児島県)"},"geometry":{"type":"Point","coordinates":[130.3122563,31.8137835]}},{"type":"Feature","properties":{"station_id":"sn5603040079","station_name":"鹿児島中央","station_name_local":"鹿児島中央","operator":"九州旅客鉄道","city":"Japan","country":"Japan","lines":["九州新幹線"],"line_ids":["rw-as-jpn-hsr-%E4%B9%9D%E5%B7%9E%E6%96%B0%E5%B9%B9%E7%B7%9A"],"line_names":["九州新幹線"],"station_role":"terminus","station_degree":1,"is_interchange":false,"is_terminus":true,"wikidata":"Q1316913","wikipedia":"ja:鹿児島中央駅"},"geometry":{"type":"Point","coordinates":[130.5417909,31.5837134]}},{"type":"Feature","properties":{"station_id":"sn6641323161","station_name":"新大阪","station_name_local":"新大阪","operator":null,"city":"Japan","country":"Japan","lines":["山陽新幹線","東海道新幹線"],"line_ids":["rw-as-jpn-hsr-%E5%B1%B1%E9%99%BD%E6%96%B0%E5%B9%B9%E7%B7%9A","rw-as-jpn-hsr-%E6%9D%B1%E6%B5%B7%E9%81%93%E6%96%B0%E5%B9%B9%E7%B7%9A"],"line_names":["山陽新幹線","東海道新幹線"],"station_role":"interchange","station_degree":2,"is_interchange":true,"is_terminus":false,"wikidata":"Q801438","wikipedia":"ja:新大阪駅"},"geometry":{"type":"Point","coordinates":[135.5010307,34.733808350000004]}},{"type":"Feature","properties":{"station_id":"sn5214360254","station_name":"新神戸","station_name_local":"新神戸","operator":null,"city":"Japan","country":"Japan","lines":["山陽新幹線"],"line_ids":["rw-as-jpn-hsr-%E5%B1%B1%E9%99%BD%E6%96%B0%E5%B9%B9%E7%B7%9A"],"line_names":["山陽新幹線"],"station_role":"normal","station_degree":2,"is_interchange":false,"is_terminus":false,"wikidata":"Q801435","wikipedia":"ja:新神戸駅"},"geometry":{"type":"Point","coordinates":[135.1956157,34.7064884]}},{"type":"Feature","properties":{"station_id":"sn8555589892","station_name":"西明石","station_name_local":"西明石","operator":null,"city":"Japan","country":"Japan","lines":["山陽新幹線"],"line_ids":["rw-as-jpn-hsr-%E5%B1%B1%E9%99%BD%E6%96%B0%E5%B9%B9%E7%B7%9A"],"line_names":["山陽新幹線"],"station_role":"normal","station_degree":2,"is_interchange":false,"is_terminus":false,"wikidata":"Q590272","wikipedia":"ja:西明石駅"},"geometry":{"type":"Point","coordinates":[134.960262,34.66644195]}},{"type":"Feature","properties":{"station_id":"sn8092170172","station_name":"姫路","station_name_local":"姫路","operator":"西日本旅客鉄道","city":"Japan","country":"Japan","lines":["山陽新幹線"],"line_ids":["rw-as-jpn-hsr-%E5%B1%B1%E9%99%BD%E6%96%B0%E5%B9%B9%E7%B7%9A"],"line_names":["山陽新幹線"],"station_role":"normal","station_degree":2,"is_interchange":false,"is_terminus":false,"wikidata":"Q119301","wikipedia":"ja:姫路駅"},"geometry":{"type":"Point","coordinates":[134.6905198,34.82665265]}},{"type":"Feature","properties":{"station_id":"sn8120834743","station_name":"相生","station_name_local":"相生","operator":"西日本旅客鉄道","city":"Japan","country":"Japan","lines":["山陽新幹線"],"line_ids":["rw-as-jpn-hsr-%E5%B1%B1%E9%99%BD%E6%96%B0%E5%B9%B9%E7%B7%9A"],"line_names":["山陽新幹線"],"station_role":"normal","station_degree":2,"is_interchange":false,"is_terminus":false,"wikidata":"Q1132350","wikipedia":"ja:相生駅 (兵庫県)"},"geometry":{"type":"Point","coordinates":[134.47394505,34.8181436]}},{"type":"Feature","properties":{"station_id":"sn11435050207","station_name":"岡山","station_name_local":"岡山","operator":"西日本旅客鉄道","city":"Japan","country":"Japan","lines":["山陽新幹線"],"line_ids":["rw-as-jpn-hsr-%E5%B1%B1%E9%99%BD%E6%96%B0%E5%B9%B9%E7%B7%9A"],"line_names":["山陽新幹線"],"station_role":"normal","station_degree":2,"is_interchange":false,"is_terminus":false,"wikidata":"Q801293","wikipedia":"ja:岡山駅"},"geometry":{"type":"Point","coordinates":[133.9180457,34.66607965]}},{"type":"Feature","properties":{"station_id":"sn8558459803","station_name":"新倉敷","station_name_local":"新倉敷","operator":"西日本旅客鉄道","city":"Japan","country":"Japan","lines":["山陽新幹線"],"line_ids":["rw-as-jpn-hsr-%E5%B1%B1%E9%99%BD%E6%96%B0%E5%B9%B9%E7%B7%9A"],"line_names":["山陽新幹線"],"station_role":"normal","station_degree":2,"is_interchange":false,"is_terminus":false,"wikidata":"Q1067908","wikipedia":"ja:新倉敷駅"},"geometry":{"type":"Point","coordinates":[133.67856260000002,34.56513715]}},{"type":"Feature","properties":{"station_id":"sn13448114876","station_name":"福山","station_name_local":"福山","operator":null,"city":"Japan","country":"Japan","lines":["山陽新幹線"],"line_ids":["rw-as-jpn-hsr-%E5%B1%B1%E9%99%BD%E6%96%B0%E5%B9%B9%E7%B7%9A"],"line_names":["山陽新幹線"],"station_role":"normal","station_degree":2,"is_interchange":false,"is_terminus":false,"wikidata":"Q800797","wikipedia":"ja:福山駅"},"geometry":{"type":"Point","coordinates":[133.36218605,34.48935425]}},{"type":"Feature","properties":{"station_id":"sn8558459806","station_name":"新尾道","station_name_local":"新尾道","operator":null,"city":"Japan","country":"Japan","lines":["山陽新幹線"],"line_ids":["rw-as-jpn-hsr-%E5%B1%B1%E9%99%BD%E6%96%B0%E5%B9%B9%E7%B7%9A"],"line_names":["山陽新幹線"],"station_role":"normal","station_degree":2,"is_interchange":false,"is_terminus":false,"wikidata":"Q1136506","wikipedia":"ja:新尾道駅"},"geometry":{"type":"Point","coordinates":[133.1903283,34.4300627]}},{"type":"Feature","properties":{"station_id":"sn13448114877","station_name":"三原","station_name_local":"三原","operator":"西日本旅客鉄道","city":"Japan","country":"Japan","lines":["山陽新幹線"],"line_ids":["rw-as-jpn-hsr-%E5%B1%B1%E9%99%BD%E6%96%B0%E5%B9%B9%E7%B7%9A"],"line_names":["山陽新幹線"],"station_role":"normal","station_degree":2,"is_interchange":false,"is_terminus":false,"wikidata":"Q1136514","wikipedia":"ja:三原駅"},"geometry":{"type":"Point","coordinates":[133.08328465,34.400649349999995]}},{"type":"Feature","properties":{"station_id":"sn8558341520","station_name":"東広島","station_name_local":"東広島","operator":null,"city":"Japan","country":"Japan","lines":["山陽新幹線"],"line_ids":["rw-as-jpn-hsr-%E5%B1%B1%E9%99%BD%E6%96%B0%E5%B9%B9%E7%B7%9A"],"line_names":["山陽新幹線"],"station_role":"normal","station_degree":2,"is_interchange":false,"is_terminus":false,"wikidata":"Q1136538","wikipedia":"ja:東広島駅"},"geometry":{"type":"Point","coordinates":[132.7588789,34.3888993]}},{"type":"Feature","properties":{"station_id":"sn8058980077","station_name":"広島","station_name_local":"広島","operator":"西日本旅客鉄道","city":"Japan","country":"Japan","lines":["山陽新幹線"],"line_ids":["rw-as-jpn-hsr-%E5%B1%B1%E9%99%BD%E6%96%B0%E5%B9%B9%E7%B7%9A"],"line_names":["山陽新幹線"],"station_role":"normal","station_degree":2,"is_interchange":false,"is_terminus":false,"wikidata":"Q576459","wikipedia":"ja:広島駅"},"geometry":{"type":"Point","coordinates":[132.4755948,34.397954299999995]}},{"type":"Feature","properties":{"station_id":"sn8558302338","station_name":"新岩国","station_name_local":"新岩国","operator":null,"city":"Japan","country":"Japan","lines":["山陽新幹線"],"line_ids":["rw-as-jpn-hsr-%E5%B1%B1%E9%99%BD%E6%96%B0%E5%B9%B9%E7%B7%9A"],"line_names":["山陽新幹線"],"station_role":"normal","station_degree":2,"is_interchange":false,"is_terminus":false,"wikidata":"Q767197","wikipedia":"ja:新岩国駅"},"geometry":{"type":"Point","coordinates":[132.1495132,34.1645738]}},{"type":"Feature","properties":{"station_id":"sn8561629931","station_name":"徳山","station_name_local":"徳山","operator":"西日本旅客鉄道","city":"Japan","country":"Japan","lines":["山陽新幹線"],"line_ids":["rw-as-jpn-hsr-%E5%B1%B1%E9%99%BD%E6%96%B0%E5%B9%B9%E7%B7%9A"],"line_names":["山陽新幹線"],"station_role":"normal","station_degree":2,"is_interchange":false,"is_terminus":false,"wikidata":"Q1136709","wikipedia":"ja:徳山駅"},"geometry":{"type":"Point","coordinates":[131.8024069,34.051124400000006]}},{"type":"Feature","properties":{"station_id":"sn8560452360","station_name":"新山口","station_name_local":"新山口","operator":"西日本旅客鉄道","city":"Japan","country":"Japan","lines":["山陽新幹線"],"line_ids":["rw-as-jpn-hsr-%E5%B1%B1%E9%99%BD%E6%96%B0%E5%B9%B9%E7%B7%9A"],"line_names":["山陽新幹線"],"station_role":"normal","station_degree":2,"is_interchange":false,"is_terminus":false,"wikidata":"Q1136574","wikipedia":"ja:新山口駅"},"geometry":{"type":"Point","coordinates":[131.3966594,34.0934497]}},{"type":"Feature","properties":{"station_id":"sn266058412","station_name":"厚狭","station_name_local":"厚狭","operator":"西日本旅客鉄道","city":"Japan","country":"Japan","lines":["山陽新幹線"],"line_ids":["rw-as-jpn-hsr-%E5%B1%B1%E9%99%BD%E6%96%B0%E5%B9%B9%E7%B7%9A"],"line_names":["山陽新幹線"],"station_role":"normal","station_degree":2,"is_interchange":false,"is_terminus":false,"wikidata":"Q1136582","wikipedia":"ja:厚狭駅"},"geometry":{"type":"Point","coordinates":[131.15987845,34.05361365]}},{"type":"Feature","properties":{"station_id":"sn8558016545","station_name":"新下関","station_name_local":"新下関","operator":"JR西日本","city":"Japan","country":"Japan","lines":["山陽新幹線"],"line_ids":["rw-as-jpn-hsr-%E5%B1%B1%E9%99%BD%E6%96%B0%E5%B9%B9%E7%B7%9A"],"line_names":["山陽新幹線"],"station_role":"normal","station_degree":2,"is_interchange":false,"is_terminus":false,"wikidata":"Q1074353","wikipedia":"ja:新下関駅"},"geometry":{"type":"Point","coordinates":[130.948699,34.0069546]}},{"type":"Feature","properties":{"station_id":"sn11724845346","station_name":"小倉","station_name_local":"小倉","operator":"九州旅客鉄道","city":"Japan","country":"Japan","lines":["山陽新幹線"],"line_ids":["rw-as-jpn-hsr-%E5%B1%B1%E9%99%BD%E6%96%B0%E5%B9%B9%E7%B7%9A"],"line_names":["山陽新幹線"],"station_role":"normal","station_degree":2,"is_interchange":false,"is_terminus":false,"wikidata":"Q801027","wikipedia":"ja:小倉駅 (福岡県)"},"geometry":{"type":"Point","coordinates":[130.88286555000002,33.887066450000006]}},{"type":"Feature","properties":{"station_id":"sn13731947846","station_name":"東京","station_name_local":"東京","operator":"東日本旅客鉄道","city":"Japan","country":"Japan","lines":["上越新幹線","東海道新幹線"],"line_ids":["rw-as-jpn-hsr-%E4%B8%8A%E8%B6%8A%E6%96%B0%E5%B9%B9%E7%B7%9A","rw-as-jpn-hsr-%E6%9D%B1%E6%B5%B7%E9%81%93%E6%96%B0%E5%B9%B9%E7%B7%9A"],"line_names":["上越新幹線","東海道新幹線"],"station_role":"interchange","station_degree":2,"is_interchange":true,"is_terminus":false,"wikidata":"Q283196","wikipedia":"ja:東京駅"},"geometry":{"type":"Point","coordinates":[139.76681184999998,35.680258975]}},{"type":"Feature","properties":{"station_id":"sn236578444","station_name":"上野","station_name_local":"上野","operator":"東日本旅客鉄道","city":"Japan","country":"Japan","lines":["上越新幹線"],"line_ids":["rw-as-jpn-hsr-%E4%B8%8A%E8%B6%8A%E6%96%B0%E5%B9%B9%E7%B7%9A"],"line_names":["上越新幹線"],"station_role":"normal","station_degree":2,"is_interchange":false,"is_terminus":false,"wikidata":"Q801551","wikipedia":"ja:上野駅"},"geometry":{"type":"Point","coordinates":[139.7765418,35.7134128]}},{"type":"Feature","properties":{"station_id":"sn11002390977","station_name":"大宮","station_name_local":"大宮","operator":"東日本旅客鉄道","city":"Japan","country":"Japan","lines":["上越新幹線","東北新幹線"],"line_ids":["rw-as-jpn-hsr-%E4%B8%8A%E8%B6%8A%E6%96%B0%E5%B9%B9%E7%B7%9A","rw-as-jpn-hsr-%E6%9D%B1%E5%8C%97%E6%96%B0%E5%B9%B9%E7%B7%9A"],"line_names":["上越新幹線","東北新幹線"],"station_role":"interchange","station_degree":3,"is_interchange":true,"is_terminus":false,"wikidata":"Q801692","wikipedia":"ja:大宮駅 (埼玉県)"},"geometry":{"type":"Point","coordinates":[139.62374119999998,35.9062678]}},{"type":"Feature","properties":{"station_id":"sn7900236531","station_name":"熊谷","station_name_local":"熊谷","operator":"東日本旅客鉄道","city":"Japan","country":"Japan","lines":["上越新幹線"],"line_ids":["rw-as-jpn-hsr-%E4%B8%8A%E8%B6%8A%E6%96%B0%E5%B9%B9%E7%B7%9A"],"line_names":["上越新幹線"],"station_role":"normal","station_degree":2,"is_interchange":false,"is_terminus":false,"wikidata":"Q735594","wikipedia":"ja:熊谷駅"},"geometry":{"type":"Point","coordinates":[139.39022185,36.1392123]}},{"type":"Feature","properties":{"station_id":"sn6677954148","station_name":"本庄早稲田","station_name_local":"本庄早稲田","operator":"東日本旅客鉄道","city":"Japan","country":"Japan","lines":["上越新幹線"],"line_ids":["rw-as-jpn-hsr-%E4%B8%8A%E8%B6%8A%E6%96%B0%E5%B9%B9%E7%B7%9A"],"line_names":["上越新幹線"],"station_role":"normal","station_degree":2,"is_interchange":false,"is_terminus":false,"wikidata":"Q1138362","wikipedia":"ja:本庄早稲田駅"},"geometry":{"type":"Point","coordinates":[139.1794855,36.2188607]}},{"type":"Feature","properties":{"station_id":"sn3830636503","station_name":"高崎","station_name_local":"高崎","operator":"東日本旅客鉄道","city":"Japan","country":"Japan","lines":["上越新幹線","北陸新幹線"],"line_ids":["rw-as-jpn-hsr-%E4%B8%8A%E8%B6%8A%E6%96%B0%E5%B9%B9%E7%B7%9A","rw-as-jpn-hsr-%E5%8C%97%E9%99%B8%E6%96%B0%E5%B9%B9%E7%B7%9A"],"line_names":["上越新幹線","北陸新幹線"],"station_role":"interchange","station_degree":3,"is_interchange":true,"is_terminus":false,"wikidata":"Q801505","wikipedia":"ja:高崎駅"},"geometry":{"type":"Point","coordinates":[139.0124912,36.3216209]}},{"type":"Feature","properties":{"station_id":"sn3032951488","station_name":"上毛高原","station_name_local":"上毛高原","operator":"東日本旅客鉄道","city":"Japan","country":"Japan","lines":["上越新幹線"],"line_ids":["rw-as-jpn-hsr-%E4%B8%8A%E8%B6%8A%E6%96%B0%E5%B9%B9%E7%B7%9A"],"line_names":["上越新幹線"],"station_role":"normal","station_degree":2,"is_interchange":false,"is_terminus":false,"wikidata":"Q1138087","wikipedia":"ja:上毛高原駅"},"geometry":{"type":"Point","coordinates":[138.9775973,36.6931647]}},{"type":"Feature","properties":{"station_id":"sn3548915150","station_name":"越後湯沢","station_name_local":"越後湯沢","operator":null,"city":"Japan","country":"Japan","lines":["上越新幹線"],"line_ids":["rw-as-jpn-hsr-%E4%B8%8A%E8%B6%8A%E6%96%B0%E5%B9%B9%E7%B7%9A"],"line_names":["上越新幹線"],"station_role":"normal","station_degree":2,"is_interchange":false,"is_terminus":false,"wikidata":"Q1188630","wikipedia":"ja:越後湯沢駅"},"geometry":{"type":"Point","coordinates":[138.8094233,36.9358784]}},{"type":"Feature","properties":{"station_id":"sn3548915157","station_name":"浦佐","station_name_local":"浦佐","operator":null,"city":"Japan","country":"Japan","lines":["上越新幹線"],"line_ids":["rw-as-jpn-hsr-%E4%B8%8A%E8%B6%8A%E6%96%B0%E5%B9%B9%E7%B7%9A"],"line_names":["上越新幹線"],"station_role":"normal","station_degree":2,"is_interchange":false,"is_terminus":false,"wikidata":"Q1138368","wikipedia":"ja:浦佐駅"},"geometry":{"type":"Point","coordinates":[138.9228409,37.1672238]}},{"type":"Feature","properties":{"station_id":"sn5574679639","station_name":"長岡","station_name_local":"長岡","operator":null,"city":"Japan","country":"Japan","lines":["上越新幹線"],"line_ids":["rw-as-jpn-hsr-%E4%B8%8A%E8%B6%8A%E6%96%B0%E5%B9%B9%E7%B7%9A"],"line_names":["上越新幹線"],"station_role":"normal","station_degree":2,"is_interchange":false,"is_terminus":false,"wikidata":"Q1138252","wikipedia":"ja:長岡駅"},"geometry":{"type":"Point","coordinates":[138.8541667,37.4478778]}},{"type":"Feature","properties":{"station_id":"sn9015341705","station_name":"燕三条","station_name_local":"燕三条","operator":null,"city":"Japan","country":"Japan","lines":["上越新幹線"],"line_ids":["rw-as-jpn-hsr-%E4%B8%8A%E8%B6%8A%E6%96%B0%E5%B9%B9%E7%B7%9A"],"line_names":["上越新幹線"],"station_role":"normal","station_degree":2,"is_interchange":false,"is_terminus":false,"wikidata":"Q1131871","wikipedia":"ja:燕三条駅"},"geometry":{"type":"Point","coordinates":[138.9390886,37.6483698]}},{"type":"Feature","properties":{"station_id":"sn4087367885","station_name":"新潟","station_name_local":"新潟","operator":null,"city":"Japan","country":"Japan","lines":["上越新幹線"],"line_ids":["rw-as-jpn-hsr-%E4%B8%8A%E8%B6%8A%E6%96%B0%E5%B9%B9%E7%B7%9A"],"line_names":["上越新幹線"],"station_role":"terminus","station_degree":1,"is_interchange":false,"is_terminus":true,"wikidata":"Q701753","wikipedia":"ja:新潟駅"},"geometry":{"type":"Point","coordinates":[139.0613294,37.9122444]}},{"type":"Feature","properties":{"station_id":"sn3721336949","station_name":"小山","station_name_local":"小山","operator":null,"city":"Japan","country":"Japan","lines":["東北新幹線"],"line_ids":["rw-as-jpn-hsr-%E6%9D%B1%E5%8C%97%E6%96%B0%E5%B9%B9%E7%B7%9A"],"line_names":["東北新幹線"],"station_role":"normal","station_degree":2,"is_interchange":false,"is_terminus":false,"wikidata":"Q801312","wikipedia":"ja:小山駅"},"geometry":{"type":"Point","coordinates":[139.8065054,36.3129364]}},{"type":"Feature","properties":{"station_id":"sn8173024298","station_name":"宇都宮","station_name_local":"宇都宮","operator":"東日本旅客鉄道","city":"Japan","country":"Japan","lines":["東北新幹線"],"line_ids":["rw-as-jpn-hsr-%E6%9D%B1%E5%8C%97%E6%96%B0%E5%B9%B9%E7%B7%9A"],"line_names":["東北新幹線"],"station_role":"normal","station_degree":2,"is_interchange":false,"is_terminus":false,"wikidata":"Q801549","wikipedia":"ja:宇都宮駅"},"geometry":{"type":"Point","coordinates":[139.89833234999998,36.55922885]}},{"type":"Feature","properties":{"station_id":"sn6095556279","station_name":"那須塩原","station_name_local":"那須塩原","operator":null,"city":"Japan","country":"Japan","lines":["東北新幹線"],"line_ids":["rw-as-jpn-hsr-%E6%9D%B1%E5%8C%97%E6%96%B0%E5%B9%B9%E7%B7%9A"],"line_names":["東北新幹線"],"station_role":"normal","station_degree":2,"is_interchange":false,"is_terminus":false,"wikidata":"Q369523","wikipedia":"ja:那須塩原駅"},"geometry":{"type":"Point","coordinates":[140.0208814,36.9315475]}},{"type":"Feature","properties":{"station_id":"sn3721569613","station_name":"新白河","station_name_local":"新白河","operator":null,"city":"Japan","country":"Japan","lines":["東北新幹線"],"line_ids":["rw-as-jpn-hsr-%E6%9D%B1%E5%8C%97%E6%96%B0%E5%B9%B9%E7%B7%9A"],"line_names":["東北新幹線"],"station_role":"normal","station_degree":2,"is_interchange":false,"is_terminus":false,"wikidata":"Q1136381","wikipedia":"ja:新白河駅"},"geometry":{"type":"Point","coordinates":[140.1884461,37.1230906]}},{"type":"Feature","properties":{"station_id":"sn3800631016","station_name":"郡山","station_name_local":"郡山","operator":null,"city":"Japan","country":"Japan","lines":["東北新幹線"],"line_ids":["rw-as-jpn-hsr-%E6%9D%B1%E5%8C%97%E6%96%B0%E5%B9%B9%E7%B7%9A"],"line_names":["東北新幹線"],"station_role":"normal","station_degree":2,"is_interchange":false,"is_terminus":false,"wikidata":"Q385879","wikipedia":"ja:郡山駅 (福島県)"},"geometry":{"type":"Point","coordinates":[140.388798,37.398488]}},{"type":"Feature","properties":{"station_id":"sn206431759","station_name":"福島","station_name_local":"福島","operator":null,"city":"Japan","country":"Japan","lines":["東北新幹線","山形新幹線"],"line_ids":["rw-as-jpn-hsr-%E6%9D%B1%E5%8C%97%E6%96%B0%E5%B9%B9%E7%B7%9A","rw-as-jpn-hsr-%E5%B1%B1%E5%BD%A2%E6%96%B0%E5%B9%B9%E7%B7%9A"],"line_names":["東北新幹線","山形新幹線"],"station_role":"interchange","station_degree":3,"is_interchange":true,"is_terminus":false,"wikidata":"Q800799","wikipedia":"ja:福島駅 (福島県)"},"geometry":{"type":"Point","coordinates":[140.4592144,37.75454]}},{"type":"Feature","properties":{"station_id":"sn3908803392","station_name":"白石蔵王","station_name_local":"白石蔵王","operator":null,"city":"Japan","country":"Japan","lines":["東北新幹線"],"line_ids":["rw-as-jpn-hsr-%E6%9D%B1%E5%8C%97%E6%96%B0%E5%B9%B9%E7%B7%9A"],"line_names":["東北新幹線"],"station_role":"normal","station_degree":2,"is_interchange":false,"is_terminus":false,"wikidata":"Q1136524","wikipedia":"ja:白石蔵王駅"},"geometry":{"type":"Point","coordinates":[140.6331751,37.9954269]}},{"type":"Feature","properties":{"station_id":"sn3570916502","station_name":"仙台","station_name_local":"仙台","operator":null,"city":"Japan","country":"Japan","lines":["東北新幹線"],"line_ids":["rw-as-jpn-hsr-%E6%9D%B1%E5%8C%97%E6%96%B0%E5%B9%B9%E7%B7%9A"],"line_names":["東北新幹線"],"station_role":"normal","station_degree":2,"is_interchange":false,"is_terminus":false,"wikidata":"Q124373408","wikipedia":null},"geometry":{"type":"Point","coordinates":[140.8823921,38.2603516]}},{"type":"Feature","properties":{"station_id":"sn265031031","station_name":"古川","station_name_local":"古川","operator":null,"city":"Japan","country":"Japan","lines":["東北新幹線"],"line_ids":["rw-as-jpn-hsr-%E6%9D%B1%E5%8C%97%E6%96%B0%E5%B9%B9%E7%B7%9A"],"line_names":["東北新幹線"],"station_role":"normal","station_degree":2,"is_interchange":false,"is_terminus":false,"wikidata":"Q1136520","wikipedia":"ja:古川駅"},"geometry":{"type":"Point","coordinates":[140.9679338,38.5705529]}},{"type":"Feature","properties":{"station_id":"sn265031015","station_name":"くりこま高原","station_name_local":"くりこま高原","operator":null,"city":"Japan","country":"Japan","lines":["東北新幹線"],"line_ids":["rw-as-jpn-hsr-%E6%9D%B1%E5%8C%97%E6%96%B0%E5%B9%B9%E7%B7%9A"],"line_names":["東北新幹線"],"station_role":"normal","station_degree":2,"is_interchange":false,"is_terminus":false,"wikidata":"Q1136550","wikipedia":"ja:くりこま高原駅"},"geometry":{"type":"Point","coordinates":[141.0716092,38.7487399]}},{"type":"Feature","properties":{"station_id":"sn4636882514","station_name":"一ノ関","station_name_local":"一ノ関","operator":null,"city":"Japan","country":"Japan","lines":["東北新幹線"],"line_ids":["rw-as-jpn-hsr-%E6%9D%B1%E5%8C%97%E6%96%B0%E5%B9%B9%E7%B7%9A"],"line_names":["東北新幹線"],"station_role":"normal","station_degree":2,"is_interchange":false,"is_terminus":false,"wikidata":"Q800946","wikipedia":"ja:一ノ関駅"},"geometry":{"type":"Point","coordinates":[141.1389019,38.9268807]}},{"type":"Feature","properties":{"station_id":"sn6260704559","station_name":"水沢江刺","station_name_local":"水沢江刺","operator":null,"city":"Japan","country":"Japan","lines":["東北新幹線"],"line_ids":["rw-as-jpn-hsr-%E6%9D%B1%E5%8C%97%E6%96%B0%E5%B9%B9%E7%B7%9A"],"line_names":["東北新幹線"],"station_role":"normal","station_degree":2,"is_interchange":false,"is_terminus":false,"wikidata":"Q1136658","wikipedia":"ja:水沢江刺駅"},"geometry":{"type":"Point","coordinates":[141.1887494,39.1451474]}},{"type":"Feature","properties":{"station_id":"sn3906691754","station_name":"北上","station_name_local":"北上","operator":null,"city":"Japan","country":"Japan","lines":["東北新幹線"],"line_ids":["rw-as-jpn-hsr-%E6%9D%B1%E5%8C%97%E6%96%B0%E5%B9%B9%E7%B7%9A"],"line_names":["東北新幹線"],"station_role":"normal","station_degree":2,"is_interchange":false,"is_terminus":false,"wikidata":"Q1136531","wikipedia":"ja:北上駅"},"geometry":{"type":"Point","coordinates":[141.1217172,39.2818212]}},{"type":"Feature","properties":{"station_id":"sn3920556727","station_name":"新花巻","station_name_local":"新花巻","operator":null,"city":"Japan","country":"Japan","lines":["東北新幹線"],"line_ids":["rw-as-jpn-hsr-%E6%9D%B1%E5%8C%97%E6%96%B0%E5%B9%B9%E7%B7%9A"],"line_names":["東北新幹線"],"station_role":"normal","station_degree":2,"is_interchange":false,"is_terminus":false,"wikidata":"Q1187840","wikipedia":"ja:新花巻駅"},"geometry":{"type":"Point","coordinates":[141.1735809,39.4058826]}},{"type":"Feature","properties":{"station_id":"sn11522007330","station_name":"盛岡","station_name_local":"盛岡","operator":null,"city":"Japan","country":"Japan","lines":["東北新幹線","秋田新幹線"],"line_ids":["rw-as-jpn-hsr-%E6%9D%B1%E5%8C%97%E6%96%B0%E5%B9%B9%E7%B7%9A","rw-as-jpn-hsr-%E7%A7%8B%E7%94%B0%E6%96%B0%E5%B9%B9%E7%B7%9A"],"line_names":["東北新幹線","秋田新幹線"],"station_role":"interchange","station_degree":3,"is_interchange":true,"is_terminus":false,"wikidata":"Q785390","wikipedia":"ja:盛岡駅"},"geometry":{"type":"Point","coordinates":[141.136261,39.70144533333333]}},{"type":"Feature","properties":{"station_id":"sn3920556722","station_name":"いわて沼宮内","station_name_local":"いわて沼宮内","operator":null,"city":"Japan","country":"Japan","lines":["東北新幹線"],"line_ids":["rw-as-jpn-hsr-%E6%9D%B1%E5%8C%97%E6%96%B0%E5%B9%B9%E7%B7%9A"],"line_names":["東北新幹線"],"station_role":"normal","station_degree":2,"is_interchange":false,"is_terminus":false,"wikidata":"Q1136556","wikipedia":"ja:いわて沼宮内駅"},"geometry":{"type":"Point","coordinates":[141.2172841,39.960584]}},{"type":"Feature","properties":{"station_id":"sn3920556725","station_name":"二戸","station_name_local":"二戸","operator":null,"city":"Japan","country":"Japan","lines":["東北新幹線"],"line_ids":["rw-as-jpn-hsr-%E6%9D%B1%E5%8C%97%E6%96%B0%E5%B9%B9%E7%B7%9A"],"line_names":["東北新幹線"],"station_role":"normal","station_degree":2,"is_interchange":false,"is_terminus":false,"wikidata":"Q385423","wikipedia":"ja:二戸駅"},"geometry":{"type":"Point","coordinates":[141.286006,40.260138]}},{"type":"Feature","properties":{"station_id":"sn13739254152","station_name":"八戸","station_name_local":"八戸","operator":null,"city":"Japan","country":"Japan","lines":["東北新幹線"],"line_ids":["rw-as-jpn-hsr-%E6%9D%B1%E5%8C%97%E6%96%B0%E5%B9%B9%E7%B7%9A"],"line_names":["東北新幹線"],"station_role":"normal","station_degree":2,"is_interchange":false,"is_terminus":false,"wikidata":"Q800866","wikipedia":"ja:八戸駅"},"geometry":{"type":"Point","coordinates":[141.4311984,40.509248400000004]}},{"type":"Feature","properties":{"station_id":"sn3665957894","station_name":"七戸十和田","station_name_local":"七戸十和田","operator":null,"city":"Japan","country":"Japan","lines":["東北新幹線"],"line_ids":["rw-as-jpn-hsr-%E6%9D%B1%E5%8C%97%E6%96%B0%E5%B9%B9%E7%B7%9A"],"line_names":["東北新幹線"],"station_role":"normal","station_degree":2,"is_interchange":false,"is_terminus":false,"wikidata":"Q1136467","wikipedia":"ja:七戸十和田駅"},"geometry":{"type":"Point","coordinates":[141.1535294,40.720056]}},{"type":"Feature","properties":{"station_id":"sn11044604585","station_name":"新青森","station_name_local":"新青森","operator":null,"city":"Japan","country":"Japan","lines":["東北新幹線","北海道新幹線"],"line_ids":["rw-as-jpn-hsr-%E6%9D%B1%E5%8C%97%E6%96%B0%E5%B9%B9%E7%B7%9A","rw-as-jpn-hsr-%E5%8C%97%E6%B5%B7%E9%81%93%E6%96%B0%E5%B9%B9%E7%B7%9A"],"line_names":["東北新幹線","北海道新幹線"],"station_role":"interchange","station_degree":2,"is_interchange":true,"is_terminus":false,"wikidata":"Q1187835","wikipedia":"ja:新青森駅"},"geometry":{"type":"Point","coordinates":[140.69342590000002,40.82787845]}},{"type":"Feature","properties":{"station_id":"sn2620776337","station_name":"安中榛名","station_name_local":"安中榛名","operator":"東日本旅客鉄道株式会社","city":"Japan","country":"Japan","lines":["北陸新幹線"],"line_ids":["rw-as-jpn-hsr-%E5%8C%97%E9%99%B8%E6%96%B0%E5%B9%B9%E7%B7%9A"],"line_names":["北陸新幹線"],"station_role":"normal","station_degree":2,"is_interchange":false,"is_terminus":false,"wikidata":"Q1138259","wikipedia":"ja:安中榛名駅"},"geometry":{"type":"Point","coordinates":[138.8493964,36.3625792]}},{"type":"Feature","properties":{"station_id":"sn2620998956","station_name":"軽井沢","station_name_local":"軽井沢","operator":"東日本旅客鉄道株式会社","city":"Japan","country":"Japan","lines":["北陸新幹線"],"line_ids":["rw-as-jpn-hsr-%E5%8C%97%E9%99%B8%E6%96%B0%E5%B9%B9%E7%B7%9A"],"line_names":["北陸新幹線"],"station_role":"normal","station_degree":2,"is_interchange":false,"is_terminus":false,"wikidata":"Q1064215","wikipedia":"ja:軽井沢駅"},"geometry":{"type":"Point","coordinates":[138.6351092,36.3425512]}},{"type":"Feature","properties":{"station_id":"sn265040118","station_name":"佐久平","station_name_local":"佐久平","operator":"東日本旅客鉄道株式会社","city":"Japan","country":"Japan","lines":["北陸新幹線"],"line_ids":["rw-as-jpn-hsr-%E5%8C%97%E9%99%B8%E6%96%B0%E5%B9%B9%E7%B7%9A"],"line_names":["北陸新幹線"],"station_role":"normal","station_degree":2,"is_interchange":false,"is_terminus":false,"wikidata":"Q1188565","wikipedia":"ja:佐久平駅"},"geometry":{"type":"Point","coordinates":[138.46395495000002,36.27786175]}},{"type":"Feature","properties":{"station_id":"sn2638613340","station_name":"上田","station_name_local":"上田","operator":"東日本旅客鉄道","city":"Japan","country":"Japan","lines":["北陸新幹線"],"line_ids":["rw-as-jpn-hsr-%E5%8C%97%E9%99%B8%E6%96%B0%E5%B9%B9%E7%B7%9A"],"line_names":["北陸新幹線"],"station_role":"normal","station_degree":2,"is_interchange":false,"is_terminus":false,"wikidata":"Q1071375","wikipedia":"ja:上田駅"},"geometry":{"type":"Point","coordinates":[138.2495851,36.3965984]}},{"type":"Feature","properties":{"station_id":"sn8007911566","station_name":"長野","station_name_local":"長野","operator":"東日本旅客鉄道","city":"Japan","country":"Japan","lines":["北陸新幹線"],"line_ids":["rw-as-jpn-hsr-%E5%8C%97%E9%99%B8%E6%96%B0%E5%B9%B9%E7%B7%9A"],"line_names":["北陸新幹線"],"station_role":"normal","station_degree":2,"is_interchange":false,"is_terminus":false,"wikidata":"Q374916","wikipedia":"ja:長野駅"},"geometry":{"type":"Point","coordinates":[138.1885743,36.6433887]}},{"type":"Feature","properties":{"station_id":"sn4120997977","station_name":"飯山","station_name_local":"飯山","operator":"東日本旅客鉄道","city":"Japan","country":"Japan","lines":["北陸新幹線"],"line_ids":["rw-as-jpn-hsr-%E5%8C%97%E9%99%B8%E6%96%B0%E5%B9%B9%E7%B7%9A"],"line_names":["北陸新幹線"],"station_role":"normal","station_degree":2,"is_interchange":false,"is_terminus":false,"wikidata":"Q5995045","wikipedia":"ja:飯山駅"},"geometry":{"type":"Point","coordinates":[138.35876654999998,36.84588605]}},{"type":"Feature","properties":{"station_id":"sn4109702962","station_name":"上越妙高","station_name_local":"上越妙高","operator":"東日本旅客鉄道;西日本旅客鉄道","city":"Japan","country":"Japan","lines":["北陸新幹線"],"line_ids":["rw-as-jpn-hsr-%E5%8C%97%E9%99%B8%E6%96%B0%E5%B9%B9%E7%B7%9A"],"line_names":["北陸新幹線"],"station_role":"normal","station_degree":2,"is_interchange":false,"is_terminus":false,"wikidata":"Q15629351","wikipedia":"ja:上越妙高駅"},"geometry":{"type":"Point","coordinates":[138.2486852,37.0812219]}},{"type":"Feature","properties":{"station_id":"sn6110464627","station_name":"糸魚川","station_name_local":"糸魚川","operator":"えちごトキめき鉄道;西日本旅客鉄道","city":"Japan","country":"Japan","lines":["北陸新幹線"],"line_ids":["rw-as-jpn-hsr-%E5%8C%97%E9%99%B8%E6%96%B0%E5%B9%B9%E7%B7%9A"],"line_names":["北陸新幹線"],"station_role":"normal","station_degree":2,"is_interchange":false,"is_terminus":false,"wikidata":"Q871596","wikipedia":"ja:糸魚川駅"},"geometry":{"type":"Point","coordinates":[137.86187795,37.043443550000006]}},{"type":"Feature","properties":{"station_id":"sn11733499148","station_name":"黒部宇奈月温泉","station_name_local":"黒部宇奈月温泉","operator":"西日本旅客鉄道","city":"Japan","country":"Japan","lines":["北陸新幹線"],"line_ids":["rw-as-jpn-hsr-%E5%8C%97%E9%99%B8%E6%96%B0%E5%B9%B9%E7%B7%9A"],"line_names":["北陸新幹線"],"station_role":"normal","station_degree":2,"is_interchange":false,"is_terminus":false,"wikidata":"Q7497114","wikipedia":"ja:黒部宇奈月温泉駅"},"geometry":{"type":"Point","coordinates":[137.481437,36.8743189]}},{"type":"Feature","properties":{"station_id":"sn3977968053","station_name":"富山","station_name_local":"富山","operator":"あいの風とやま鉄道;西日本旅客鉄道","city":"Japan","country":"Japan","lines":["北陸新幹線"],"line_ids":["rw-as-jpn-hsr-%E5%8C%97%E9%99%B8%E6%96%B0%E5%B9%B9%E7%B7%9A"],"line_names":["北陸新幹線"],"station_role":"normal","station_degree":2,"is_interchange":false,"is_terminus":false,"wikidata":"Q1053070","wikipedia":"ja:富山駅"},"geometry":{"type":"Point","coordinates":[137.21341085,36.701591199999996]}},{"type":"Feature","properties":{"station_id":"sn8694285203","station_name":"新高岡","station_name_local":"新高岡","operator":"西日本旅客鉄道","city":"Japan","country":"Japan","lines":["北陸新幹線"],"line_ids":["rw-as-jpn-hsr-%E5%8C%97%E9%99%B8%E6%96%B0%E5%B9%B9%E7%B7%9A"],"line_names":["北陸新幹線"],"station_role":"normal","station_degree":2,"is_interchange":false,"is_terminus":false,"wikidata":"Q7497129","wikipedia":"ja:新高岡駅"},"geometry":{"type":"Point","coordinates":[137.01124514999998,36.72686125]}},{"type":"Feature","properties":{"station_id":"sn3977645705","station_name":"金沢","station_name_local":"金沢","operator":"西日本旅客鉄道","city":"Japan","country":"Japan","lines":["北陸新幹線"],"line_ids":["rw-as-jpn-hsr-%E5%8C%97%E9%99%B8%E6%96%B0%E5%B9%B9%E7%B7%9A"],"line_names":["北陸新幹線"],"station_role":"normal","station_degree":2,"is_interchange":false,"is_terminus":false,"wikidata":"Q1136378","wikipedia":"ja:金沢駅"},"geometry":{"type":"Point","coordinates":[136.6480247,36.5780499]}},{"type":"Feature","properties":{"station_id":"sw840511578","station_name":"小松","station_name_local":"小松","operator":null,"city":"Japan","country":"Japan","lines":["北陸新幹線"],"line_ids":["rw-as-jpn-hsr-%E5%8C%97%E9%99%B8%E6%96%B0%E5%B9%B9%E7%B7%9A"],"line_names":["北陸新幹線"],"station_role":"normal","station_degree":2,"is_interchange":false,"is_terminus":false,"wikidata":"Q5359990","wikipedia":"ja:小松駅"},"geometry":{"type":"Point","coordinates":[136.4529763,36.402101]}},{"type":"Feature","properties":{"station_id":"sn6641834272","station_name":"加賀温泉","station_name_local":"加賀温泉","operator":null,"city":"Japan","country":"Japan","lines":["北陸新幹線"],"line_ids":["rw-as-jpn-hsr-%E5%8C%97%E9%99%B8%E6%96%B0%E5%B9%B9%E7%B7%9A"],"line_names":["北陸新幹線"],"station_role":"normal","station_degree":2,"is_interchange":false,"is_terminus":false,"wikidata":"Q5359613","wikipedia":"ja:加賀温泉駅"},"geometry":{"type":"Point","coordinates":[136.3504996,36.3203882]}},{"type":"Feature","properties":{"station_id":"sn4921417492","station_name":"芦原温泉","station_name_local":"芦原温泉","operator":null,"city":"Japan","country":"Japan","lines":["北陸新幹線"],"line_ids":["rw-as-jpn-hsr-%E5%8C%97%E9%99%B8%E6%96%B0%E5%B9%B9%E7%B7%9A"],"line_names":["北陸新幹線"],"station_role":"normal","station_degree":2,"is_interchange":false,"is_terminus":false,"wikidata":"Q4829830","wikipedia":"ja:芦原温泉駅"},"geometry":{"type":"Point","coordinates":[136.2350566,36.2146024]}},{"type":"Feature","properties":{"station_id":"sn6641719592","station_name":"福井","station_name_local":"福井","operator":null,"city":"Japan","country":"Japan","lines":["北陸新幹線"],"line_ids":["rw-as-jpn-hsr-%E5%8C%97%E9%99%B8%E6%96%B0%E5%B9%B9%E7%B7%9A"],"line_names":["北陸新幹線"],"station_role":"normal","station_degree":2,"is_interchange":false,"is_terminus":false,"wikidata":"Q867992","wikipedia":"ja:福井駅 (福井県)"},"geometry":{"type":"Point","coordinates":[136.2231202,36.0618051]}},{"type":"Feature","properties":{"station_id":"sn11652998666","station_name":"越前たけふ","station_name_local":"越前たけふ","operator":null,"city":"Japan","country":"Japan","lines":["北陸新幹線"],"line_ids":["rw-as-jpn-hsr-%E5%8C%97%E9%99%B8%E6%96%B0%E5%B9%B9%E7%B7%9A"],"line_names":["北陸新幹線"],"station_role":"normal","station_degree":2,"is_interchange":false,"is_terminus":false,"wikidata":"Q6962163","wikipedia":"ja:越前たけふ駅"},"geometry":{"type":"Point","coordinates":[136.1989052,35.8955139]}},{"type":"Feature","properties":{"station_id":"sn12823282271","station_name":"敦賀","station_name_local":"敦賀","operator":null,"city":"Japan","country":"Japan","lines":["北陸新幹線"],"line_ids":["rw-as-jpn-hsr-%E5%8C%97%E9%99%B8%E6%96%B0%E5%B9%B9%E7%B7%9A"],"line_names":["北陸新幹線"],"station_role":"terminus","station_degree":1,"is_interchange":false,"is_terminus":true,"wikidata":"Q5364670","wikipedia":"ja:敦賀駅"},"geometry":{"type":"Point","coordinates":[136.0772238,35.6449712]}},{"type":"Feature","properties":{"station_id":"sn7792004174","station_name":"品川","station_name_local":"品川","operator":"東日本旅客鉄道","city":"Japan","country":"Japan","lines":["東海道新幹線"],"line_ids":["rw-as-jpn-hsr-%E6%9D%B1%E6%B5%B7%E9%81%93%E6%96%B0%E5%B9%B9%E7%B7%9A"],"line_names":["東海道新幹線"],"station_role":"normal","station_degree":2,"is_interchange":false,"is_terminus":false,"wikidata":"Q801442","wikipedia":"ja:品川駅"},"geometry":{"type":"Point","coordinates":[139.7395975,35.62867155]}},{"type":"Feature","properties":{"station_id":"sn11329681981","station_name":"新横浜","station_name_local":"新横浜","operator":null,"city":"Japan","country":"Japan","lines":["東海道新幹線"],"line_ids":["rw-as-jpn-hsr-%E6%9D%B1%E6%B5%B7%E9%81%93%E6%96%B0%E5%B9%B9%E7%B7%9A"],"line_names":["東海道新幹線"],"station_role":"normal","station_degree":2,"is_interchange":false,"is_terminus":false,"wikidata":"Q801437","wikipedia":"ja:新横浜駅"},"geometry":{"type":"Point","coordinates":[139.6175029,35.507030549999996]}},{"type":"Feature","properties":{"station_id":"sn11329995699","station_name":"小田原","station_name_local":"小田原","operator":"東海旅客鉄道","city":"Japan","country":"Japan","lines":["東海道新幹線"],"line_ids":["rw-as-jpn-hsr-%E6%9D%B1%E6%B5%B7%E9%81%93%E6%96%B0%E5%B9%B9%E7%B7%9A"],"line_names":["東海道新幹線"],"station_role":"normal","station_degree":2,"is_interchange":false,"is_terminus":false,"wikidata":"Q801290","wikipedia":"ja:小田原駅"},"geometry":{"type":"Point","coordinates":[139.15549585,35.256222775]}},{"type":"Feature","properties":{"station_id":"sn7984763506","station_name":"熱海","station_name_local":"熱海","operator":"東日本旅客鉄道","city":"Japan","country":"Japan","lines":["東海道新幹線"],"line_ids":["rw-as-jpn-hsr-%E6%9D%B1%E6%B5%B7%E9%81%93%E6%96%B0%E5%B9%B9%E7%B7%9A"],"line_names":["東海道新幹線"],"station_role":"normal","station_degree":2,"is_interchange":false,"is_terminus":false,"wikidata":"Q800412","wikipedia":"ja:熱海駅"},"geometry":{"type":"Point","coordinates":[139.0779469,35.103970950000004]}},{"type":"Feature","properties":{"station_id":"sn11331707612","station_name":"三島","station_name_local":"三島","operator":"東海旅客鉄道","city":"Japan","country":"Japan","lines":["東海道新幹線"],"line_ids":["rw-as-jpn-hsr-%E6%9D%B1%E6%B5%B7%E9%81%93%E6%96%B0%E5%B9%B9%E7%B7%9A"],"line_names":["東海道新幹線"],"station_role":"normal","station_degree":2,"is_interchange":false,"is_terminus":false,"wikidata":"Q375061","wikipedia":"ja:三島駅"},"geometry":{"type":"Point","coordinates":[138.91084155,35.126585649999996]}},{"type":"Feature","properties":{"station_id":"sn3585794197","station_name":"新富士","station_name_local":"新富士","operator":null,"city":"Japan","country":"Japan","lines":["東海道新幹線"],"line_ids":["rw-as-jpn-hsr-%E6%9D%B1%E6%B5%B7%E9%81%93%E6%96%B0%E5%B9%B9%E7%B7%9A"],"line_names":["東海道新幹線"],"station_role":"normal","station_degree":2,"is_interchange":false,"is_terminus":false,"wikidata":"Q1136475","wikipedia":"ja:新富士駅 (静岡県)"},"geometry":{"type":"Point","coordinates":[138.6634609,35.1421319]}},{"type":"Feature","properties":{"station_id":"sn3999393706","station_name":"静岡","station_name_local":"静岡","operator":"東海旅客鉄道","city":"Japan","country":"Japan","lines":["東海道新幹線"],"line_ids":["rw-as-jpn-hsr-%E6%9D%B1%E6%B5%B7%E9%81%93%E6%96%B0%E5%B9%B9%E7%B7%9A"],"line_names":["東海道新幹線"],"station_role":"normal","station_degree":2,"is_interchange":false,"is_terminus":false,"wikidata":"Q801440","wikipedia":"ja:静岡駅"},"geometry":{"type":"Point","coordinates":[138.388822,34.97161115]}},{"type":"Feature","properties":{"station_id":"sn3999393682","station_name":"掛川","station_name_local":"掛川","operator":null,"city":"Japan","country":"Japan","lines":["東海道新幹線"],"line_ids":["rw-as-jpn-hsr-%E6%9D%B1%E6%B5%B7%E9%81%93%E6%96%B0%E5%B9%B9%E7%B7%9A"],"line_names":["東海道新幹線"],"station_role":"normal","station_degree":2,"is_interchange":false,"is_terminus":false,"wikidata":"Q800978","wikipedia":"ja:掛川駅"},"geometry":{"type":"Point","coordinates":[138.01460603333334,34.7693574]}},{"type":"Feature","properties":{"station_id":"sn6620793971","station_name":"浜松","station_name_local":"浜松","operator":null,"city":"Japan","country":"Japan","lines":["東海道新幹線"],"line_ids":["rw-as-jpn-hsr-%E6%9D%B1%E6%B5%B7%E9%81%93%E6%96%B0%E5%B9%B9%E7%B7%9A"],"line_names":["東海道新幹線"],"station_role":"normal","station_degree":2,"is_interchange":false,"is_terminus":false,"wikidata":"Q603640","wikipedia":"ja:浜松駅"},"geometry":{"type":"Point","coordinates":[137.7348789,34.70380975]}},{"type":"Feature","properties":{"station_id":"sn11341532927","station_name":"豊橋","station_name_local":"豊橋","operator":null,"city":"Japan","country":"Japan","lines":["東海道新幹線"],"line_ids":["rw-as-jpn-hsr-%E6%9D%B1%E6%B5%B7%E9%81%93%E6%96%B0%E5%B9%B9%E7%B7%9A"],"line_names":["東海道新幹線"],"station_role":"normal","station_degree":2,"is_interchange":false,"is_terminus":false,"wikidata":"Q7497141","wikipedia":"ja:新豊橋駅"},"geometry":{"type":"Point","coordinates":[137.38212616666667,34.762599099999996]}},{"type":"Feature","properties":{"station_id":"sn6620847242","station_name":"三河安城","station_name_local":"三河安城","operator":null,"city":"Japan","country":"Japan","lines":["東海道新幹線"],"line_ids":["rw-as-jpn-hsr-%E6%9D%B1%E6%B5%B7%E9%81%93%E6%96%B0%E5%B9%B9%E7%B7%9A"],"line_names":["東海道新幹線"],"station_role":"normal","station_degree":2,"is_interchange":false,"is_terminus":false,"wikidata":"Q578691","wikipedia":"ja:三河安城駅"},"geometry":{"type":"Point","coordinates":[137.0610974,34.9694939]}},{"type":"Feature","properties":{"station_id":"sn11361374044","station_name":"名古屋","station_name_local":"名古屋","operator":"東海旅客鉄道","city":"Japan","country":"Japan","lines":["東海道新幹線"],"line_ids":["rw-as-jpn-hsr-%E6%9D%B1%E6%B5%B7%E9%81%93%E6%96%B0%E5%B9%B9%E7%B7%9A"],"line_names":["東海道新幹線"],"station_role":"normal","station_degree":2,"is_interchange":false,"is_terminus":false,"wikidata":"Q49381","wikipedia":"ja:名古屋駅"},"geometry":{"type":"Point","coordinates":[136.88173976666667,35.1700343]}},{"type":"Feature","properties":{"station_id":"sn6620847229","station_name":"岐阜羽島","station_name_local":"岐阜羽島","operator":null,"city":"Japan","country":"Japan","lines":["東海道新幹線"],"line_ids":["rw-as-jpn-hsr-%E6%9D%B1%E6%B5%B7%E9%81%93%E6%96%B0%E5%B9%B9%E7%B7%9A"],"line_names":["東海道新幹線"],"station_role":"normal","station_degree":2,"is_interchange":false,"is_terminus":false,"wikidata":"Q800820","wikipedia":"ja:岐阜羽島駅"},"geometry":{"type":"Point","coordinates":[136.6860366,35.3155126]}},{"type":"Feature","properties":{"station_id":"sn8064860618","station_name":"米原","station_name_local":"米原","operator":"西日本旅客鉄道","city":"Japan","country":"Japan","lines":["東海道新幹線"],"line_ids":["rw-as-jpn-hsr-%E6%9D%B1%E6%B5%B7%E9%81%93%E6%96%B0%E5%B9%B9%E7%B7%9A"],"line_names":["東海道新幹線"],"station_role":"normal","station_degree":2,"is_interchange":false,"is_terminus":false,"wikidata":"Q801158","wikipedia":"ja:米原駅"},"geometry":{"type":"Point","coordinates":[136.28985060000002,35.31496595]}},{"type":"Feature","properties":{"station_id":"sn3628707764","station_name":"京都","station_name_local":"京都","operator":"JR東海","city":"Japan","country":"Japan","lines":["東海道新幹線"],"line_ids":["rw-as-jpn-hsr-%E6%9D%B1%E6%B5%B7%E9%81%93%E6%96%B0%E5%B9%B9%E7%B7%9A"],"line_names":["東海道新幹線"],"station_role":"normal","station_degree":2,"is_interchange":false,"is_terminus":false,"wikidata":"Q801046","wikipedia":"ja:京都駅"},"geometry":{"type":"Point","coordinates":[135.75859815,34.98497865]}},{"type":"Feature","properties":{"station_id":"sn3647437886","station_name":"米沢","station_name_local":"米沢","operator":null,"city":"Japan","country":"Japan","lines":["山形新幹線"],"line_ids":["rw-as-jpn-hsr-%E5%B1%B1%E5%BD%A2%E6%96%B0%E5%B9%B9%E7%B7%9A"],"line_names":["山形新幹線"],"station_role":"normal","station_degree":2,"is_interchange":false,"is_terminus":false,"wikidata":"Q1137040","wikipedia":"ja:米沢駅"},"geometry":{"type":"Point","coordinates":[140.1283425,37.9094986]}},{"type":"Feature","properties":{"station_id":"sn3647437883","station_name":"高畠","station_name_local":"高畠","operator":null,"city":"Japan","country":"Japan","lines":["山形新幹線"],"line_ids":["rw-as-jpn-hsr-%E5%B1%B1%E5%BD%A2%E6%96%B0%E5%B9%B9%E7%B7%9A"],"line_names":["山形新幹線"],"station_role":"terminus","station_degree":1,"is_interchange":false,"is_terminus":true,"wikidata":"Q1137123","wikipedia":"ja:高畠駅"},"geometry":{"type":"Point","coordinates":[140.1531311,37.992415]}},{"type":"Feature","properties":{"station_id":"sn6126065842","station_name":"赤湯","station_name_local":"赤湯","operator":null,"city":"Japan","country":"Japan","lines":["山形新幹線"],"line_ids":["rw-as-jpn-hsr-%E5%B1%B1%E5%BD%A2%E6%96%B0%E5%B9%B9%E7%B7%9A"],"line_names":["山形新幹線"],"station_role":"terminus","station_degree":1,"is_interchange":false,"is_terminus":true,"wikidata":"Q1137103","wikipedia":"ja:赤湯駅"},"geometry":{"type":"Point","coordinates":[140.1489763,38.0473771]}},{"type":"Feature","properties":{"station_id":"sn263229121","station_name":"かみのやま温泉","station_name_local":"かみのやま温泉","operator":null,"city":"Japan","country":"Japan","lines":["山形新幹線"],"line_ids":["rw-as-jpn-hsr-%E5%B1%B1%E5%BD%A2%E6%96%B0%E5%B9%B9%E7%B7%9A"],"line_names":["山形新幹線"],"station_role":"normal","station_degree":2,"is_interchange":false,"is_terminus":false,"wikidata":"Q1137142","wikipedia":"ja:かみのやま温泉駅"},"geometry":{"type":"Point","coordinates":[140.2785301,38.1520989]}},{"type":"Feature","properties":{"station_id":"sn3585108748","station_name":"山形","station_name_local":"山形","operator":null,"city":"Japan","country":"Japan","lines":["山形新幹線"],"line_ids":["rw-as-jpn-hsr-%E5%B1%B1%E5%BD%A2%E6%96%B0%E5%B9%B9%E7%B7%9A"],"line_names":["山形新幹線"],"station_role":"normal","station_degree":2,"is_interchange":false,"is_terminus":false,"wikidata":"Q1135793","wikipedia":"ja:山形駅"},"geometry":{"type":"Point","coordinates":[140.3278031,38.2484701]}},{"type":"Feature","properties":{"station_id":"sn263224072","station_name":"天童","station_name_local":"天童","operator":null,"city":"Japan","country":"Japan","lines":["山形新幹線"],"line_ids":["rw-as-jpn-hsr-%E5%B1%B1%E5%BD%A2%E6%96%B0%E5%B9%B9%E7%B7%9A"],"line_names":["山形新幹線"],"station_role":"normal","station_degree":2,"is_interchange":false,"is_terminus":false,"wikidata":"Q1137082","wikipedia":"ja:天童駅"},"geometry":{"type":"Point","coordinates":[140.3695642,38.3599623]}},{"type":"Feature","properties":{"station_id":"sn6126772553","station_name":"さくらんぼ東根","station_name_local":"さくらんぼ東根","operator":null,"city":"Japan","country":"Japan","lines":["山形新幹線"],"line_ids":["rw-as-jpn-hsr-%E5%B1%B1%E5%BD%A2%E6%96%B0%E5%B9%B9%E7%B7%9A"],"line_names":["山形新幹線"],"station_role":"normal","station_degree":2,"is_interchange":false,"is_terminus":false,"wikidata":"Q742572","wikipedia":"ja:さくらんぼ東根駅"},"geometry":{"type":"Point","coordinates":[140.3810129,38.4285068]}},{"type":"Feature","properties":{"station_id":"sn6128684291","station_name":"村山","station_name_local":"村山","operator":null,"city":"Japan","country":"Japan","lines":["山形新幹線"],"line_ids":["rw-as-jpn-hsr-%E5%B1%B1%E5%BD%A2%E6%96%B0%E5%B9%B9%E7%B7%9A"],"line_names":["山形新幹線"],"station_role":"normal","station_degree":2,"is_interchange":false,"is_terminus":false,"wikidata":"Q1053166","wikipedia":"ja:村山駅 (山形県)"},"geometry":{"type":"Point","coordinates":[140.3864953,38.4770786]}},{"type":"Feature","properties":{"station_id":"sn6138275424","station_name":"大石田","station_name_local":"大石田","operator":null,"city":"Japan","country":"Japan","lines":["山形新幹線"],"line_ids":["rw-as-jpn-hsr-%E5%B1%B1%E5%BD%A2%E6%96%B0%E5%B9%B9%E7%B7%9A"],"line_names":["山形新幹線"],"station_role":"normal","station_degree":2,"is_interchange":false,"is_terminus":false,"wikidata":"Q1137108","wikipedia":"ja:大石田駅"},"geometry":{"type":"Point","coordinates":[140.3753132,38.5956294]}},{"type":"Feature","properties":{"station_id":"sn264402336","station_name":"新庄","station_name_local":"新庄","operator":null,"city":"Japan","country":"Japan","lines":["山形新幹線"],"line_ids":["rw-as-jpn-hsr-%E5%B1%B1%E5%BD%A2%E6%96%B0%E5%B9%B9%E7%B7%9A"],"line_names":["山形新幹線"],"station_role":"terminus","station_degree":1,"is_interchange":false,"is_terminus":true,"wikidata":"Q1188523","wikipedia":"ja:新庄駅"},"geometry":{"type":"Point","coordinates":[140.30602,38.7626088]}},{"type":"Feature","properties":{"station_id":"sn264234167","station_name":"雫石","station_name_local":"雫石","operator":null,"city":"Japan","country":"Japan","lines":["秋田新幹線"],"line_ids":["rw-as-jpn-hsr-%E7%A7%8B%E7%94%B0%E6%96%B0%E5%B9%B9%E7%B7%9A"],"line_names":["秋田新幹線"],"station_role":"normal","station_degree":2,"is_interchange":false,"is_terminus":false,"wikidata":"Q1137479","wikipedia":"ja:雫石駅"},"geometry":{"type":"Point","coordinates":[140.9744464,39.6892709]}},{"type":"Feature","properties":{"station_id":"sn264234833","station_name":"田沢湖","station_name_local":"田沢湖","operator":null,"city":"Japan","country":"Japan","lines":["秋田新幹線"],"line_ids":["rw-as-jpn-hsr-%E7%A7%8B%E7%94%B0%E6%96%B0%E5%B9%B9%E7%B7%9A"],"line_names":["秋田新幹線"],"station_role":"normal","station_degree":2,"is_interchange":false,"is_terminus":false,"wikidata":"Q692529","wikipedia":"ja:田沢湖駅"},"geometry":{"type":"Point","coordinates":[140.7223789,39.7002861]}},{"type":"Feature","properties":{"station_id":"sn8511775387","station_name":"角館","station_name_local":"角館","operator":null,"city":"Japan","country":"Japan","lines":["秋田新幹線"],"line_ids":["rw-as-jpn-hsr-%E7%A7%8B%E7%94%B0%E6%96%B0%E5%B9%B9%E7%B7%9A"],"line_names":["秋田新幹線"],"station_role":"normal","station_degree":2,"is_interchange":false,"is_terminus":false,"wikidata":"Q1137025","wikipedia":"ja:角館駅"},"geometry":{"type":"Point","coordinates":[140.5711801,39.5917435]}},{"type":"Feature","properties":{"station_id":"sn3976697455","station_name":"大曲","station_name_local":"大曲","operator":null,"city":"Japan","country":"Japan","lines":["秋田新幹線"],"line_ids":["rw-as-jpn-hsr-%E7%A7%8B%E7%94%B0%E6%96%B0%E5%B9%B9%E7%B7%9A"],"line_names":["秋田新幹線"],"station_role":"normal","station_degree":2,"is_interchange":false,"is_terminus":false,"wikidata":"Q1052987","wikipedia":"ja:大曲駅 (秋田県)"},"geometry":{"type":"Point","coordinates":[140.479891,39.4656823]}},{"type":"Feature","properties":{"station_id":"sn5643841222","station_name":"秋田","station_name_local":"秋田","operator":null,"city":"Japan","country":"Japan","lines":["秋田新幹線"],"line_ids":["rw-as-jpn-hsr-%E7%A7%8B%E7%94%B0%E6%96%B0%E5%B9%B9%E7%B7%9A"],"line_names":["秋田新幹線"],"station_role":"terminus","station_degree":1,"is_interchange":false,"is_terminus":true,"wikidata":"Q1316396","wikipedia":"ja:秋田駅"},"geometry":{"type":"Point","coordinates":[140.1296657,39.7168833]}},{"type":"Feature","properties":{"station_id":"sn8556065059","station_name":"奥津軽いまべつ","station_name_local":"奥津軽いまべつ","operator":"東日本旅客鉄道","city":"Japan","country":"Japan","lines":["北海道新幹線"],"line_ids":["rw-as-jpn-hsr-%E5%8C%97%E6%B5%B7%E9%81%93%E6%96%B0%E5%B9%B9%E7%B7%9A"],"line_names":["北海道新幹線"],"station_role":"normal","station_degree":2,"is_interchange":false,"is_terminus":false,"wikidata":"Q4546298","wikipedia":"ja:奥津軽いまべつ駅"},"geometry":{"type":"Point","coordinates":[140.51504545,41.145308650000004]}},{"type":"Feature","properties":{"station_id":"sn13667452288","station_name":"木古内","station_name_local":"木古内","operator":"北海道旅客鉄道","city":"Japan","country":"Japan","lines":["北海道新幹線"],"line_ids":["rw-as-jpn-hsr-%E5%8C%97%E6%B5%B7%E9%81%93%E6%96%B0%E5%B9%B9%E7%B7%9A"],"line_names":["北海道新幹線"],"station_role":"normal","station_degree":2,"is_interchange":false,"is_terminus":false,"wikidata":"Q59510","wikipedia":"ja:木古内駅"},"geometry":{"type":"Point","coordinates":[140.434267,41.67836635]}},{"type":"Feature","properties":{"station_id":"sn10560686937","station_name":"新函館北斗","station_name_local":"新函館北斗","operator":null,"city":"Japan","country":"Japan","lines":["北海道新幹線"],"line_ids":["rw-as-jpn-hsr-%E5%8C%97%E6%B5%B7%E9%81%93%E6%96%B0%E5%B9%B9%E7%B7%9A"],"line_names":["北海道新幹線"],"station_role":"terminus","station_degree":1,"is_interchange":false,"is_terminus":true,"wikidata":"Q1039122","wikipedia":"ja:新函館北斗駅"},"geometry":{"type":"Point","coordinates":[140.64858765,41.90479955]}},{"type":"Feature","properties":{"station_id":"sn4837988927","station_name":"武雄温泉","station_name_local":"武雄温泉","operator":null,"city":"Japan","country":"Japan","lines":["西九州新幹線"],"line_ids":["rw-as-jpn-hsr-%E8%A5%BF%E4%B9%9D%E5%B7%9E%E6%96%B0%E5%B9%B9%E7%B7%9A"],"line_names":["西九州新幹線"],"station_role":"terminus","station_degree":1,"is_interchange":false,"is_terminus":true,"wikidata":"Q2105971","wikipedia":"ja:武雄温泉駅"},"geometry":{"type":"Point","coordinates":[130.0230661,33.1964792]}},{"type":"Feature","properties":{"station_id":"sn8168035527","station_name":"嬉野温泉","station_name_local":"嬉野温泉","operator":"九州旅客鉄道","city":"Japan","country":"Japan","lines":["西九州新幹線"],"line_ids":["rw-as-jpn-hsr-%E8%A5%BF%E4%B9%9D%E5%B7%9E%E6%96%B0%E5%B9%B9%E7%B7%9A"],"line_names":["西九州新幹線"],"station_role":"normal","station_degree":2,"is_interchange":false,"is_terminus":false,"wikidata":"Q7900416","wikipedia":"ja:嬉野温泉駅"},"geometry":{"type":"Point","coordinates":[129.9989438,33.1066719]}},{"type":"Feature","properties":{"station_id":"sn7330322211","station_name":"新大村","station_name_local":"新大村","operator":"九州旅客鉄道","city":"Japan","country":"Japan","lines":["西九州新幹線"],"line_ids":["rw-as-jpn-hsr-%E8%A5%BF%E4%B9%9D%E5%B7%9E%E6%96%B0%E5%B9%B9%E7%B7%9A"],"line_names":["西九州新幹線"],"station_role":"normal","station_degree":2,"is_interchange":false,"is_terminus":false,"wikidata":"Q7497155","wikipedia":"ja:新大村駅"},"geometry":{"type":"Point","coordinates":[129.9570496,32.9329805]}},{"type":"Feature","properties":{"station_id":"sn7887750911","station_name":"諫早","station_name_local":"諫早","operator":"九州旅客鉄道","city":"Japan","country":"Japan","lines":["西九州新幹線"],"line_ids":["rw-as-jpn-hsr-%E8%A5%BF%E4%B9%9D%E5%B7%9E%E6%96%B0%E5%B9%B9%E7%B7%9A"],"line_names":["西九州新幹線"],"station_role":"normal","station_degree":2,"is_interchange":false,"is_terminus":false,"wikidata":"Q901393","wikipedia":"ja:諫早駅"},"geometry":{"type":"Point","coordinates":[130.041437,32.8515808]}},{"type":"Feature","properties":{"station_id":"sn7550110002","station_name":"長崎","station_name_local":"長崎","operator":"九州旅客鉄道株式会社","city":"Japan","country":"Japan","lines":["西九州新幹線"],"line_ids":["rw-as-jpn-hsr-%E8%A5%BF%E4%B9%9D%E5%B7%9E%E6%96%B0%E5%B9%B9%E7%B7%9A"],"line_names":["西九州新幹線"],"station_role":"terminus","station_degree":1,"is_interchange":false,"is_terminus":true,"wikidata":"Q1076315","wikipedia":null},"geometry":{"type":"Point","coordinates":[129.8688815,32.7521727]}},{"type":"Feature","properties":{"seg_id":"as-jpn-hsr-0","routes":[{"route_id":"rw-as-jpn-hsr-%E4%B9%9D%E5%B7%9E%E6%96%B0%E5%B9%B9%E7%B7%9A","route_name":"九州新幹線","route_name_local":"九州新幹線","route_ref":null,"route_color":"#1f8a4c","rail_class":"high_speed","operator":null,"wikidata":null,"wikipedia":null,"status":null,"order_suspect":0,"stations":[{"station_id":"sn13365956443","station_name":"博多","mileage":null},{"station_id":"sn7887750907","station_name":"新鳥栖","mileage":null},{"station_id":"sn265889297","station_name":"久留米","mileage":null},{"station_id":"sn8447295315","station_name":"筑後船小屋","mileage":null},{"station_id":"sn8447296024","station_name":"新大牟田","mileage":null},{"station_id":"sn8447296025","station_name":"新玉名","mileage":null},{"station_id":"sn12501680993","station_name":"熊本","mileage":null},{"station_id":"sn835388256","station_name":"新八代","mileage":null},{"station_id":"sn2011577947","station_name":"新水俣","mileage":null},{"station_id":"sn8259015626","station_name":"出水","mileage":null},{"station_id":"sn6055017024","station_name":"川内","mileage":null},{"station_id":"sn5603040079","station_name":"鹿児島中央","mileage":null}],"pass_stations":[]}],"route_count":1,"route_refs":["九州新幹線"],"route_colors":["#1f8a4c"],"route_color":"#1f8a4c","rail_class":"high_speed","city":"Japan","country":"Japan"},"geometry":{"type":"MultiLineString","coordinates":[[[130.42084016666664,33.59001063333333],[130.49111445,33.36972745],[130.5014036,33.3206417],[130.49202235,33.17818525],[130.4887598,33.0711991],[130.5737758,32.9423867],[130.6862112,32.79036085],[130.6348392,32.5180397],[130.4286671,32.2105785],[130.3577842,32.089725],[130.3122563,31.8137835],[130.5417909,31.5837134]]]}},{"type":"Feature","properties":{"seg_id":"as-jpn-hsr-1","routes":[{"route_id":"rw-as-jpn-hsr-%E5%B1%B1%E9%99%BD%E6%96%B0%E5%B9%B9%E7%B7%9A","route_name":"山陽新幹線","route_name_local":"山陽新幹線","route_ref":null,"route_color":"#1f8a4c","rail_class":"high_speed","operator":null,"wikidata":null,"wikipedia":null,"status":null,"order_suspect":0,"stations":[{"station_id":"sn6641323161","station_name":"新大阪","mileage":null},{"station_id":"sn5214360254","station_name":"新神戸","mileage":null},{"station_id":"sn8555589892","station_name":"西明石","mileage":null},{"station_id":"sn8092170172","station_name":"姫路","mileage":null},{"station_id":"sn8120834743","station_name":"相生","mileage":null},{"station_id":"sn11435050207","station_name":"岡山","mileage":null},{"station_id":"sn8558459803","station_name":"新倉敷","mileage":null},{"station_id":"sn13448114876","station_name":"福山","mileage":null},{"station_id":"sn8558459806","station_name":"新尾道","mileage":null},{"station_id":"sn13448114877","station_name":"三原","mileage":null},{"station_id":"sn8558341520","station_name":"東広島","mileage":null},{"station_id":"sn8058980077","station_name":"広島","mileage":null},{"station_id":"sn8558302338","station_name":"新岩国","mileage":null},{"station_id":"sn8561629931","station_name":"徳山","mileage":null},{"station_id":"sn8560452360","station_name":"新山口","mileage":null},{"station_id":"sn266058412","station_name":"厚狭","mileage":null},{"station_id":"sn8558016545","station_name":"新下関","mileage":null},{"station_id":"sn11724845346","station_name":"小倉","mileage":null},{"station_id":"sn13365956443","station_name":"博多","mileage":null}],"pass_stations":[]}],"route_count":1,"route_refs":["山陽新幹線"],"route_colors":["#1f8a4c"],"route_color":"#1f8a4c","rail_class":"high_speed","city":"Japan","country":"Japan"},"geometry":{"type":"MultiLineString","coordinates":[[[135.5010307,34.733808350000004],[135.1956157,34.7064884],[134.960262,34.66644195],[134.6905198,34.82665265],[134.47394505,34.8181436],[133.9180457,34.66607965],[133.67856260000002,34.56513715],[133.36218605,34.48935425],[133.1903283,34.4300627],[133.08328465,34.400649349999995],[132.7588789,34.3888993],[132.4755948,34.397954299999995],[132.1495132,34.1645738],[131.8024069,34.051124400000006],[131.3966594,34.0934497],[131.15987845,34.05361365],[130.948699,34.0069546],[130.88286555000002,33.887066450000006],[130.42084016666664,33.59001063333333]]]}},{"type":"Feature","properties":{"seg_id":"as-jpn-hsr-2","routes":[{"route_id":"rw-as-jpn-hsr-%E4%B8%8A%E8%B6%8A%E6%96%B0%E5%B9%B9%E7%B7%9A","route_name":"上越新幹線","route_name_local":"上越新幹線","route_ref":null,"route_color":"#1f8a4c","rail_class":"high_speed","operator":null,"wikidata":null,"wikipedia":null,"status":null,"order_suspect":0,"stations":[{"station_id":"sn13731947846","station_name":"東京","mileage":null},{"station_id":"sn236578444","station_name":"上野","mileage":null},{"station_id":"sn11002390977","station_name":"大宮","mileage":null},{"station_id":"sn7900236531","station_name":"熊谷","mileage":null},{"station_id":"sn6677954148","station_name":"本庄早稲田","mileage":null},{"station_id":"sn3830636503","station_name":"高崎","mileage":null},{"station_id":"sn3032951488","station_name":"上毛高原","mileage":null},{"station_id":"sn3548915150","station_name":"越後湯沢","mileage":null},{"station_id":"sn3548915157","station_name":"浦佐","mileage":null},{"station_id":"sn5574679639","station_name":"長岡","mileage":null},{"station_id":"sn9015341705","station_name":"燕三条","mileage":null},{"station_id":"sn4087367885","station_name":"新潟","mileage":null}],"pass_stations":[]}],"route_count":1,"route_refs":["上越新幹線"],"route_colors":["#1f8a4c"],"route_color":"#1f8a4c","rail_class":"high_speed","city":"Japan","country":"Japan"},"geometry":{"type":"MultiLineString","coordinates":[[[139.76681184999998,35.680258975],[139.7765418,35.7134128],[139.62374119999998,35.9062678],[139.39022185,36.1392123],[139.1794855,36.2188607],[139.0124912,36.3216209],[138.9775973,36.6931647],[138.8094233,36.9358784],[138.9228409,37.1672238],[138.8541667,37.4478778],[138.9390886,37.6483698],[139.0613294,37.9122444]]]}},{"type":"Feature","properties":{"seg_id":"as-jpn-hsr-3","routes":[{"route_id":"rw-as-jpn-hsr-%E6%9D%B1%E5%8C%97%E6%96%B0%E5%B9%B9%E7%B7%9A","route_name":"東北新幹線","route_name_local":"東北新幹線","route_ref":null,"route_color":"#1f8a4c","rail_class":"high_speed","operator":null,"wikidata":null,"wikipedia":null,"status":null,"order_suspect":0,"stations":[{"station_id":"sn13731947846","station_name":"東京","mileage":null},{"station_id":"sn236578444","station_name":"上野","mileage":null},{"station_id":"sn11002390977","station_name":"大宮","mileage":null},{"station_id":"sn3721336949","station_name":"小山","mileage":null},{"station_id":"sn8173024298","station_name":"宇都宮","mileage":null},{"station_id":"sn6095556279","station_name":"那須塩原","mileage":null},{"station_id":"sn3721569613","station_name":"新白河","mileage":null},{"station_id":"sn3800631016","station_name":"郡山","mileage":null},{"station_id":"sn206431759","station_name":"福島","mileage":null},{"station_id":"sn3908803392","station_name":"白石蔵王","mileage":null},{"station_id":"sn3570916502","station_name":"仙台","mileage":null},{"station_id":"sn265031031","station_name":"古川","mileage":null},{"station_id":"sn265031015","station_name":"くりこま高原","mileage":null},{"station_id":"sn4636882514","station_name":"一ノ関","mileage":null},{"station_id":"sn6260704559","station_name":"水沢江刺","mileage":null},{"station_id":"sn3906691754","station_name":"北上","mileage":null},{"station_id":"sn3920556727","station_name":"新花巻","mileage":null},{"station_id":"sn11522007330","station_name":"盛岡","mileage":null},{"station_id":"sn3920556722","station_name":"いわて沼宮内","mileage":null},{"station_id":"sn3920556725","station_name":"二戸","mileage":null},{"station_id":"sn13739254152","station_name":"八戸","mileage":null},{"station_id":"sn3665957894","station_name":"七戸十和田","mileage":null},{"station_id":"sn11044604585","station_name":"新青森","mileage":null}],"pass_stations":[]}],"route_count":1,"route_refs":["東北新幹線"],"route_colors":["#1f8a4c"],"route_color":"#1f8a4c","rail_class":"high_speed","city":"Japan","country":"Japan"},"geometry":{"type":"MultiLineString","coordinates":[[[139.76681184999998,35.680258975],[139.7765418,35.7134128],[139.62374119999998,35.9062678],[139.8065054,36.3129364],[139.89833234999998,36.55922885],[140.0208814,36.9315475],[140.1884461,37.1230906],[140.388798,37.398488],[140.4592144,37.75454],[140.6331751,37.9954269],[140.8823921,38.2603516],[140.9679338,38.5705529],[141.0716092,38.7487399],[141.1389019,38.9268807],[141.1887494,39.1451474],[141.1217172,39.2818212],[141.1735809,39.4058826],[141.136261,39.70144533333333],[141.2172841,39.960584],[141.286006,40.260138],[141.4311984,40.509248400000004],[141.1535294,40.720056],[140.69342590000002,40.82787845]]]}},{"type":"Feature","properties":{"seg_id":"as-jpn-hsr-4","routes":[{"route_id":"rw-as-jpn-hsr-%E5%8C%97%E9%99%B8%E6%96%B0%E5%B9%B9%E7%B7%9A","route_name":"北陸新幹線","route_name_local":"北陸新幹線","route_ref":null,"route_color":"#1f8a4c","rail_class":"high_speed","operator":null,"wikidata":null,"wikipedia":null,"status":null,"order_suspect":0,"stations":[{"station_id":"sn13731947846","station_name":"東京","mileage":null},{"station_id":"sn236578444","station_name":"上野","mileage":null},{"station_id":"sn11002390977","station_name":"大宮","mileage":null},{"station_id":"sn7900236531","station_name":"熊谷","mileage":null},{"station_id":"sn6677954148","station_name":"本庄早稲田","mileage":null},{"station_id":"sn3830636503","station_name":"高崎","mileage":null},{"station_id":"sn2620776337","station_name":"安中榛名","mileage":null},{"station_id":"sn2620998956","station_name":"軽井沢","mileage":null},{"station_id":"sn265040118","station_name":"佐久平","mileage":null},{"station_id":"sn2638613340","station_name":"上田","mileage":null},{"station_id":"sn8007911566","station_name":"長野","mileage":null},{"station_id":"sn4120997977","station_name":"飯山","mileage":null},{"station_id":"sn4109702962","station_name":"上越妙高","mileage":null},{"station_id":"sn6110464627","station_name":"糸魚川","mileage":null},{"station_id":"sn11733499148","station_name":"黒部宇奈月温泉","mileage":null},{"station_id":"sn3977968053","station_name":"富山","mileage":null},{"station_id":"sn8694285203","station_name":"新高岡","mileage":null},{"station_id":"sn3977645705","station_name":"金沢","mileage":null},{"station_id":"sw840511578","station_name":"小松","mileage":null},{"station_id":"sn6641834272","station_name":"加賀温泉","mileage":null},{"station_id":"sn4921417492","station_name":"芦原温泉","mileage":null},{"station_id":"sn6641719592","station_name":"福井","mileage":null},{"station_id":"sn11652998666","station_name":"越前たけふ","mileage":null},{"station_id":"sn12823282271","station_name":"敦賀","mileage":null}],"pass_stations":[]}],"route_count":1,"route_refs":["北陸新幹線"],"route_colors":["#1f8a4c"],"route_color":"#1f8a4c","rail_class":"high_speed","city":"Japan","country":"Japan"},"geometry":{"type":"MultiLineString","coordinates":[[[139.76681184999998,35.680258975],[139.7765418,35.7134128],[139.62374119999998,35.9062678],[139.39022185,36.1392123],[139.1794855,36.2188607],[139.0124912,36.3216209],[138.8493964,36.3625792],[138.6351092,36.3425512],[138.46395495000002,36.27786175],[138.2495851,36.3965984],[138.1885743,36.6433887],[138.35876654999998,36.84588605],[138.2486852,37.0812219],[137.86187795,37.043443550000006],[137.481437,36.8743189],[137.21341085,36.701591199999996],[137.01124514999998,36.72686125],[136.6480247,36.5780499],[136.4529763,36.402101],[136.3504996,36.3203882],[136.2350566,36.2146024],[136.2231202,36.0618051],[136.1989052,35.8955139],[136.0772238,35.6449712]]]}},{"type":"Feature","properties":{"seg_id":"as-jpn-hsr-5","routes":[{"route_id":"rw-as-jpn-hsr-%E5%B1%B1%E5%BD%A2%E6%96%B0%E5%B9%B9%E7%B7%9A","route_name":"山形新幹線","route_name_local":"山形新幹線","route_ref":null,"route_color":"#1f8a4c","rail_class":"high_speed","operator":null,"wikidata":null,"wikipedia":null,"status":null,"order_suspect":0,"stations":[{"station_id":"sn13731947846","station_name":"東京","mileage":null},{"station_id":"sn236578444","station_name":"上野","mileage":null},{"station_id":"sn11002390977","station_name":"大宮","mileage":null},{"station_id":"sn206431759","station_name":"福島","mileage":null},{"station_id":"sn3647437886","station_name":"米沢","mileage":null},{"station_id":"sn3647437883","station_name":"高畠","mileage":null},{"station_id":"sn6126065842","station_name":"赤湯","mileage":null},{"station_id":"sn263229121","station_name":"かみのやま温泉","mileage":null},{"station_id":"sn3585108748","station_name":"山形","mileage":null},{"station_id":"sn263224072","station_name":"天童","mileage":null},{"station_id":"sn6126772553","station_name":"さくらんぼ東根","mileage":null},{"station_id":"sn6128684291","station_name":"村山","mileage":null},{"station_id":"sn6138275424","station_name":"大石田","mileage":null},{"station_id":"sn264402336","station_name":"新庄","mileage":null}],"pass_stations":[]}],"route_count":1,"route_refs":["山形新幹線"],"route_colors":["#1f8a4c"],"route_color":"#1f8a4c","rail_class":"high_speed","city":"Japan","country":"Japan"},"geometry":{"type":"MultiLineString","coordinates":[[[139.76681184999998,35.680258975],[139.7765418,35.7134128],[139.62374119999998,35.9062678]],[[140.4592144,37.75454],[140.1283425,37.9094986],[140.1531311,37.992415]],[[140.1489763,38.0473771],[140.2785301,38.1520989],[140.3278031,38.2484701],[140.3695642,38.3599623],[140.3810129,38.4285068],[140.3864953,38.4770786],[140.3753132,38.5956294],[140.30602,38.7626088]]]}},{"type":"Feature","properties":{"seg_id":"as-jpn-hsr-6","routes":[{"route_id":"rw-as-jpn-hsr-%E7%A7%8B%E7%94%B0%E6%96%B0%E5%B9%B9%E7%B7%9A","route_name":"秋田新幹線","route_name_local":"秋田新幹線","route_ref":null,"route_color":"#1f8a4c","rail_class":"high_speed","operator":null,"wikidata":null,"wikipedia":null,"status":null,"order_suspect":0,"stations":[{"station_id":"sn13731947846","station_name":"東京","mileage":null},{"station_id":"sn236578444","station_name":"上野","mileage":null},{"station_id":"sn11002390977","station_name":"大宮","mileage":null},{"station_id":"sn11522007330","station_name":"盛岡","mileage":null},{"station_id":"sn264234167","station_name":"雫石","mileage":null},{"station_id":"sn264234833","station_name":"田沢湖","mileage":null},{"station_id":"sn8511775387","station_name":"角館","mileage":null},{"station_id":"sn3976697455","station_name":"大曲","mileage":null},{"station_id":"sn5643841222","station_name":"秋田","mileage":null}],"pass_stations":[]}],"route_count":1,"route_refs":["秋田新幹線"],"route_colors":["#1f8a4c"],"route_color":"#1f8a4c","rail_class":"high_speed","city":"Japan","country":"Japan"},"geometry":{"type":"MultiLineString","coordinates":[[[139.76681184999998,35.680258975],[139.7765418,35.7134128],[139.62374119999998,35.9062678]],[[141.136261,39.70144533333333],[140.9744464,39.6892709],[140.7223789,39.7002861],[140.5711801,39.5917435],[140.479891,39.4656823],[140.1296657,39.7168833]]]}},{"type":"Feature","properties":{"seg_id":"as-jpn-hsr-7","routes":[{"route_id":"rw-as-jpn-hsr-%E6%9D%B1%E6%B5%B7%E9%81%93%E6%96%B0%E5%B9%B9%E7%B7%9A","route_name":"東海道新幹線","route_name_local":"東海道新幹線","route_ref":null,"route_color":"#1f8a4c","rail_class":"high_speed","operator":null,"wikidata":null,"wikipedia":null,"status":null,"order_suspect":0,"stations":[{"station_id":"sn13731947846","station_name":"東京","mileage":null},{"station_id":"sn7792004174","station_name":"品川","mileage":null},{"station_id":"sn11329681981","station_name":"新横浜","mileage":null},{"station_id":"sn11329995699","station_name":"小田原","mileage":null},{"station_id":"sn7984763506","station_name":"熱海","mileage":null},{"station_id":"sn11331707612","station_name":"三島","mileage":null},{"station_id":"sn3585794197","station_name":"新富士","mileage":null},{"station_id":"sn3999393706","station_name":"静岡","mileage":null},{"station_id":"sn3999393682","station_name":"掛川","mileage":null},{"station_id":"sn6620793971","station_name":"浜松","mileage":null},{"station_id":"sn11341532927","station_name":"豊橋","mileage":null},{"station_id":"sn6620847242","station_name":"三河安城","mileage":null},{"station_id":"sn11361374044","station_name":"名古屋","mileage":null},{"station_id":"sn6620847229","station_name":"岐阜羽島","mileage":null},{"station_id":"sn8064860618","station_name":"米原","mileage":null},{"station_id":"sn3628707764","station_name":"京都","mileage":null},{"station_id":"sn6641323161","station_name":"新大阪","mileage":null}],"pass_stations":[]}],"route_count":1,"route_refs":["東海道新幹線"],"route_colors":["#1f8a4c"],"route_color":"#1f8a4c","rail_class":"high_speed","city":"Japan","country":"Japan"},"geometry":{"type":"MultiLineString","coordinates":[[[139.76681184999998,35.680258975],[139.7395975,35.62867155],[139.6175029,35.507030549999996],[139.15549585,35.256222775],[139.0779469,35.103970950000004],[138.91084155,35.126585649999996],[138.6634609,35.1421319],[138.388822,34.97161115],[138.01460603333334,34.7693574],[137.7348789,34.70380975],[137.38212616666667,34.762599099999996],[137.0610974,34.9694939],[136.88173976666667,35.1700343],[136.6860366,35.3155126],[136.28985060000002,35.31496595],[135.75859815,34.98497865],[135.5010307,34.733808350000004]]]}},{"type":"Feature","properties":{"seg_id":"as-jpn-hsr-8","routes":[{"route_id":"rw-as-jpn-hsr-%E5%8C%97%E6%B5%B7%E9%81%93%E6%96%B0%E5%B9%B9%E7%B7%9A","route_name":"北海道新幹線","route_name_local":"北海道新幹線","route_ref":null,"route_color":"#1f8a4c","rail_class":"high_speed","operator":null,"wikidata":null,"wikipedia":null,"status":null,"order_suspect":0,"stations":[{"station_id":"sn11044604585","station_name":"新青森","mileage":null},{"station_id":"sn8556065059","station_name":"奥津軽いまべつ","mileage":null},{"station_id":"sn13667452288","station_name":"木古内","mileage":null},{"station_id":"sn10560686937","station_name":"新函館北斗","mileage":null}],"pass_stations":[]}],"route_count":1,"route_refs":["北海道新幹線"],"route_colors":["#1f8a4c"],"route_color":"#1f8a4c","rail_class":"high_speed","city":"Japan","country":"Japan"},"geometry":{"type":"MultiLineString","coordinates":[[[140.69342590000002,40.82787845],[140.51504545,41.145308650000004],[140.434267,41.67836635],[140.64858765,41.90479955]]]}},{"type":"Feature","properties":{"seg_id":"as-jpn-hsr-9","routes":[{"route_id":"rw-as-jpn-hsr-%E8%A5%BF%E4%B9%9D%E5%B7%9E%E6%96%B0%E5%B9%B9%E7%B7%9A","route_name":"西九州新幹線","route_name_local":"西九州新幹線","route_ref":null,"route_color":"#1f8a4c","rail_class":"high_speed","operator":null,"wikidata":null,"wikipedia":null,"status":null,"order_suspect":0,"stations":[{"station_id":"sn4837988927","station_name":"武雄温泉","mileage":null},{"station_id":"sn8168035527","station_name":"嬉野温泉","mileage":null},{"station_id":"sn7330322211","station_name":"新大村","mileage":null},{"station_id":"sn7887750911","station_name":"諫早","mileage":null},{"station_id":"sn7550110002","station_name":"長崎","mileage":null}],"pass_stations":[]}],"route_count":1,"route_refs":["西九州新幹線"],"route_colors":["#1f8a4c"],"route_color":"#1f8a4c","rail_class":"high_speed","city":"Japan","country":"Japan"},"geometry":{"type":"MultiLineString","coordinates":[[[130.0230661,33.1964792],[129.9989438,33.1066719],[129.9570496,32.9329805],[130.041437,32.8515808],[129.8688815,32.7521727]]]}}]}