{"type":"FeatureCollection","features":[{"type":"Feature","properties":{"route_ref":"1","route_color":"#64748b"},"geometry":{"type":"LineString","coordinates":[[19.129144944689678,50.83960631813738],[19.122212663157896,50.83680142105263],[19.120438597985853,50.83573560311901],[19.118851280824572,50.835372101638214],[19.11756105255889,50.83485977780478],[19.117208621500325,50.83451438414251],[19.116884957142858,50.83388164285714],[19.116045962500003,50.83182749375],[19.11577668993375,50.830240231295996],[19.117230466033696,50.82496087272589],[19.118477902860516,50.81969768521751],[19.118595794084158,50.816797946385925],[19.11812918530541,50.80669713113759],[19.118407813378866,50.805430799900556],[19.118014977147343,50.80402800292022],[19.117906177506367,50.802124701256666],[19.11807670445519,50.8012947484693],[19.11834241787603,50.800859923689934],[19.12400206609818,50.79654351539555],[19.126916475598534,50.79347046262682],[19.13944576666667,50.785442466666666],[19.141171218645713,50.78449760629924],[19.142301029103017,50.78449521665559],[19.14339359862322,50.784759864966965],[19.15223347810273,50.787720252112415],[19.162558140265897,50.79316279770962],[19.16459598387266,50.79303551873783],[19.166761811857288,50.79201207708056],[19.168217061906514,50.7914623565154],[19.171903405162844,50.79068684826461],[19.172172152029788,50.79049656727831],[19.17227594457383,50.789997559549604],[19.17249560126833,50.78989210196502],[19.17276264181148,50.78990477394503],[19.172991334714613,50.79005779088669],[19.173028379570468,50.79037741039028],[19.172753673048973,50.79058269260287],[19.16974110932458,50.7911032904265],[19.168375964111533,50.7914237531512],[19.167102101616518,50.79186599577815],[19.16451022943198,50.79306185438524],[19.162671966457808,50.793180520284025],[19.161096662498164,50.792460544494375],[19.152230432993875,50.7877192271735],[19.143658561361576,50.78483847849316],[19.14241591142596,50.78451788234317],[19.141319427274432,50.78447036164453],[19.14102502385142,50.784540779764946],[19.140106652611752,50.785038385539686],[19.126916840539263,50.793467026953415],[19.124090872801258,50.796467218964914],[19.120994145454546,50.79892553636363],[19.118336825598927,50.800872800848396],[19.118055544440278,50.80135113592979],[19.117906214100696,50.80212288745571],[19.118047018873256,50.80417448192246],[19.11840879996375,50.80544907603827],[19.118129291020253,50.806702449969784],[19.11859636666666,50.81679425555556],[19.118518560000002,50.81934144],[19.11831837142857,50.8206482],[19.11578054480021,50.83025838860632],[19.11601893741691,50.8317216925418],[19.116914191126895,50.833949801042834],[19.1172496,50.8345782],[19.117537477392684,50.834840264250346],[19.1188012296699,50.83534794742066],[19.120622006069365,50.83580399441456],[19.12170660682353,50.83653844720248],[19.122711578815057,50.83700377375728],[19.129380899999997,50.8397038]]}},{"type":"Feature","properties":{"route_ref":"2","route_color":"#64748b"},"geometry":{"type":"LineString","coordinates":[[19.129114838456385,50.839635514106],[19.122212663157896,50.83680142105263],[19.12084780937498,50.83590834364908],[19.118997592951864,50.83541904686711],[19.11756105255889,50.83485977780478],[19.117208621500325,50.83451438414251],[19.116884957142858,50.83388164285714],[19.116045962500003,50.83182749375],[19.11577668993375,50.830240231295996],[19.117230466033696,50.82496087272589],[19.118477902860516,50.81969768521751],[19.118591419756957,50.816147076682654],[19.11812918530541,50.80669713113759],[19.118407813378866,50.805430799900556],[19.118014977147343,50.80402800292022],[19.11793178683512,50.80174375365939],[19.11834241787603,50.800859923689934],[19.12400206609818,50.79654351539555],[19.126916475598534,50.79347046262682],[19.140102081858736,50.78503742511183],[19.14102170799795,50.784541031893895],[19.141947718709154,50.78445750073562],[19.143651466666668,50.784836033333335],[19.150721912712548,50.78718251225912],[19.143253664193185,50.7847217671804],[19.1419551,50.7844582],[19.14102502385142,50.784540779764946],[19.137188984582856,50.78687660279384],[19.126916840539263,50.793467026953415],[19.124090872801258,50.796467218964914],[19.120994145454546,50.79892553636363],[19.11840505795494,50.80080730694937],[19.118107196818556,50.801230058965324],[19.117921536695636,50.801805122878456],[19.118035177426258,50.80409289051543],[19.11840879996375,50.80544907603827],[19.118129291020253,50.806702449969784],[19.118591724052553,50.81614244499623],[19.118518560000002,50.81934144],[19.11831837142857,50.8206482],[19.11578054480021,50.83025838860632],[19.11601893741691,50.8317216925418],[19.116914191126895,50.833949801042834],[19.1172496,50.8345782],[19.117537477392684,50.834840264250346],[19.119074436591088,50.835442445772124],[19.120622006069365,50.83580399441456],[19.12170660682353,50.83653844720248],[19.122711578815057,50.83700377375728],[19.129528705879917,50.83980039170243],[19.130149716368784,50.839914175366744],[19.13127390475086,50.83972092016602],[19.13152213319082,50.839818124326946],[19.131578492205914,50.839944907135276],[19.131397918445266,50.840129092927434],[19.13088187578304,50.84014884166691],[19.12995132647233,50.839939871795444],[19.12911491594365,50.83963539490372]]}},{"type":"Feature","properties":{"route_ref":"3","route_color":"#64748b"},"geometry":{"type":"MultiLineString","coordinates":[[[19.129114838456385,50.839635514106],[19.122212663157896,50.83680142105263],[19.12084780937498,50.83590834364908],[19.118997592951864,50.83541904686711],[19.11756105255889,50.83485977780478],[19.117208621500325,50.83451438414251],[19.116884957142858,50.83388164285714],[19.116045962500003,50.83182749375],[19.11577668993375,50.830240231295996],[19.117230466033696,50.82496087272589],[19.118477902860516,50.81969768521751],[19.118591419756957,50.816147076682654],[19.11812918530541,50.80669713113759],[19.118407813378866,50.805430799900556],[19.118014977147343,50.80402800292022],[19.11793178683512,50.80174375365939],[19.11834241787603,50.800859923689934],[19.12400206609818,50.79654351539555],[19.126916475598534,50.79347046262682],[19.140851319260392,50.784591813427404],[19.126916840539263,50.793467026953415],[19.124090872801258,50.796467218964914],[19.120994145454546,50.79892553636363],[19.11840505795494,50.80080730694937],[19.118107196818556,50.801230058965324],[19.117921536695636,50.801805122878456],[19.118035177426258,50.80409289051543],[19.11840879996375,50.80544907603827],[19.118129291020253,50.806702449969784],[19.118591724052553,50.81614244499623],[19.118518560000002,50.81934144],[19.11831837142857,50.8206482],[19.11578054480021,50.83025838860632],[19.11601893741691,50.8317216925418],[19.116914191126895,50.833949801042834],[19.1172496,50.8345782],[19.117537477392684,50.834840264250346],[19.119074436591088,50.835442445772124],[19.120622006069365,50.83580399441456],[19.12170660682353,50.83653844720248],[19.122711578815057,50.83700377375728],[19.129528705879917,50.83980039170243],[19.130149716368784,50.839914175366744],[19.13127390475086,50.83972092016602],[19.13152213319082,50.839818124326946],[19.131578492205914,50.839944907135276],[19.131397918445266,50.840129092927434],[19.13088187578304,50.84014884166691],[19.12995132647233,50.839939871795444],[19.12911491594365,50.83963539490372]],[[19.158284017581554,50.77584167614622],[19.15752124189167,50.77563001873084],[19.157243827760013,50.77538958980851],[19.157329769104678,50.77399770028762],[19.157099757958775,50.77332045420389],[19.156108932914993,50.7725936830752],[19.155435151576327,50.77224545149673],[19.152473844524355,50.771535842728035],[19.15056078828849,50.77071751033819],[19.148914089488756,50.76984310251834],[19.148486122379328,50.76973456401858],[19.145042718385962,50.769628160453514],[19.142944119236663,50.76965641870803],[19.14225497765777,50.76976969474851],[19.140519573164088,50.77059383621611],[19.139842767501122,50.7710805125331],[19.13767940206091,50.77230603160729],[19.137065365667546,50.77252615642046],[19.135980230975967,50.77266330923338],[19.135720357873712,50.772768854856615],[19.135629729699563,50.77305730333825],[19.136017115053452,50.7763575714374],[19.135868582533092,50.77650509304961],[19.134075843190804,50.777262385388006],[19.132626964275968,50.77883835285074],[19.130490629047756,50.780233930396015],[19.128999650279034,50.782804608297994],[19.129030273688677,50.783409089456846],[19.129209621332876,50.78355139637518],[19.129582481755,50.78360794813732],[19.13317353200538,50.782701064766904],[19.13511544748703,50.78254984635226],[19.13752082659727,50.78294719676727],[19.140574099999995,50.7838061],[19.14119152130457,50.78405148467477],[19.141214912980953,50.784355642299445],[19.140819851221966,50.78458674142687],[19.141255918442805,50.78430179216244],[19.14124543804996,50.78411036448484],[19.141046389665515,50.78397742199151],[19.137647392422856,50.78298142275079],[19.135338284087595,50.78257365850733],[19.13410744356772,50.78258662489651],[19.133018946900307,50.78273545140123],[19.129500150349266,50.783618583257415],[19.129070798258216,50.78346505078799],[19.128942181386897,50.78304849080909],[19.130242257967907,50.78059221241764],[19.130619849293648,50.7801097082645],[19.132683098540614,50.77879060363586],[19.134076416420086,50.77726562673463],[19.135863296711793,50.77650667152693],[19.136014727500115,50.77635140347804],[19.1356471,50.7732727],[19.135710955836576,50.77277695072832],[19.135952689700535,50.77266659841075],[19.136712534727604,50.772591836013554],[19.13752843706414,50.772376859313006],[19.140524977871653,50.77059218037287],[19.14225762419037,50.76976822391571],[19.14294330341006,50.76965797268991],[19.14500358554728,50.76962834136431],[19.148487847601526,50.769734904743295],[19.148913812689607,50.76984295069653],[19.14930799594754,50.770118953686975],[19.151091342860084,50.77096854631997],[19.152472541868526,50.77153519239414],[19.155579103965234,50.77230042376016],[19.15685473077503,50.77310185077906],[19.15717399132075,50.77341872607605],[19.157323514285714,50.77406581428572],[19.15720099840181,50.77528130553309],[19.15732972872676,50.77549326046642],[19.15767816515683,50.77568135545129]]]}}]}