{"type":"FeatureCollection","metro_system":{"continent":"europe","country":"Czechia","city":"Prague","official_website":null,"official_map":"https://en.wikipedia.org/wiki/Prague_Metro","wikipedia":"en:Prague Metro","wiki":true,"wikipedia_zh":"zh:布拉格地铁","line_count":3,"segment_count":3,"station_count":56,"modes":["metro"],"audit":{"strategies_tried":[],"passed":true,"checks":[{"id":"system_exists","ok":true,"detail":"matched OSM system metro-maps/europe/czechia/eu-cze-prague/eu-cze-prague.geojson","level":"error"},{"id":"has_lines","ok":true,"detail":"3 lines","level":"error"},{"id":"has_stations","ok":true,"detail":"56 stations","level":"error"},{"id":"station_count_info","ok":true,"detail":"OSM 56 站（wiki List 記 61，計法含轉乘重複，僅參考）","level":"warn"},{"id":"stations_have_lines","ok":true,"detail":"56/56 站皆有所屬路線","level":"error"},{"id":"line_geometry_stations","ok":true,"detail":"59 個折點/端點皆為車站","level":"error"},{"id":"route_stations_match_geometry","ok":true,"detail":"各線車站列表與圖面一致","level":"error"},{"id":"interchange_rule","ok":true,"detail":"所有車站紅/藍點符合骨架＋路線色規則（藍＝端點、紅＝交叉）","level":"error"},{"id":"stations_named","ok":true,"detail":"56/56 站皆有名稱","level":"error"},{"id":"station_order","ok":true,"detail":"所有線路站序合理","level":"warn"},{"id":"line_wiki_stations","ok":true,"detail":"各線站數與 wiki 線路條目相符（營運中站數）","level":"error"},{"id":"line_wiki_coverage","ok":false,"detail":"3 條線無 wiki 站數對照：Subway line C、Subway line A、Subway line B","level":"warn"}],"reasons":[],"warnings":["3 條線無 wiki 站數對照：Subway line C、Subway line A、Subway line B"],"audited_at":"2026-07-27T02:38:22.515Z"}},"features":[{"type":"Feature","properties":{"seg_id":"prague-0","routes":[{"route_id":"rm15640889","route_name":"Subway line C","route_name_local":"Metro linka C","route_name_en":"Subway line C","route_ref":"C","route_color":"#cf003d","wikipedia":"cs:Pražská integrovaná doprava","osm_route_ids":[58898,7772994],"status":null,"order_suspect":0,"span_suspect":0,"stations":[{"station_id":"n263891398","station_name":"Letňany"},{"station_id":"n263891381","station_name":"Prosek"},{"station_id":"n263891378","station_name":"Střížkov"},{"station_id":"n5446812951","station_name":"Ládví"},{"station_id":"n24569759","station_name":"Kobylisy"},{"station_id":"n5257756515","station_name":"Nádraží Holešovice"},{"station_id":"n5257756518","station_name":"Vltavská"},{"station_id":"n24568519","station_name":"Florenc"},{"station_id":"n24569897","station_name":"Main Station"},{"station_id":"n24568322","station_name":"Muzeum"},{"station_id":"n24569684","station_name":"I. P. Pavlova"},{"station_id":"n24569983","station_name":"Vyšehrad"},{"station_id":"n5452244461","station_name":"Pražského povstání"},{"station_id":"n24570070","station_name":"Pankrác"},{"station_id":"n24570126","station_name":"Budějovická"},{"station_id":"n24570143","station_name":"Kačerov"},{"station_id":"n24570180","station_name":"Roztyly"},{"station_id":"n24570253","station_name":"Chodov"},{"station_id":"n24570269","station_name":"Opatov"},{"station_id":"n24570328","station_name":"Háje"}]}],"route_count":1,"route_refs":["C"],"route_colors":["#cf003d"],"city":"Prague","country":"Czechia"},"geometry":{"type":"MultiLineString","coordinates":[[[14.516212033333332,50.12468380000001],[14.4989313,50.11900406666666],[14.489567033333335,50.12616643333333],[14.4695019,50.12663186666666],[14.454221200000001,50.12413776666667],[14.4401046,50.108996733333335],[14.438521833333334,50.10018346666667],[14.438404366666667,50.09028776666667],[14.434146166666666,50.08352366666666],[14.43137505,50.07987546666667],[14.430311766666668,50.0743345],[14.430519766666668,50.0631514],[14.433331933333333,50.056855500000005],[14.439655033333333,50.05105046666666],[14.448770099999999,50.04441353333333],[14.459295633333333,50.0418454],[14.477054066666668,50.037569866666665],[14.491111466666666,50.03159873333333],[14.5091211,50.027894],[14.527282433333333,50.03085013333333]]]}},{"type":"Feature","properties":{"seg_id":"prague-1","routes":[{"route_id":"rm15640862","route_name":"Subway line A","route_name_local":"Metro linka A","route_name_en":"Subway line A","route_ref":"A","route_color":"#00a562","wikipedia":null,"osm_route_ids":[58899,7772996],"status":null,"order_suspect":0,"span_suspect":0,"stations":[{"station_id":"n1654931442","station_name":"Nemocnice Motol"},{"station_id":"n917033959","station_name":"Petřiny"},{"station_id":"n917033971","station_name":"Nádraží Veleslavín"},{"station_id":"n1322972234","station_name":"Bořislavka"},{"station_id":"n55320602","station_name":"Dejvická"},{"station_id":"n249235862","station_name":"Hradčanská"},{"station_id":"n24568191","station_name":"Malostranská"},{"station_id":"n24568407","station_name":"Staroměstská"},{"station_id":"n24569154","station_name":"Můstek"},{"station_id":"n24568322","station_name":"Muzeum"},{"station_id":"n24567934","station_name":"Náměstí Míru"},{"station_id":"n24568096","station_name":"Jiřího z Poděbrad"},{"station_id":"n5435688750","station_name":"Želivského"},{"station_id":"n24568446","station_name":"Strašnická"},{"station_id":"n24568356","station_name":"Skalka"},{"station_id":"n24956708","station_name":"Depo Hostivař"}]}],"route_count":1,"route_refs":["A"],"route_colors":["#00a562"],"city":"Prague","country":"Czechia"},"geometry":{"type":"MultiLineString","coordinates":[[[14.341228933333333,50.07530006666667],[14.345068500000002,50.0865942],[14.348482866666666,50.09592716666666],[14.362906500000001,50.09837516666666],[14.393157066666667,50.100468133333344],[14.403172266666667,50.09744156666667],[14.4093144,50.09153896666667],[14.417650266666667,50.088209000000006],[14.423889666666668,50.083526866666666],[14.43137505,50.07987546666667],[14.439102033333333,50.07530643333333],[14.450742066666665,50.07771616666667],[14.475747933333333,50.07821696666667],[14.490482499999999,50.07309116666667],[14.507941699999998,50.0684477],[14.515025266666667,50.07477186666666]]]}},{"type":"Feature","properties":{"seg_id":"prague-2","routes":[{"route_id":"rm15640873","route_name":"Subway line B","route_name_local":"Metro linka B","route_name_en":"Subway line B","route_ref":"B","route_color":"#fcc400","wikipedia":"cs:Linka B (metro v Praze)","osm_route_ids":[58900,7772995],"status":null,"order_suspect":0,"span_suspect":0,"stations":[{"station_id":"n24569616","station_name":"Černý Most"},{"station_id":"n24569564","station_name":"Rajská zahrada"},{"station_id":"n24569515","station_name":"Hloubětín"},{"station_id":"n24569499","station_name":"Kolbenova"},{"station_id":"n24569482","station_name":"Vysočanská"},{"station_id":"n24569358","station_name":"Palmovka"},{"station_id":"n24569342","station_name":"Invalidovna"},{"station_id":"n24569287","station_name":"Křižíkova"},{"station_id":"n24568519","station_name":"Florenc"},{"station_id":"n5471247112","station_name":"Republic Square"},{"station_id":"n24569154","station_name":"Můstek"},{"station_id":"n24569095","station_name":"Národní třída"},{"station_id":"n5471247115","station_name":"Charles Square"},{"station_id":"n24568982","station_name":"Anděl"},{"station_id":"n31793413","station_name":"Smíchovské nádraží"},{"station_id":"n24568897","station_name":"Radlická"},{"station_id":"n24568828","station_name":"Jinonice"},{"station_id":"n24568810","station_name":"Nové Butovice"},{"station_id":"n24568736","station_name":"Hůrka"},{"station_id":"n24568701","station_name":"Lužiny"},{"station_id":"n24568648","station_name":"Luka"},{"station_id":"n24568568","station_name":"Stodůlky"},{"station_id":"n24568552","station_name":"Zličín"}]}],"route_count":1,"route_refs":["B"],"route_colors":["#fcc400"],"city":"Prague","country":"Czechia"},"geometry":{"type":"MultiLineString","coordinates":[[[14.576766166666667,50.10893083333334],[14.560515266666668,50.10685783333334],[14.5366406,50.10666063333333],[14.516487133333333,50.11038776666667],[14.501270766666666,50.110115666666665],[14.474482700000001,50.10391403333333],[14.463451533333332,50.09692283333333],[14.451487300000002,50.09281926666667],[14.438404366666667,50.09028776666667],[14.430613433333335,50.08881363333333],[14.423889666666668,50.083526866666666],[14.4202928,50.0799311],[14.4169301,50.0745751],[14.4038683,50.07005913333333],[14.409096133333334,50.06118229999999],[14.3877458,50.05811636666667],[14.369786666666664,50.0541814],[14.352139866666667,50.05084633333333],[14.342786466666666,50.0500122],[14.330476666666668,50.044503633333335],[14.321366566666667,50.045673099999995],[14.306143233333335,50.04666653333333],[14.2911631,50.053241733333344]]]}},{"type":"Feature","properties":{"station_id":"n24567934","station_name":"Náměstí Míru","station_name_local":"Náměstí Míru","station_name_en":null,"city":"Prague","country":"Czechia","lines":["A"],"wikipedia":null,"merged_from":3,"merged_names":null,"is_terminus":false,"routes":[{"ref":"A","name":"Subway line A","route_color":"#00a562"}],"pass_count":1,"station_degree":2,"codes":null,"is_interchange":false,"station_role":"normal"},"geometry":{"type":"Point","coordinates":[14.439102033333333,50.07530643333333]},"__memberLines":{}},{"type":"Feature","properties":{"station_id":"n24568096","station_name":"Jiřího z Poděbrad","station_name_local":"Jiřího z Poděbrad","station_name_en":null,"city":"Prague","country":"Czechia","lines":["A"],"wikipedia":null,"merged_from":3,"merged_names":null,"is_terminus":false,"routes":[{"ref":"A","name":"Subway line A","route_color":"#00a562"}],"pass_count":1,"station_degree":2,"codes":null,"is_interchange":false,"station_role":"normal"},"geometry":{"type":"Point","coordinates":[14.450742066666665,50.07771616666667]},"__memberLines":{}},{"type":"Feature","properties":{"station_id":"n24568191","station_name":"Malostranská","station_name_local":"Malostranská","station_name_en":null,"city":"Prague","country":"Czechia","lines":["A"],"wikipedia":null,"merged_from":3,"merged_names":null,"is_terminus":false,"routes":[{"ref":"A","name":"Subway line A","route_color":"#00a562"}],"pass_count":1,"station_degree":2,"codes":null,"is_interchange":false,"station_role":"normal"},"geometry":{"type":"Point","coordinates":[14.4093144,50.09153896666667]},"__memberLines":{}},{"type":"Feature","properties":{"station_id":"n24568322","station_name":"Muzeum","station_name_local":"Muzeum","station_name_en":null,"city":"Prague","country":"Czechia","lines":["A","C"],"wikipedia":null,"merged_from":6,"merged_names":null,"is_terminus":false,"routes":[{"ref":"A","name":"Subway line A","route_color":"#00a562"},{"ref":"C","name":"Subway line C","route_color":"#cf003d"}],"pass_count":2,"station_degree":4,"codes":null,"is_interchange":true,"station_role":"interchange"},"geometry":{"type":"Point","coordinates":[14.43137505,50.07987546666667]},"__memberLines":{}},{"type":"Feature","properties":{"station_id":"n24568356","station_name":"Skalka","station_name_local":"Skalka","station_name_en":null,"city":"Prague","country":"Czechia","lines":["A"],"wikipedia":null,"merged_from":3,"merged_names":null,"is_terminus":false,"routes":[{"ref":"A","name":"Subway line A","route_color":"#00a562"}],"pass_count":1,"station_degree":2,"codes":null,"is_interchange":false,"station_role":"normal"},"geometry":{"type":"Point","coordinates":[14.507941699999998,50.0684477]},"__memberLines":{}},{"type":"Feature","properties":{"station_id":"n24568407","station_name":"Staroměstská","station_name_local":"Staroměstská","station_name_en":null,"city":"Prague","country":"Czechia","lines":["A"],"wikipedia":null,"merged_from":3,"merged_names":null,"is_terminus":false,"routes":[{"ref":"A","name":"Subway line A","route_color":"#00a562"}],"pass_count":1,"station_degree":2,"codes":null,"is_interchange":false,"station_role":"normal"},"geometry":{"type":"Point","coordinates":[14.417650266666667,50.088209000000006]},"__memberLines":{}},{"type":"Feature","properties":{"station_id":"n24568446","station_name":"Strašnická","station_name_local":"Strašnická","station_name_en":null,"city":"Prague","country":"Czechia","lines":["A"],"wikipedia":null,"merged_from":3,"merged_names":null,"is_terminus":false,"routes":[{"ref":"A","name":"Subway line A","route_color":"#00a562"}],"pass_count":1,"station_degree":2,"codes":null,"is_interchange":false,"station_role":"normal"},"geometry":{"type":"Point","coordinates":[14.490482499999999,50.07309116666667]},"__memberLines":{}},{"type":"Feature","properties":{"station_id":"n24568519","station_name":"Florenc","station_name_local":"Florenc","station_name_en":null,"city":"Prague","country":"Czechia","lines":["B","C"],"wikipedia":null,"merged_from":6,"merged_names":null,"is_terminus":false,"routes":[{"ref":"B","name":"Subway line B","route_color":"#fcc400"},{"ref":"C","name":"Subway line C","route_color":"#cf003d"}],"pass_count":2,"station_degree":4,"codes":null,"is_interchange":true,"station_role":"interchange"},"geometry":{"type":"Point","coordinates":[14.438404366666667,50.09028776666667]},"__memberLines":{}},{"type":"Feature","properties":{"station_id":"n24568552","station_name":"Zličín","station_name_local":"Zličín","station_name_en":null,"city":"Prague","country":"Czechia","lines":["B"],"wikipedia":null,"merged_from":3,"merged_names":null,"is_terminus":true,"routes":[{"ref":"B","name":"Subway line B","route_color":"#fcc400"}],"pass_count":1,"station_degree":1,"codes":null,"is_interchange":false,"station_role":"terminus"},"geometry":{"type":"Point","coordinates":[14.2911631,50.053241733333344]},"__memberLines":{}},{"type":"Feature","properties":{"station_id":"n24568568","station_name":"Stodůlky","station_name_local":"Stodůlky","station_name_en":null,"city":"Prague","country":"Czechia","lines":["B"],"wikipedia":null,"merged_from":3,"merged_names":null,"is_terminus":false,"routes":[{"ref":"B","name":"Subway line B","route_color":"#fcc400"}],"pass_count":1,"station_degree":2,"codes":null,"is_interchange":false,"station_role":"normal"},"geometry":{"type":"Point","coordinates":[14.306143233333335,50.04666653333333]},"__memberLines":{}},{"type":"Feature","properties":{"station_id":"n24568648","station_name":"Luka","station_name_local":"Luka","station_name_en":null,"city":"Prague","country":"Czechia","lines":["B"],"wikipedia":null,"merged_from":3,"merged_names":null,"is_terminus":false,"routes":[{"ref":"B","name":"Subway line B","route_color":"#fcc400"}],"pass_count":1,"station_degree":2,"codes":null,"is_interchange":false,"station_role":"normal"},"geometry":{"type":"Point","coordinates":[14.321366566666667,50.045673099999995]},"__memberLines":{}},{"type":"Feature","properties":{"station_id":"n24568701","station_name":"Lužiny","station_name_local":"Lužiny","station_name_en":null,"city":"Prague","country":"Czechia","lines":["B"],"wikipedia":null,"merged_from":3,"merged_names":null,"is_terminus":false,"routes":[{"ref":"B","name":"Subway line B","route_color":"#fcc400"}],"pass_count":1,"station_degree":2,"codes":null,"is_interchange":false,"station_role":"normal"},"geometry":{"type":"Point","coordinates":[14.330476666666668,50.044503633333335]},"__memberLines":{}},{"type":"Feature","properties":{"station_id":"n24568736","station_name":"Hůrka","station_name_local":"Hůrka","station_name_en":null,"city":"Prague","country":"Czechia","lines":["B"],"wikipedia":null,"merged_from":3,"merged_names":null,"is_terminus":false,"routes":[{"ref":"B","name":"Subway line B","route_color":"#fcc400"}],"pass_count":1,"station_degree":2,"codes":null,"is_interchange":false,"station_role":"normal"},"geometry":{"type":"Point","coordinates":[14.342786466666666,50.0500122]},"__memberLines":{}},{"type":"Feature","properties":{"station_id":"n24568810","station_name":"Nové Butovice","station_name_local":"Nové Butovice","station_name_en":null,"city":"Prague","country":"Czechia","lines":["B"],"wikipedia":null,"merged_from":3,"merged_names":null,"is_terminus":false,"routes":[{"ref":"B","name":"Subway line B","route_color":"#fcc400"}],"pass_count":1,"station_degree":2,"codes":null,"is_interchange":false,"station_role":"normal"},"geometry":{"type":"Point","coordinates":[14.352139866666667,50.05084633333333]},"__memberLines":{}},{"type":"Feature","properties":{"station_id":"n24568828","station_name":"Jinonice","station_name_local":"Jinonice","station_name_en":null,"city":"Prague","country":"Czechia","lines":["B"],"wikipedia":null,"merged_from":3,"merged_names":null,"is_terminus":false,"routes":[{"ref":"B","name":"Subway line B","route_color":"#fcc400"}],"pass_count":1,"station_degree":2,"codes":null,"is_interchange":false,"station_role":"normal"},"geometry":{"type":"Point","coordinates":[14.369786666666664,50.0541814]},"__memberLines":{}},{"type":"Feature","properties":{"station_id":"n24568897","station_name":"Radlická","station_name_local":"Radlická","station_name_en":null,"city":"Prague","country":"Czechia","lines":["B"],"wikipedia":null,"merged_from":3,"merged_names":null,"is_terminus":false,"routes":[{"ref":"B","name":"Subway line B","route_color":"#fcc400"}],"pass_count":1,"station_degree":2,"codes":null,"is_interchange":false,"station_role":"normal"},"geometry":{"type":"Point","coordinates":[14.3877458,50.05811636666667]},"__memberLines":{}},{"type":"Feature","properties":{"station_id":"n24568982","station_name":"Anděl","station_name_local":"Anděl","station_name_en":null,"city":"Prague","country":"Czechia","lines":["B"],"wikipedia":null,"merged_from":3,"merged_names":null,"is_terminus":false,"routes":[{"ref":"B","name":"Subway line B","route_color":"#fcc400"}],"pass_count":1,"station_degree":2,"codes":null,"is_interchange":false,"station_role":"normal"},"geometry":{"type":"Point","coordinates":[14.4038683,50.07005913333333]},"__memberLines":{}},{"type":"Feature","properties":{"station_id":"n24569095","station_name":"Národní třída","station_name_local":"Národní třída","station_name_en":null,"city":"Prague","country":"Czechia","lines":["B"],"wikipedia":null,"merged_from":3,"merged_names":null,"is_terminus":false,"routes":[{"ref":"B","name":"Subway line B","route_color":"#fcc400"}],"pass_count":1,"station_degree":2,"codes":null,"is_interchange":false,"station_role":"normal"},"geometry":{"type":"Point","coordinates":[14.4202928,50.0799311]},"__memberLines":{}},{"type":"Feature","properties":{"station_id":"n24569154","station_name":"Můstek","station_name_local":"Můstek","station_name_en":null,"city":"Prague","country":"Czechia","lines":["A","B"],"wikipedia":null,"merged_from":6,"merged_names":null,"is_terminus":false,"routes":[{"ref":"A","name":"Subway line A","route_color":"#00a562"},{"ref":"B","name":"Subway line B","route_color":"#fcc400"}],"pass_count":2,"station_degree":4,"codes":null,"is_interchange":true,"station_role":"interchange"},"geometry":{"type":"Point","coordinates":[14.423889666666668,50.083526866666666]},"__memberLines":{}},{"type":"Feature","properties":{"station_id":"n5471247112","station_name":"Republic Square","station_name_local":"Náměstí Republiky","station_name_en":"Republic Square","city":"Prague","country":"Czechia","lines":["B"],"wikipedia":null,"merged_from":3,"merged_names":null,"is_terminus":false,"routes":[{"ref":"B","name":"Subway line B","route_color":"#fcc400"}],"pass_count":1,"station_degree":2,"codes":null,"is_interchange":false,"station_role":"normal"},"geometry":{"type":"Point","coordinates":[14.430613433333335,50.08881363333333]},"__memberLines":{}},{"type":"Feature","properties":{"station_id":"n24569287","station_name":"Křižíkova","station_name_local":"Křižíkova","station_name_en":null,"city":"Prague","country":"Czechia","lines":["B"],"wikipedia":null,"merged_from":3,"merged_names":null,"is_terminus":false,"routes":[{"ref":"B","name":"Subway line B","route_color":"#fcc400"}],"pass_count":1,"station_degree":2,"codes":null,"is_interchange":false,"station_role":"normal"},"geometry":{"type":"Point","coordinates":[14.451487300000002,50.09281926666667]},"__memberLines":{}},{"type":"Feature","properties":{"station_id":"n24569342","station_name":"Invalidovna","station_name_local":"Invalidovna","station_name_en":null,"city":"Prague","country":"Czechia","lines":["B"],"wikipedia":null,"merged_from":3,"merged_names":null,"is_terminus":false,"routes":[{"ref":"B","name":"Subway line B","route_color":"#fcc400"}],"pass_count":1,"station_degree":2,"codes":null,"is_interchange":false,"station_role":"normal"},"geometry":{"type":"Point","coordinates":[14.463451533333332,50.09692283333333]},"__memberLines":{}},{"type":"Feature","properties":{"station_id":"n24569358","station_name":"Palmovka","station_name_local":"Palmovka","station_name_en":null,"city":"Prague","country":"Czechia","lines":["B"],"wikipedia":null,"merged_from":3,"merged_names":null,"is_terminus":false,"routes":[{"ref":"B","name":"Subway line B","route_color":"#fcc400"}],"pass_count":1,"station_degree":2,"codes":null,"is_interchange":false,"station_role":"normal"},"geometry":{"type":"Point","coordinates":[14.474482700000001,50.10391403333333]},"__memberLines":{}},{"type":"Feature","properties":{"station_id":"n24569482","station_name":"Vysočanská","station_name_local":"Vysočanská","station_name_en":null,"city":"Prague","country":"Czechia","lines":["B"],"wikipedia":null,"merged_from":3,"merged_names":null,"is_terminus":false,"routes":[{"ref":"B","name":"Subway line B","route_color":"#fcc400"}],"pass_count":1,"station_degree":2,"codes":null,"is_interchange":false,"station_role":"normal"},"geometry":{"type":"Point","coordinates":[14.501270766666666,50.110115666666665]},"__memberLines":{}},{"type":"Feature","properties":{"station_id":"n24569499","station_name":"Kolbenova","station_name_local":"Kolbenova","station_name_en":null,"city":"Prague","country":"Czechia","lines":["B"],"wikipedia":null,"merged_from":3,"merged_names":null,"is_terminus":false,"routes":[{"ref":"B","name":"Subway line B","route_color":"#fcc400"}],"pass_count":1,"station_degree":2,"codes":null,"is_interchange":false,"station_role":"normal"},"geometry":{"type":"Point","coordinates":[14.516487133333333,50.11038776666667]},"__memberLines":{}},{"type":"Feature","properties":{"station_id":"n24569515","station_name":"Hloubětín","station_name_local":"Hloubětín","station_name_en":null,"city":"Prague","country":"Czechia","lines":["B"],"wikipedia":null,"merged_from":3,"merged_names":null,"is_terminus":false,"routes":[{"ref":"B","name":"Subway line B","route_color":"#fcc400"}],"pass_count":1,"station_degree":2,"codes":null,"is_interchange":false,"station_role":"normal"},"geometry":{"type":"Point","coordinates":[14.5366406,50.10666063333333]},"__memberLines":{}},{"type":"Feature","properties":{"station_id":"n24569564","station_name":"Rajská zahrada","station_name_local":"Rajská zahrada","station_name_en":null,"city":"Prague","country":"Czechia","lines":["B"],"wikipedia":null,"merged_from":3,"merged_names":null,"is_terminus":false,"routes":[{"ref":"B","name":"Subway line B","route_color":"#fcc400"}],"pass_count":1,"station_degree":2,"codes":null,"is_interchange":false,"station_role":"normal"},"geometry":{"type":"Point","coordinates":[14.560515266666668,50.10685783333334]},"__memberLines":{}},{"type":"Feature","properties":{"station_id":"n24569616","station_name":"Černý Most","station_name_local":"Černý Most","station_name_en":null,"city":"Prague","country":"Czechia","lines":["B"],"wikipedia":null,"merged_from":3,"merged_names":null,"is_terminus":true,"routes":[{"ref":"B","name":"Subway line B","route_color":"#fcc400"}],"pass_count":1,"station_degree":1,"codes":null,"is_interchange":false,"station_role":"terminus"},"geometry":{"type":"Point","coordinates":[14.576766166666667,50.10893083333334]},"__memberLines":{}},{"type":"Feature","properties":{"station_id":"n24569684","station_name":"I. P. Pavlova","station_name_local":"I. P. Pavlova","station_name_en":null,"city":"Prague","country":"Czechia","lines":["C"],"wikipedia":"cs:I. P. Pavlova (stanice metra)","merged_from":3,"merged_names":null,"is_terminus":false,"routes":[{"ref":"C","name":"Subway line C","route_color":"#cf003d"}],"pass_count":1,"station_degree":2,"codes":null,"is_interchange":false,"station_role":"normal"},"geometry":{"type":"Point","coordinates":[14.430311766666668,50.0743345]},"__memberLines":{}},{"type":"Feature","properties":{"station_id":"n24569759","station_name":"Kobylisy","station_name_local":"Kobylisy","station_name_en":null,"city":"Prague","country":"Czechia","lines":["C"],"wikipedia":null,"merged_from":3,"merged_names":null,"is_terminus":false,"codes":["U675N46"],"routes":[{"ref":"C","name":"Subway line C","route_color":"#cf003d"}],"pass_count":1,"station_degree":2,"is_interchange":false,"station_role":"normal"},"geometry":{"type":"Point","coordinates":[14.454221200000001,50.12413776666667]},"__memberLines":{}},{"type":"Feature","properties":{"station_id":"n24569897","station_name":"Main Station","station_name_local":"Hlavní nádraží","station_name_en":"Main Station","city":"Prague","country":"Czechia","lines":["C"],"wikipedia":null,"merged_from":3,"merged_names":null,"is_terminus":false,"routes":[{"ref":"C","name":"Subway line C","route_color":"#cf003d"}],"pass_count":1,"station_degree":2,"codes":null,"is_interchange":false,"station_role":"normal"},"geometry":{"type":"Point","coordinates":[14.434146166666666,50.08352366666666]},"__memberLines":{}},{"type":"Feature","properties":{"station_id":"n24569983","station_name":"Vyšehrad","station_name_local":"Vyšehrad","station_name_en":null,"city":"Prague","country":"Czechia","lines":["C"],"wikipedia":"cs:Vyšehrad (stanice metra)","merged_from":3,"merged_names":null,"is_terminus":false,"routes":[{"ref":"C","name":"Subway line C","route_color":"#cf003d"}],"pass_count":1,"station_degree":2,"codes":null,"is_interchange":false,"station_role":"normal"},"geometry":{"type":"Point","coordinates":[14.430519766666668,50.0631514]},"__memberLines":{}},{"type":"Feature","properties":{"station_id":"n24570070","station_name":"Pankrác","station_name_local":"Pankrác","station_name_en":null,"city":"Prague","country":"Czechia","lines":["C"],"wikipedia":null,"merged_from":3,"merged_names":null,"is_terminus":false,"routes":[{"ref":"C","name":"Subway line C","route_color":"#cf003d"}],"pass_count":1,"station_degree":2,"codes":null,"is_interchange":false,"station_role":"normal"},"geometry":{"type":"Point","coordinates":[14.439655033333333,50.05105046666666]},"__memberLines":{}},{"type":"Feature","properties":{"station_id":"n24570126","station_name":"Budějovická","station_name_local":"Budějovická","station_name_en":null,"city":"Prague","country":"Czechia","lines":["C"],"wikipedia":null,"merged_from":3,"merged_names":null,"is_terminus":false,"routes":[{"ref":"C","name":"Subway line C","route_color":"#cf003d"}],"pass_count":1,"station_degree":2,"codes":null,"is_interchange":false,"station_role":"normal"},"geometry":{"type":"Point","coordinates":[14.448770099999999,50.04441353333333]},"__memberLines":{}},{"type":"Feature","properties":{"station_id":"n24570143","station_name":"Kačerov","station_name_local":"Kačerov","station_name_en":null,"city":"Prague","country":"Czechia","lines":["C"],"wikipedia":null,"merged_from":3,"merged_names":null,"is_terminus":false,"routes":[{"ref":"C","name":"Subway line C","route_color":"#cf003d"}],"pass_count":1,"station_degree":2,"codes":null,"is_interchange":false,"station_role":"normal"},"geometry":{"type":"Point","coordinates":[14.459295633333333,50.0418454]},"__memberLines":{}},{"type":"Feature","properties":{"station_id":"n24570180","station_name":"Roztyly","station_name_local":"Roztyly","station_name_en":null,"city":"Prague","country":"Czechia","lines":["C"],"wikipedia":null,"merged_from":3,"merged_names":null,"is_terminus":false,"routes":[{"ref":"C","name":"Subway line C","route_color":"#cf003d"}],"pass_count":1,"station_degree":2,"codes":null,"is_interchange":false,"station_role":"normal"},"geometry":{"type":"Point","coordinates":[14.477054066666668,50.037569866666665]},"__memberLines":{}},{"type":"Feature","properties":{"station_id":"n24570253","station_name":"Chodov","station_name_local":"Chodov","station_name_en":null,"city":"Prague","country":"Czechia","lines":["C"],"wikipedia":null,"merged_from":3,"merged_names":null,"is_terminus":false,"routes":[{"ref":"C","name":"Subway line C","route_color":"#cf003d"}],"pass_count":1,"station_degree":2,"codes":null,"is_interchange":false,"station_role":"normal"},"geometry":{"type":"Point","coordinates":[14.491111466666666,50.03159873333333]},"__memberLines":{}},{"type":"Feature","properties":{"station_id":"n24570269","station_name":"Opatov","station_name_local":"Opatov","station_name_en":null,"city":"Prague","country":"Czechia","lines":["C"],"wikipedia":null,"merged_from":3,"merged_names":null,"is_terminus":false,"routes":[{"ref":"C","name":"Subway line C","route_color":"#cf003d"}],"pass_count":1,"station_degree":2,"codes":null,"is_interchange":false,"station_role":"normal"},"geometry":{"type":"Point","coordinates":[14.5091211,50.027894]},"__memberLines":{}},{"type":"Feature","properties":{"station_id":"n24570328","station_name":"Háje","station_name_local":"Háje","station_name_en":null,"city":"Prague","country":"Czechia","lines":["C"],"wikipedia":null,"merged_from":3,"merged_names":null,"is_terminus":true,"routes":[{"ref":"C","name":"Subway line C","route_color":"#cf003d"}],"pass_count":1,"station_degree":1,"codes":null,"is_interchange":false,"station_role":"terminus"},"geometry":{"type":"Point","coordinates":[14.527282433333333,50.03085013333333]},"__memberLines":{}},{"type":"Feature","properties":{"station_id":"n24956708","station_name":"Depo Hostivař","station_name_local":"Depo Hostivař","station_name_en":null,"city":"Prague","country":"Czechia","lines":["A"],"wikipedia":null,"merged_from":3,"merged_names":null,"is_terminus":true,"routes":[{"ref":"A","name":"Subway line A","route_color":"#00a562"}],"pass_count":1,"station_degree":1,"codes":null,"is_interchange":false,"station_role":"terminus"},"geometry":{"type":"Point","coordinates":[14.515025266666667,50.07477186666666]},"__memberLines":{}},{"type":"Feature","properties":{"station_id":"n31793413","station_name":"Smíchovské nádraží","station_name_local":"Smíchovské nádraží","station_name_en":null,"city":"Prague","country":"Czechia","lines":["B"],"wikipedia":null,"merged_from":3,"merged_names":null,"is_terminus":false,"routes":[{"ref":"B","name":"Subway line B","route_color":"#fcc400"}],"pass_count":1,"station_degree":2,"codes":null,"is_interchange":false,"station_role":"normal"},"geometry":{"type":"Point","coordinates":[14.409096133333334,50.06118229999999]},"__memberLines":{}},{"type":"Feature","properties":{"station_id":"n55320602","station_name":"Dejvická","station_name_local":"Dejvická","station_name_en":null,"city":"Prague","country":"Czechia","lines":["A"],"wikipedia":null,"merged_from":3,"merged_names":null,"is_terminus":false,"routes":[{"ref":"A","name":"Subway line A","route_color":"#00a562"}],"pass_count":1,"station_degree":2,"codes":null,"is_interchange":false,"station_role":"normal"},"geometry":{"type":"Point","coordinates":[14.393157066666667,50.100468133333344]},"__memberLines":{}},{"type":"Feature","properties":{"station_id":"n249235862","station_name":"Hradčanská","station_name_local":"Hradčanská","station_name_en":null,"city":"Prague","country":"Czechia","lines":["A"],"wikipedia":null,"merged_from":3,"merged_names":null,"is_terminus":false,"routes":[{"ref":"A","name":"Subway line A","route_color":"#00a562"}],"pass_count":1,"station_degree":2,"codes":null,"is_interchange":false,"station_role":"normal"},"geometry":{"type":"Point","coordinates":[14.403172266666667,50.09744156666667]},"__memberLines":{}},{"type":"Feature","properties":{"station_id":"n263891378","station_name":"Střížkov","station_name_local":"Střížkov","station_name_en":null,"city":"Prague","country":"Czechia","lines":["C"],"wikipedia":null,"merged_from":3,"merged_names":null,"is_terminus":false,"routes":[{"ref":"C","name":"Subway line C","route_color":"#cf003d"}],"pass_count":1,"station_degree":2,"codes":null,"is_interchange":false,"station_role":"normal"},"geometry":{"type":"Point","coordinates":[14.489567033333335,50.12616643333333]},"__memberLines":{}},{"type":"Feature","properties":{"station_id":"n263891381","station_name":"Prosek","station_name_local":"Prosek","station_name_en":null,"city":"Prague","country":"Czechia","lines":["C"],"wikipedia":null,"merged_from":3,"merged_names":null,"is_terminus":false,"routes":[{"ref":"C","name":"Subway line C","route_color":"#cf003d"}],"pass_count":1,"station_degree":2,"codes":null,"is_interchange":false,"station_role":"normal"},"geometry":{"type":"Point","coordinates":[14.4989313,50.11900406666666]},"__memberLines":{}},{"type":"Feature","properties":{"station_id":"n263891398","station_name":"Letňany","station_name_local":"Letňany","station_name_en":null,"city":"Prague","country":"Czechia","lines":["C"],"wikipedia":null,"merged_from":3,"merged_names":null,"is_terminus":true,"routes":[{"ref":"C","name":"Subway line C","route_color":"#cf003d"}],"pass_count":1,"station_degree":1,"codes":null,"is_interchange":false,"station_role":"terminus"},"geometry":{"type":"Point","coordinates":[14.516212033333332,50.12468380000001]},"__memberLines":{}},{"type":"Feature","properties":{"station_id":"n917033959","station_name":"Petřiny","station_name_local":"Petřiny","station_name_en":null,"city":"Prague","country":"Czechia","lines":["A"],"wikipedia":null,"merged_from":3,"merged_names":null,"is_terminus":false,"routes":[{"ref":"A","name":"Subway line A","route_color":"#00a562"}],"pass_count":1,"station_degree":2,"codes":null,"is_interchange":false,"station_role":"normal"},"geometry":{"type":"Point","coordinates":[14.345068500000002,50.0865942]},"__memberLines":{}},{"type":"Feature","properties":{"station_id":"n917033971","station_name":"Nádraží Veleslavín","station_name_local":"Nádraží Veleslavín","station_name_en":null,"city":"Prague","country":"Czechia","lines":["A"],"wikipedia":null,"merged_from":3,"merged_names":null,"is_terminus":false,"routes":[{"ref":"A","name":"Subway line A","route_color":"#00a562"}],"pass_count":1,"station_degree":2,"codes":null,"is_interchange":false,"station_role":"normal"},"geometry":{"type":"Point","coordinates":[14.348482866666666,50.09592716666666]},"__memberLines":{}},{"type":"Feature","properties":{"station_id":"n1322972234","station_name":"Bořislavka","station_name_local":"Bořislavka","station_name_en":null,"city":"Prague","country":"Czechia","lines":["A"],"wikipedia":null,"merged_from":3,"merged_names":null,"is_terminus":false,"routes":[{"ref":"A","name":"Subway line A","route_color":"#00a562"}],"pass_count":1,"station_degree":2,"codes":null,"is_interchange":false,"station_role":"normal"},"geometry":{"type":"Point","coordinates":[14.362906500000001,50.09837516666666]},"__memberLines":{}},{"type":"Feature","properties":{"station_id":"n1654931442","station_name":"Nemocnice Motol","station_name_local":"Nemocnice Motol","station_name_en":null,"city":"Prague","country":"Czechia","lines":["A"],"wikipedia":null,"merged_from":3,"merged_names":null,"is_terminus":true,"routes":[{"ref":"A","name":"Subway line A","route_color":"#00a562"}],"pass_count":1,"station_degree":1,"codes":null,"is_interchange":false,"station_role":"terminus"},"geometry":{"type":"Point","coordinates":[14.341228933333333,50.07530006666667]},"__memberLines":{}},{"type":"Feature","properties":{"station_id":"n5471247115","station_name":"Charles Square","station_name_local":"Karlovo náměstí","station_name_en":"Charles Square","city":"Prague","country":"Czechia","lines":["B"],"wikipedia":null,"merged_from":3,"merged_names":null,"is_terminus":false,"routes":[{"ref":"B","name":"Subway line B","route_color":"#fcc400"}],"pass_count":1,"station_degree":2,"codes":null,"is_interchange":false,"station_role":"normal"},"geometry":{"type":"Point","coordinates":[14.4169301,50.0745751]},"__memberLines":{}},{"type":"Feature","properties":{"station_id":"n5257756515","station_name":"Nádraží Holešovice","station_name_local":"Nádraží Holešovice","station_name_en":null,"city":"Prague","country":"Czechia","lines":["C"],"wikipedia":null,"merged_from":3,"merged_names":null,"is_terminus":false,"routes":[{"ref":"C","name":"Subway line C","route_color":"#cf003d"}],"pass_count":1,"station_degree":2,"codes":null,"is_interchange":false,"station_role":"normal"},"geometry":{"type":"Point","coordinates":[14.4401046,50.108996733333335]},"__memberLines":{}},{"type":"Feature","properties":{"station_id":"n5257756518","station_name":"Vltavská","station_name_local":"Vltavská","station_name_en":null,"city":"Prague","country":"Czechia","lines":["C"],"wikipedia":null,"merged_from":3,"merged_names":null,"is_terminus":false,"routes":[{"ref":"C","name":"Subway line C","route_color":"#cf003d"}],"pass_count":1,"station_degree":2,"codes":null,"is_interchange":false,"station_role":"normal"},"geometry":{"type":"Point","coordinates":[14.438521833333334,50.10018346666667]},"__memberLines":{}},{"type":"Feature","properties":{"station_id":"n5435688750","station_name":"Želivského","station_name_local":"Želivského","station_name_en":null,"city":"Prague","country":"Czechia","lines":["A"],"wikipedia":null,"merged_from":3,"merged_names":null,"is_terminus":false,"routes":[{"ref":"A","name":"Subway line A","route_color":"#00a562"}],"pass_count":1,"station_degree":2,"codes":null,"is_interchange":false,"station_role":"normal"},"geometry":{"type":"Point","coordinates":[14.475747933333333,50.07821696666667]},"__memberLines":{}},{"type":"Feature","properties":{"station_id":"n5446812951","station_name":"Ládví","station_name_local":"Ládví","station_name_en":null,"city":"Prague","country":"Czechia","lines":["C"],"wikipedia":null,"merged_from":3,"merged_names":null,"is_terminus":false,"routes":[{"ref":"C","name":"Subway line C","route_color":"#cf003d"}],"pass_count":1,"station_degree":2,"codes":null,"is_interchange":false,"station_role":"normal"},"geometry":{"type":"Point","coordinates":[14.4695019,50.12663186666666]},"__memberLines":{}},{"type":"Feature","properties":{"station_id":"n5452244461","station_name":"Pražského povstání","station_name_local":"Pražského povstání","station_name_en":null,"city":"Prague","country":"Czechia","lines":["C"],"wikipedia":null,"merged_from":3,"merged_names":null,"is_terminus":false,"routes":[{"ref":"C","name":"Subway line C","route_color":"#cf003d"}],"pass_count":1,"station_degree":2,"codes":null,"is_interchange":false,"station_role":"normal"},"geometry":{"type":"Point","coordinates":[14.433331933333333,50.056855500000005]},"__memberLines":{}}]}