{"type":"FeatureCollection","metro_system":{"continent":"asia","country":"Japan","city":"Naha","official_website":null,"official_map":"https://ja.wikipedia.org/wiki/沖縄都市モノレール線","wikipedia":"ja:沖縄都市モノレール線","line_count":1,"segment_count":1,"station_count":19,"modes":["tram"],"audit":{"strategies_tried":[],"passed":true,"checks":[{"id":"has_lines","ok":true,"detail":"1 lines","level":"error"},{"id":"has_stations","ok":true,"detail":"19 stations","level":"error"},{"id":"stations_have_lines","ok":true,"detail":"19/19 站皆有所屬路線","level":"error"},{"id":"line_geometry_stations","ok":true,"detail":"19 個折點/端點皆為車站","level":"error"},{"id":"route_stations_match_geometry","ok":true,"detail":"各線車站列表與圖面一致","level":"error"},{"id":"interchange_rule","ok":true,"detail":"所有車站紅/藍點符合骨架＋路線色規則（藍＝端點、紅＝交叉）","level":"error"},{"id":"stations_named","ok":true,"detail":"19/19 站皆有名稱","level":"error"},{"id":"station_order","ok":true,"detail":"所有線路站序合理","level":"warn"},{"id":"line_wiki_stations","ok":true,"detail":"各線站數與 wiki 線路條目相符（營運中站數）","level":"error"}],"reasons":[],"warnings":[],"audited_at":"2026-07-27T02:39:34.895Z"}},"features":[{"type":"Feature","properties":{"seg_id":"naha-0","routes":[{"route_id":"rm9637999","route_name":"沖縄都市モノレール","route_name_local":"沖縄都市モノレール","route_name_en":"Okinawa Urban Monorail","route_ref":"Yui Rail","route_color":"#e70f3f","wikipedia":"ja:沖縄都市モノレール線","osm_route_ids":[9637967,9637998],"status":null,"order_suspect":0,"span_suspect":0,"stations":[{"station_id":"n1564527822","station_name":"那覇空港"},{"station_id":"n1557271557","station_name":"赤嶺"},{"station_id":"n1558481105","station_name":"小禄"},{"station_id":"n1558670711","station_name":"奥武山公園"},{"station_id":"n1568921512","station_name":"壺川"},{"station_id":"n1574105704","station_name":"旭橋"},{"station_id":"n251896164","station_name":"県庁前"},{"station_id":"n1560591126","station_name":"美栄橋"},{"station_id":"n1574408451","station_name":"牧志"},{"station_id":"n251896403","station_name":"安里"},{"station_id":"n1583677071","station_name":"おもろまち"},{"station_id":"n251896072","station_name":"古島"},{"station_id":"n251896247","station_name":"市立病院前"},{"station_id":"n251896409","station_name":"儀保"},{"station_id":"n1562679618","station_name":"首里"},{"station_id":"n5035996828","station_name":"石嶺"},{"station_id":"n5035996406","station_name":"経塚"},{"station_id":"n5036001890","station_name":"浦添前田"},{"station_id":"n5036001877","station_name":"てだこ浦西"}]}],"route_count":1,"route_refs":["Yui Rail"],"route_colors":["#e70f3f"],"city":"Naha","country":"Japan"},"geometry":{"type":"MultiLineString","coordinates":[[[127.652202,26.2064814],[127.66048775,26.19324765],[127.6670275,26.1965356],[127.6753193,26.20077095],[127.67839235,26.20580155],[127.6754625,26.2118711],[127.67933790000001,26.2143826],[127.68440039999999,26.21924005],[127.6925739,26.21720735],[127.69577935000001,26.2167939],[127.69840865,26.22276665],[127.70306015,26.230872249999997],[127.7100535,26.22751935],[127.71909045,26.22459715],[127.72554645,26.21916945],[127.72901935,26.2270017],[127.72853325,26.2367128],[127.73235360000001,26.243819600000002],[127.741915,26.241742199999997]]]}},{"type":"Feature","properties":{"station_id":"n251896072","station_name":"古島","station_name_local":"古島","station_name_en":"Furujima","city":"Naha","country":"Japan","lines":["Yui Rail"],"wikipedia":null,"merged_from":2,"merged_names":null,"is_terminus":false,"routes":[{"ref":"Yui Rail","name":"沖縄都市モノレール","route_color":"#e70f3f"}],"pass_count":1,"station_degree":2,"codes":null,"is_interchange":false,"station_role":"normal"},"geometry":{"type":"Point","coordinates":[127.70306015,26.230872249999997]},"__memberLines":{}},{"type":"Feature","properties":{"station_id":"n251896164","station_name":"県庁前","station_name_local":"県庁前","station_name_en":"Prefectural Office","city":"Naha","country":"Japan","lines":["Yui Rail"],"wikipedia":null,"merged_from":2,"merged_names":null,"is_terminus":false,"routes":[{"ref":"Yui Rail","name":"沖縄都市モノレール","route_color":"#e70f3f"}],"pass_count":1,"station_degree":2,"codes":null,"is_interchange":false,"station_role":"normal"},"geometry":{"type":"Point","coordinates":[127.67933790000001,26.2143826]},"__memberLines":{}},{"type":"Feature","properties":{"station_id":"n251896247","station_name":"市立病院前","station_name_local":"市立病院前","station_name_en":"Naha City Hospital","city":"Naha","country":"Japan","lines":["Yui Rail"],"wikipedia":null,"merged_from":2,"merged_names":null,"is_terminus":false,"routes":[{"ref":"Yui Rail","name":"沖縄都市モノレール","route_color":"#e70f3f"}],"pass_count":1,"station_degree":2,"codes":null,"is_interchange":false,"station_role":"normal"},"geometry":{"type":"Point","coordinates":[127.7100535,26.22751935]},"__memberLines":{}},{"type":"Feature","properties":{"station_id":"n251896403","station_name":"安里","station_name_local":"安里","station_name_en":null,"city":"Naha","country":"Japan","lines":["Yui Rail"],"wikipedia":null,"merged_from":2,"merged_names":null,"is_terminus":false,"routes":[{"ref":"Yui Rail","name":"沖縄都市モノレール","route_color":"#e70f3f"}],"pass_count":1,"station_degree":2,"codes":null,"is_interchange":false,"station_role":"normal"},"geometry":{"type":"Point","coordinates":[127.69577935000001,26.2167939]},"__memberLines":{}},{"type":"Feature","properties":{"station_id":"n251896409","station_name":"儀保","station_name_local":"儀保","station_name_en":"Gibo","city":"Naha","country":"Japan","lines":["Yui Rail"],"wikipedia":null,"merged_from":2,"merged_names":null,"is_terminus":false,"routes":[{"ref":"Yui Rail","name":"沖縄都市モノレール","route_color":"#e70f3f"}],"pass_count":1,"station_degree":2,"codes":null,"is_interchange":false,"station_role":"normal"},"geometry":{"type":"Point","coordinates":[127.71909045,26.22459715]},"__memberLines":{}},{"type":"Feature","properties":{"station_id":"n1557271557","station_name":"赤嶺","station_name_local":"赤嶺","station_name_en":"Akamine","city":"Naha","country":"Japan","lines":["Yui Rail"],"wikipedia":null,"merged_from":2,"merged_names":null,"is_terminus":false,"routes":[{"ref":"Yui Rail","name":"沖縄都市モノレール","route_color":"#e70f3f"}],"pass_count":1,"station_degree":2,"codes":null,"is_interchange":false,"station_role":"normal"},"geometry":{"type":"Point","coordinates":[127.66048775,26.19324765]},"__memberLines":{}},{"type":"Feature","properties":{"station_id":"n1558481105","station_name":"小禄","station_name_local":"小禄","station_name_en":"Oroku","city":"Naha","country":"Japan","lines":["Yui Rail"],"wikipedia":null,"merged_from":2,"merged_names":null,"is_terminus":false,"routes":[{"ref":"Yui Rail","name":"沖縄都市モノレール","route_color":"#e70f3f"}],"pass_count":1,"station_degree":2,"codes":null,"is_interchange":false,"station_role":"normal"},"geometry":{"type":"Point","coordinates":[127.6670275,26.1965356]},"__memberLines":{}},{"type":"Feature","properties":{"station_id":"n1558670711","station_name":"奥武山公園","station_name_local":"奥武山公園","station_name_en":"Onoyama Park","city":"Naha","country":"Japan","lines":["Yui Rail"],"wikipedia":"ja:奥武山公園駅","merged_from":2,"merged_names":null,"is_terminus":false,"routes":[{"ref":"Yui Rail","name":"沖縄都市モノレール","route_color":"#e70f3f"}],"pass_count":1,"station_degree":2,"codes":null,"is_interchange":false,"station_role":"normal"},"geometry":{"type":"Point","coordinates":[127.6753193,26.20077095]},"__memberLines":{}},{"type":"Feature","properties":{"station_id":"n1560591126","station_name":"美栄橋","station_name_local":"美栄橋","station_name_en":"Miebashi Station","city":"Naha","country":"Japan","lines":["Yui Rail"],"wikipedia":null,"merged_from":2,"merged_names":null,"is_terminus":false,"routes":[{"ref":"Yui Rail","name":"沖縄都市モノレール","route_color":"#e70f3f"}],"pass_count":1,"station_degree":2,"codes":null,"is_interchange":false,"station_role":"normal"},"geometry":{"type":"Point","coordinates":[127.68440039999999,26.21924005]},"__memberLines":{}},{"type":"Feature","properties":{"station_id":"n1562679618","station_name":"首里","station_name_local":"首里","station_name_en":"Shuri","city":"Naha","country":"Japan","lines":["Yui Rail"],"wikipedia":null,"merged_from":2,"merged_names":null,"is_terminus":false,"routes":[{"ref":"Yui Rail","name":"沖縄都市モノレール","route_color":"#e70f3f"}],"pass_count":1,"station_degree":2,"codes":null,"is_interchange":false,"station_role":"normal"},"geometry":{"type":"Point","coordinates":[127.72554645,26.21916945]},"__memberLines":{}},{"type":"Feature","properties":{"station_id":"n1564527822","station_name":"那覇空港","station_name_local":"那覇空港","station_name_en":"Naha Airport","city":"Naha","country":"Japan","lines":["Yui Rail"],"wikipedia":null,"merged_from":2,"merged_names":null,"is_terminus":true,"routes":[{"ref":"Yui Rail","name":"沖縄都市モノレール","route_color":"#e70f3f"}],"pass_count":1,"station_degree":1,"codes":null,"is_interchange":false,"station_role":"terminus"},"geometry":{"type":"Point","coordinates":[127.652202,26.2064814]},"__memberLines":{}},{"type":"Feature","properties":{"station_id":"n1568921512","station_name":"壺川","station_name_local":"壺川","station_name_en":null,"city":"Naha","country":"Japan","lines":["Yui Rail"],"wikipedia":null,"merged_from":2,"merged_names":null,"is_terminus":false,"routes":[{"ref":"Yui Rail","name":"沖縄都市モノレール","route_color":"#e70f3f"}],"pass_count":1,"station_degree":2,"codes":null,"is_interchange":false,"station_role":"normal"},"geometry":{"type":"Point","coordinates":[127.67839235,26.20580155]},"__memberLines":{}},{"type":"Feature","properties":{"station_id":"n1574105704","station_name":"旭橋","station_name_local":"旭橋","station_name_en":null,"city":"Naha","country":"Japan","lines":["Yui Rail"],"wikipedia":null,"merged_from":2,"merged_names":null,"is_terminus":false,"routes":[{"ref":"Yui Rail","name":"沖縄都市モノレール","route_color":"#e70f3f"}],"pass_count":1,"station_degree":2,"codes":null,"is_interchange":false,"station_role":"normal"},"geometry":{"type":"Point","coordinates":[127.6754625,26.2118711]},"__memberLines":{}},{"type":"Feature","properties":{"station_id":"n1574408451","station_name":"牧志","station_name_local":"牧志","station_name_en":null,"city":"Naha","country":"Japan","lines":["Yui Rail"],"wikipedia":null,"merged_from":2,"merged_names":null,"is_terminus":false,"routes":[{"ref":"Yui Rail","name":"沖縄都市モノレール","route_color":"#e70f3f"}],"pass_count":1,"station_degree":2,"codes":null,"is_interchange":false,"station_role":"normal"},"geometry":{"type":"Point","coordinates":[127.6925739,26.21720735]},"__memberLines":{}},{"type":"Feature","properties":{"station_id":"n1583677071","station_name":"おもろまち","station_name_local":"おもろまち","station_name_en":"Omoromachi","city":"Naha","country":"Japan","lines":["Yui Rail"],"wikipedia":null,"merged_from":2,"merged_names":null,"is_terminus":false,"routes":[{"ref":"Yui Rail","name":"沖縄都市モノレール","route_color":"#e70f3f"}],"pass_count":1,"station_degree":2,"codes":null,"is_interchange":false,"station_role":"normal"},"geometry":{"type":"Point","coordinates":[127.69840865,26.22276665]},"__memberLines":{}},{"type":"Feature","properties":{"station_id":"n5035996406","station_name":"経塚","station_name_local":"経塚","station_name_en":"Kyozuka","city":"Naha","country":"Japan","lines":["Yui Rail"],"wikipedia":null,"merged_from":2,"merged_names":null,"is_terminus":false,"routes":[{"ref":"Yui Rail","name":"沖縄都市モノレール","route_color":"#e70f3f"}],"pass_count":1,"station_degree":2,"codes":null,"is_interchange":false,"station_role":"normal"},"geometry":{"type":"Point","coordinates":[127.72853325,26.2367128]},"__memberLines":{}},{"type":"Feature","properties":{"station_id":"n5035996828","station_name":"石嶺","station_name_local":"石嶺","station_name_en":"Ishimine","city":"Naha","country":"Japan","lines":["Yui Rail"],"wikipedia":null,"merged_from":2,"merged_names":null,"is_terminus":false,"routes":[{"ref":"Yui Rail","name":"沖縄都市モノレール","route_color":"#e70f3f"}],"pass_count":1,"station_degree":2,"codes":null,"is_interchange":false,"station_role":"normal"},"geometry":{"type":"Point","coordinates":[127.72901935,26.2270017]},"__memberLines":{}},{"type":"Feature","properties":{"station_id":"n5036001877","station_name":"てだこ浦西","station_name_local":"てだこ浦西","station_name_en":"Tedako-Uranishi","city":"Naha","country":"Japan","lines":["Yui Rail"],"wikipedia":null,"merged_from":2,"merged_names":null,"is_terminus":true,"routes":[{"ref":"Yui Rail","name":"沖縄都市モノレール","route_color":"#e70f3f"}],"pass_count":1,"station_degree":1,"codes":null,"is_interchange":false,"station_role":"terminus"},"geometry":{"type":"Point","coordinates":[127.741915,26.241742199999997]},"__memberLines":{}},{"type":"Feature","properties":{"station_id":"n5036001890","station_name":"浦添前田","station_name_local":"浦添前田","station_name_en":"Urasoe-Maeda","city":"Naha","country":"Japan","lines":["Yui Rail"],"wikipedia":null,"merged_from":2,"merged_names":null,"is_terminus":false,"routes":[{"ref":"Yui Rail","name":"沖縄都市モノレール","route_color":"#e70f3f"}],"pass_count":1,"station_degree":2,"codes":null,"is_interchange":false,"station_role":"normal"},"geometry":{"type":"Point","coordinates":[127.73235360000001,26.243819600000002]},"__memberLines":{}}]}