{"type":"FeatureCollection","metro_system":{"continent":"asia","country":"South Korea","city":"Busan","official_website":null,"official_map":"https://en.wikipedia.org/wiki/Busan_Metro","wikipedia":"en:Busan Metro","wiki":true,"wikipedia_zh":"zh:釜山都市鐵道","line_count":3,"segment_count":3,"station_count":96,"modes":["metro"],"audit":{"strategies_tried":[],"passed":true,"checks":[{"id":"system_exists","ok":true,"detail":"matched OSM system metro-maps/asia/south-korea/as-kor-busan/as-kor-busan.geojson","level":"error"},{"id":"has_lines","ok":true,"detail":"3 lines","level":"error"},{"id":"has_stations","ok":true,"detail":"96 stations","level":"error"},{"id":"station_count_info","ok":true,"detail":"OSM 96 站（wiki List 記 125，計法含轉乘重複，僅參考）","level":"warn"},{"id":"stations_have_lines","ok":true,"detail":"96/96 站皆有所屬路線","level":"error"},{"id":"line_geometry_stations","ok":true,"detail":"100 個折點/端點皆為車站","level":"error"},{"id":"route_stations_match_geometry","ok":true,"detail":"各線車站列表與圖面一致","level":"error"},{"id":"interchange_rule","ok":true,"detail":"所有車站紅/藍點符合骨架＋路線色規則（藍＝端點、紅＝交叉）","level":"error"},{"id":"stations_named","ok":true,"detail":"96/96 站皆有名稱","level":"error"},{"id":"station_order","ok":true,"detail":"所有線路站序合理","level":"warn"},{"id":"station_span","ok":true,"detail":"各線相鄰站距與系統站群跨度正常","level":"error"},{"id":"line_wiki_stations","ok":true,"detail":"各線站數與 wiki 線路條目相符（營運中站數）","level":"error"}],"reasons":[],"warnings":[],"audited_at":"2026-07-30T12:49:36.013Z"}},"features":[{"type":"Feature","properties":{"seg_id":"busan-0","routes":[{"route_id":"rm8258658","route_name":"Busan Metro Line 2 (Green Line)","route_name_local":"2호선","route_name_en":"Busan Metro Line 2 (Green Line)","route_ref":"2","route_color":"#81bf48","wikipedia":"en:Busan Metro Line 2","osm_route_ids":[2194999,8258657],"status":null,"order_suspect":0,"span_suspect":0,"stations":[{"station_id":"n355173857","station_name":"Jangsan"},{"station_id":"n5208472151","station_name":"Jung-dong"},{"station_id":"n355173869","station_name":"Haeundae"},{"station_id":"n355173867","station_name":"Dongbaek"},{"station_id":"n355173865","station_name":"BEXCO"},{"station_id":"n5421140316","station_name":"Centum City"},{"station_id":"n355173875","station_name":"Millak"},{"station_id":"n5277755939","station_name":"Suyeong"},{"station_id":"n355173872","station_name":"Gwangan"},{"station_id":"n355173886","station_name":"Geumryeonsan"},{"station_id":"n1763825051","station_name":"Namcheon"},{"station_id":"n355173882","station_name":"Kyungsung Univ. · Pukyong Nat'l Univ."},{"station_id":"n355173884","station_name":"Daeyeon"},{"station_id":"n355173893","station_name":"Motgol"},{"station_id":"n355173894","station_name":"Jigegol"},{"station_id":"n355173889","station_name":"Munhyeon"},{"station_id":"n355173891","station_name":"Busan International Finance Center·Busan Bank"},{"station_id":"n355173900","station_name":"Jeonpo"},{"station_id":"n355173724","station_name":"Seomyeon"},{"station_id":"n355173902","station_name":"Buam"},{"station_id":"n355173896","station_name":"Gaya"},{"station_id":"n355173898","station_name":"Dong-Eui Univ."},{"station_id":"n355173908","station_name":"Gaegeum"},{"station_id":"n355173909","station_name":"Naengjeong"},{"station_id":"n355173904","station_name":"Jurye"},{"station_id":"n355173906","station_name":"Gamjeon"},{"station_id":"n1445926941","station_name":"Sasang"},{"station_id":"n355173787","station_name":"Deokpo"},{"station_id":"n355173792","station_name":"Modeok"},{"station_id":"n355173790","station_name":"Mora"},{"station_id":"n1762460025","station_name":"Gunam"},{"station_id":"n355173793","station_name":"Gumyeong"},{"station_id":"n355173803","station_name":"Deokcheon"},{"station_id":"n5323513159","station_name":"Sujeong"},{"station_id":"n1763810759","station_name":"Hwamyeong"},{"station_id":"n355173805","station_name":"Yulli"},{"station_id":"n355173810","station_name":"Dongwon"},{"station_id":"n355173809","station_name":"Geumgok"},{"station_id":"n355173814","station_name":"Hopo"},{"station_id":"n355173812","station_name":"Jeungsan"},{"station_id":"n355173820","station_name":"Pusan Nat'l Univ. Yangsan Campus station"},{"station_id":"n355173817","station_name":"Namyangsan"},{"station_id":"n355173821","station_name":"Yangsan"}]}],"route_count":1,"route_refs":["2"],"route_colors":["#81bf48"],"city":"Busan","country":"South Korea"},"geometry":{"type":"MultiLineString","coordinates":[[[129.17588965,35.1694631],[129.1678074,35.1666759],[129.1587778,35.16371885],[129.1480904,35.161277],[129.1369614,35.170688266666666],[129.1312076,35.168608649999996],[129.1217001,35.167339],[129.1146882,35.16541615],[129.11317,35.157916],[129.11097,35.149756],[129.1078416,35.1421344],[129.100531,35.137558],[129.092172,35.135148],[129.084783,35.134758],[129.074224,35.135668],[129.0673312,35.1391392],[129.0667134,35.1457278],[129.0653641,35.1528193],[129.05933472499999,35.157960575],[129.0505061,35.157439],[129.0426874,35.1558284],[129.0321386,35.1539803],[129.0204602,35.1532536],[129.0124257,35.1512851],[129.00315,35.150504],[128.9908801,35.1557054],[128.98538266,35.16236298],[128.9839737,35.1738665],[128.985621,35.180361],[128.9884422,35.1892988],[128.99498284999999,35.196884850000004],[128.99957,35.20283945],[129.00539586666665,35.21034796666667],[129.0091715,35.2233039],[129.0138007,35.2352534],[129.0128975,35.2464762],[129.0124334,35.2586149],[129.0168673,35.2673839],[129.01745455,35.2811011],[129.0102327,35.3083224],[129.01396004999998,35.31689935],[129.0193639,35.325404],[129.0263861,35.33871756666667]]]}},{"type":"Feature","properties":{"seg_id":"busan-1","routes":[{"route_id":"rm8247017","route_name":"Busan Metro Line 3 (Brown Line)","route_name_local":"부산 도시철도 3호선","route_name_en":"Busan Metro Line 3 (Brown Line)","route_ref":"3","route_color":"#bb8c00","wikipedia":"en:Busan Metro Line 3","osm_route_ids":[2195014,8247016],"status":null,"order_suspect":0,"span_suspect":0,"stations":[{"station_id":"n5277755939","station_name":"Suyeong"},{"station_id":"n355173973","station_name":"Mangmi"},{"station_id":"n355173972","station_name":"Baesan"},{"station_id":"n355173971","station_name":"Mulmangol"},{"station_id":"n355173717","station_name":"Yeonsan"},{"station_id":"n355173983","station_name":"Geoje"},{"station_id":"n4958082599","station_name":"Sports Complex"},{"station_id":"n355173979","station_name":"Sajik"},{"station_id":"n355173977","station_name":"Minam"},{"station_id":"n4680300344","station_name":"Mandeok"},{"station_id":"n355173854","station_name":"Namsanjeong Station"},{"station_id":"n355173852","station_name":"Sukdeung"},{"station_id":"n355173803","station_name":"Deokcheon"},{"station_id":"n1446033915","station_name":"Gupo"},{"station_id":"n1446033914","station_name":"Gangseo Office"},{"station_id":"n355173861","station_name":"Cheyuk Park"},{"station_id":"n1446033913","station_name":"Daejeo"}]}],"route_count":1,"route_refs":["3"],"route_colors":["#bb8c00"],"city":"Busan","country":"South Korea"},"geometry":{"type":"MultiLineString","coordinates":[[[129.1146882,35.16541615],[129.10751935000002,35.17174285],[129.09575005,35.1734678],[129.08583625,35.1766396],[129.08152372,35.18600522],[129.0741998,35.18916027499999],[129.06752875,35.1911765],[129.0650666,35.1990904],[129.06874703333335,35.20653286666666],[129.0364611,35.2129876],[129.023926,35.2133254],[129.0127544,35.2119767],[129.00539586666665,35.21034796666667],[128.99635176666666,35.206694666666664],[128.9819529,35.2112257],[128.96937866666667,35.2124864],[128.96086,35.2132733]]]}},{"type":"Feature","properties":{"seg_id":"busan-2","routes":[{"route_id":"rm8255698","route_name":"Busan Metro Line 1","route_name_local":"부산 도시철도 1호선","route_name_en":"Busan Metro Line 1","route_ref":"1","route_color":"#f06a00","wikipedia":"en:Busan Metro Line 1","osm_route_ids":[2201600,8255697],"status":null,"order_suspect":0,"span_suspect":0,"stations":[{"station_id":"n355173757","station_name":"Nopo"},{"station_id":"n355173761","station_name":"Beomeosa"},{"station_id":"n1768570626","station_name":"Namsan"},{"station_id":"n5425835737","station_name":"Dusil"},{"station_id":"n289245618","station_name":"Guseo"},{"station_id":"n355173740","station_name":"Jangjeon"},{"station_id":"n355173742","station_name":"Pusan Nat'l Univ."},{"station_id":"n4632583162","station_name":"Oncheonjan"},{"station_id":"n4115279791","station_name":"Myeongnyun"},{"station_id":"n289245376","station_name":"Dongnae"},{"station_id":"n4496773368","station_name":"Busan National University of Education"},{"station_id":"n355173717","station_name":"Yeonsan"},{"station_id":"n355173718","station_name":"City Hall"},{"station_id":"n355173720","station_name":"Yangjeong"},{"station_id":"n355173722","station_name":"Bujeon"},{"station_id":"n355173724","station_name":"Seomyeon"},{"station_id":"n355173726","station_name":"Beomnaegol"},{"station_id":"n355173728","station_name":"Beomil"},{"station_id":"n355173730","station_name":"Jwacheon"},{"station_id":"n355173848","station_name":"Busanjin"},{"station_id":"n355173846","station_name":"Choryang"},{"station_id":"n1768514188","station_name":"Busan"},{"station_id":"n355173843","station_name":"Jungang"},{"station_id":"n355173841","station_name":"Nampo"},{"station_id":"n355173840","station_name":"Jagalchi"},{"station_id":"n355173838","station_name":"Toseong"},{"station_id":"n355173836","station_name":"Dongdaesin"},{"station_id":"n355173834","station_name":"Seodaesin"},{"station_id":"n355173833","station_name":"Daeti"},{"station_id":"n355173831","station_name":"Goejeong"},{"station_id":"n355173829","station_name":"Saha"},{"station_id":"n355173827","station_name":"Dangni"},{"station_id":"n355173825","station_name":"Hadan"},{"station_id":"n5584681129","station_name":"Sinpyeong"},{"station_id":"n5581117238","station_name":"Dongmae"},{"station_id":"n5581116350","station_name":"Jangnim"},{"station_id":"n5773426737","station_name":"Sinjangnim"},{"station_id":"n5773428961","station_name":"Natgae"},{"station_id":"n5773432737","station_name":"Dadaepo Harbor"},{"station_id":"n5249625224","station_name":"Dadaepo Beach"}]}],"route_count":1,"route_refs":["1"],"route_colors":["#f06a00"],"city":"Busan","country":"South Korea"},"geometry":{"type":"MultiLineString","coordinates":[[[129.09513193333333,35.28401253333333],[129.09269416666666,35.273137733333336],[129.09253476666666,35.26530043333333],[129.09139156666666,35.257053166666665],[129.09127913333336,35.24722656666666],[129.0881016666667,35.23819573333333],[129.08934633333334,35.22975966666666],[129.08638169999998,35.22027143333333],[129.079712,35.21264286666667],[129.07771393333334,35.20501646666667],[129.07977876,35.19467336],[129.08152372,35.18600522],[129.07652183333335,35.17974993333333],[129.07130243333333,35.17316],[129.06294186666665,35.16260223333333],[129.05933472499999,35.157960575],[129.05919916666664,35.1472937],[129.05935583333334,35.14095816666667],[129.05434893333333,35.13433656666667],[129.04911343333333,35.12901096666666],[129.04296706666665,35.12120276666667],[129.03990106666666,35.115649999999995],[129.03632786666665,35.10384266666666],[129.03492225,35.097905],[129.02671936666664,35.0973382],[129.01984196666666,35.10076316666667],[129.01778206666665,35.11033713333333],[129.01204280000002,35.110855349999994],[128.99996405000002,35.10315515],[128.9928492,35.099964150000005],[128.98309154999998,35.099818850000005],[128.97384309999998,35.103517933333336],[128.96677775,35.1062352],[128.96068126666668,35.09521506666667],[128.97338726666666,35.0898177],[128.97742303333334,35.08191003333334],[128.97686143333334,35.074601099999995],[128.97980613333334,35.06538586666667],[128.97142796666665,35.05783366666667],[128.96613523333335,35.04810116666667]]]}},{"type":"Feature","properties":{"station_id":"n289245376","station_name":"Dongnae","station_name_local":"동래","station_name_en":"Dongnae","city":"Busan","country":"South Korea","lines":["1"],"wikipedia":null,"merged_from":3,"merged_names":null,"is_terminus":false,"codes":["125","402"],"routes":[{"ref":"1","name":"Busan Metro Line 1","route_color":"#f06a00"}],"pass_count":1,"station_degree":2,"is_interchange":false,"station_role":"normal"},"geometry":{"type":"Point","coordinates":[129.07771393333334,35.20501646666667]}},{"type":"Feature","properties":{"station_id":"n289245618","station_name":"Guseo","station_name_local":"구서","station_name_en":"Guseo","city":"Busan","country":"South Korea","lines":["1"],"wikipedia":"ko:구서역","merged_from":3,"merged_names":null,"is_terminus":false,"codes":["129","130"],"routes":[{"ref":"1","name":"Busan Metro Line 1","route_color":"#f06a00"}],"pass_count":1,"station_degree":2,"is_interchange":false,"station_role":"normal"},"geometry":{"type":"Point","coordinates":[129.09127913333336,35.24722656666666]},"__memberLines":{}},{"type":"Feature","properties":{"station_id":"n355173717","station_name":"Yeonsan","station_name_local":"연산","station_name_en":"Yeonsan","city":"Busan","country":"South Korea","lines":["1","3"],"wikipedia":null,"merged_from":5,"merged_names":null,"is_terminus":false,"codes":["123","305"],"routes":[{"ref":"1","name":"Busan Metro Line 1","route_color":"#f06a00"},{"ref":"3","name":"Busan Metro Line 3 (Brown Line)","route_color":"#bb8c00"}],"pass_count":2,"station_degree":4,"is_interchange":true,"station_role":"interchange"},"geometry":{"type":"Point","coordinates":[129.08152372,35.18600522]},"__memberLines":{}},{"type":"Feature","properties":{"station_id":"n355173718","station_name":"City Hall","station_name_local":"시청","station_name_en":"City Hall","city":"Busan","country":"South Korea","lines":["1"],"wikipedia":null,"merged_from":3,"merged_names":null,"is_terminus":false,"codes":["122"],"routes":[{"ref":"1","name":"Busan Metro Line 1","route_color":"#f06a00"}],"pass_count":1,"station_degree":2,"is_interchange":false,"station_role":"normal"},"geometry":{"type":"Point","coordinates":[129.07652183333335,35.17974993333333]},"__memberLines":{}},{"type":"Feature","properties":{"station_id":"n355173720","station_name":"Yangjeong","station_name_local":"양정","station_name_en":"Yangjeong","city":"Busan","country":"South Korea","lines":["1"],"wikipedia":null,"merged_from":3,"merged_names":null,"is_terminus":false,"codes":["121"],"routes":[{"ref":"1","name":"Busan Metro Line 1","route_color":"#f06a00"}],"pass_count":1,"station_degree":2,"is_interchange":false,"station_role":"normal"},"geometry":{"type":"Point","coordinates":[129.07130243333333,35.17316]},"__memberLines":{}},{"type":"Feature","properties":{"station_id":"n355173722","station_name":"Bujeon","station_name_local":"부전","station_name_en":"Bujeon","city":"Busan","country":"South Korea","lines":["1"],"wikipedia":null,"merged_from":3,"merged_names":null,"is_terminus":false,"codes":["120"],"routes":[{"ref":"1","name":"Busan Metro Line 1","route_color":"#f06a00"}],"pass_count":1,"station_degree":2,"is_interchange":false,"station_role":"normal"},"geometry":{"type":"Point","coordinates":[129.06294186666665,35.16260223333333]},"__memberLines":{}},{"type":"Feature","properties":{"station_id":"n355173724","station_name":"Seomyeon","station_name_local":"서면역","station_name_en":"Seomyeon","city":"Busan","country":"South Korea","lines":["1","2"],"wikipedia":null,"merged_from":4,"merged_names":null,"is_terminus":false,"codes":["119","219"],"routes":[{"ref":"1","name":"Busan Metro Line 1","route_color":"#f06a00"},{"ref":"2","name":"Busan Metro Line 2 (Green Line)","route_color":"#81bf48"}],"pass_count":2,"station_degree":4,"is_interchange":true,"station_role":"interchange"},"geometry":{"type":"Point","coordinates":[129.05933472499999,35.157960575]},"__memberLines":{}},{"type":"Feature","properties":{"station_id":"n355173726","station_name":"Beomnaegol","station_name_local":"범내골","station_name_en":"Beomnaegol","city":"Busan","country":"South Korea","lines":["1"],"wikipedia":null,"merged_from":3,"merged_names":null,"is_terminus":false,"codes":["118"],"routes":[{"ref":"1","name":"Busan Metro Line 1","route_color":"#f06a00"}],"pass_count":1,"station_degree":2,"is_interchange":false,"station_role":"normal"},"geometry":{"type":"Point","coordinates":[129.05919916666664,35.1472937]},"__memberLines":{}},{"type":"Feature","properties":{"station_id":"n355173728","station_name":"Beomil","station_name_local":"범일","station_name_en":"Beomil","city":"Busan","country":"South Korea","lines":["1"],"wikipedia":null,"merged_from":3,"merged_names":null,"is_terminus":false,"codes":["117"],"routes":[{"ref":"1","name":"Busan Metro Line 1","route_color":"#f06a00"}],"pass_count":1,"station_degree":2,"is_interchange":false,"station_role":"normal"},"geometry":{"type":"Point","coordinates":[129.05935583333334,35.14095816666667]},"__memberLines":{}},{"type":"Feature","properties":{"station_id":"n355173730","station_name":"Jwacheon","station_name_local":"좌천","station_name_en":"Jwacheon","city":"Busan","country":"South Korea","lines":["1"],"wikipedia":null,"merged_from":3,"merged_names":null,"is_terminus":false,"codes":["116"],"routes":[{"ref":"1","name":"Busan Metro Line 1","route_color":"#f06a00"}],"pass_count":1,"station_degree":2,"is_interchange":false,"station_role":"normal"},"geometry":{"type":"Point","coordinates":[129.05434893333333,35.13433656666667]},"__memberLines":{}},{"type":"Feature","properties":{"station_id":"n355173740","station_name":"Jangjeon","station_name_local":"장전","station_name_en":"Jangjeon","city":"Busan","country":"South Korea","lines":["1"],"wikipedia":null,"merged_from":3,"merged_names":null,"is_terminus":false,"codes":["129"],"routes":[{"ref":"1","name":"Busan Metro Line 1","route_color":"#f06a00"}],"pass_count":1,"station_degree":2,"is_interchange":false,"station_role":"normal"},"geometry":{"type":"Point","coordinates":[129.0881016666667,35.23819573333333]},"__memberLines":{}},{"type":"Feature","properties":{"station_id":"n355173742","station_name":"Pusan Nat'l Univ.","station_name_local":"부산대","station_name_en":"Pusan Nat'l Univ.","city":"Busan","country":"South Korea","lines":["1"],"wikipedia":null,"merged_from":3,"merged_names":null,"is_terminus":false,"codes":["128"],"routes":[{"ref":"1","name":"Busan Metro Line 1","route_color":"#f06a00"}],"pass_count":1,"station_degree":2,"is_interchange":false,"station_role":"normal"},"geometry":{"type":"Point","coordinates":[129.08934633333334,35.22975966666666]},"__memberLines":{}},{"type":"Feature","properties":{"station_id":"n355173757","station_name":"Nopo","station_name_local":"노포","station_name_en":"Nopo","city":"Busan","country":"South Korea","lines":["1"],"wikipedia":"ko:노포역","merged_from":3,"merged_names":null,"is_terminus":true,"codes":["134"],"routes":[{"ref":"1","name":"Busan Metro Line 1","route_color":"#f06a00"}],"pass_count":1,"station_degree":1,"is_interchange":false,"station_role":"terminus"},"geometry":{"type":"Point","coordinates":[129.09513193333333,35.28401253333333]},"__memberLines":{}},{"type":"Feature","properties":{"station_id":"n355173761","station_name":"Beomeosa","station_name_local":"범어사","station_name_en":"Beomeosa","city":"Busan","country":"South Korea","lines":["1"],"wikipedia":"ko:범어사역","merged_from":3,"merged_names":null,"is_terminus":false,"codes":["133"],"routes":[{"ref":"1","name":"Busan Metro Line 1","route_color":"#f06a00"}],"pass_count":1,"station_degree":2,"is_interchange":false,"station_role":"normal"},"geometry":{"type":"Point","coordinates":[129.09269416666666,35.273137733333336]},"__memberLines":{}},{"type":"Feature","properties":{"station_id":"n355173787","station_name":"Deokpo","station_name_local":"덕포","station_name_en":"Deokpo","city":"Busan","country":"South Korea","lines":["2"],"wikipedia":null,"is_terminus":false,"codes":["228"],"routes":[{"ref":"2","name":"Busan Metro Line 2 (Green Line)","route_color":"#81bf48"}],"pass_count":1,"station_degree":2,"merged_from":null,"merged_names":null,"is_interchange":false,"station_role":"normal"},"geometry":{"type":"Point","coordinates":[128.9839737,35.1738665]},"__memberLines":{}},{"type":"Feature","properties":{"station_id":"n355173790","station_name":"Mora","station_name_local":"모라","station_name_en":"Mora","city":"Busan","country":"South Korea","lines":["2"],"wikipedia":null,"is_terminus":false,"codes":["230"],"routes":[{"ref":"2","name":"Busan Metro Line 2 (Green Line)","route_color":"#81bf48"}],"pass_count":1,"station_degree":2,"merged_from":null,"merged_names":null,"is_interchange":false,"station_role":"normal"},"geometry":{"type":"Point","coordinates":[128.9884422,35.1892988]},"__memberLines":{}},{"type":"Feature","properties":{"station_id":"n355173792","station_name":"Modeok","station_name_local":"모덕","station_name_en":"Modeok","city":"Busan","country":"South Korea","lines":["2"],"wikipedia":null,"is_terminus":false,"codes":["229"],"routes":[{"ref":"2","name":"Busan Metro Line 2 (Green Line)","route_color":"#81bf48"}],"pass_count":1,"station_degree":2,"merged_from":null,"merged_names":null,"is_interchange":false,"station_role":"normal"},"geometry":{"type":"Point","coordinates":[128.985621,35.180361]},"__memberLines":{}},{"type":"Feature","properties":{"station_id":"n355173793","station_name":"Gumyeong","station_name_local":"구명","station_name_en":"Gumyeong","city":"Busan","country":"South Korea","lines":["2"],"wikipedia":"ko:구명역","merged_from":2,"merged_names":null,"is_terminus":false,"codes":["232"],"routes":[{"ref":"2","name":"Busan Metro Line 2 (Green Line)","route_color":"#81bf48"}],"pass_count":1,"station_degree":2,"is_interchange":false,"station_role":"normal"},"geometry":{"type":"Point","coordinates":[128.99957,35.20283945]},"__memberLines":{}},{"type":"Feature","properties":{"station_id":"n355173803","station_name":"Deokcheon","station_name_local":"덕천","station_name_en":"Deokcheon","city":"Busan","country":"South Korea","lines":["2","3"],"wikipedia":null,"merged_from":3,"merged_names":null,"is_terminus":false,"codes":["233","313"],"routes":[{"ref":"2","name":"Busan Metro Line 2 (Green Line)","route_color":"#81bf48"},{"ref":"3","name":"Busan Metro Line 3 (Brown Line)","route_color":"#bb8c00"}],"pass_count":2,"station_degree":4,"is_interchange":true,"station_role":"interchange"},"geometry":{"type":"Point","coordinates":[129.00539586666665,35.21034796666667]},"__memberLines":{}},{"type":"Feature","properties":{"station_id":"n355173805","station_name":"Yulli","station_name_local":"율리","station_name_en":"Yulli","city":"Busan","country":"South Korea","lines":["2"],"wikipedia":null,"is_terminus":false,"codes":["236"],"routes":[{"ref":"2","name":"Busan Metro Line 2 (Green Line)","route_color":"#81bf48"}],"pass_count":1,"station_degree":2,"merged_from":null,"merged_names":null,"is_interchange":false,"station_role":"normal"},"geometry":{"type":"Point","coordinates":[129.0128975,35.2464762]},"__memberLines":{}},{"type":"Feature","properties":{"station_id":"n355173809","station_name":"Geumgok","station_name_local":"금곡","station_name_en":"Geumgok","city":"Busan","country":"South Korea","lines":["2"],"wikipedia":null,"is_terminus":false,"codes":["238"],"routes":[{"ref":"2","name":"Busan Metro Line 2 (Green Line)","route_color":"#81bf48"}],"pass_count":1,"station_degree":2,"merged_from":null,"merged_names":null,"is_interchange":false,"station_role":"normal"},"geometry":{"type":"Point","coordinates":[129.0168673,35.2673839]},"__memberLines":{}},{"type":"Feature","properties":{"station_id":"n355173810","station_name":"Dongwon","station_name_local":"동원","station_name_en":"Dongwon","city":"Busan","country":"South Korea","lines":["2"],"wikipedia":null,"is_terminus":false,"codes":["237"],"routes":[{"ref":"2","name":"Busan Metro Line 2 (Green Line)","route_color":"#81bf48"}],"pass_count":1,"station_degree":2,"merged_from":null,"merged_names":null,"is_interchange":false,"station_role":"normal"},"geometry":{"type":"Point","coordinates":[129.0124334,35.2586149]},"__memberLines":{}},{"type":"Feature","properties":{"station_id":"n355173812","station_name":"Jeungsan","station_name_local":"증산","station_name_en":"Jeungsan","city":"Busan","country":"South Korea","lines":["2"],"wikipedia":null,"is_terminus":false,"codes":["240"],"routes":[{"ref":"2","name":"Busan Metro Line 2 (Green Line)","route_color":"#81bf48"}],"pass_count":1,"station_degree":2,"merged_from":null,"merged_names":null,"is_interchange":false,"station_role":"normal"},"geometry":{"type":"Point","coordinates":[129.0102327,35.3083224]},"__memberLines":{}},{"type":"Feature","properties":{"station_id":"n355173814","station_name":"Hopo","station_name_local":"호포","station_name_en":"Hopo","city":"Busan","country":"South Korea","lines":["2"],"wikipedia":"ko:호포역","merged_from":2,"merged_names":null,"is_terminus":false,"codes":["239"],"routes":[{"ref":"2","name":"Busan Metro Line 2 (Green Line)","route_color":"#81bf48"}],"pass_count":1,"station_degree":2,"is_interchange":false,"station_role":"normal"},"geometry":{"type":"Point","coordinates":[129.01745455,35.2811011]},"__memberLines":{}},{"type":"Feature","properties":{"station_id":"n355173817","station_name":"Namyangsan","station_name_local":"남양산","station_name_en":"Namyangsan","city":"Busan","country":"South Korea","lines":["2"],"wikipedia":null,"is_terminus":false,"codes":["242"],"routes":[{"ref":"2","name":"Busan Metro Line 2 (Green Line)","route_color":"#81bf48"}],"pass_count":1,"station_degree":2,"merged_from":null,"merged_names":null,"is_interchange":false,"station_role":"normal"},"geometry":{"type":"Point","coordinates":[129.0193639,35.325404]},"__memberLines":{}},{"type":"Feature","properties":{"station_id":"n355173820","station_name":"Pusan Nat'l Univ. Yangsan Campus station","station_name_local":"부산대양산캠퍼스","station_name_en":"Pusan Nat'l Univ. Yangsan Campus station","city":"Busan","country":"South Korea","lines":["2"],"wikipedia":null,"merged_from":2,"merged_names":null,"is_terminus":false,"codes":["241"],"routes":[{"ref":"2","name":"Busan Metro Line 2 (Green Line)","route_color":"#81bf48"}],"pass_count":1,"station_degree":2,"is_interchange":false,"station_role":"normal"},"geometry":{"type":"Point","coordinates":[129.01396004999998,35.31689935]},"__memberLines":{}},{"type":"Feature","properties":{"station_id":"n355173821","station_name":"Yangsan","station_name_local":"양산","station_name_en":"Yangsan","city":"Busan","country":"South Korea","lines":["2"],"wikipedia":null,"merged_from":3,"merged_names":null,"is_terminus":true,"codes":["243"],"routes":[{"ref":"2","name":"Busan Metro Line 2 (Green Line)","route_color":"#81bf48"}],"pass_count":1,"station_degree":1,"is_interchange":false,"station_role":"terminus"},"geometry":{"type":"Point","coordinates":[129.0263861,35.33871756666667]},"__memberLines":{}},{"type":"Feature","properties":{"station_id":"n355173825","station_name":"Hadan","station_name_local":"하단","station_name_en":"Hadan","city":"Busan","country":"South Korea","lines":["1"],"wikipedia":"ko:하단역 (부산)","merged_from":2,"merged_names":null,"is_terminus":false,"codes":["102"],"routes":[{"ref":"1","name":"Busan Metro Line 1","route_color":"#f06a00"}],"pass_count":1,"station_degree":2,"is_interchange":false,"station_role":"normal"},"geometry":{"type":"Point","coordinates":[128.96677775,35.1062352]},"__memberLines":{}},{"type":"Feature","properties":{"station_id":"n355173827","station_name":"Dangni","station_name_local":"당리","station_name_en":"Dangni","city":"Busan","country":"South Korea","lines":["1"],"wikipedia":"ko:당리역","merged_from":3,"merged_names":null,"is_terminus":false,"codes":["103"],"routes":[{"ref":"1","name":"Busan Metro Line 1","route_color":"#f06a00"}],"pass_count":1,"station_degree":2,"is_interchange":false,"station_role":"normal"},"geometry":{"type":"Point","coordinates":[128.97384309999998,35.103517933333336]},"__memberLines":{}},{"type":"Feature","properties":{"station_id":"n355173829","station_name":"Saha","station_name_local":"사하","station_name_en":"Saha","city":"Busan","country":"South Korea","lines":["1"],"wikipedia":"ko:사하역","merged_from":2,"merged_names":null,"is_terminus":false,"codes":["104"],"routes":[{"ref":"1","name":"Busan Metro Line 1","route_color":"#f06a00"}],"pass_count":1,"station_degree":2,"is_interchange":false,"station_role":"normal"},"geometry":{"type":"Point","coordinates":[128.98309154999998,35.099818850000005]},"__memberLines":{}},{"type":"Feature","properties":{"station_id":"n355173831","station_name":"Goejeong","station_name_local":"괴정","station_name_en":"Goejeong","city":"Busan","country":"South Korea","lines":["1"],"wikipedia":"ko:괴정동 (부산)","merged_from":2,"merged_names":null,"is_terminus":false,"codes":["105"],"routes":[{"ref":"1","name":"Busan Metro Line 1","route_color":"#f06a00"}],"pass_count":1,"station_degree":2,"is_interchange":false,"station_role":"normal"},"geometry":{"type":"Point","coordinates":[128.9928492,35.099964150000005]},"__memberLines":{}},{"type":"Feature","properties":{"station_id":"n355173833","station_name":"Daeti","station_name_local":"대티","station_name_en":"Daeti","city":"Busan","country":"South Korea","lines":["1"],"wikipedia":"ko:대티역","merged_from":2,"merged_names":null,"is_terminus":false,"codes":["106"],"routes":[{"ref":"1","name":"Busan Metro Line 1","route_color":"#f06a00"}],"pass_count":1,"station_degree":2,"is_interchange":false,"station_role":"normal"},"geometry":{"type":"Point","coordinates":[128.99996405000002,35.10315515]},"__memberLines":{}},{"type":"Feature","properties":{"station_id":"n355173834","station_name":"Seodaesin","station_name_local":"서대신","station_name_en":"Seodaesin","city":"Busan","country":"South Korea","lines":["1"],"wikipedia":"ko:서대신역","merged_from":2,"merged_names":null,"is_terminus":false,"codes":["107"],"routes":[{"ref":"1","name":"Busan Metro Line 1","route_color":"#f06a00"}],"pass_count":1,"station_degree":2,"is_interchange":false,"station_role":"normal"},"geometry":{"type":"Point","coordinates":[129.01204280000002,35.110855349999994]},"__memberLines":{}},{"type":"Feature","properties":{"station_id":"n355173836","station_name":"Dongdaesin","station_name_local":"동대신","station_name_en":"Dongdaesin","city":"Busan","country":"South Korea","lines":["1"],"wikipedia":"ko:동대신역","merged_from":3,"merged_names":null,"is_terminus":false,"codes":["108"],"routes":[{"ref":"1","name":"Busan Metro Line 1","route_color":"#f06a00"}],"pass_count":1,"station_degree":2,"is_interchange":false,"station_role":"normal"},"geometry":{"type":"Point","coordinates":[129.01778206666665,35.11033713333333]},"__memberLines":{}},{"type":"Feature","properties":{"station_id":"n355173838","station_name":"Toseong","station_name_local":"토성","station_name_en":"Toseong","city":"Busan","country":"South Korea","lines":["1"],"wikipedia":"ko:토성역","merged_from":3,"merged_names":null,"is_terminus":false,"codes":["109"],"routes":[{"ref":"1","name":"Busan Metro Line 1","route_color":"#f06a00"}],"pass_count":1,"station_degree":2,"is_interchange":false,"station_role":"normal"},"geometry":{"type":"Point","coordinates":[129.01984196666666,35.10076316666667]},"__memberLines":{}},{"type":"Feature","properties":{"station_id":"n355173840","station_name":"Jagalchi","station_name_local":"자갈치","station_name_en":"Jagalchi","city":"Busan","country":"South Korea","lines":["1"],"wikipedia":"ko:자갈치역","merged_from":3,"merged_names":null,"is_terminus":false,"codes":["110"],"routes":[{"ref":"1","name":"Busan Metro Line 1","route_color":"#f06a00"}],"pass_count":1,"station_degree":2,"is_interchange":false,"station_role":"normal"},"geometry":{"type":"Point","coordinates":[129.02671936666664,35.0973382]},"__memberLines":{}},{"type":"Feature","properties":{"station_id":"n355173841","station_name":"Nampo","station_name_local":"남포","station_name_en":"Nampo","city":"Busan","country":"South Korea","lines":["1"],"wikipedia":"ko:남포역 (부산)","merged_from":2,"merged_names":null,"is_terminus":false,"codes":["111"],"routes":[{"ref":"1","name":"Busan Metro Line 1","route_color":"#f06a00"}],"pass_count":1,"station_degree":2,"is_interchange":false,"station_role":"normal"},"geometry":{"type":"Point","coordinates":[129.03492225,35.097905]},"__memberLines":{}},{"type":"Feature","properties":{"station_id":"n355173843","station_name":"Jungang","station_name_local":"중앙","station_name_en":"Jungang","city":"Busan","country":"South Korea","lines":["1"],"wikipedia":"ko:중앙역 (부산)","merged_from":3,"merged_names":null,"is_terminus":false,"codes":["112"],"routes":[{"ref":"1","name":"Busan Metro Line 1","route_color":"#f06a00"}],"pass_count":1,"station_degree":2,"is_interchange":false,"station_role":"normal"},"geometry":{"type":"Point","coordinates":[129.03632786666665,35.10384266666666]},"__memberLines":{}},{"type":"Feature","properties":{"station_id":"n355173846","station_name":"Choryang","station_name_local":"초량","station_name_en":"Choryang","city":"Busan","country":"South Korea","lines":["1"],"wikipedia":null,"merged_from":3,"merged_names":null,"is_terminus":false,"codes":["114"],"routes":[{"ref":"1","name":"Busan Metro Line 1","route_color":"#f06a00"}],"pass_count":1,"station_degree":2,"is_interchange":false,"station_role":"normal"},"geometry":{"type":"Point","coordinates":[129.04296706666665,35.12120276666667]},"__memberLines":{}},{"type":"Feature","properties":{"station_id":"n355173848","station_name":"Busanjin","station_name_local":"부산진","station_name_en":"Busanjin","city":"Busan","country":"South Korea","lines":["1"],"wikipedia":null,"merged_from":3,"merged_names":null,"is_terminus":false,"codes":["115"],"routes":[{"ref":"1","name":"Busan Metro Line 1","route_color":"#f06a00"}],"pass_count":1,"station_degree":2,"is_interchange":false,"station_role":"normal"},"geometry":{"type":"Point","coordinates":[129.04911343333333,35.12901096666666]},"__memberLines":{}},{"type":"Feature","properties":{"station_id":"n355173852","station_name":"Sukdeung","station_name_local":"숙등","station_name_en":"Sukdeung","city":"Busan","country":"South Korea","lines":["3"],"wikipedia":null,"is_terminus":false,"routes":[{"ref":"3","name":"Busan Metro Line 3 (Brown Line)","route_color":"#bb8c00"}],"pass_count":1,"station_degree":2,"codes":null,"merged_from":null,"merged_names":null,"is_interchange":false,"station_role":"normal"},"geometry":{"type":"Point","coordinates":[129.0127544,35.2119767]},"__memberLines":{}},{"type":"Feature","properties":{"station_id":"n355173854","station_name":"Namsanjeong Station","station_name_local":"남산정","station_name_en":"Namsanjeong Station","city":"Busan","country":"South Korea","lines":["3"],"wikipedia":null,"is_terminus":false,"codes":["311"],"routes":[{"ref":"3","name":"Busan Metro Line 3 (Brown Line)","route_color":"#bb8c00"}],"pass_count":1,"station_degree":2,"merged_from":null,"merged_names":null,"is_interchange":false,"station_role":"normal"},"geometry":{"type":"Point","coordinates":[129.023926,35.2133254]},"__memberLines":{}},{"type":"Feature","properties":{"station_id":"n355173857","station_name":"Jangsan","station_name_local":"장산","station_name_en":"Jangsan","city":"Busan","country":"South Korea","lines":["2"],"wikipedia":null,"merged_from":2,"merged_names":null,"is_terminus":true,"codes":["201"],"routes":[{"ref":"2","name":"Busan Metro Line 2 (Green Line)","route_color":"#81bf48"}],"pass_count":1,"station_degree":1,"is_interchange":false,"station_role":"terminus"},"geometry":{"type":"Point","coordinates":[129.17588965,35.1694631]},"__memberLines":{}},{"type":"Feature","properties":{"station_id":"n355173861","station_name":"Cheyuk Park","station_name_local":"체육공원","station_name_en":"Cheyuk Park","city":"Busan","country":"South Korea","lines":["3"],"wikipedia":null,"merged_from":3,"merged_names":null,"is_terminus":false,"codes":["316"],"routes":[{"ref":"3","name":"Busan Metro Line 3 (Brown Line)","route_color":"#bb8c00"}],"pass_count":1,"station_degree":2,"is_interchange":false,"station_role":"normal"},"geometry":{"type":"Point","coordinates":[128.96937866666667,35.2124864]},"__memberLines":{}},{"type":"Feature","properties":{"station_id":"n355173865","station_name":"BEXCO","station_name_local":"벡스코","station_name_en":"BEXCO","city":"Busan","country":"South Korea","lines":["2"],"wikipedia":null,"merged_from":3,"merged_names":null,"is_terminus":false,"codes":["205"],"routes":[{"ref":"2","name":"Busan Metro Line 2 (Green Line)","route_color":"#81bf48"}],"pass_count":1,"station_degree":2,"is_interchange":false,"station_role":"normal"},"geometry":{"type":"Point","coordinates":[129.1369614,35.170688266666666]},"__memberLines":{}},{"type":"Feature","properties":{"station_id":"n355173867","station_name":"Dongbaek","station_name_local":"동백","station_name_en":"Dongbaek","city":"Busan","country":"South Korea","lines":["2"],"wikipedia":null,"is_terminus":false,"codes":["204"],"routes":[{"ref":"2","name":"Busan Metro Line 2 (Green Line)","route_color":"#81bf48"}],"pass_count":1,"station_degree":2,"merged_from":null,"merged_names":null,"is_interchange":false,"station_role":"normal"},"geometry":{"type":"Point","coordinates":[129.1480904,35.161277]},"__memberLines":{}},{"type":"Feature","properties":{"station_id":"n355173869","station_name":"Haeundae","station_name_local":"해운대","station_name_en":"Haeundae","city":"Busan","country":"South Korea","lines":["2"],"wikipedia":null,"merged_from":2,"merged_names":null,"is_terminus":false,"codes":["203"],"routes":[{"ref":"2","name":"Busan Metro Line 2 (Green Line)","route_color":"#81bf48"}],"pass_count":1,"station_degree":2,"is_interchange":false,"station_role":"normal"},"geometry":{"type":"Point","coordinates":[129.1587778,35.16371885]},"__memberLines":{}},{"type":"Feature","properties":{"station_id":"n355173872","station_name":"Gwangan","station_name_local":"광안","station_name_en":"Gwangan","city":"Busan","country":"South Korea","lines":["2"],"wikipedia":null,"is_terminus":false,"codes":["209"],"routes":[{"ref":"2","name":"Busan Metro Line 2 (Green Line)","route_color":"#81bf48"}],"pass_count":1,"station_degree":2,"merged_from":null,"merged_names":null,"is_interchange":false,"station_role":"normal"},"geometry":{"type":"Point","coordinates":[129.11317,35.157916]},"__memberLines":{}},{"type":"Feature","properties":{"station_id":"n355173875","station_name":"Millak","station_name_local":"민락","station_name_en":"Millak","city":"Busan","country":"South Korea","lines":["2"],"wikipedia":null,"merged_from":2,"merged_names":null,"is_terminus":false,"codes":["207"],"routes":[{"ref":"2","name":"Busan Metro Line 2 (Green Line)","route_color":"#81bf48"}],"pass_count":1,"station_degree":2,"is_interchange":false,"station_role":"normal"},"geometry":{"type":"Point","coordinates":[129.1217001,35.167339]},"__memberLines":{}},{"type":"Feature","properties":{"station_id":"n355173882","station_name":"Kyungsung Univ. · Pukyong Nat'l Univ.","station_name_local":"경성대·부경대","station_name_en":"Kyungsung Univ. · Pukyong Nat'l Univ.","city":"Busan","country":"South Korea","lines":["2"],"wikipedia":null,"is_terminus":false,"codes":["212"],"routes":[{"ref":"2","name":"Busan Metro Line 2 (Green Line)","route_color":"#81bf48"}],"pass_count":1,"station_degree":2,"merged_from":null,"merged_names":null,"is_interchange":false,"station_role":"normal"},"geometry":{"type":"Point","coordinates":[129.100531,35.137558]},"__memberLines":{}},{"type":"Feature","properties":{"station_id":"n355173884","station_name":"Daeyeon","station_name_local":"대연","station_name_en":"Daeyeon","city":"Busan","country":"South Korea","lines":["2"],"wikipedia":null,"is_terminus":false,"codes":["213"],"routes":[{"ref":"2","name":"Busan Metro Line 2 (Green Line)","route_color":"#81bf48"}],"pass_count":1,"station_degree":2,"merged_from":null,"merged_names":null,"is_interchange":false,"station_role":"normal"},"geometry":{"type":"Point","coordinates":[129.092172,35.135148]},"__memberLines":{}},{"type":"Feature","properties":{"station_id":"n355173886","station_name":"Geumryeonsan","station_name_local":"금련산","station_name_en":"Geumryeonsan","city":"Busan","country":"South Korea","lines":["2"],"wikipedia":null,"is_terminus":false,"codes":["210"],"routes":[{"ref":"2","name":"Busan Metro Line 2 (Green Line)","route_color":"#81bf48"}],"pass_count":1,"station_degree":2,"merged_from":null,"merged_names":null,"is_interchange":false,"station_role":"normal"},"geometry":{"type":"Point","coordinates":[129.11097,35.149756]},"__memberLines":{}},{"type":"Feature","properties":{"station_id":"n355173889","station_name":"Munhyeon","station_name_local":"문현","station_name_en":"Munhyeon","city":"Busan","country":"South Korea","lines":["2"],"wikipedia":null,"is_terminus":false,"codes":["216"],"routes":[{"ref":"2","name":"Busan Metro Line 2 (Green Line)","route_color":"#81bf48"}],"pass_count":1,"station_degree":2,"merged_from":null,"merged_names":null,"is_interchange":false,"station_role":"normal"},"geometry":{"type":"Point","coordinates":[129.0673312,35.1391392]},"__memberLines":{}},{"type":"Feature","properties":{"station_id":"n355173891","station_name":"Busan International Finance Center·Busan Bank","station_name_local":"국제금융센터·부산은행","station_name_en":"Busan International Finance Center·Busan Bank","city":"Busan","country":"South Korea","lines":["2"],"wikipedia":null,"is_terminus":false,"codes":["217"],"routes":[{"ref":"2","name":"Busan Metro Line 2 (Green Line)","route_color":"#81bf48"}],"pass_count":1,"station_degree":2,"merged_from":null,"merged_names":null,"is_interchange":false,"station_role":"normal"},"geometry":{"type":"Point","coordinates":[129.0667134,35.1457278]},"__memberLines":{}},{"type":"Feature","properties":{"station_id":"n355173893","station_name":"Motgol","station_name_local":"못골","station_name_en":"Motgol","city":"Busan","country":"South Korea","lines":["2"],"wikipedia":null,"is_terminus":false,"codes":["214"],"routes":[{"ref":"2","name":"Busan Metro Line 2 (Green Line)","route_color":"#81bf48"}],"pass_count":1,"station_degree":2,"merged_from":null,"merged_names":null,"is_interchange":false,"station_role":"normal"},"geometry":{"type":"Point","coordinates":[129.084783,35.134758]},"__memberLines":{}},{"type":"Feature","properties":{"station_id":"n355173894","station_name":"Jigegol","station_name_local":"지게골","station_name_en":"Jigegol","city":"Busan","country":"South Korea","lines":["2"],"wikipedia":null,"is_terminus":false,"codes":["215"],"routes":[{"ref":"2","name":"Busan Metro Line 2 (Green Line)","route_color":"#81bf48"}],"pass_count":1,"station_degree":2,"merged_from":null,"merged_names":null,"is_interchange":false,"station_role":"normal"},"geometry":{"type":"Point","coordinates":[129.074224,35.135668]},"__memberLines":{}},{"type":"Feature","properties":{"station_id":"n355173896","station_name":"Gaya","station_name_local":"가야","station_name_en":"Gaya","city":"Busan","country":"South Korea","lines":["2"],"wikipedia":null,"is_terminus":false,"codes":["221"],"routes":[{"ref":"2","name":"Busan Metro Line 2 (Green Line)","route_color":"#81bf48"}],"pass_count":1,"station_degree":2,"merged_from":null,"merged_names":null,"is_interchange":false,"station_role":"normal"},"geometry":{"type":"Point","coordinates":[129.0426874,35.1558284]},"__memberLines":{}},{"type":"Feature","properties":{"station_id":"n355173898","station_name":"Dong-Eui Univ.","station_name_local":"동의대","station_name_en":"Dong-Eui Univ.","city":"Busan","country":"South Korea","lines":["2"],"wikipedia":null,"is_terminus":false,"codes":["222"],"routes":[{"ref":"2","name":"Busan Metro Line 2 (Green Line)","route_color":"#81bf48"}],"pass_count":1,"station_degree":2,"merged_from":null,"merged_names":null,"is_interchange":false,"station_role":"normal"},"geometry":{"type":"Point","coordinates":[129.0321386,35.1539803]},"__memberLines":{}},{"type":"Feature","properties":{"station_id":"n355173900","station_name":"Jeonpo","station_name_local":"전포","station_name_en":"Jeonpo","city":"Busan","country":"South Korea","lines":["2"],"wikipedia":null,"is_terminus":false,"codes":["218"],"routes":[{"ref":"2","name":"Busan Metro Line 2 (Green Line)","route_color":"#81bf48"}],"pass_count":1,"station_degree":2,"merged_from":null,"merged_names":null,"is_interchange":false,"station_role":"normal"},"geometry":{"type":"Point","coordinates":[129.0653641,35.1528193]},"__memberLines":{}},{"type":"Feature","properties":{"station_id":"n355173902","station_name":"Buam","station_name_local":"부암","station_name_en":"Buam","city":"Busan","country":"South Korea","lines":["2"],"wikipedia":null,"is_terminus":false,"codes":["220"],"routes":[{"ref":"2","name":"Busan Metro Line 2 (Green Line)","route_color":"#81bf48"}],"pass_count":1,"station_degree":2,"merged_from":null,"merged_names":null,"is_interchange":false,"station_role":"normal"},"geometry":{"type":"Point","coordinates":[129.0505061,35.157439]},"__memberLines":{}},{"type":"Feature","properties":{"station_id":"n355173904","station_name":"Jurye","station_name_local":"주례","station_name_en":"Jurye","city":"Busan","country":"South Korea","lines":["2"],"wikipedia":null,"is_terminus":false,"codes":["225"],"routes":[{"ref":"2","name":"Busan Metro Line 2 (Green Line)","route_color":"#81bf48"}],"pass_count":1,"station_degree":2,"merged_from":null,"merged_names":null,"is_interchange":false,"station_role":"normal"},"geometry":{"type":"Point","coordinates":[129.00315,35.150504]},"__memberLines":{}},{"type":"Feature","properties":{"station_id":"n355173906","station_name":"Gamjeon","station_name_local":"감전","station_name_en":"Gamjeon","city":"Busan","country":"South Korea","lines":["2"],"wikipedia":null,"is_terminus":false,"codes":["226"],"routes":[{"ref":"2","name":"Busan Metro Line 2 (Green Line)","route_color":"#81bf48"}],"pass_count":1,"station_degree":2,"merged_from":null,"merged_names":null,"is_interchange":false,"station_role":"normal"},"geometry":{"type":"Point","coordinates":[128.9908801,35.1557054]},"__memberLines":{}},{"type":"Feature","properties":{"station_id":"n355173908","station_name":"Gaegeum","station_name_local":"개금","station_name_en":"Gaegeum","city":"Busan","country":"South Korea","lines":["2"],"wikipedia":null,"is_terminus":false,"codes":["223"],"routes":[{"ref":"2","name":"Busan Metro Line 2 (Green Line)","route_color":"#81bf48"}],"pass_count":1,"station_degree":2,"merged_from":null,"merged_names":null,"is_interchange":false,"station_role":"normal"},"geometry":{"type":"Point","coordinates":[129.0204602,35.1532536]},"__memberLines":{}},{"type":"Feature","properties":{"station_id":"n355173909","station_name":"Naengjeong","station_name_local":"냉정","station_name_en":"Naengjeong","city":"Busan","country":"South Korea","lines":["2"],"wikipedia":null,"is_terminus":false,"codes":["224"],"routes":[{"ref":"2","name":"Busan Metro Line 2 (Green Line)","route_color":"#81bf48"}],"pass_count":1,"station_degree":2,"merged_from":null,"merged_names":null,"is_interchange":false,"station_role":"normal"},"geometry":{"type":"Point","coordinates":[129.0124257,35.1512851]},"__memberLines":{}},{"type":"Feature","properties":{"station_id":"n355173971","station_name":"Mulmangol","station_name_local":"물만골","station_name_en":"Mulmangol","city":"Busan","country":"South Korea","lines":["3"],"wikipedia":null,"merged_from":2,"merged_names":null,"is_terminus":false,"codes":["304"],"routes":[{"ref":"3","name":"Busan Metro Line 3 (Brown Line)","route_color":"#bb8c00"}],"pass_count":1,"station_degree":2,"is_interchange":false,"station_role":"normal"},"geometry":{"type":"Point","coordinates":[129.08583625,35.1766396]},"__memberLines":{}},{"type":"Feature","properties":{"station_id":"n355173972","station_name":"Baesan","station_name_local":"배산","station_name_en":"Baesan","city":"Busan","country":"South Korea","lines":["3"],"wikipedia":null,"merged_from":2,"merged_names":null,"is_terminus":false,"codes":["303"],"routes":[{"ref":"3","name":"Busan Metro Line 3 (Brown Line)","route_color":"#bb8c00"}],"pass_count":1,"station_degree":2,"is_interchange":false,"station_role":"normal"},"geometry":{"type":"Point","coordinates":[129.09575005,35.1734678]},"__memberLines":{}},{"type":"Feature","properties":{"station_id":"n355173973","station_name":"Mangmi","station_name_local":"망미","station_name_en":"Mangmi","city":"Busan","country":"South Korea","lines":["3"],"wikipedia":null,"merged_from":2,"merged_names":null,"is_terminus":false,"codes":["302"],"routes":[{"ref":"3","name":"Busan Metro Line 3 (Brown Line)","route_color":"#bb8c00"}],"pass_count":1,"station_degree":2,"is_interchange":false,"station_role":"normal"},"geometry":{"type":"Point","coordinates":[129.10751935000002,35.17174285]},"__memberLines":{}},{"type":"Feature","properties":{"station_id":"n355173977","station_name":"Minam","station_name_local":"미남","station_name_en":"Minam","city":"Busan","country":"South Korea","lines":["3"],"wikipedia":null,"merged_from":3,"merged_names":null,"is_terminus":false,"codes":["401"],"routes":[{"ref":"3","name":"Busan Metro Line 3 (Brown Line)","route_color":"#bb8c00"}],"pass_count":1,"station_degree":2,"is_interchange":false,"station_role":"normal"},"geometry":{"type":"Point","coordinates":[129.06874703333335,35.20653286666666]},"__memberLines":{}},{"type":"Feature","properties":{"station_id":"n355173979","station_name":"Sajik","station_name_local":"사직","station_name_en":"Sajik","city":"Busan","country":"South Korea","lines":["3"],"wikipedia":null,"is_terminus":false,"codes":["308"],"routes":[{"ref":"3","name":"Busan Metro Line 3 (Brown Line)","route_color":"#bb8c00"}],"pass_count":1,"station_degree":2,"merged_from":null,"merged_names":null,"is_interchange":false,"station_role":"normal"},"geometry":{"type":"Point","coordinates":[129.0650666,35.1990904]},"__memberLines":{}},{"type":"Feature","properties":{"station_id":"n355173983","station_name":"Geoje","station_name_local":"거제","station_name_en":"Geoje","city":"Busan","country":"South Korea","lines":["3"],"wikipedia":null,"merged_from":4,"merged_names":null,"is_terminus":false,"codes":["306","K112"],"routes":[{"ref":"3","name":"Busan Metro Line 3 (Brown Line)","route_color":"#bb8c00"}],"pass_count":1,"station_degree":2,"is_interchange":false,"station_role":"normal"},"geometry":{"type":"Point","coordinates":[129.0741998,35.18916027499999]},"__memberLines":{}},{"type":"Feature","properties":{"station_id":"n1445926941","station_name":"Sasang","station_name_local":"사상","station_name_en":"Sasang","city":"Busan","country":"South Korea","lines":["2"],"wikipedia":null,"merged_from":5,"merged_names":null,"is_terminus":false,"codes":["1","227"],"routes":[{"ref":"2","name":"Busan Metro Line 2 (Green Line)","route_color":"#81bf48"}],"pass_count":1,"station_degree":2,"is_interchange":false,"station_role":"normal"},"geometry":{"type":"Point","coordinates":[128.98538266,35.16236298]},"__memberLines":{}},{"type":"Feature","properties":{"station_id":"n1446033913","station_name":"Daejeo","station_name_local":"대저","station_name_en":"Daejeo","city":"Busan","country":"South Korea","lines":["3"],"wikipedia":null,"merged_from":4,"merged_names":null,"is_terminus":true,"codes":["317","7"],"routes":[{"ref":"3","name":"Busan Metro Line 3 (Brown Line)","route_color":"#bb8c00"}],"pass_count":1,"station_degree":1,"is_interchange":false,"station_role":"terminus"},"geometry":{"type":"Point","coordinates":[128.96086,35.2132733]},"__memberLines":{}},{"type":"Feature","properties":{"station_id":"n1446033914","station_name":"Gangseo Office","station_name_local":"강서구청","station_name_en":"Gangseo Office","city":"Busan","country":"South Korea","lines":["3"],"wikipedia":null,"merged_from":3,"merged_names":null,"is_terminus":false,"codes":["315"],"routes":[{"ref":"3","name":"Busan Metro Line 3 (Brown Line)","route_color":"#bb8c00"}],"pass_count":1,"station_degree":2,"is_interchange":false,"station_role":"normal"},"geometry":{"type":"Point","coordinates":[128.9819529,35.2112257]},"__memberLines":{}},{"type":"Feature","properties":{"station_id":"n1446033915","station_name":"Gupo","station_name_local":"구포","station_name_en":"Gupo","city":"Busan","country":"South Korea","lines":["3"],"wikipedia":null,"merged_from":3,"merged_names":null,"is_terminus":false,"codes":["314"],"routes":[{"ref":"3","name":"Busan Metro Line 3 (Brown Line)","route_color":"#bb8c00"}],"pass_count":1,"station_degree":2,"is_interchange":false,"station_role":"normal"},"geometry":{"type":"Point","coordinates":[128.99635176666666,35.206694666666664]},"__memberLines":{}},{"type":"Feature","properties":{"station_id":"n1762460025","station_name":"Gunam","station_name_local":"구남","station_name_en":"Gunam","city":"Busan","country":"South Korea","lines":["2"],"wikipedia":null,"merged_from":2,"merged_names":null,"is_terminus":false,"routes":[{"ref":"2","name":"Busan Metro Line 2 (Green Line)","route_color":"#81bf48"}],"pass_count":1,"station_degree":2,"codes":null,"is_interchange":false,"station_role":"normal"},"geometry":{"type":"Point","coordinates":[128.99498284999999,35.196884850000004]},"__memberLines":{}},{"type":"Feature","properties":{"station_id":"n1763810759","station_name":"Hwamyeong","station_name_local":"화명","station_name_en":"Hwamyeong","city":"Busan","country":"South Korea","lines":["2"],"wikipedia":null,"is_terminus":false,"codes":["235"],"routes":[{"ref":"2","name":"Busan Metro Line 2 (Green Line)","route_color":"#81bf48"}],"pass_count":1,"station_degree":2,"merged_from":null,"merged_names":null,"is_interchange":false,"station_role":"normal"},"geometry":{"type":"Point","coordinates":[129.0138007,35.2352534]},"__memberLines":{}},{"type":"Feature","properties":{"station_id":"n1763825051","station_name":"Namcheon","station_name_local":"남천","station_name_en":"Namcheon","city":"Busan","country":"South Korea","lines":["2"],"wikipedia":null,"is_terminus":false,"routes":[{"ref":"2","name":"Busan Metro Line 2 (Green Line)","route_color":"#81bf48"}],"pass_count":1,"station_degree":2,"codes":null,"merged_from":null,"merged_names":null,"is_interchange":false,"station_role":"normal"},"geometry":{"type":"Point","coordinates":[129.1078416,35.1421344]},"__memberLines":{}},{"type":"Feature","properties":{"station_id":"n1768514188","station_name":"Busan","station_name_local":"부산","station_name_en":"Busan","city":"Busan","country":"South Korea","lines":["1"],"wikipedia":null,"merged_from":3,"merged_names":null,"is_terminus":false,"codes":["113"],"routes":[{"ref":"1","name":"Busan Metro Line 1","route_color":"#f06a00"}],"pass_count":1,"station_degree":2,"is_interchange":false,"station_role":"normal"},"geometry":{"type":"Point","coordinates":[129.03990106666666,35.115649999999995]},"__memberLines":{}},{"type":"Feature","properties":{"station_id":"n1768570626","station_name":"Namsan","station_name_local":"남산","station_name_en":"Namsan","city":"Busan","country":"South Korea","lines":["1"],"wikipedia":null,"merged_from":3,"merged_names":null,"is_terminus":false,"codes":["132"],"routes":[{"ref":"1","name":"Busan Metro Line 1","route_color":"#f06a00"}],"pass_count":1,"station_degree":2,"is_interchange":false,"station_role":"normal"},"geometry":{"type":"Point","coordinates":[129.09253476666666,35.26530043333333]},"__memberLines":{}},{"type":"Feature","properties":{"station_id":"n4115279791","station_name":"Myeongnyun","station_name_local":"명륜","station_name_en":"Myeongnyun","city":"Busan","country":"South Korea","lines":["1"],"wikipedia":null,"merged_from":3,"merged_names":null,"is_terminus":false,"codes":["126"],"routes":[{"ref":"1","name":"Busan Metro Line 1","route_color":"#f06a00"}],"pass_count":1,"station_degree":2,"is_interchange":false,"station_role":"normal"},"geometry":{"type":"Point","coordinates":[129.079712,35.21264286666667]},"__memberLines":{}},{"type":"Feature","properties":{"station_id":"n4496773368","station_name":"Busan National University of Education","station_name_local":"교대","station_name_en":"Busan National University of Education","city":"Busan","country":"South Korea","lines":["1"],"wikipedia":null,"merged_from":5,"merged_names":null,"is_terminus":false,"codes":["124"],"routes":[{"ref":"1","name":"Busan Metro Line 1","route_color":"#f06a00"}],"pass_count":1,"station_degree":2,"is_interchange":false,"station_role":"normal"},"geometry":{"type":"Point","coordinates":[129.07977876,35.19467336]},"__memberLines":{}},{"type":"Feature","properties":{"station_id":"n4632583162","station_name":"Oncheonjan","station_name_local":"온천장","station_name_en":"Oncheonjan","city":"Busan","country":"South Korea","lines":["1"],"wikipedia":null,"merged_from":3,"merged_names":null,"is_terminus":false,"codes":["127"],"routes":[{"ref":"1","name":"Busan Metro Line 1","route_color":"#f06a00"}],"pass_count":1,"station_degree":2,"is_interchange":false,"station_role":"normal"},"geometry":{"type":"Point","coordinates":[129.08638169999998,35.22027143333333]},"__memberLines":{}},{"type":"Feature","properties":{"station_id":"n4680300344","station_name":"Mandeok","station_name_local":"만덕","station_name_en":"Mandeok","city":"Busan","country":"South Korea","lines":["3"],"wikipedia":null,"is_terminus":false,"routes":[{"ref":"3","name":"Busan Metro Line 3 (Brown Line)","route_color":"#bb8c00"}],"pass_count":1,"station_degree":2,"codes":null,"merged_from":null,"merged_names":null,"is_interchange":false,"station_role":"normal"},"geometry":{"type":"Point","coordinates":[129.0364611,35.2129876]},"__memberLines":{}},{"type":"Feature","properties":{"station_id":"n4958082599","station_name":"Sports Complex","station_name_local":"종합운동장","station_name_en":"Sports Complex","city":"Busan","country":"South Korea","lines":["3"],"wikipedia":null,"merged_from":2,"merged_names":null,"is_terminus":false,"codes":["307"],"routes":[{"ref":"3","name":"Busan Metro Line 3 (Brown Line)","route_color":"#bb8c00"}],"pass_count":1,"station_degree":2,"is_interchange":false,"station_role":"normal"},"geometry":{"type":"Point","coordinates":[129.06752875,35.1911765]},"__memberLines":{}},{"type":"Feature","properties":{"station_id":"n5208472151","station_name":"Jung-dong","station_name_local":"중동","station_name_en":"Jung-dong","city":"Busan","country":"South Korea","lines":["2"],"wikipedia":null,"is_terminus":false,"codes":["202"],"routes":[{"ref":"2","name":"Busan Metro Line 2 (Green Line)","route_color":"#81bf48"}],"pass_count":1,"station_degree":2,"merged_from":null,"merged_names":null,"is_interchange":false,"station_role":"normal"},"geometry":{"type":"Point","coordinates":[129.1678074,35.1666759]}},{"type":"Feature","properties":{"station_id":"n5249625224","station_name":"Dadaepo Beach","station_name_local":"다대포해수욕장","station_name_en":"Dadaepo Beach","city":"Busan","country":"South Korea","lines":["1"],"wikipedia":null,"merged_from":3,"merged_names":null,"is_terminus":true,"codes":["95"],"routes":[{"ref":"1","name":"Busan Metro Line 1","route_color":"#f06a00"}],"pass_count":1,"station_degree":1,"is_interchange":false,"station_role":"terminus"},"geometry":{"type":"Point","coordinates":[128.96613523333335,35.04810116666667]},"__memberLines":{}},{"type":"Feature","properties":{"station_id":"n5277755939","station_name":"Suyeong","station_name_local":"수영","station_name_en":"Suyeong","city":"Busan","country":"South Korea","lines":["2","3"],"wikipedia":null,"merged_from":2,"merged_names":null,"is_terminus":false,"codes":["208"],"routes":[{"ref":"2","name":"Busan Metro Line 2 (Green Line)","route_color":"#81bf48"},{"ref":"3","name":"Busan Metro Line 3 (Brown Line)","route_color":"#bb8c00"}],"pass_count":2,"station_degree":3,"is_interchange":true,"station_role":"interchange"},"geometry":{"type":"Point","coordinates":[129.1146882,35.16541615]},"__memberLines":{}},{"type":"Feature","properties":{"station_id":"n5323513159","station_name":"Sujeong","station_name_local":"수정","station_name_en":"Sujeong","city":"Busan","country":"South Korea","lines":["2"],"wikipedia":null,"is_terminus":false,"routes":[{"ref":"2","name":"Busan Metro Line 2 (Green Line)","route_color":"#81bf48"}],"pass_count":1,"station_degree":2,"codes":null,"merged_from":null,"merged_names":null,"is_interchange":false,"station_role":"normal"},"geometry":{"type":"Point","coordinates":[129.0091715,35.2233039]},"__memberLines":{}},{"type":"Feature","properties":{"station_id":"n5421140316","station_name":"Centum City","station_name_local":"센텀시티","station_name_en":"Centum City","city":"Busan","country":"South Korea","lines":["2"],"wikipedia":null,"merged_from":2,"merged_names":null,"is_terminus":false,"routes":[{"ref":"2","name":"Busan Metro Line 2 (Green Line)","route_color":"#81bf48"}],"pass_count":1,"station_degree":2,"codes":null,"is_interchange":false,"station_role":"normal"},"geometry":{"type":"Point","coordinates":[129.1312076,35.168608649999996]},"__memberLines":{}},{"type":"Feature","properties":{"station_id":"n5425835737","station_name":"Dusil","station_name_local":"두실","station_name_en":"Dusil","city":"Busan","country":"South Korea","lines":["1"],"wikipedia":"ko:두실역","merged_from":3,"merged_names":null,"is_terminus":false,"codes":["131"],"routes":[{"ref":"1","name":"Busan Metro Line 1","route_color":"#f06a00"}],"pass_count":1,"station_degree":2,"is_interchange":false,"station_role":"normal"},"geometry":{"type":"Point","coordinates":[129.09139156666666,35.257053166666665]},"__memberLines":{}},{"type":"Feature","properties":{"station_id":"n5581116350","station_name":"Jangnim","station_name_local":"장림","station_name_en":"Jangnim","city":"Busan","country":"South Korea","lines":["1"],"wikipedia":"ko:장림역","merged_from":3,"merged_names":null,"is_terminus":false,"codes":["99"],"routes":[{"ref":"1","name":"Busan Metro Line 1","route_color":"#f06a00"}],"pass_count":1,"station_degree":2,"is_interchange":false,"station_role":"normal"},"geometry":{"type":"Point","coordinates":[128.97742303333334,35.08191003333334]},"__memberLines":{}},{"type":"Feature","properties":{"station_id":"n5581117238","station_name":"Dongmae","station_name_local":"동매","station_name_en":"Dongmae","city":"Busan","country":"South Korea","lines":["1"],"wikipedia":"ko:동매역","merged_from":3,"merged_names":null,"is_terminus":false,"codes":["100"],"routes":[{"ref":"1","name":"Busan Metro Line 1","route_color":"#f06a00"}],"pass_count":1,"station_degree":2,"is_interchange":false,"station_role":"normal"},"geometry":{"type":"Point","coordinates":[128.97338726666666,35.0898177]},"__memberLines":{}},{"type":"Feature","properties":{"station_id":"n5584681129","station_name":"Sinpyeong","station_name_local":"신평","station_name_en":"Sinpyeong","city":"Busan","country":"South Korea","lines":["1"],"wikipedia":null,"merged_from":3,"merged_names":null,"is_terminus":false,"codes":["101"],"routes":[{"ref":"1","name":"Busan Metro Line 1","route_color":"#f06a00"}],"pass_count":1,"station_degree":2,"is_interchange":false,"station_role":"normal"},"geometry":{"type":"Point","coordinates":[128.96068126666668,35.09521506666667]},"__memberLines":{}},{"type":"Feature","properties":{"station_id":"n5773426737","station_name":"Sinjangnim","station_name_local":"신장림","station_name_en":"Sinjangnim","city":"Busan","country":"South Korea","lines":["1"],"wikipedia":"ko:신장림역","merged_from":3,"merged_names":null,"is_terminus":false,"codes":["98"],"routes":[{"ref":"1","name":"Busan Metro Line 1","route_color":"#f06a00"}],"pass_count":1,"station_degree":2,"is_interchange":false,"station_role":"normal"},"geometry":{"type":"Point","coordinates":[128.97686143333334,35.074601099999995]},"__memberLines":{}},{"type":"Feature","properties":{"station_id":"n5773428961","station_name":"Natgae","station_name_local":"낫개","station_name_en":"Natgae","city":"Busan","country":"South Korea","lines":["1"],"wikipedia":"ko:낫개역","merged_from":3,"merged_names":null,"is_terminus":false,"codes":["97"],"routes":[{"ref":"1","name":"Busan Metro Line 1","route_color":"#f06a00"}],"pass_count":1,"station_degree":2,"is_interchange":false,"station_role":"normal"},"geometry":{"type":"Point","coordinates":[128.97980613333334,35.06538586666667]},"__memberLines":{}},{"type":"Feature","properties":{"station_id":"n5773432737","station_name":"Dadaepo Harbor","station_name_local":"다대포항","station_name_en":"Dadaepo Harbor","city":"Busan","country":"South Korea","lines":["1"],"wikipedia":"ko:다대포항역","merged_from":3,"merged_names":null,"is_terminus":false,"codes":["96"],"routes":[{"ref":"1","name":"Busan Metro Line 1","route_color":"#f06a00"}],"pass_count":1,"station_degree":2,"is_interchange":false,"station_role":"normal"},"geometry":{"type":"Point","coordinates":[128.97142796666665,35.05783366666667]},"__memberLines":{}}]}