{"type":"FeatureCollection","features":[{"type":"Feature","properties":{"route_ref":"A","route_color":"#ff0000"},"geometry":{"type":"LineString","coordinates":[[130.688413,32.7853711],[130.68927371266815,32.78695647018824],[130.6895014076322,32.78903574471905],[130.68987487588777,32.78991169024909],[130.6931429068234,32.79247817399797],[130.6940852703648,32.79262487893234],[130.6957147069288,32.793215570663946],[130.69611699318003,32.79387115909796],[130.69680739567454,32.79545755907297],[130.69716850301035,32.79595505292502],[130.69777350833184,32.7958695422236],[130.70127595710093,32.79479054706734],[130.70159607860015,32.79475472791577],[130.70185224709536,32.79485565893909],[130.70217899785015,32.79554907570803],[130.70278224560437,32.798494774851406],[130.70309196770972,32.79865158891844],[130.7046201005366,32.79849033126034],[130.7048960270077,32.798629674067975],[130.70549404182097,32.80120007325173],[130.70796382117987,32.803921737141636],[130.70819805629884,32.804117362418765],[130.70848363122875,32.80416729656475],[130.7102367632224,32.803075523687525],[130.71395361187388,32.80200448975651],[130.7163982296872,32.800763911136556],[130.72094700747013,32.79680261846314],[130.72148874178882,32.79649092286558],[130.7238966166629,32.79560773298863],[130.7245035,32.7952619],[130.7300995605877,32.791388356507966],[130.7370917544301,32.786823959759666],[130.7413343578122,32.78381804906486],[130.74179017136447,32.7837243739535],[130.74550639250313,32.783627152669204],[130.7471937,32.783221399999995],[130.75069215761317,32.78203255204319],[130.75917042666882,32.778883906493434],[130.7607765,32.7784608]]}},{"type":"Feature","properties":{"route_ref":"B","route_color":"#ff0000"},"geometry":{"type":"LineString","coordinates":[[130.7609851,32.7784238],[130.75908176057237,32.778902213276915],[130.75069275081594,32.78203197119886],[130.74835202356854,32.78286591214796],[130.74657472194497,32.78337721987762],[130.74562624653802,32.78360716559866],[130.7419597094435,32.78371770371465],[130.7415012442527,32.78375969108697],[130.741197998613,32.78388444523881],[130.73631722558727,32.78734243744128],[130.73020225714285,32.79131745714287],[130.72453501689742,32.795240239585],[130.72397772537974,32.79557250757416],[130.72182269874037,32.796351323315164],[130.7209161357201,32.79681516898489],[130.71645662700973,32.80073032763421],[130.71393296952587,32.8020084011165],[130.71018066089235,32.80309880191275],[130.70853175435542,32.80415128050337],[130.7082801496357,32.80415339186963],[130.70795314047135,32.80390968248322],[130.7055464259345,32.80127476496342],[130.70527571722516,32.80052267515968],[130.70493506571876,32.79870380256909],[130.70473832696766,32.79851041501974],[130.69823150186323,32.79928797020608],[130.69783340852848,32.79936551010462],[130.6973581,32.79961885000001],[130.69699791531235,32.79992807012944],[130.69691728745832,32.8001436035224],[130.69696702761473,32.804889424451254],[130.69679332989514,32.8051316220972],[130.69552125157819,32.8057625057189],[130.69535217751465,32.80611815998174],[130.69785335,32.81240565],[130.69915964674607,32.81531840046716],[130.69924833315196,32.81619309971493],[130.69918454514467,32.81678262828813],[130.69943409176128,32.817447748551736]]}}]}