{"type":"FeatureCollection","metro_system":{"continent":"asia","country":"Indonesia","city":"Jakarta","official_website":null,"official_map":"https://en.wikipedia.org/wiki/Jakarta_MRT","wikipedia":"en:Jakarta MRT","wiki":true,"wikipedia_zh":"zh:雅加達地鐵","line_count":1,"segment_count":1,"station_count":13,"modes":["metro"],"audit":{"strategies_tried":[],"passed":true,"checks":[{"id":"system_exists","ok":true,"detail":"matched OSM system metro-maps/asia/indonesia/as-ina-jakarta/as-ina-jakarta.geojson","level":"error"},{"id":"has_lines","ok":true,"detail":"1 lines","level":"error"},{"id":"has_stations","ok":true,"detail":"13 stations","level":"error"},{"id":"station_count_info","ok":true,"detail":"OSM 13 站（wiki List 記 13，計法含轉乘重複，僅參考）","level":"warn"},{"id":"stations_have_lines","ok":true,"detail":"13/13 站皆有所屬路線","level":"error"},{"id":"line_geometry_stations","ok":true,"detail":"13 個折點/端點皆為車站","level":"error"},{"id":"route_stations_match_geometry","ok":true,"detail":"各線車站列表與圖面一致","level":"error"},{"id":"interchange_rule","ok":true,"detail":"所有車站紅/藍點符合骨架＋路線色規則（藍＝端點、紅＝交叉）","level":"error"},{"id":"stations_named","ok":true,"detail":"13/13 站皆有名稱","level":"error"},{"id":"station_order","ok":true,"detail":"所有線路站序合理","level":"warn"},{"id":"station_span","ok":true,"detail":"各線相鄰站距與系統站群跨度正常","level":"error"},{"id":"line_wiki_stations","ok":true,"detail":"各線站數與 wiki 線路條目相符（營運中站數）","level":"error"}],"reasons":[],"warnings":[],"audited_at":"2026-07-27T11:54:48.123Z"}},"features":[{"type":"Feature","properties":{"seg_id":"jakarta-0","routes":[{"route_id":"rm9677671","route_name":"MRT North-South Line","route_name_local":"MRT North-South Line","route_name_en":null,"route_ref":"M","route_color":"#ce0037","wikipedia":"id:Lin Utara–Selatan (MRT Jakarta)","osm_route_ids":[9677669,9677670],"status":null,"order_suspect":0,"span_suspect":0,"stations":[{"station_id":"n6577753463","station_name":"Lebak Bulus Bank Syariah Indonesia"},{"station_id":"n6577753462","station_name":"Fatmawati Indomaret"},{"station_id":"n6196107729","station_name":"Cipete Raya TUKU"},{"station_id":"n6196107728","station_name":"Haji Nawi"},{"station_id":"n6196107727","station_name":"Blok A VISA"},{"station_id":"n6196107726","station_name":"Blok M BCA"},{"station_id":"n4695686975","station_name":"ASEAN Headquarters"},{"station_id":"n6196107724","station_name":"Senayan Mastercard"},{"station_id":"n6196107723","station_name":"Istora Mandiri"},{"station_id":"n6196107722","station_name":"Bendungan Hilir"},{"station_id":"n6196107721","station_name":"Setiabudi Astra"},{"station_id":"n6196107720","station_name":"Dukuh Atas BNI"},{"station_id":"n6196107719","station_name":"Bundaran HI Bank Jakarta"}]}],"route_count":1,"route_refs":["M"],"route_colors":["#ce0037"],"city":"Jakarta","country":"Indonesia"},"geometry":{"type":"MultiLineString","coordinates":[[[106.77493506666667,-6.289274766666668],[106.79246440000001,-6.292450233333334],[106.79731956666666,-6.2783649],[106.79732506666666,-6.266694433333334],[106.79714373333333,-6.2557827999999995],[106.79812555,-6.244432975],[106.7984464,-6.238771633333333],[106.8024906,-6.226733533333333],[106.80862203333334,-6.2223885333333335],[106.81794976666667,-6.215024733333333],[106.82169916666668,-6.209069466666667],[106.82278733333332,-6.2007946333333335],[106.8230099,-6.191855]]]}},{"type":"Feature","properties":{"station_id":"n4695686975","station_name":"ASEAN Headquarters","station_name_local":"ASEAN Headquarters","station_name_en":null,"city":"Jakarta","country":"Indonesia","lines":["M"],"wikipedia":"id:Stasiun MRT ASEAN","merged_from":3,"merged_names":null,"is_terminus":false,"codes":["1","2"],"routes":[{"ref":"M","name":"MRT North-South Line","route_color":"#ce0037"}],"pass_count":1,"station_degree":2,"is_interchange":false,"station_role":"normal"},"geometry":{"type":"Point","coordinates":[106.7984464,-6.238771633333333]},"__memberLines":{}},{"type":"Feature","properties":{"station_id":"n6196107719","station_name":"Bundaran HI Bank Jakarta","station_name_local":"Bundaran HI Bank Jakarta","station_name_en":null,"city":"Jakarta","country":"Indonesia","lines":["M"],"wikipedia":"id:Stasiun MRT Bundaran Hotel Indonesia","merged_from":3,"merged_names":null,"is_terminus":true,"codes":["1","2"],"routes":[{"ref":"M","name":"MRT North-South Line","route_color":"#ce0037"}],"pass_count":1,"station_degree":1,"is_interchange":false,"station_role":"terminus"},"geometry":{"type":"Point","coordinates":[106.8230099,-6.191855]},"__memberLines":{}},{"type":"Feature","properties":{"station_id":"n6196107720","station_name":"Dukuh Atas BNI","station_name_local":"Dukuh Atas BNI","station_name_en":null,"city":"Jakarta","country":"Indonesia","lines":["M"],"wikipedia":"id:Stasiun MRT Dukuh Atas","merged_from":3,"merged_names":null,"is_terminus":false,"codes":["1","2"],"routes":[{"ref":"M","name":"MRT North-South Line","route_color":"#ce0037"}],"pass_count":1,"station_degree":2,"is_interchange":false,"station_role":"normal"},"geometry":{"type":"Point","coordinates":[106.82278733333332,-6.2007946333333335]},"__memberLines":{}},{"type":"Feature","properties":{"station_id":"n6196107721","station_name":"Setiabudi Astra","station_name_local":"Setiabudi Astra","station_name_en":null,"city":"Jakarta","country":"Indonesia","lines":["M"],"wikipedia":"id:Stasiun MRT Setiabudi","merged_from":3,"merged_names":null,"is_terminus":false,"codes":["1","2"],"routes":[{"ref":"M","name":"MRT North-South Line","route_color":"#ce0037"}],"pass_count":1,"station_degree":2,"is_interchange":false,"station_role":"normal"},"geometry":{"type":"Point","coordinates":[106.82169916666668,-6.209069466666667]},"__memberLines":{}},{"type":"Feature","properties":{"station_id":"n6196107722","station_name":"Bendungan Hilir","station_name_local":"Bendungan Hilir","station_name_en":null,"city":"Jakarta","country":"Indonesia","lines":["M"],"wikipedia":"id:Stasiun MRT Bendungan Hilir","merged_from":3,"merged_names":null,"is_terminus":false,"codes":["1","2"],"routes":[{"ref":"M","name":"MRT North-South Line","route_color":"#ce0037"}],"pass_count":1,"station_degree":2,"is_interchange":false,"station_role":"normal"},"geometry":{"type":"Point","coordinates":[106.81794976666667,-6.215024733333333]},"__memberLines":{}},{"type":"Feature","properties":{"station_id":"n6196107723","station_name":"Istora Mandiri","station_name_local":"Istora Mandiri","station_name_en":null,"city":"Jakarta","country":"Indonesia","lines":["M"],"wikipedia":"id:Stasiun MRT Istora","merged_from":3,"merged_names":null,"is_terminus":false,"codes":["1","2"],"routes":[{"ref":"M","name":"MRT North-South Line","route_color":"#ce0037"}],"pass_count":1,"station_degree":2,"is_interchange":false,"station_role":"normal"},"geometry":{"type":"Point","coordinates":[106.80862203333334,-6.2223885333333335]},"__memberLines":{}},{"type":"Feature","properties":{"station_id":"n6196107724","station_name":"Senayan Mastercard","station_name_local":"Senayan Mastercard","station_name_en":null,"city":"Jakarta","country":"Indonesia","lines":["M"],"wikipedia":"id:Stasiun MRT Senayan","merged_from":3,"merged_names":null,"is_terminus":false,"codes":["1","2"],"routes":[{"ref":"M","name":"MRT North-South Line","route_color":"#ce0037"}],"pass_count":1,"station_degree":2,"is_interchange":false,"station_role":"normal"},"geometry":{"type":"Point","coordinates":[106.8024906,-6.226733533333333]},"__memberLines":{}},{"type":"Feature","properties":{"station_id":"n6196107726","station_name":"Blok M BCA","station_name_local":"Blok M BCA","station_name_en":null,"city":"Jakarta","country":"Indonesia","lines":["M"],"wikipedia":"id:Stasiun MRT Blok M","merged_from":4,"merged_names":null,"is_terminus":false,"codes":["1","2","3"],"routes":[{"ref":"M","name":"MRT North-South Line","route_color":"#ce0037"}],"pass_count":1,"station_degree":2,"is_interchange":false,"station_role":"normal"},"geometry":{"type":"Point","coordinates":[106.79812555,-6.244432975]},"__memberLines":{}},{"type":"Feature","properties":{"station_id":"n6196107727","station_name":"Blok A VISA","station_name_local":"Blok A VISA","station_name_en":null,"city":"Jakarta","country":"Indonesia","lines":["M"],"wikipedia":"id:Stasiun MRT Blok A","merged_from":3,"merged_names":null,"is_terminus":false,"routes":[{"ref":"M","name":"MRT North-South Line","route_color":"#ce0037"}],"pass_count":1,"station_degree":2,"codes":null,"is_interchange":false,"station_role":"normal"},"geometry":{"type":"Point","coordinates":[106.79714373333333,-6.2557827999999995]},"__memberLines":{}},{"type":"Feature","properties":{"station_id":"n6196107728","station_name":"Haji Nawi","station_name_local":"Haji Nawi","station_name_en":null,"city":"Jakarta","country":"Indonesia","lines":["M"],"wikipedia":"id:Stasiun MRT Haji Nawi","merged_from":3,"merged_names":null,"is_terminus":false,"routes":[{"ref":"M","name":"MRT North-South Line","route_color":"#ce0037"}],"pass_count":1,"station_degree":2,"codes":null,"is_interchange":false,"station_role":"normal"},"geometry":{"type":"Point","coordinates":[106.79732506666666,-6.266694433333334]},"__memberLines":{}},{"type":"Feature","properties":{"station_id":"n6196107729","station_name":"Cipete Raya TUKU","station_name_local":"Cipete Raya TUKU","station_name_en":null,"city":"Jakarta","country":"Indonesia","lines":["M"],"wikipedia":"id:Stasiun MRT Cipete Raya","merged_from":3,"merged_names":null,"is_terminus":false,"routes":[{"ref":"M","name":"MRT North-South Line","route_color":"#ce0037"}],"pass_count":1,"station_degree":2,"codes":null,"is_interchange":false,"station_role":"normal"},"geometry":{"type":"Point","coordinates":[106.79731956666666,-6.2783649]},"__memberLines":{}},{"type":"Feature","properties":{"station_id":"n6577753462","station_name":"Fatmawati Indomaret","station_name_local":"Fatmawati Indomaret","station_name_en":null,"city":"Jakarta","country":"Indonesia","lines":["M"],"wikipedia":"id:Stasiun MRT Fatmawati","merged_from":3,"merged_names":null,"is_terminus":false,"routes":[{"ref":"M","name":"MRT North-South Line","route_color":"#ce0037"}],"pass_count":1,"station_degree":2,"codes":null,"is_interchange":false,"station_role":"normal"},"geometry":{"type":"Point","coordinates":[106.79246440000001,-6.292450233333334]},"__memberLines":{}},{"type":"Feature","properties":{"station_id":"n6577753463","station_name":"Lebak Bulus Bank Syariah Indonesia","station_name_local":"Lebak Bulus Bank Syariah Indonesia","station_name_en":null,"city":"Jakarta","country":"Indonesia","lines":["M"],"wikipedia":"id:Stasiun MRT Lebak Bulus","merged_from":3,"merged_names":null,"is_terminus":true,"routes":[{"ref":"M","name":"MRT North-South Line","route_color":"#ce0037"}],"pass_count":1,"station_degree":1,"codes":null,"is_interchange":false,"station_role":"terminus"},"geometry":{"type":"Point","coordinates":[106.77493506666667,-6.289274766666668]},"__memberLines":{}}]}