{"type":"FeatureCollection","features":[{"type":"Feature","properties":{"way_id":188671461,"route_colors":["#ab0672"],"route_refs":["T2"]},"geometry":{"type":"LineString","coordinates":[[5.0209694,47.3010071],[5.0208837,47.3008575],[5.0208367,47.3007753],[5.0208257,47.3007561],[5.020852,47.3007492],[5.0208803,47.3007417],[5.0209657,47.3008909],[5.0210174,47.3009811],[5.021024,47.3009927],[5.0209694,47.3010071]]}},{"type":"Feature","properties":{"way_id":189444311,"route_colors":["#ab0672"],"route_refs":["T2"]},"geometry":{"type":"LineString","coordinates":[[5.0233556,47.3052134],[5.0235008,47.3054701],[5.023549,47.3054575],[5.0234037,47.3052009],[5.0233556,47.3052134]]}},{"type":"Feature","properties":{"way_id":189444315,"route_colors":["#ab0672"],"route_refs":["T2"]},"geometry":{"type":"LineString","coordinates":[[5.0264658,47.3107251],[5.0265197,47.3107112],[5.0263781,47.3104586],[5.0263242,47.3104725],[5.0264658,47.3107251]]}},{"type":"Feature","properties":{"way_id":189444313,"route_colors":["#ab0672"],"route_refs":["T2"]},"geometry":{"type":"LineString","coordinates":[[5.0285022,47.3143376],[5.0285634,47.3143213],[5.0288027,47.3147346],[5.0287415,47.3147509],[5.0285022,47.3143376]]}},{"type":"Feature","properties":{"way_id":175803494,"route_colors":["#ab0672"],"route_refs":["T2"]},"geometry":{"type":"LineString","coordinates":[[5.0441577,47.3266643],[5.0442667,47.3268847]]}},{"type":"Feature","properties":{"way_id":175803474,"route_colors":["#ab0672"],"route_refs":["T2"]},"geometry":{"type":"LineString","coordinates":[[5.0440005,47.3328682],[5.0440345,47.3332417]]}},{"type":"Feature","properties":{"way_id":194274482,"route_colors":["#ab0672"],"route_refs":["T2"]},"geometry":{"type":"LineString","coordinates":[[5.0445897,47.3389617],[5.0446211,47.3393007]]}},{"type":"Feature","properties":{"way_id":175803500,"route_colors":["#ab0672"],"route_refs":["T2"]},"geometry":{"type":"LineString","coordinates":[[5.0453193,47.3463042],[5.0453504,47.3467071]]}},{"type":"Feature","properties":{"way_id":175803487,"route_colors":["#ab0672"],"route_refs":["T2"]},"geometry":{"type":"LineString","coordinates":[[5.0462053,47.35308],[5.0462322,47.3534008]]}},{"type":"Feature","properties":{"way_id":238506580,"route_colors":["#ab0672"],"route_refs":["T2"]},"geometry":{"type":"LineString","coordinates":[[5.0525492,47.3554654],[5.052339,47.3553442],[5.0521333,47.3552202]]}},{"type":"Feature","properties":{"way_id":175803481,"route_colors":["#ab0672"],"route_refs":["T2"]},"geometry":{"type":"LineString","coordinates":[[5.0564562,47.356485],[5.0570151,47.3565774]]}},{"type":"Feature","properties":{"way_id":175803471,"route_colors":["#ab0672"],"route_refs":["T2"]},"geometry":{"type":"LineString","coordinates":[[5.0512717,47.361238],[5.0508618,47.3614043]]}},{"type":"Feature","properties":{"way_id":175803495,"route_colors":["#ab0672"],"route_refs":["T2"]},"geometry":{"type":"LineString","coordinates":[[5.0466906,47.3656695],[5.0466297,47.3652929]]}},{"type":"Feature","properties":{"way_id":874127374,"route_colors":["#ab0672"],"route_refs":["T2"]},"geometry":{"type":"LineString","coordinates":[[5.0064171,47.2942818],[5.0065875,47.2946601]]}},{"type":"Feature","properties":{"way_id":874127375,"route_colors":["#ab0672"],"route_refs":["T2"]},"geometry":{"type":"LineString","coordinates":[[5.0103294,47.299511],[5.0106352,47.299853]]}},{"type":"Feature","properties":{"way_id":874127377,"route_colors":["#ab0672"],"route_refs":["T2"]},"geometry":{"type":"LineString","coordinates":[[5.0147816,47.301851],[5.015364,47.3017714]]}},{"type":"Feature","properties":{"way_id":273325445,"route_colors":["#ab0672","#cc0088"],"route_refs":["T2","T1"]},"geometry":{"type":"LineString","coordinates":[[5.0339791,47.3236515],[5.0343686,47.3237796]]}},{"type":"Feature","properties":{"way_id":874135241,"route_colors":["#ab0672"],"route_refs":["T2"]},"geometry":{"type":"LineString","coordinates":[[5.0308607,47.323519],[5.0298215,47.3234153]]}},{"type":"Feature","properties":{"way_id":874135242,"route_colors":["#ab0672"],"route_refs":["T2"]},"geometry":{"type":"LineString","coordinates":[[5.0314685,47.3175341],[5.0315037,47.3175237],[5.0314904,47.3174899],[5.0314607,47.3174472],[5.0312931,47.3172205],[5.0312348,47.3172399],[5.0314279,47.3174796],[5.0314198,47.3174839],[5.0314685,47.3175341]]}},{"type":"Feature","properties":{"way_id":866784658,"route_colors":["#ab0672"],"route_refs":["T2"]},"geometry":{"type":"LineString","coordinates":[[5.0494862,47.3654807],[5.04955,47.3654803],[5.0495539,47.3654803],[5.0495494,47.3651506],[5.0495452,47.3651507],[5.0494816,47.3651511],[5.0494862,47.3654807]]}},{"type":"Feature","properties":{"way_id":285657568,"route_colors":["#ab0672","#cc0088"],"route_refs":["T2","T1"]},"geometry":{"type":"LineString","coordinates":[[5.0387898,47.3252416],[5.0392029,47.3253502]]}},{"type":"Feature","properties":{"way_id":421811789,"route_colors":["#ab0672"],"route_refs":["T2"]},"geometry":{"type":"LineString","coordinates":[[5.006366,47.2942834],[5.0064409,47.2944412],[5.0065556,47.2946977],[5.0066046,47.2948032],[5.0067271,47.2950766],[5.0068467,47.2953433],[5.0069067,47.2954772],[5.007001,47.2956161],[5.0071157,47.2957514],[5.0072211,47.2958629],[5.0075249,47.2961844],[5.0075823,47.2962557],[5.0076273,47.2963021],[5.0076665,47.296394],[5.0077129,47.2964971],[5.0077608,47.2967021],[5.0078066,47.29679],[5.0078908,47.2968906],[5.0081426,47.2971662],[5.0088123,47.2978994],[5.0091489,47.2982706],[5.0093499,47.2984922],[5.009989,47.2991891],[5.010218,47.2994443],[5.0104364,47.2996875],[5.0106983,47.2999783],[5.0113768,47.3006994],[5.0115511,47.3008847],[5.0118518,47.3012111],[5.0119108,47.3012811],[5.0119537,47.3013402],[5.0119738,47.3013775],[5.0119966,47.301453],[5.0119985,47.3014669],[5.0120073,47.3015321],[5.012006,47.3015967],[5.0119792,47.3016904],[5.0118933,47.3018886],[5.0118854,47.3019514],[5.0118829,47.3019791],[5.0118986,47.30204],[5.0119183,47.3020758],[5.0119529,47.3021124],[5.0119932,47.3021439],[5.0120226,47.3021597],[5.0120761,47.302182],[5.0121497,47.3022028],[5.0122207,47.3022085],[5.0122871,47.3022101],[5.0123428,47.3022053],[5.012547,47.3021793],[5.0128174,47.3021424],[5.0138218,47.302008],[5.0150823,47.3018427],[5.0150991,47.3018404],[5.0155061,47.3017824],[5.0157083,47.3017529],[5.0158428,47.301725],[5.0160236,47.3016752],[5.0162139,47.3016118],[5.0166347,47.301464],[5.0167298,47.3014306],[5.01679,47.3014094],[5.0169327,47.30136],[5.0174486,47.3011804],[5.0175907,47.3011372],[5.017611,47.3011314],[5.0178824,47.3010684],[5.0185165,47.3009491],[5.0191716,47.3008218],[5.0193866,47.3007713],[5.0196212,47.3007071],[5.0198541,47.3006399],[5.0203587,47.3004978],[5.0204182,47.3004861],[5.0204468,47.3004799],[5.0204768,47.3004767],[5.0205006,47.3004755],[5.0205443,47.3004752],[5.0205541,47.3004762],[5.020587,47.30048],[5.020601,47.3004823]]}},{"type":"Feature","properties":{"way_id":421811786,"route_colors":["#ab0672"],"route_refs":["T2"]},"geometry":{"type":"LineString","coordinates":[[5.020601,47.3004823],[5.0206345,47.3004885],[5.0206647,47.3004961],[5.0207138,47.3005158],[5.0207487,47.3005354],[5.0207845,47.3005624],[5.0208121,47.3005896],[5.0208241,47.3006037],[5.0208366,47.3006184],[5.0208736,47.3006834],[5.0210036,47.300917],[5.0211344,47.3011523],[5.0214193,47.3016486],[5.0215338,47.3018562],[5.0221766,47.3029908],[5.0222809,47.3031771],[5.0231053,47.3046346],[5.0231906,47.3047841],[5.0232417,47.3048736],[5.0233417,47.305049],[5.0234998,47.3053261],[5.023776,47.3058216],[5.0239742,47.3061809],[5.0249615,47.3079164],[5.0250884,47.308141],[5.0257085,47.3092387],[5.0259971,47.3097495],[5.0263048,47.3102941],[5.026318,47.3103177],[5.0264537,47.3105592],[5.0266064,47.3108286],[5.0266803,47.3109589],[5.0266885,47.3109733],[5.026782,47.3111382],[5.0271102,47.3117171],[5.0272749,47.3120119]]}},{"type":"Feature","properties":{"way_id":227873455,"route_colors":["#ab0672"],"route_refs":["T2"]},"geometry":{"type":"LineString","coordinates":[[5.0272749,47.3120119],[5.027301,47.3120588],[5.0274083,47.3122516]]}},{"type":"Feature","properties":{"way_id":227873459,"route_colors":["#ab0672"],"route_refs":["T2"]},"geometry":{"type":"LineString","coordinates":[[5.0274083,47.3122516],[5.0274221,47.3122754]]}},{"type":"Feature","properties":{"way_id":712660130,"route_colors":["#ab0672"],"route_refs":["T2"]},"geometry":{"type":"LineString","coordinates":[[5.0274221,47.3122754],[5.0279426,47.3131884],[5.0281311,47.3135243],[5.0284285,47.3140542],[5.0285703,47.3142987],[5.0285903,47.3143332],[5.0287507,47.3146128],[5.0288693,47.314823],[5.0289315,47.3149079],[5.0289892,47.3149451],[5.0290485,47.3149688],[5.0291266,47.3149943],[5.0293536,47.3150458],[5.0294214,47.3150612]]}},{"type":"Feature","properties":{"way_id":712684793,"route_colors":["#ab0672"],"route_refs":["T2"]},"geometry":{"type":"LineString","coordinates":[[5.0294214,47.3150612],[5.0295632,47.3150934],[5.0296144,47.3151128],[5.029679,47.3151402],[5.029713,47.315163]]}},{"type":"Feature","properties":{"way_id":712684794,"route_colors":["#ab0672"],"route_refs":["T2"]},"geometry":{"type":"LineString","coordinates":[[5.029713,47.315163],[5.0297386,47.3151802],[5.0297781,47.3152191],[5.0298218,47.3152741],[5.0298637,47.3153284],[5.0298758,47.3153441],[5.0306121,47.3163011],[5.0306523,47.3163547],[5.0311123,47.3169683],[5.0314175,47.3173655],[5.0314697,47.3174369],[5.0315243,47.3175158],[5.0315837,47.3176033],[5.0315897,47.3176151],[5.0316044,47.3176672],[5.0316088,47.317779],[5.0315899,47.3178404],[5.0315784,47.3179154],[5.0315546,47.3180411],[5.03147,47.3184976],[5.0314251,47.318718],[5.0313887,47.3188483],[5.031207,47.3192814],[5.0311449,47.3193967],[5.0310867,47.3194922],[5.0307388,47.3199645],[5.0297006,47.3213737],[5.0296739,47.3214216],[5.0296633,47.3214618],[5.0296441,47.3217416],[5.0296429,47.3218303],[5.0296424,47.321854],[5.029643,47.3218903],[5.0296478,47.3219226],[5.0296575,47.3219481],[5.0296729,47.3219742],[5.0298561,47.3222378],[5.0298977,47.322306],[5.0299039,47.3223161],[5.0299144,47.3223333],[5.0299575,47.3224038],[5.0299739,47.3224525],[5.0299767,47.322479],[5.0299771,47.322494],[5.0299742,47.3225219],[5.0299648,47.322552],[5.0299527,47.3225761],[5.029937,47.3226013],[5.0299152,47.3226273],[5.0298834,47.3226592],[5.0294493,47.323042],[5.0294041,47.3230879],[5.0293852,47.3231172],[5.0293728,47.3231464],[5.0293661,47.3231823],[5.029366,47.3231898],[5.0293657,47.3232288],[5.0293725,47.3232606],[5.0293773,47.3232692],[5.0293924,47.3232963],[5.0294197,47.3233284],[5.029489,47.3233783],[5.0295291,47.3233976],[5.0296077,47.3234202]]}},{"type":"Feature","properties":{"way_id":135460121,"route_colors":["#ab0672","#cc0088"],"route_refs":["T2","T1"]},"geometry":{"type":"LineString","coordinates":[[5.0296077,47.3234202],[5.0299329,47.3234473],[5.0304349,47.3235009],[5.0308901,47.3235454],[5.0312333,47.3235795],[5.0312888,47.3235821],[5.0313243,47.3235838],[5.031351,47.323585],[5.0313611,47.3235852],[5.0314076,47.3235845],[5.0314342,47.3235842],[5.0314598,47.323584],[5.0315599,47.3235815],[5.0320515,47.323528],[5.0327128,47.3234447],[5.0327907,47.3234391],[5.032898,47.3234346],[5.0330108,47.3234353],[5.0330328,47.3234363],[5.0331273,47.3234404],[5.0331801,47.3234466],[5.0332636,47.3234607],[5.03337,47.3234821],[5.0334504,47.3235026],[5.0334715,47.3235083],[5.0335389,47.3235297],[5.0335972,47.3235483],[5.0336192,47.3235553],[5.0336799,47.3235747],[5.033843,47.3236296],[5.0341631,47.3237375],[5.0343528,47.3238015],[5.0344356,47.3238294],[5.0344485,47.3238338],[5.0345096,47.3238544],[5.0351805,47.3240806],[5.035867,47.3243008],[5.035951,47.3243288],[5.0365248,47.3245198],[5.0366138,47.3245494],[5.0367223,47.3245866],[5.0372646,47.3247724],[5.0380983,47.325058],[5.0387199,47.3252488],[5.0389722,47.325318]]}},{"type":"Feature","properties":{"way_id":193676057,"route_colors":["#ab0672","#cc0088"],"route_refs":["T2","T1"]},"geometry":{"type":"LineString","coordinates":[[5.0389722,47.325318],[5.0392225,47.3253897],[5.0393294,47.3254196],[5.0395232,47.3254733],[5.0397938,47.3255436],[5.0404736,47.3257181],[5.0405417,47.3257342],[5.0406559,47.3257592]]}},{"type":"Feature","properties":{"way_id":780946717,"route_colors":["#ab0672","#cc0088"],"route_refs":["T2","T1"]},"geometry":{"type":"LineString","coordinates":[[5.0406559,47.3257592],[5.0414141,47.3259112],[5.0424126,47.3261104],[5.0424346,47.3261147],[5.0432611,47.3262794],[5.0434488,47.3263168],[5.0434757,47.3263222],[5.0437956,47.3263862],[5.0438093,47.3263889]]}},{"type":"Feature","properties":{"way_id":123127201,"route_colors":["#ab0672"],"route_refs":["T2"]},"geometry":{"type":"LineString","coordinates":[[5.0438093,47.3263889],[5.0438846,47.326418],[5.0439067,47.3264273],[5.043949,47.3264469],[5.0439685,47.3264572],[5.0439934,47.3264725],[5.044012,47.326488],[5.0440267,47.3265011],[5.0440384,47.3265134],[5.0440483,47.3265256],[5.044056,47.3265393],[5.0442052,47.3268051],[5.0442739,47.3269371],[5.0442846,47.3269581],[5.0442901,47.3269688],[5.0442983,47.3269873],[5.0443044,47.3270063],[5.0443091,47.3270336],[5.0443097,47.327048],[5.0443092,47.3270656],[5.0443052,47.3270902],[5.0442972,47.3271155],[5.0442886,47.3271339],[5.0442711,47.3271619],[5.0442578,47.3271789],[5.0442282,47.3272096],[5.0441952,47.3272382],[5.0441631,47.3272642],[5.0441327,47.3272891],[5.0441118,47.3273075],[5.0440866,47.3273286],[5.0440484,47.3273612],[5.0440233,47.327386],[5.0440114,47.3274107],[5.0440047,47.3274587],[5.0439787,47.3275998],[5.043929,47.32787],[5.0438722,47.3281791],[5.0438157,47.328486],[5.0437518,47.3288334],[5.0437336,47.3289418],[5.0437294,47.3289642],[5.0437029,47.3290899],[5.0436993,47.3291085],[5.0436961,47.3291359],[5.0436936,47.3291577],[5.043671,47.3292825],[5.0436366,47.3294677],[5.0436295,47.3295323],[5.0436249,47.3296343],[5.0436341,47.329754],[5.0436487,47.3298888],[5.0436504,47.3299181],[5.0436529,47.329941],[5.0436678,47.3300887],[5.0436701,47.3301113],[5.0436747,47.3301609],[5.0437745,47.3310588],[5.0437797,47.3311076],[5.0438668,47.331957],[5.0439576,47.3328423],[5.0439758,47.3330195],[5.0440021,47.3332669],[5.0440283,47.3335218],[5.0440565,47.3337961],[5.0440721,47.3339611],[5.0440827,47.3340706],[5.044116,47.3344722],[5.0441283,47.3346199],[5.0441437,47.3347594],[5.0441958,47.3352318],[5.0443767,47.3371103],[5.0443809,47.3371804],[5.0443868,47.3372381],[5.0445259,47.3386783],[5.0445668,47.3391022],[5.0446001,47.3394054],[5.0446031,47.3394329],[5.0446149,47.3395402],[5.0446263,47.3396293],[5.0446443,47.3398013],[5.0447384,47.3407009],[5.0448664,47.3422388],[5.0448853,47.3424302],[5.0450379,47.343975],[5.0451368,47.3449764],[5.0452661,47.3462843],[5.0452863,47.3464897],[5.0453083,47.3467322],[5.0453099,47.3467565],[5.0453219,47.3468645],[5.0453615,47.3470837]]}},{"type":"Feature","properties":{"way_id":194274014,"route_colors":["#ab0672"],"route_refs":["T2"]},"geometry":{"type":"LineString","coordinates":[[5.0453615,47.3470837],[5.0453782,47.3471423],[5.0454062,47.3472049],[5.0456218,47.3476309],[5.0456395,47.3476659],[5.0456648,47.3477214],[5.0456742,47.347754],[5.0456833,47.3477841],[5.0458389,47.3493892],[5.0459147,47.350177],[5.0459184,47.3502237],[5.0459061,47.3504368],[5.0459032,47.3504927],[5.0459083,47.3505441],[5.0459228,47.3506885],[5.0459381,47.3508417],[5.0460883,47.3523404],[5.0460942,47.3523983],[5.046105,47.3525039],[5.0461172,47.3526243],[5.0461205,47.3526566],[5.0461731,47.3532117],[5.0462009,47.3535351],[5.0462068,47.3536016],[5.0462166,47.3536944],[5.0462225,47.3537505],[5.0462262,47.3537897],[5.0462374,47.3538179],[5.0462481,47.3538628],[5.0462875,47.3539466],[5.0463531,47.3540264],[5.0464643,47.3541122],[5.0476727,47.3548188],[5.0477645,47.3548558],[5.0478454,47.3548808],[5.0479454,47.3549002],[5.0480471,47.3549113],[5.0481323,47.3549122],[5.048258,47.3549097],[5.049721,47.3548801],[5.0506216,47.3548592],[5.0511811,47.3548463],[5.0513125,47.3548465],[5.0514357,47.3548631],[5.0515523,47.3548946],[5.0516615,47.3549532],[5.0520627,47.3552152],[5.0523024,47.3553669],[5.0526272,47.3555424],[5.0527513,47.355604],[5.0529074,47.3556784],[5.0531883,47.3557985],[5.0534374,47.3558945],[5.0537229,47.3559896],[5.0539909,47.3560729],[5.0542496,47.3561374],[5.0546352,47.3562197],[5.0551184,47.3563006],[5.0551631,47.3563078],[5.0556374,47.3563848],[5.0561093,47.3564608],[5.0564151,47.3565101],[5.0566118,47.3565419],[5.0570421,47.3566124],[5.0580706,47.3567811],[5.0581678,47.356797],[5.0582887,47.3568168],[5.0584076,47.3568373],[5.058468,47.3568521],[5.0585241,47.3568694],[5.0585961,47.3569003],[5.0586564,47.3569377],[5.058701,47.3569719],[5.0587415,47.3570107],[5.0587703,47.3570472],[5.0587969,47.3570932],[5.0588187,47.3571489],[5.0588255,47.3572097],[5.05883,47.3572961],[5.0588337,47.3573669],[5.058868,47.3580235]]}},{"type":"Feature","properties":{"way_id":249742177,"route_colors":["#ab0672"],"route_refs":["T2"]},"geometry":{"type":"LineString","coordinates":[[5.058868,47.3580235],[5.0588889,47.3584395],[5.058907,47.3587787],[5.0589128,47.3589203],[5.0589103,47.3589978],[5.0588997,47.3590659],[5.0588732,47.3591429],[5.0588338,47.3592247],[5.0587899,47.3592881],[5.0587334,47.3593511],[5.0586714,47.3594091],[5.0586113,47.3594521],[5.0584882,47.3595279],[5.0584,47.3595643],[5.0582889,47.3596046],[5.0581946,47.3596267],[5.0580676,47.3596495],[5.0580274,47.3596556],[5.0578099,47.3596772],[5.057706,47.3596858],[5.0572012,47.3597276],[5.0570779,47.3597383],[5.0557192,47.3598561],[5.0548993,47.3599251],[5.0547102,47.359944],[5.0546595,47.3599521],[5.0545241,47.3599737],[5.0543601,47.360006],[5.0540086,47.3601152],[5.0538421,47.3601831],[5.0537024,47.3602386],[5.0530498,47.3604977],[5.0512728,47.3612078],[5.0510344,47.3613031],[5.0508592,47.3613735],[5.0508231,47.3613884],[5.0506406,47.3614635],[5.050554,47.3615053],[5.0504778,47.3615493],[5.0504104,47.3615904],[5.0502747,47.3616786],[5.0501829,47.3617383],[5.050099,47.3617941],[5.0500205,47.361848],[5.0500041,47.3618601],[5.0499561,47.3618955],[5.0498639,47.3619738],[5.0498138,47.3620268],[5.0497778,47.3620699],[5.0497467,47.362113],[5.0497135,47.3621677],[5.0496924,47.3622063],[5.0496713,47.3622525],[5.0496549,47.3622939],[5.0495862,47.3624667],[5.0494807,47.3627327],[5.0494382,47.3628521],[5.0494253,47.3629132],[5.0494221,47.3629754],[5.0494289,47.3632493],[5.0494501,47.3643617],[5.0494625,47.3651357],[5.0494648,47.3653103],[5.0494705,47.3654981],[5.0494724,47.3655621],[5.0494714,47.3655915],[5.0494693,47.3656446],[5.0494638,47.3656757],[5.0494548,47.3657013],[5.0494337,47.3657421],[5.0494055,47.3657772],[5.0493744,47.3658071],[5.0493255,47.3658427],[5.0492751,47.3658698],[5.049202,47.3658936],[5.0491608,47.3659073],[5.0490876,47.3659254],[5.047802,47.366219],[5.0476784,47.3662471],[5.0475347,47.36628],[5.0474321,47.3662893],[5.0473395,47.3662877],[5.0472495,47.3662754],[5.0471575,47.3662507],[5.0471055,47.3662318],[5.0470553,47.3662104],[5.0469978,47.3661753],[5.0469454,47.3661339],[5.0469358,47.3661248],[5.0469209,47.3661117],[5.0469011,47.3660876],[5.0468873,47.366072],[5.0468666,47.3660453],[5.0468203,47.3659749],[5.0467722,47.3658721],[5.0467528,47.3658076],[5.046744,47.3657707],[5.0467384,47.3657425],[5.0467303,47.3656902],[5.0467103,47.3655634],[5.0466958,47.3654716],[5.0466872,47.3654167],[5.0466646,47.365273],[5.0466159,47.3649608],[5.0466072,47.3649046],[5.0466006,47.3648688],[5.0465905,47.3648064],[5.0465699,47.3646799],[5.0464991,47.3642446]]}},{"type":"Feature","properties":{"way_id":175803472,"route_colors":["#ab0672"],"route_refs":["T2"]},"geometry":{"type":"LineString","coordinates":[[5.0467452,47.3652798],[5.0468056,47.3656562]]}},{"type":"Feature","properties":{"way_id":866784657,"route_colors":["#ab0672"],"route_refs":["T2"]},"geometry":{"type":"LineString","coordinates":[[5.0493436,47.3654814],[5.0493485,47.3654814],[5.0494144,47.3654813],[5.0494135,47.3651516],[5.0493481,47.3651517],[5.0493427,47.3651517],[5.0493436,47.3654814]]}},{"type":"Feature","properties":{"way_id":175803484,"route_colors":["#ab0672"],"route_refs":["T2"]},"geometry":{"type":"LineString","coordinates":[[5.0508076,47.3613369],[5.051212,47.3611736]]}},{"type":"Feature","properties":{"way_id":175803480,"route_colors":["#ab0672"],"route_refs":["T2"]},"geometry":{"type":"LineString","coordinates":[[5.0569815,47.356668],[5.056423,47.3565774]]}},{"type":"Feature","properties":{"way_id":238506578,"route_colors":["#ab0672"],"route_refs":["T2"]},"geometry":{"type":"LineString","coordinates":[[5.0520474,47.3552821],[5.0522518,47.3554096],[5.0524689,47.3555308]]}},{"type":"Feature","properties":{"way_id":175803476,"route_colors":["#ab0672"],"route_refs":["T2"]},"geometry":{"type":"LineString","coordinates":[[5.045614,47.3534282],[5.0455952,47.3530986]]}},{"type":"Feature","properties":{"way_id":175803483,"route_colors":["#ab0672"],"route_refs":["T2"]},"geometry":{"type":"LineString","coordinates":[[5.0452136,47.3467142],[5.0451771,47.3463092]]}},{"type":"Feature","properties":{"way_id":194276063,"route_colors":["#ab0672"],"route_refs":["T2"]},"geometry":{"type":"LineString","coordinates":[[5.0444754,47.3389729],[5.0445028,47.3392846]]}},{"type":"Feature","properties":{"way_id":194274483,"route_colors":["#ab0672"],"route_refs":["T2"]},"geometry":{"type":"LineString","coordinates":[[5.04387,47.3328741],[5.0439054,47.3332438]]}},{"type":"Feature","properties":{"way_id":175803485,"route_colors":["#ab0672"],"route_refs":["T2"]},"geometry":{"type":"LineString","coordinates":[[5.0441681,47.3269035],[5.0440498,47.3266874]]}},{"type":"Feature","properties":{"way_id":273325444,"route_colors":["#ab0672","#cc0088"],"route_refs":["T2","T1"]},"geometry":{"type":"LineString","coordinates":[[5.0387457,47.3253117],[5.0391484,47.3254209]]}},{"type":"Feature","properties":{"way_id":273325442,"route_colors":["#ab0672","#cc0088"],"route_refs":["T2","T1"]},"geometry":{"type":"LineString","coordinates":[[5.0339327,47.3237132],[5.0343231,47.323843]]}},{"type":"Feature","properties":{"way_id":874135240,"route_colors":["#ab0672"],"route_refs":["T2"]},"geometry":{"type":"LineString","coordinates":[[5.0298262,47.3235015],[5.0303831,47.3235536],[5.0308447,47.3235995]]}},{"type":"Feature","properties":{"way_id":874127378,"route_colors":["#ab0672"],"route_refs":["T2"]},"geometry":{"type":"LineString","coordinates":[[5.0148052,47.3019371],[5.0153908,47.3018592]]}},{"type":"Feature","properties":{"way_id":874127376,"route_colors":["#ab0672"],"route_refs":["T2"]},"geometry":{"type":"LineString","coordinates":[[5.0105236,47.2999046],[5.0102103,47.2995612]]}},{"type":"Feature","properties":{"way_id":874127373,"route_colors":["#ab0672"],"route_refs":["T2"]},"geometry":{"type":"LineString","coordinates":[[5.0062829,47.2943087],[5.0064567,47.2946904]]}},{"type":"Feature","properties":{"way_id":56051454,"route_colors":["#ab0672"],"route_refs":["T2"]},"geometry":{"type":"LineString","coordinates":[[5.0465402,47.3642422],[5.046685,47.3651464],[5.0467048,47.3652699],[5.0467281,47.365419],[5.0467366,47.3654735],[5.0467507,47.3655633],[5.04677,47.3656869],[5.0467852,47.3657638],[5.0467988,47.3658138],[5.046818,47.3658664],[5.0468319,47.365905],[5.0468619,47.3659629],[5.0468947,47.3660164],[5.0469071,47.366031],[5.046926,47.366053],[5.0469376,47.3660657],[5.0469717,47.3661015],[5.0470077,47.3661307],[5.0470355,47.3661502],[5.0470741,47.3661734],[5.0471164,47.3661958],[5.0471872,47.3662219],[5.0472669,47.3662403],[5.0473476,47.3662506],[5.0474297,47.3662517],[5.0475319,47.3662458],[5.0476305,47.3662293],[5.0476647,47.3662204],[5.0477877,47.3661927],[5.0490736,47.3659008],[5.0491443,47.3658783],[5.0491868,47.3658621],[5.049241,47.3658409],[5.0492816,47.3658194],[5.0493243,47.3657902],[5.0493562,47.3657599],[5.049383,47.365728],[5.0494032,47.3656916],[5.0494173,47.3656496],[5.0494276,47.365607],[5.0494289,47.3655962],[5.0494335,47.3655486],[5.0494325,47.3654984],[5.0494279,47.3653127],[5.0494249,47.3651361],[5.0494111,47.3643628],[5.049392,47.3633572],[5.0493805,47.3629791],[5.0493835,47.3629184],[5.0493955,47.3628592],[5.049442,47.362726],[5.0495974,47.3623297],[5.0496151,47.3622862],[5.0496429,47.3622175],[5.049656,47.3621921],[5.0496735,47.3621578],[5.0496975,47.3621194],[5.0497322,47.3620692],[5.0497747,47.3620178],[5.0498191,47.3619719],[5.0498606,47.3619312],[5.0499209,47.3618813],[5.0499682,47.3618449],[5.0499889,47.361829],[5.0500722,47.3617754],[5.0502573,47.3616549],[5.0503603,47.3615855],[5.0504835,47.3615082],[5.0505609,47.3614664],[5.0506338,47.3614332],[5.0508031,47.3613653],[5.0508271,47.3613557],[5.0510004,47.3612863],[5.0512535,47.3611852],[5.0530309,47.3604749],[5.0536816,47.3602148],[5.0538217,47.3601588],[5.0539892,47.3600927],[5.0540594,47.3600651],[5.0542227,47.3600157],[5.0543578,47.3599789],[5.0545183,47.3599442],[5.0546391,47.3599249],[5.0548862,47.3598977],[5.0557141,47.3598281],[5.0570734,47.3597135],[5.0577016,47.3596606],[5.0577817,47.3596538],[5.0579619,47.3596355],[5.0580338,47.3596267],[5.0581505,47.3596057],[5.0582309,47.359587],[5.0583114,47.3595652],[5.0583689,47.3595435],[5.0584326,47.3595169],[5.058522,47.3594721],[5.0585897,47.3594285],[5.0586424,47.3593873],[5.0587048,47.359328],[5.0587512,47.3592775],[5.0587948,47.3592169],[5.0588289,47.359153],[5.0588456,47.35911],[5.0588587,47.3590598],[5.0588719,47.3589835],[5.0588751,47.3589184],[5.0588681,47.3587756],[5.0588495,47.3584396],[5.0588268,47.3580244]]}},{"type":"Feature","properties":{"way_id":249742180,"route_colors":["#ab0672"],"route_refs":["T2"]},"geometry":{"type":"LineString","coordinates":[[5.0588268,47.3580244],[5.0587953,47.3573673],[5.0587919,47.3572963],[5.0587875,47.3572039],[5.0587748,47.357143],[5.0587556,47.3570967],[5.0587331,47.3570631],[5.058676,47.3569951],[5.058606,47.3569434],[5.0585378,47.3569072],[5.0584619,47.3568782],[5.0583765,47.3568552],[5.0582618,47.3568374],[5.0581683,47.356823],[5.0581271,47.3568166],[5.0570325,47.3566394],[5.0565977,47.356569],[5.0564057,47.3565373],[5.0562753,47.3565157],[5.0556653,47.3564165],[5.0555948,47.3564051],[5.0553317,47.3563625],[5.0549003,47.3562927],[5.0545934,47.3562374],[5.0542604,47.3561677],[5.0539747,47.3560952],[5.0536831,47.3560091],[5.053379,47.3559071],[5.0531387,47.355812],[5.0528875,47.3557063],[5.0527258,47.3556264],[5.0525962,47.355562],[5.0522771,47.3553874],[5.0520332,47.3552343],[5.0516334,47.3549777],[5.0515272,47.3549224],[5.0514152,47.3548936],[5.0512899,47.354877],[5.0511829,47.3548744],[5.050659,47.3548856],[5.049721,47.3549058],[5.0482217,47.3549367],[5.0480903,47.3549394],[5.0480097,47.3549343],[5.0479302,47.3549272],[5.0478343,47.3549062],[5.0477474,47.3548838],[5.047648,47.3548476],[5.0464379,47.3541331],[5.046025,47.3538924],[5.045926,47.3538324],[5.0458616,47.3537951],[5.0458192,47.3537644],[5.0457753,47.3537296],[5.0457245,47.3536736],[5.0456946,47.3536238],[5.0456901,47.3536107],[5.0456782,47.3535653],[5.0456654,47.3535177],[5.0456481,47.3532568],[5.0455832,47.3526572],[5.0455696,47.3525322],[5.0455588,47.3524222],[5.0454048,47.3508604],[5.0453911,47.3507212],[5.0453769,47.3505664],[5.0452877,47.3495946],[5.0451085,47.3478037],[5.0451043,47.347753],[5.0451062,47.3477169],[5.0451085,47.3476628],[5.0451171,47.3476202],[5.0452739,47.3472141],[5.0452855,47.3471554],[5.0452921,47.3470953]]}},{"type":"Feature","properties":{"way_id":194274015,"route_colors":["#ab0672"],"route_refs":["T2"]},"geometry":{"type":"LineString","coordinates":[[5.0452921,47.3470953],[5.0452838,47.3468672],[5.0452715,47.3467591],[5.0452691,47.346734],[5.0452466,47.3464941],[5.0452261,47.3462855],[5.0450967,47.344978],[5.0449976,47.3439763],[5.0448448,47.3424314],[5.0448265,47.3422462],[5.0446834,47.3407022],[5.0445984,47.3398063],[5.044582,47.3396334],[5.0445727,47.3395438],[5.044562,47.3394329],[5.0445595,47.3394068],[5.0445302,47.3391034],[5.0444867,47.3386799],[5.0443388,47.3372412],[5.0443299,47.3371846],[5.0443265,47.3371127],[5.0441462,47.3352328],[5.0441009,47.334762],[5.0440872,47.3346198],[5.0440717,47.3344736],[5.0440174,47.3339632],[5.0439439,47.3332689],[5.0439171,47.3330152],[5.0438995,47.3328435],[5.0438087,47.33196],[5.0437162,47.3310598],[5.0436204,47.330114],[5.0436184,47.3300901],[5.0436061,47.3299394],[5.043604,47.329906],[5.0436021,47.3298868],[5.043597,47.3298365],[5.0435855,47.3296316],[5.043592,47.329519],[5.0436085,47.3293969],[5.0436257,47.3293068],[5.0436536,47.3291451],[5.0436556,47.3291335],[5.0436625,47.3290989]]}},{"type":"Feature","properties":{"way_id":1393771255,"route_colors":["#ab0672"],"route_refs":["T2"]},"geometry":{"type":"LineString","coordinates":[[5.0436625,47.3290989],[5.0436887,47.3289358],[5.0438559,47.3279925],[5.0439573,47.3274203],[5.0439728,47.3273908],[5.04398,47.3273786],[5.0439897,47.3273664],[5.0440049,47.3273494],[5.0440232,47.3273335],[5.0440437,47.3273171],[5.0441068,47.3272648],[5.0441119,47.3272611],[5.0441625,47.3272181],[5.044194,47.3271905],[5.0442128,47.3271709],[5.0442356,47.3271419],[5.0442449,47.3271257],[5.0442532,47.327109],[5.0442602,47.3270863],[5.0442643,47.3270639],[5.0442649,47.3270481],[5.0442641,47.3270323],[5.0442616,47.3270163],[5.0442574,47.3270002],[5.0442469,47.3269756],[5.0442446,47.3269714],[5.044161,47.3268155],[5.044018,47.326557],[5.0440035,47.3265373],[5.0439848,47.3265181],[5.0439662,47.3265022],[5.0439468,47.3264875],[5.043926,47.326476],[5.0438977,47.3264613],[5.0438657,47.3264465],[5.043781,47.3264159]]}},{"type":"Feature","properties":{"way_id":193676055,"route_colors":["#ab0672","#cc0088"],"route_refs":["T2","T1"]},"geometry":{"type":"LineString","coordinates":[[5.043781,47.3264159],[5.0437167,47.326402],[5.043573,47.3263732],[5.0434635,47.3263513],[5.0434359,47.3263459],[5.0432472,47.3263068],[5.0429524,47.3262458],[5.0424226,47.3261394],[5.0423994,47.3261347],[5.0414099,47.3259375],[5.0406455,47.3257849],[5.0405514,47.3257646],[5.0405308,47.3257598],[5.0404618,47.3257438],[5.0401701,47.3256686],[5.0400115,47.3256267],[5.0395487,47.3255074],[5.0394049,47.3254697],[5.0392071,47.3254141],[5.038962,47.3253441],[5.0387037,47.3252722],[5.0385149,47.3252167],[5.0380798,47.3250769],[5.0376268,47.3249239],[5.0372718,47.3248057],[5.0367034,47.3246165],[5.0365909,47.324579],[5.0365034,47.3245496],[5.0359282,47.3243564],[5.0358524,47.3243309],[5.0351628,47.3241028],[5.0344942,47.3238764],[5.0344428,47.323859],[5.0344325,47.3238555],[5.0343255,47.3238193],[5.0341476,47.3237591],[5.0338019,47.3236455],[5.0336641,47.3236002],[5.0336457,47.3235942],[5.0335812,47.3235729],[5.0335405,47.3235597],[5.0334912,47.3235437],[5.0334506,47.3235322],[5.0333608,47.3235101],[5.0333317,47.3235036],[5.0332311,47.3234842],[5.0331486,47.3234737],[5.033121,47.3234712],[5.0330938,47.3234689],[5.0330142,47.3234622],[5.0328991,47.3234641],[5.0327958,47.3234679],[5.0317116,47.3235963],[5.0315586,47.3236105],[5.0314625,47.3236125],[5.0314345,47.3236129],[5.0314137,47.3236132],[5.0313661,47.3236143],[5.031338,47.3236139],[5.0313278,47.3236135],[5.0312298,47.3236096],[5.030882,47.3235749],[5.0304296,47.3235313],[5.0295105,47.3234427]]}},{"type":"Feature","properties":{"way_id":135460120,"route_colors":["#ab0672"],"route_refs":["T2"]},"geometry":{"type":"LineString","coordinates":[[5.0295105,47.3234427],[5.0294515,47.3234234],[5.0294083,47.323407],[5.0293942,47.3233975],[5.0293686,47.3233793],[5.0293517,47.323363],[5.0293436,47.3233551],[5.0293276,47.3233384],[5.029318,47.3233283],[5.0293125,47.3233225],[5.029295,47.3232945],[5.0292818,47.323261],[5.0292796,47.3232148],[5.0292887,47.3231688],[5.0293098,47.3231282],[5.0293504,47.3230783],[5.0298467,47.3226382],[5.0298739,47.32261],[5.0298984,47.3225783],[5.029912,47.3225524],[5.0299194,47.3225243],[5.0299236,47.3224921],[5.0299245,47.3224751],[5.0299175,47.3224364],[5.0298245,47.3222953],[5.0298182,47.3222857],[5.0298032,47.322263],[5.0296141,47.3219862],[5.0295959,47.3219565],[5.0295852,47.3219308],[5.0295785,47.3218946],[5.0295762,47.3218585],[5.0295792,47.321787],[5.0295984,47.3214736],[5.0296039,47.3214408],[5.0296165,47.3214092],[5.0296343,47.3213793],[5.0296542,47.3213477],[5.0306884,47.3199487],[5.0310348,47.3194801],[5.0310913,47.3193974],[5.0311437,47.3192971],[5.0313292,47.3188391],[5.0313711,47.3186859],[5.0314086,47.3185084],[5.0315048,47.3180388],[5.0315164,47.3179823],[5.0315276,47.317856],[5.0315313,47.3178245],[5.031528,47.317707],[5.0314985,47.3176322],[5.0314947,47.3176225],[5.0314677,47.3175765],[5.0314341,47.3175246],[5.0313376,47.3173833],[5.030792,47.3166975],[5.0306639,47.3165206],[5.0305639,47.3163876],[5.0305208,47.3163324],[5.029786,47.3153742],[5.0297739,47.3153585],[5.029723,47.3152922],[5.0296849,47.3152544]]}},{"type":"Feature","properties":{"way_id":712684792,"route_colors":["#ab0672"],"route_refs":["T2"]},"geometry":{"type":"LineString","coordinates":[[5.0296849,47.3152544],[5.0296672,47.3152368],[5.0295589,47.3151739],[5.0294767,47.3151523],[5.0294182,47.3151382]]}},{"type":"Feature","properties":{"way_id":712684791,"route_colors":["#ab0672"],"route_refs":["T2"]},"geometry":{"type":"LineString","coordinates":[[5.0294182,47.3151382],[5.029319,47.3151141],[5.0290644,47.3150543],[5.0290012,47.315031],[5.0289407,47.3149997],[5.0288968,47.3149709],[5.0288426,47.314932],[5.028804,47.3148957],[5.0287594,47.3148351],[5.0286431,47.3146256],[5.0284736,47.3143248],[5.0280362,47.3135487],[5.0274575,47.3125219],[5.0274237,47.3124646]]}},{"type":"Feature","properties":{"way_id":227873452,"route_colors":["#ab0672"],"route_refs":["T2"]},"geometry":{"type":"LineString","coordinates":[[5.0274237,47.3124646],[5.0273687,47.3123643]]}},{"type":"Feature","properties":{"way_id":712660129,"route_colors":["#ab0672"],"route_refs":["T2"]},"geometry":{"type":"LineString","coordinates":[[5.0273687,47.3123643],[5.027301,47.3122465],[5.0272193,47.3120927]]}},{"type":"Feature","properties":{"way_id":421811787,"route_colors":["#ab0672"],"route_refs":["T2"]},"geometry":{"type":"LineString","coordinates":[[5.0272193,47.3120927],[5.0266857,47.3111616],[5.0265936,47.3109971],[5.0265862,47.3109839],[5.0265135,47.310854],[5.0263629,47.3105849],[5.0262546,47.3103935],[5.0259039,47.3097741],[5.0256145,47.3092629],[5.0249935,47.3081661],[5.0238839,47.3062062],[5.0236953,47.305866],[5.0234065,47.3053545],[5.0232924,47.3051549],[5.0231778,47.3049544],[5.0231261,47.304864],[5.0230229,47.3046834],[5.0229913,47.3046282],[5.0223814,47.303544],[5.0221787,47.303184],[5.0211241,47.301306],[5.0209914,47.3010824],[5.0209146,47.3009438],[5.0208215,47.3007847],[5.0207559,47.3006683],[5.0207329,47.3006375],[5.0207263,47.300631],[5.020709,47.300614],[5.0206724,47.3005884],[5.0206426,47.3005724],[5.0206048,47.3005565],[5.020559,47.3005433]]}},{"type":"Feature","properties":{"way_id":421811788,"route_colors":["#ab0672"],"route_refs":["T2"]},"geometry":{"type":"LineString","coordinates":[[5.020559,47.3005433],[5.0205204,47.3005361],[5.0204689,47.3005318],[5.0204061,47.3005326],[5.0203515,47.3005375],[5.0202687,47.3005525],[5.020176,47.3005754],[5.0196288,47.3007336],[5.0193029,47.3008218],[5.018906,47.3009037],[5.0177768,47.3011174],[5.0176216,47.3011629],[5.0174468,47.3012147],[5.0161138,47.3016876],[5.0159394,47.3017395],[5.0157155,47.3017859],[5.0150908,47.3018688],[5.0150785,47.3018704],[5.0138299,47.302035],[5.0125692,47.3022051],[5.0123884,47.3022255],[5.0122192,47.302236],[5.0121656,47.3022315],[5.0120637,47.3022124],[5.0120035,47.3021916],[5.0119926,47.3021878],[5.011947,47.3021524],[5.0118893,47.3020987],[5.0118585,47.3020542],[5.0118397,47.302015],[5.0118343,47.3019705],[5.0118424,47.3019132],[5.0118974,47.3017804],[5.0119564,47.3016303],[5.0119644,47.3015676],[5.0119631,47.3014985],[5.0119589,47.3014753],[5.0119483,47.3014166],[5.0119282,47.3013657],[5.0118866,47.301312],[5.0118129,47.3012193],[5.0115258,47.3009031],[5.0113442,47.3007121],[5.0106641,47.2999966],[5.0103972,47.2997094],[5.0101739,47.2994598],[5.0099461,47.299205],[5.009311,47.2985113],[5.0091107,47.2982859],[5.0087784,47.297912],[5.0081104,47.2971802],[5.0078653,47.2969117],[5.007759,47.2967922],[5.0077199,47.2967112],[5.0076627,47.2964925],[5.0076202,47.2963894],[5.0075879,47.2963112],[5.0075535,47.2962667],[5.0074947,47.2962003],[5.0071902,47.2958756],[5.0070856,47.2957641],[5.0069535,47.2956136],[5.0068697,47.2954902],[5.0068125,47.2953662],[5.0067092,47.295137],[5.0066859,47.2950823],[5.006669,47.2950424],[5.0065167,47.2947073],[5.0064029,47.2944517],[5.0063269,47.2942918]]}},{"type":"Feature","properties":{"way_id":175803492,"route_colors":["#cc0088"],"route_refs":["T1"]},"geometry":{"type":"LineString","coordinates":[[5.0457819,47.3263612],[5.0459099,47.3266049]]}},{"type":"Feature","properties":{"way_id":193698395,"route_colors":["#cc0088"],"route_refs":["T1"]},"geometry":{"type":"LineString","coordinates":[[5.0523845,47.3285638],[5.0517907,47.3285458]]}},{"type":"Feature","properties":{"way_id":175803469,"route_colors":["#cc0088"],"route_refs":["T1"]},"geometry":{"type":"LineString","coordinates":[[5.0584979,47.3288266],[5.0590596,47.3288267]]}},{"type":"Feature","properties":{"way_id":175803482,"route_colors":["#cc0088"],"route_refs":["T1"]},"geometry":{"type":"LineString","coordinates":[[5.0640537,47.3288406],[5.0646367,47.3288411]]}},{"type":"Feature","properties":{"way_id":175803499,"route_colors":["#cc0088"],"route_refs":["T1"]},"geometry":{"type":"LineString","coordinates":[[5.0652418,47.3227333],[5.0652513,47.322409]]}},{"type":"Feature","properties":{"way_id":175803489,"route_colors":["#cc0088"],"route_refs":["T1"]},"geometry":{"type":"LineString","coordinates":[[5.0672557,47.3200987],[5.0677968,47.3200447]]}},{"type":"Feature","properties":{"way_id":175803497,"route_colors":["#cc0088"],"route_refs":["T1"]},"geometry":{"type":"LineString","coordinates":[[5.0671639,47.3155022],[5.0670108,47.3152292],[5.066995,47.3152011]]}},{"type":"Feature","properties":{"way_id":175803467,"route_colors":["#cc0088"],"route_refs":["T1"]},"geometry":{"type":"LineString","coordinates":[[5.0727276,47.3116745],[5.0733001,47.3114508]]}},{"type":"Feature","properties":{"way_id":238249218,"route_colors":["#cc0088"],"route_refs":["T1"]},"geometry":{"type":"LineString","coordinates":[[5.0768669,47.3150241],[5.0768131,47.314649]]}},{"type":"Feature","properties":{"way_id":570316208,"route_colors":["#cc0088"],"route_refs":["T1"]},"geometry":{"type":"LineString","coordinates":[[5.0817347,47.3149787],[5.0822157,47.3149398],[5.0822092,47.3148929],[5.0817275,47.3149299],[5.0817347,47.3149787]]}},{"type":"Feature","properties":{"way_id":570316214,"route_colors":["#cc0088"],"route_refs":["T1"]},"geometry":{"type":"LineString","coordinates":[[5.0942426,47.3135714],[5.0948301,47.3135325],[5.0948513,47.3135311],[5.0948476,47.3135051],[5.0942388,47.3135455],[5.0942426,47.3135714]]}},{"type":"Feature","properties":{"way_id":570384047,"route_colors":["#cc0088"],"route_refs":["T1"]},"geometry":{"type":"LineString","coordinates":[[5.1033414,47.3124106],[5.1039048,47.3123115],[5.1038977,47.3122931],[5.1033344,47.3123922],[5.1033414,47.3124106]]}},{"type":"Feature","properties":{"way_id":238249223,"route_colors":["#cc0088"],"route_refs":["T1"]},"geometry":{"type":"LineString","coordinates":[[5.1097113,47.3138029],[5.1103208,47.3138619],[5.1103264,47.3138354],[5.1097169,47.3137764],[5.1097113,47.3138029]]}},{"type":"Feature","properties":{"way_id":860753616,"route_colors":["#cc0088"],"route_refs":["T1"]},"geometry":{"type":"LineString","coordinates":[[5.0281259,47.3232257],[5.0281226,47.3232407],[5.0281188,47.3232581],[5.0286855,47.3233159],[5.0286896,47.3232973],[5.0286927,47.3232835],[5.0281259,47.3232257]]}},{"type":"Feature","properties":{"way_id":133393448,"route_colors":["#cc0088"],"route_refs":["T1"]},"geometry":{"type":"LineString","coordinates":[[5.0279883,47.3232591],[5.0280913,47.3232692],[5.0284132,47.3233009],[5.028705,47.3233302],[5.0288116,47.3233403]]}},{"type":"Feature","properties":{"way_id":978412824,"route_colors":["#cc0088"],"route_refs":["T1"]},"geometry":{"type":"LineString","coordinates":[[5.0288116,47.3233403],[5.0291861,47.3233774],[5.0292169,47.3233805],[5.0293049,47.3233895],[5.0293463,47.3233932],[5.0293942,47.3233975],[5.0296077,47.3234202]]}},{"type":"Feature","properties":{"way_id":285464346,"route_colors":["#cc0088"],"route_refs":["T1"]},"geometry":{"type":"LineString","coordinates":[[5.0438093,47.3263889],[5.043886,47.3264031],[5.0439284,47.326412],[5.0439711,47.3264191],[5.0440098,47.3264231],[5.0440357,47.3264224],[5.0440597,47.3264219],[5.0440806,47.3264198],[5.0441226,47.3264137],[5.0441407,47.3264105],[5.0441749,47.3264032],[5.044208,47.3263956],[5.0442396,47.3263879],[5.0451846,47.3261515],[5.0452057,47.3261461],[5.045226,47.326142],[5.0452522,47.326137],[5.0452777,47.3261326],[5.0453024,47.3261296],[5.0453289,47.3261279],[5.0453548,47.3261271],[5.0453895,47.3261282],[5.0454254,47.326131],[5.0454331,47.3261321],[5.0454522,47.3261351],[5.0454803,47.326141],[5.0455075,47.3261483],[5.0455225,47.3261526],[5.0455387,47.3261587],[5.0455754,47.3261742],[5.0455996,47.3261871],[5.0456183,47.3261982],[5.0456366,47.3262114],[5.0456534,47.3262251],[5.0456669,47.3262373],[5.0456785,47.3262489],[5.0457042,47.3262831],[5.0457158,47.3263027],[5.0458151,47.3264864],[5.0459029,47.3266465],[5.0459066,47.3266533],[5.0459236,47.3266771],[5.0459313,47.3266853],[5.0459416,47.3266963],[5.0459608,47.3267133],[5.0459806,47.3267271],[5.0460023,47.3267405],[5.0460357,47.3267575],[5.0460813,47.3267789],[5.0464601,47.3268995],[5.046597,47.326945],[5.0466744,47.3269719],[5.0468037,47.3270184],[5.0474103,47.3272424],[5.0484319,47.3276202],[5.0485696,47.3276713],[5.0486872,47.327715],[5.0489982,47.3278303],[5.0491457,47.3278847],[5.0492785,47.3279334],[5.0501048,47.3282392],[5.0503896,47.3283447],[5.0505734,47.3284105],[5.0506415,47.3284314],[5.0507652,47.3284654],[5.0508438,47.3284868],[5.0511234,47.3285314],[5.051277,47.32855],[5.0513351,47.3285538],[5.0515814,47.3285625],[5.0517147,47.3285671],[5.0518212,47.32857],[5.0521061,47.3285827],[5.0524297,47.3285965],[5.0530807,47.3286254],[5.0534665,47.3286427],[5.0535613,47.3286471],[5.0536107,47.3286511],[5.0556119,47.3287917],[5.0557614,47.3288022],[5.0558363,47.3288071],[5.0559748,47.3288156],[5.0559966,47.3288169],[5.056363,47.3288387],[5.0563945,47.3288401],[5.0565257,47.3288427],[5.0566944,47.3288445]]}},{"type":"Feature","properties":{"way_id":133486646,"route_colors":["#cc0088"],"route_refs":["T1"]},"geometry":{"type":"LineString","coordinates":[[5.0566944,47.3288445],[5.0570292,47.3288446]]}},{"type":"Feature","properties":{"way_id":176683425,"route_colors":["#cc0088"],"route_refs":["T1"]},"geometry":{"type":"LineString","coordinates":[[5.0570292,47.3288446],[5.0577099,47.3288493],[5.0583287,47.3288505],[5.0584439,47.3288504],[5.058743,47.3288511],[5.0593452,47.3288534],[5.0602203,47.3288567],[5.0617808,47.3288628],[5.0634061,47.3288686],[5.0643507,47.3288704],[5.0646279,47.3288713],[5.064683,47.3288708],[5.0647419,47.3288659],[5.0647681,47.3288622],[5.0648117,47.3288519],[5.0648486,47.32884],[5.0648918,47.3288207],[5.0649205,47.3288032],[5.0649508,47.3287784],[5.0649724,47.3287563],[5.0649854,47.3287397],[5.0649975,47.3287219],[5.0650067,47.3287013],[5.0650142,47.3286853],[5.0650251,47.328651],[5.0650315,47.3286221],[5.0650351,47.3285897],[5.0650368,47.3285692],[5.0650397,47.328501],[5.0650557,47.3280343],[5.0650829,47.3272605],[5.0651239,47.3260655],[5.0651294,47.325874],[5.0651364,47.3257511],[5.0651348,47.3256852],[5.0651418,47.3256104],[5.0651474,47.3255619],[5.065149,47.3255476],[5.0652071,47.3250198],[5.065281,47.3225718],[5.0652854,47.3224088],[5.0652929,47.3223009],[5.0652982,47.322226],[5.0653064,47.3221079],[5.0653443,47.3208833],[5.0653523,47.3205099],[5.0653588,47.3204241],[5.0653726,47.3203708],[5.0654057,47.3203201],[5.0654471,47.3202729],[5.0654648,47.3202595],[5.0655331,47.320226],[5.0655962,47.3202001],[5.0656594,47.3201832],[5.0657377,47.3201717],[5.0657987,47.320168],[5.0658871,47.3201677],[5.066505,47.3201772],[5.0666643,47.3201796],[5.0667463,47.3201788],[5.0668225,47.3201741],[5.0671572,47.3201399],[5.0675499,47.3200998],[5.0678472,47.3200635],[5.0679226,47.3200513],[5.0679694,47.3200371],[5.0680105,47.3200202],[5.0680462,47.3199993],[5.0680863,47.3199702],[5.0681179,47.3199369],[5.0681373,47.319901],[5.0681606,47.3198477],[5.0681895,47.3192795],[5.0681953,47.3190344],[5.0681989,47.318951],[5.0682037,47.3188369],[5.068212,47.3186432],[5.0682308,47.3178119],[5.0682354,47.3176066],[5.0682338,47.3174346],[5.0682315,47.3173745],[5.0682296,47.3173235],[5.0682099,47.3172243],[5.0681876,47.3171592],[5.0681456,47.3170775],[5.0680492,47.3169248],[5.068019,47.3168723],[5.0679647,47.3167777],[5.0679473,47.3167474],[5.0676707,47.3162665],[5.0674001,47.3158193],[5.0672172,47.3155171],[5.0671079,47.3153364],[5.0670259,47.3151935],[5.0668659,47.3149146],[5.0668597,47.3148715],[5.0668589,47.3148311],[5.0668587,47.3148189],[5.0668772,47.3147542],[5.0669185,47.3147026],[5.0669552,47.3146728],[5.0669976,47.3146516],[5.0670493,47.3146271],[5.0675806,47.3144715],[5.0680662,47.3143376]]}},{"type":"Feature","properties":{"way_id":1355783486,"route_colors":["#cc0088"],"route_refs":["T1"]},"geometry":{"type":"LineString","coordinates":[[5.0680662,47.3143376],[5.0683439,47.3142614],[5.0686057,47.3141712],[5.0689732,47.314023],[5.0691255,47.3139517],[5.0693929,47.3138265],[5.0697317,47.3136388],[5.0699712,47.3134923],[5.0701591,47.3133773],[5.0712134,47.3126933],[5.0715255,47.3124889],[5.071533,47.312484],[5.0720401,47.3121519],[5.0721061,47.3121039],[5.0722388,47.3120171],[5.072526,47.3118381],[5.0727694,47.3117175],[5.0731888,47.311534],[5.0732717,47.3114984],[5.0733231,47.3114793],[5.0733781,47.3114595],[5.0734894,47.3114369],[5.0735238,47.3114341],[5.0735713,47.3114333],[5.0736076,47.3114337],[5.0736354,47.3114365],[5.0736583,47.3114392],[5.073685,47.3114432],[5.07371,47.3114479],[5.0737426,47.3114552],[5.0737732,47.3114641],[5.0738106,47.3114786],[5.0738433,47.3114927],[5.0738711,47.3115072],[5.0739101,47.3115285],[5.0739572,47.3115634],[5.0740032,47.3115986],[5.0740964,47.3116934],[5.0743723,47.311986],[5.0744554,47.3120695],[5.0744831,47.3120956],[5.0745043,47.3121144],[5.0745262,47.3121326],[5.0745778,47.3121725],[5.0750274,47.3124722],[5.0759225,47.3130406],[5.0762798,47.3132645],[5.0764056,47.3133433],[5.0764459,47.3133721],[5.0764674,47.3133899],[5.0764985,47.3134169],[5.0765265,47.3134473],[5.0765409,47.3134657],[5.0765568,47.3134907],[5.0765722,47.313522],[5.0765852,47.3135642],[5.0765939,47.3136075],[5.076638,47.3138959],[5.0767544,47.3146226],[5.0767931,47.3148637],[5.0768186,47.3150279],[5.076823,47.3150523],[5.076829,47.3150806],[5.0768313,47.3150927],[5.0768511,47.3151355],[5.0768618,47.3151525],[5.0768803,47.3151786],[5.0768906,47.3151891],[5.0769012,47.3151995],[5.0769148,47.3152116],[5.0769263,47.3152206],[5.0769486,47.3152359],[5.0769666,47.3152465],[5.0769856,47.3152569],[5.077001,47.3152642],[5.0770122,47.3152696],[5.0770401,47.31528],[5.0770663,47.3152882],[5.0770939,47.3152953],[5.0771221,47.3153007],[5.0771507,47.315305],[5.0772029,47.3153109],[5.0772536,47.3153131],[5.0773053,47.3153135],[5.0773565,47.3153105],[5.0779809,47.3152651],[5.0781105,47.3152507],[5.078295,47.31522],[5.0785571,47.3151553],[5.0787125,47.3151149],[5.0788074,47.3150937],[5.0789065,47.3150811],[5.0790415,47.3150728]]}},{"type":"Feature","properties":{"way_id":570316202,"route_colors":["#cc0088"],"route_refs":["T1"]},"geometry":{"type":"LineString","coordinates":[[5.0790415,47.3150728],[5.0798959,47.3150082]]}},{"type":"Feature","properties":{"way_id":570316200,"route_colors":["#cc0088"],"route_refs":["T1"]},"geometry":{"type":"LineString","coordinates":[[5.0798959,47.3150082],[5.0800294,47.3149988],[5.0801493,47.3149941],[5.0802568,47.314996],[5.0807333,47.3150433],[5.0808211,47.3150496],[5.0809258,47.3150507],[5.0810607,47.3150408],[5.0813494,47.3150177],[5.0819744,47.314975],[5.082248,47.3149547],[5.0822912,47.3149515]]}},{"type":"Feature","properties":{"way_id":570316213,"route_colors":["#cc0088"],"route_refs":["T1"]},"geometry":{"type":"LineString","coordinates":[[5.0822912,47.3149515],[5.0823701,47.3149458],[5.0824649,47.3149391]]}},{"type":"Feature","properties":{"way_id":570316211,"route_colors":["#cc0088"],"route_refs":["T1"]},"geometry":{"type":"LineString","coordinates":[[5.0824649,47.3149391],[5.0833094,47.3148746],[5.0833911,47.3148689],[5.0835017,47.3148604],[5.0835351,47.314858],[5.0856675,47.3147075],[5.0858327,47.3146881],[5.0859524,47.3146717],[5.086186,47.3146307],[5.0894542,47.3140051],[5.0895914,47.3139796],[5.0897347,47.3139558],[5.0900262,47.3139114],[5.0902504,47.3138804],[5.0905067,47.3138496],[5.0907419,47.3138252],[5.0909436,47.3138069],[5.0911372,47.313792],[5.0913865,47.3137752],[5.0936782,47.3136186],[5.0939468,47.3136039],[5.094216,47.3135858],[5.0945461,47.3135636],[5.0948321,47.3135445],[5.0974978,47.313366],[5.097668,47.3133546]]}},{"type":"Feature","properties":{"way_id":570384006,"route_colors":["#cc0088"],"route_refs":["T1"]},"geometry":{"type":"LineString","coordinates":[[5.097668,47.3133546],[5.0978628,47.313337],[5.0979339,47.3133302],[5.0985568,47.3132624],[5.0989841,47.3132028],[5.0993867,47.3131372],[5.1013084,47.3127895],[5.1013741,47.3127783],[5.1015388,47.3127496],[5.1033193,47.3124234],[5.1036282,47.3123686],[5.1039309,47.3123145],[5.1040713,47.3122928],[5.1042327,47.3122847],[5.1043473,47.3122869],[5.1044436,47.3122941],[5.1045588,47.3123108],[5.1046853,47.3123373],[5.1048591,47.312394],[5.104961,47.3124369],[5.1050383,47.3124772],[5.1051363,47.3125364],[5.1052198,47.3125948],[5.1053088,47.3126617],[5.1054127,47.3127469],[5.1057269,47.3130055],[5.1059523,47.3131804],[5.1061743,47.3133142],[5.1061818,47.3133187],[5.1063346,47.313386],[5.106403,47.313413],[5.1065408,47.3134604],[5.1066379,47.3134894],[5.1067505,47.3135153],[5.1068729,47.3135353],[5.1070614,47.3135617],[5.1077473,47.3136263],[5.1088794,47.3137328],[5.1091721,47.3137604],[5.1093107,47.3137746],[5.1094542,47.3137893],[5.1096791,47.3138123],[5.1100019,47.3138452],[5.1102676,47.3138727],[5.1108786,47.3139358],[5.1121225,47.3140647]]}},{"type":"Feature","properties":{"way_id":121762116,"route_colors":["#cc0088"],"route_refs":["T1"]},"geometry":{"type":"LineString","coordinates":[[5.1096885,47.3139056],[5.1103043,47.31396],[5.1103134,47.3139125],[5.1096976,47.3138581],[5.1096885,47.3139056]]}},{"type":"Feature","properties":{"way_id":570384048,"route_colors":["#cc0088"],"route_refs":["T1"]},"geometry":{"type":"LineString","coordinates":[[5.1033696,47.3124711],[5.1039188,47.3123748],[5.1039121,47.3123571],[5.1033629,47.3124534],[5.1033696,47.3124711]]}},{"type":"Feature","properties":{"way_id":570316215,"route_colors":["#cc0088"],"route_refs":["T1"]},"geometry":{"type":"LineString","coordinates":[[5.0942522,47.3136502],[5.0948609,47.3136098],[5.0948572,47.3135839],[5.094839,47.3135851],[5.0942485,47.3136242],[5.0942522,47.3136502]]}},{"type":"Feature","properties":{"way_id":570316205,"route_colors":["#cc0088"],"route_refs":["T1"]},"geometry":{"type":"LineString","coordinates":[[5.0817483,47.3150728],[5.082231,47.3150386],[5.0822246,47.3149974],[5.0817423,47.3150336],[5.0817483,47.3150728]]}},{"type":"Feature","properties":{"way_id":238249216,"route_colors":["#cc0088"],"route_refs":["T1"]},"geometry":{"type":"LineString","coordinates":[[5.0766816,47.3146607],[5.0767409,47.3150352]]}},{"type":"Feature","properties":{"way_id":175803486,"route_colors":["#cc0088"],"route_refs":["T1"]},"geometry":{"type":"LineString","coordinates":[[5.0733566,47.3115195],[5.072815,47.3117588]]}},{"type":"Feature","properties":{"way_id":175803479,"route_colors":["#cc0088"],"route_refs":["T1"]},"geometry":{"type":"LineString","coordinates":[[5.0671071,47.3151734],[5.0671266,47.3152093],[5.0672719,47.3154773]]}},{"type":"Feature","properties":{"way_id":175803468,"route_colors":["#cc0088"],"route_refs":["T1"]},"geometry":{"type":"LineString","coordinates":[[5.0678237,47.3201239],[5.0672766,47.3201769]]}},{"type":"Feature","properties":{"way_id":175803491,"route_colors":["#cc0088"],"route_refs":["T1"]},"geometry":{"type":"LineString","coordinates":[[5.0653545,47.3224092],[5.0653481,47.322743],[5.0653854,47.3228019]]}},{"type":"Feature","properties":{"way_id":175803493,"route_colors":["#cc0088"],"route_refs":["T1"]},"geometry":{"type":"LineString","coordinates":[[5.0646359,47.3289208],[5.0640483,47.3289193]]}},{"type":"Feature","properties":{"way_id":175803498,"route_colors":["#cc0088"],"route_refs":["T1"]},"geometry":{"type":"LineString","coordinates":[[5.0590579,47.3288905],[5.0584931,47.3288877]]}},{"type":"Feature","properties":{"way_id":193698409,"route_colors":["#cc0088"],"route_refs":["T1"]},"geometry":{"type":"LineString","coordinates":[[5.0523622,47.3286343],[5.0517885,47.3286174]]}},{"type":"Feature","properties":{"way_id":175803475,"route_colors":["#cc0088"],"route_refs":["T1"]},"geometry":{"type":"LineString","coordinates":[[5.0457962,47.3266263],[5.0456596,47.3263792]]}},{"type":"Feature","properties":{"way_id":860753615,"route_colors":["#cc0088"],"route_refs":["T1"]},"geometry":{"type":"LineString","coordinates":[[5.0281067,47.3233131],[5.0281031,47.3233294],[5.0280995,47.3233455],[5.0282233,47.3233581],[5.0286662,47.3234033],[5.0286702,47.3233852],[5.0286734,47.3233709],[5.0281067,47.3233131]]}},{"type":"Feature","properties":{"way_id":194466121,"route_colors":["#cc0088"],"route_refs":["T1"]},"geometry":{"type":"LineString","coordinates":[[5.1121171,47.3140902],[5.1106165,47.3139345],[5.1102394,47.313896],[5.1099954,47.3138711],[5.1096734,47.3138379],[5.1094443,47.3138143],[5.1093054,47.3138003],[5.1092647,47.3137962],[5.1090347,47.313774],[5.1079157,47.3136678],[5.1077412,47.3136515],[5.1070564,47.3135874],[5.1070021,47.3135799],[5.1068639,47.3135614],[5.1067411,47.3135405],[5.1066777,47.313526],[5.1066215,47.3135129],[5.1065245,47.3134842],[5.1063823,47.3134352],[5.1063114,47.3134071],[5.1061488,47.3133375],[5.1061373,47.3133326],[5.1058634,47.3131618],[5.1056131,47.3129576],[5.1053877,47.312775],[5.1052226,47.3126421],[5.1051208,47.3125654],[5.1050068,47.3124969],[5.1049166,47.3124478],[5.1047999,47.3124046],[5.1046251,47.3123513],[5.1044217,47.312322],[5.1042329,47.3123117],[5.1040727,47.3123223],[5.10394,47.3123409],[5.1036329,47.3123958],[5.1033303,47.3124532],[5.1015537,47.3127768],[5.1013832,47.3128024],[5.1013248,47.3128127],[5.0994185,47.3131576],[5.0990499,47.3132178],[5.0988562,47.3132476],[5.0986624,47.3132727],[5.0979408,47.3133575],[5.0978354,47.3133681],[5.0976719,47.3133801],[5.0975024,47.3133915],[5.0948365,47.3135705],[5.0945487,47.3135898],[5.0942188,47.3136123],[5.0939514,47.3136306],[5.0936828,47.3136466],[5.091394,47.3138001],[5.0910346,47.3138268],[5.0907981,47.3138469],[5.0906054,47.3138662],[5.0903859,47.3138905],[5.0902117,47.3139124],[5.0900253,47.3139373],[5.0897779,47.3139758],[5.0896194,47.3140023],[5.089448,47.314033],[5.0862851,47.3146363],[5.0860325,47.3146835],[5.0857721,47.314718],[5.0855342,47.3147366],[5.0843722,47.3148223],[5.0835396,47.3148841],[5.0835058,47.3148866],[5.0833951,47.3148949],[5.0830708,47.3149182],[5.0824597,47.3149637]]}},{"type":"Feature","properties":{"way_id":570316212,"route_colors":["#cc0088"],"route_refs":["T1"]},"geometry":{"type":"LineString","coordinates":[[5.0824597,47.3149637],[5.0824147,47.3149669],[5.0823728,47.3149694],[5.0822947,47.314976]]}},{"type":"Feature","properties":{"way_id":570316210,"route_colors":["#cc0088"],"route_refs":["T1"]},"geometry":{"type":"LineString","coordinates":[[5.0822947,47.314976],[5.0822516,47.3149792],[5.0819787,47.3149995],[5.0809963,47.3150755],[5.0808312,47.3150955],[5.0807602,47.3151067],[5.0805659,47.3151517],[5.0803257,47.3152104],[5.0802128,47.3152359],[5.08013,47.315247],[5.0799765,47.3152596]]}},{"type":"Feature","properties":{"way_id":570316198,"route_colors":["#cc0088"],"route_refs":["T1"]},"geometry":{"type":"LineString","coordinates":[[5.0799765,47.3152596],[5.079121,47.3153202]]}},{"type":"Feature","properties":{"way_id":570316197,"route_colors":["#cc0088"],"route_refs":["T1"]},"geometry":{"type":"LineString","coordinates":[[5.079121,47.3153202],[5.0789203,47.3153327],[5.0788285,47.315333],[5.078729,47.3153269],[5.0785759,47.3153132],[5.0784373,47.3152961],[5.0782888,47.3152828],[5.0781115,47.3152863],[5.0780658,47.3152869],[5.0773459,47.3153377],[5.0772429,47.3153445],[5.0771902,47.3153454],[5.0771364,47.3153428],[5.0771,47.3153375],[5.077065,47.3153304],[5.0770311,47.3153211],[5.0770006,47.3153105],[5.0769774,47.3153024],[5.0769635,47.3152956],[5.0769479,47.315288],[5.0769145,47.3152679],[5.0768884,47.3152501],[5.076857,47.3152214],[5.0768412,47.3152052],[5.0768234,47.3151828],[5.0768081,47.3151567],[5.0767975,47.3151314],[5.0767857,47.3150915],[5.0767842,47.3150854],[5.0767786,47.3150554],[5.0767757,47.31504],[5.0767475,47.3148586],[5.0767111,47.3146277],[5.0766643,47.3143284],[5.0766324,47.314124],[5.0765954,47.3138988],[5.0765488,47.3136027],[5.0765424,47.3135715],[5.0765322,47.3135418],[5.0765171,47.3135087],[5.0765131,47.3135025],[5.0764977,47.3134781],[5.0764673,47.3134431],[5.0764336,47.3134094],[5.0764072,47.3133862],[5.0763687,47.3133593],[5.0762535,47.3132852],[5.0759048,47.3130608],[5.0747312,47.3123179],[5.0745589,47.3122001],[5.0744836,47.3121409],[5.0744642,47.312124],[5.0744282,47.3120914],[5.0743281,47.3119906],[5.0740882,47.3117329],[5.0740652,47.3117093],[5.074043,47.3116874],[5.0740191,47.3116662],[5.0739795,47.311633],[5.0739411,47.3116018],[5.073922,47.3115871],[5.0738775,47.3115534],[5.0738237,47.3115223],[5.0737631,47.3114984],[5.0737256,47.3114867],[5.0736966,47.3114794],[5.07365,47.3114713],[5.0736028,47.3114661],[5.0735463,47.3114651],[5.0735034,47.3114679],[5.0733957,47.311487],[5.0733454,47.3115054],[5.0732984,47.3115215],[5.0729044,47.3116942],[5.0727963,47.3117415],[5.072538,47.3118594],[5.0722677,47.3120307],[5.0718415,47.3123204],[5.0715594,47.3125035],[5.0715253,47.3125257],[5.0701871,47.3133915],[5.0699967,47.3135095],[5.0697138,47.3136847],[5.0693866,47.3138582],[5.0691431,47.3139705],[5.0689912,47.3140406],[5.0686225,47.3141948],[5.0683347,47.3142886],[5.0680813,47.3143597],[5.067599,47.3144909],[5.067047,47.3146537],[5.0669825,47.3146902],[5.0669466,47.3147213],[5.0669178,47.3147675],[5.0669011,47.3148092],[5.0668997,47.3148288],[5.0668975,47.3148582],[5.0669007,47.3149015],[5.0670229,47.3151241],[5.067061,47.3151848],[5.0671504,47.315327],[5.0672555,47.315507],[5.0674327,47.3158105],[5.0679317,47.3166565],[5.0679805,47.3167414],[5.067998,47.3167719],[5.0680506,47.3168645],[5.0682183,47.3171577],[5.0682457,47.3172285],[5.0682583,47.317295],[5.0682676,47.317375],[5.0682709,47.3176013],[5.0682641,47.3178135],[5.0682315,47.3188372],[5.0682279,47.3189489],[5.0682255,47.3190251],[5.0682202,47.319159],[5.0681952,47.3198482],[5.0681756,47.3199217],[5.068161,47.319947],[5.0681443,47.3199724],[5.0681149,47.3200022],[5.0680839,47.3200259],[5.0680536,47.3200425],[5.0680239,47.3200552],[5.0679821,47.3200713],[5.0679175,47.3200852],[5.067849,47.3200951],[5.0675582,47.3201254],[5.0671597,47.3201675],[5.0668237,47.320203],[5.066749,47.3202073],[5.0666753,47.3202083],[5.0665037,47.3202059],[5.0658982,47.3201975],[5.0657975,47.3202001],[5.0657498,47.320202],[5.0657022,47.3202092],[5.0656077,47.320232],[5.0655384,47.3202616],[5.065522,47.3202705],[5.0654784,47.3202999],[5.0654367,47.3203465],[5.0654119,47.3204022],[5.0653957,47.3204841],[5.0653469,47.3221081],[5.0653401,47.3222273],[5.0653357,47.3223036],[5.0653296,47.3224092],[5.0653204,47.3225723],[5.0652553,47.3250096],[5.0652131,47.3253841],[5.0651971,47.3255496],[5.0651908,47.3256143],[5.0651849,47.325687]]}},{"type":"Feature","properties":{"way_id":626240078,"route_colors":["#cc0088"],"route_refs":["T1"]},"geometry":{"type":"LineString","coordinates":[[5.0651849,47.325687],[5.0651763,47.3257514],[5.0651661,47.3259399],[5.0651592,47.326126],[5.0651213,47.3272645],[5.0650941,47.3280383]]}},{"type":"Feature","properties":{"way_id":626240084,"route_colors":["#cc0088"],"route_refs":["T1"]},"geometry":{"type":"LineString","coordinates":[[5.0650941,47.3280383],[5.0650804,47.3284444],[5.0650749,47.3286074],[5.0650731,47.328641],[5.0650684,47.328674],[5.0650611,47.3287021],[5.0650504,47.3287332],[5.06504,47.3287483],[5.0650266,47.3287671],[5.0650147,47.3287816],[5.065006,47.3287898],[5.0649716,47.3288193],[5.0649365,47.3288404],[5.0649033,47.3288578],[5.0648905,47.3288636],[5.0648761,47.3288691],[5.0648473,47.3288781],[5.0648154,47.3288865],[5.0647869,47.3288922],[5.0647531,47.3288972],[5.0647181,47.3289],[5.0646802,47.3289013],[5.0643513,47.3289004],[5.0634062,47.3288958],[5.0609669,47.3288857],[5.0593431,47.3288801],[5.058743,47.3288778],[5.0584433,47.3288762],[5.0583269,47.3288758],[5.0577113,47.3288751],[5.057041,47.328871]]}},{"type":"Feature","properties":{"way_id":133486647,"route_colors":["#cc0088"],"route_refs":["T1"]},"geometry":{"type":"LineString","coordinates":[[5.0567024,47.3288712],[5.057041,47.328871]]}},{"type":"Feature","properties":{"way_id":193698402,"route_colors":["#cc0088"],"route_refs":["T1"]},"geometry":{"type":"LineString","coordinates":[[5.0567024,47.3288712],[5.0565223,47.3288685],[5.0563892,47.3288664],[5.0563527,47.3288645],[5.0559924,47.3288426],[5.0559696,47.3288412],[5.0558314,47.3288334],[5.0557578,47.3288278],[5.0556086,47.3288176],[5.0535945,47.3286759],[5.0535594,47.328673],[5.0530773,47.3286514],[5.0524271,47.3286225],[5.0521043,47.3286084],[5.0518044,47.3285947],[5.0517126,47.3285919],[5.0515855,47.3285889],[5.0513299,47.3285794],[5.0512276,47.3285713],[5.0511186,47.3285624],[5.0510527,47.3285519],[5.0508899,47.3285249],[5.0508188,47.3285123],[5.050745,47.3284921],[5.0506285,47.3284572],[5.0505542,47.328434],[5.0504114,47.328382],[5.0492599,47.3279567],[5.0491271,47.3279078],[5.04898,47.3278533],[5.047082,47.3271504],[5.046777,47.3270384],[5.0466209,47.3269834],[5.0460932,47.3268129],[5.0460395,47.3267951],[5.0459824,47.3267701],[5.045954,47.3267526],[5.0459426,47.3267457],[5.0459317,47.3267381],[5.0458908,47.3267015],[5.0458746,47.3266809],[5.0458597,47.3266568],[5.045773,47.3264974],[5.0456612,47.3262954],[5.0456457,47.3262733],[5.0456337,47.3262607],[5.0456156,47.3262427],[5.0455951,47.3262265],[5.0455715,47.3262113],[5.0455517,47.3262008],[5.0455301,47.3261909],[5.045513,47.326185],[5.0454967,47.3261792],[5.0454784,47.3261734],[5.045456,47.3261683],[5.0454441,47.3261645],[5.0454093,47.3261607],[5.0453793,47.3261584],[5.0453429,47.3261583],[5.0453073,47.3261603],[5.0452795,47.3261638],[5.04525,47.3261691],[5.045188,47.3261835],[5.044185,47.3264331],[5.0441571,47.3264397],[5.0441349,47.326444],[5.0441108,47.3264478],[5.0440911,47.3264503],[5.0440715,47.3264521],[5.044051,47.3264532],[5.0440297,47.3264536],[5.0440072,47.3264534],[5.043949,47.3264469],[5.0439118,47.326441],[5.0438681,47.3264324],[5.043781,47.3264159]]}},{"type":"Feature","properties":{"way_id":978412825,"route_colors":["#cc0088"],"route_refs":["T1"]},"geometry":{"type":"LineString","coordinates":[[5.0295105,47.3234427],[5.0293404,47.3234265],[5.0292978,47.3234224],[5.0292131,47.3234143],[5.0291793,47.3234111],[5.0288042,47.3233734]]}},{"type":"Feature","properties":{"way_id":133393447,"route_colors":["#cc0088"],"route_refs":["T1"]},"geometry":{"type":"LineString","coordinates":[[5.0288042,47.3233734],[5.0286957,47.3233626],[5.0284066,47.3233344],[5.0280815,47.3233014],[5.0279008,47.3232829]]}}]}