{"type":"FeatureCollection","features":[{"type":"Feature","properties":{"route_ref":"A","route_color":"#2061a7"},"geometry":{"type":"MultiLineString","coordinates":[[[5.6717378,45.1976356],[5.673131225000005,45.1964054125],[5.6740122049591175,45.19582661294228],[5.675424911644055,45.19547857465754],[5.678700521500399,45.194380878513044],[5.691302480000001,45.18989276],[5.693426880672541,45.189250378367724],[5.7023891004658065,45.18902138993833],[5.714101467676399,45.188336216240096],[5.714739048116994,45.18846508540509],[5.715283564192024,45.18894826883004],[5.715502076903878,45.18931729003089],[5.7154431837484445,45.18967301662081],[5.715206538510809,45.19011018495946],[5.71505022365543,45.190156998757686],[5.714890591979861,45.190565464924084],[5.715138457002798,45.19082460830522],[5.715481146035253,45.19071754506413],[5.715857978184341,45.19015128664726],[5.716399100000002,45.1899874],[5.722847266199527,45.189015350554826],[5.723656376857548,45.189109856891],[5.72516459596647,45.18985197864832],[5.727079294191161,45.190474977035144],[5.728160938407547,45.19015656527865],[5.730603823472388,45.19008735871476],[5.73116876349986,45.18998228655036],[5.7316337651593585,45.18930515246524],[5.7311992801473535,45.18893861919065],[5.731163580624619,45.1887172485883],[5.732652325096559,45.18682692294482],[5.732763354072122,45.1865396407212],[5.7319468661387845,45.185484445400974],[5.731607639397484,45.183993045665055],[5.732237329601705,45.16929771014006],[5.732043138974501,45.16838566406367],[5.732075065742484,45.16724507305047],[5.73188471544925,45.166775480514865],[5.73065119325839,45.16592417194637],[5.730435670873093,45.165625574871584],[5.7306284139276125,45.16159985259663],[5.7309140252732735,45.160830395239635],[5.730959341509679,45.159821489453314],[5.731125938866922,45.1593169707613],[5.731537940175454,45.15909556734526],[5.7329708,45.1590655],[5.733639851117805,45.15883864449156],[5.7338281976754155,45.15866161933816],[5.733873050345924,45.15796237884512],[5.733793375546416,45.15748083801996],[5.7336075,45.1573035],[5.733358474664446,45.15722999367083],[5.7319982656481505,45.157193622493786],[5.730374565359753,45.157395892852655],[5.730028131942445,45.15735097184514],[5.729282908085346,45.15700699131623],[5.7285051,45.1569712]],[[5.70395659811558,45.13779469472203],[5.703524110826787,45.137801332304626],[5.704611018407526,45.137702465497746],[5.706683241615553,45.13731039342046],[5.710622342800771,45.13584077442581],[5.71159668914915,45.135936218418124],[5.712065603982182,45.13616704008755],[5.7134730308337645,45.13907523364046],[5.717048291706873,45.14545568368413],[5.7180613,45.1490186],[5.718119872236234,45.14955396755249],[5.717985145639689,45.15062033616973],[5.71814836859292,45.151882115700026],[5.718479107187038,45.15320673124294],[5.7183784810623335,45.15289306748429]]]}},{"type":"Feature","properties":{"route_ref":"C","route_color":"#2061a7"},"geometry":{"type":"MultiLineString","coordinates":[[[5.7153669168922665,45.18030796441812],[5.721978378159578,45.18074049336515],[5.723840742187429,45.18100996374612],[5.725869303259007,45.181468443097245],[5.727082615549314,45.181880758752314],[5.731383665787715,45.18375738765554],[5.731619805868247,45.18408154986152],[5.731832900198481,45.185027192296246],[5.731625644888772,45.18399106016737],[5.731400848201425,45.18376744627311],[5.727618687367499,45.18210447756442],[5.7254170052955295,45.1813470342393],[5.72361885570759,45.18097019856134],[5.721690484708419,45.18069755933198],[5.716266083934721,45.18033043157666],[5.7110274292967675,45.18014105229395],[5.703299596337891,45.18002311047043],[5.699591225,45.1800732875],[5.695057149588408,45.18028700725996],[5.694632781015588,45.18019920087987],[5.69442676558335,45.17996259314018],[5.694346889144474,45.17938948068896],[5.694146954903709,45.174185820997884],[5.694240583840638,45.16725467373683],[5.694106133835804,45.16707510105259],[5.693869384285853,45.16701035432274],[5.690931569633352,45.16705450976753],[5.690471891347739,45.166952008794496],[5.6903718750375365,45.166721686125506],[5.690451228074584,45.16633693205958],[5.690935599999999,45.1650456]],[[5.741677226985317,45.187711781947414],[5.741137012884339,45.18831622693583],[5.740740664385591,45.18850097705919],[5.740457081375219,45.18849604921188],[5.7333066,45.1857171],[5.731772970602723,45.185005875361526],[5.7321399691359005,45.18523348700459],[5.735585353155291,45.186618000941984],[5.740539,45.1885112],[5.740881438687536,45.1884611366804],[5.741235955071923,45.18822020418941],[5.742116802056248,45.18715761960062],[5.7436937851530585,45.18672593407503]]]}},{"type":"Feature","properties":{"route_ref":"B","route_color":"#2061a7"},"geometry":{"type":"MultiLineString","coordinates":[[[5.7112122863944945,45.19507530302019],[5.71050123137721,45.19265537857647],[5.7104799640493935,45.19223994133001],[5.7107651572001314,45.191895743117136],[5.7129464320529255,45.1901945052169],[5.713033935573817,45.189950698984404],[5.712878366146673,45.188746045850415],[5.7130544053757655,45.18852439217137],[5.7133855735545485,45.188365011589035],[5.713005,45.1885656],[5.712879364029846,45.18874275252183],[5.713033627878342,45.18992436231571],[5.712943431139607,45.1902043623946],[5.710875407330696,45.19180497469876],[5.71049071820907,45.19222532735192],[5.710494041054994,45.19263487599676],[5.711037435408228,45.19435749571083],[5.711225846323027,45.19540007521249],[5.7101008233483626,45.1976401194107],[5.709752681633327,45.19813037260998],[5.697617900000003,45.2074175]],[[5.740698898672844,45.20020320382979],[5.736281766666671,45.19691831111111],[5.732438600271066,45.19390329986841],[5.73149077604833,45.19284954517428],[5.730493004759965,45.19101424140341],[5.73044416452956,45.19030371595729],[5.73016016197381,45.19008325969078],[5.730422837947921,45.190250916566875],[5.730564777508805,45.19119369727809],[5.7314978,45.1928609],[5.732430330535354,45.19389404306294],[5.735307187267386,45.19617402275557],[5.741575599999999,45.2008716]],[[5.722056843938504,45.18910432176051],[5.716396244859608,45.18998817205544],[5.715827759053432,45.19017040269212],[5.7153569416146555,45.19079893391223],[5.715117365408893,45.190818622503336],[5.7149109116834005,45.190672716896955],[5.7149708000000015,45.19030275],[5.715273757387302,45.18981294670444],[5.714890591979861,45.190565464924084],[5.714996107655311,45.1907531054328],[5.715216923645206,45.190830567698704],[5.715481146035253,45.19071754506413],[5.715857978184341,45.19015128664726],[5.716399100000002,45.1899874],[5.722847266199527,45.189015350554826],[5.723656376857548,45.189109856891],[5.72516459596647,45.18985197864832],[5.727079294191161,45.190474977035144],[5.728160938407547,45.19015656527865],[5.730104584361912,45.190112247903876],[5.728056526048472,45.1901682300879],[5.727056871569913,45.19047403194226],[5.726431695008581,45.19020871295596],[5.725245793251192,45.18988357173686],[5.7236452,45.189106],[5.722786781172694,45.18901723633157]]]}},{"type":"Feature","properties":{"route_ref":"D","route_color":"#2061a7"},"geometry":{"type":"MultiLineString","coordinates":[[[5.740698898672844,45.20020320382979],[5.736281766666671,45.19691831111111],[5.732438600271066,45.19390329986841],[5.73149077604833,45.19284954517428],[5.730493004759965,45.19101424140341],[5.73044416452956,45.19030371595729],[5.73016016197381,45.19008325969078],[5.730422837947921,45.190250916566875],[5.730564777508805,45.19119369727809],[5.7314978,45.1928609],[5.732430330535354,45.19389404306294],[5.735307187267386,45.19617402275557],[5.741575599999999,45.2008716]],[[5.722056843938504,45.18910432176051],[5.716396244859608,45.18998817205544],[5.715827759053432,45.19017040269212],[5.7153569416146555,45.19079893391223],[5.715117365408893,45.190818622503336],[5.7149109116834005,45.190672716896955],[5.7149708000000015,45.19030275],[5.715309137249566,45.18984190497461],[5.715227348924047,45.18982876503191],[5.714890591979861,45.190565464924084],[5.714996107655311,45.1907531054328],[5.715216923645206,45.190830567698704],[5.715481146035253,45.19071754506413],[5.715857978184341,45.19015128664726],[5.716399100000002,45.1899874],[5.722847266199527,45.189015350554826],[5.723656376857548,45.189109856891],[5.72516459596647,45.18985197864832],[5.727079294191161,45.190474977035144],[5.728160938407547,45.19015656527865],[5.730104584361912,45.190112247903876],[5.728056526048472,45.1901682300879],[5.727056871569913,45.19047403194226],[5.726431695008581,45.19020871295596],[5.725245793251192,45.18988357173686],[5.7236452,45.189106],[5.722786781172694,45.18901723633157]],[[5.7576195,45.17198530000001],[5.7584009382912775,45.172640103230485],[5.758471824458215,45.172920120489415],[5.755321825306004,45.17901439241327],[5.754538595709736,45.18108440676288],[5.754256784029865,45.182332585784756],[5.754114746430902,45.18405627451421],[5.7549043242413305,45.18565356550468],[5.755647785003019,45.18683041138446],[5.756232138916757,45.18689778450145],[5.757506466991717,45.18663355691606],[5.757812586874771,45.18676442382205],[5.758014433333331,45.18751163333333],[5.758167668761081,45.18902356390569],[5.7585877,45.190399266666674],[5.758554045122301,45.19072255426186],[5.758716968733146,45.1913536043021],[5.758847522153117,45.19142049608818],[5.758780840683005,45.191859860357255],[5.758545978087302,45.19214588362383],[5.7588543441163145,45.191688442172975],[5.758843028017233,45.19140495661107],[5.758690319326904,45.191256054848694]]]}},{"type":"Feature","properties":{"route_ref":"E","route_color":"#401382"},"geometry":{"type":"LineString","coordinates":[[5.695644555412322,45.21531086881424],[5.686367097173857,45.225987833579275],[5.683441637774408,45.22911003989489],[5.6820108,45.2304416],[5.679683888235287,45.232376370588234],[5.677070397189432,45.23433638015051],[5.6747017110298135,45.23663104471309],[5.673716470930731,45.23797624474408],[5.672565329691792,45.24046377850671],[5.671468133333329,45.24196676666667],[5.6674126412983625,45.246967112736236],[5.66566558974119,45.249552444004884],[5.663736536208272,45.25175772750369],[5.660787700000004,45.2562688]]}}]}