{"type":"FeatureCollection","features":[{"type":"Feature","properties":{"way_id":48525370,"route_colors":[],"route_refs":["1"]},"geometry":{"type":"LineString","coordinates":[[34.9997313,32.8174901],[34.9973112,32.8146561]]}},{"type":"Feature","properties":{"way_id":421003663,"route_colors":[],"route_refs":["1"]},"geometry":{"type":"LineString","coordinates":[[34.9973112,32.8146561],[34.9950428,32.8126212]]}},{"type":"Feature","properties":{"way_id":369106290,"route_colors":[],"route_refs":["1"]},"geometry":{"type":"LineString","coordinates":[[34.9950428,32.8126212],[34.9923834,32.8096602],[34.9906527,32.8078204],[34.9904997,32.8075717],[34.9880567,32.8048431],[34.9879087,32.8046778]]}}]}