{"type":"FeatureCollection","metro_system":{"continent":"africa","country":"Algeria","city":"Mostaganem","official_website":null,"official_map":null,"wikipedia":null,"line_count":2,"segment_count":2,"station_count":23,"modes":["tram"],"audit":{"strategies_tried":[],"passed":true,"checks":[{"id":"has_lines","ok":true,"detail":"2 lines","level":"error"},{"id":"has_stations","ok":true,"detail":"23 stations","level":"error"},{"id":"stations_have_lines","ok":true,"detail":"23/23 站皆有所屬路線","level":"error"},{"id":"line_geometry_stations","ok":true,"detail":"24 個折點/端點皆為車站","level":"error"},{"id":"route_stations_match_geometry","ok":true,"detail":"各線車站列表與圖面一致","level":"error"},{"id":"interchange_rule","ok":true,"detail":"所有車站紅/藍點符合骨架＋路線色規則（藍＝端點、紅＝交叉）","level":"error"},{"id":"stations_named","ok":true,"detail":"23/23 站皆有名稱","level":"error"},{"id":"station_order","ok":true,"detail":"所有線路站序合理","level":"warn"},{"id":"line_wiki_stations","ok":true,"detail":"各線站數與 wiki 線路條目相符（營運中站數）","level":"error"},{"id":"line_wiki_coverage","ok":false,"detail":"2 條線無 wiki 站數對照：Ligne 1、Ligne 2","level":"warn"}],"reasons":[],"warnings":["2 條線無 wiki 站數對照：Ligne 1、Ligne 2"],"audited_at":"2026-07-27T02:39:34.656Z"}},"features":[{"type":"Feature","properties":{"seg_id":"mostaganem-0","routes":[{"route_id":"rm15540825","route_name":"Ligne 1","route_name_local":"Ligne 1","route_name_en":null,"route_ref":"1","route_color":"#9ed4fc","wikipedia":null,"osm_route_ids":[14551511,14551512],"status":null,"order_suspect":0,"span_suspect":0,"stations":[{"station_id":"n10003989294","station_name":"Karouba"},{"station_id":"n10003989292","station_name":"Institut d'Éducation Physique et Sportive"},{"station_id":"n3895156259","station_name":"Cité Universitaire Karouba"},{"station_id":"n10003989290","station_name":"Haï Es Salam"},{"station_id":"n10003989288","station_name":"Faculté de Médecine"},{"station_id":"n10003989286","station_name":"École de Protection Civile"},{"station_id":"n10003989284","station_name":"Cité Universitaire Benyahia Belkacem 2"},{"station_id":"n10004681650","station_name":"Cité Universitaire Benyahia Belkacem 1"},{"station_id":"n10004681649","station_name":"Tijditt"},{"station_id":"n10004681646","station_name":"Hôpital de Tijditt"},{"station_id":"n4889757683","station_name":"Armée de Libération Nationale"},{"station_id":"n3895156198","station_name":"Cité El Arsa"},{"station_id":"n5621744521","station_name":"Gare de Mostaganem SNTF (L1)"},{"station_id":"n10004681642","station_name":"Cité Khemisti"},{"station_id":"n8447403800","station_name":"Cité Cheikh Hamada"},{"station_id":"n3895155840","station_name":"Cité Gouaich Charef"},{"station_id":"n10004681639","station_name":"Cité Ben Djlidjel Kaddour"},{"station_id":"n5353518198","station_name":"Route du port"},{"station_id":"n10003998809","station_name":"Cité Administrative"},{"station_id":"n10685201984","station_name":"La Salamandre"}]}],"route_count":1,"route_refs":["1"],"route_colors":["#9ed4fc"],"city":"Mostaganem","country":"Algeria"},"geometry":{"type":"MultiLineString","coordinates":[[[0.11012649999999999,35.98367275],[0.10854130000000001,35.9799437],[0.10686455,35.976317449999996],[0.1061839,35.972373950000005],[0.1050363,35.96536715],[0.1022037,35.9610014],[0.1007802,35.9553154],[0.0986003,35.9520802],[0.09626290000000001,35.94863275],[0.09600865,35.94400845],[0.09455095,35.93953865],[0.09772715000000001,35.9356965],[0.0935344,35.9297824],[0.08556705,35.922524100000004],[0.08047645,35.9172171],[0.0775362,35.91585135],[0.072383,35.915298199999995],[0.07058405000000001,35.9207634],[0.0654831,35.91869115],[0.06108165,35.916423449999996]]]}},{"type":"Feature","properties":{"seg_id":"mostaganem-1","routes":[{"route_id":"rm15540826","route_name":"Ligne 2","route_name_local":"Ligne 2","route_name_en":null,"route_ref":"2","route_color":"#ffb752","wikipedia":null,"osm_route_ids":[14553204,15540824],"status":null,"order_suspect":0,"span_suspect":0,"stations":[{"station_id":"n4912435327","station_name":"Nouvelle Gare Routière"},{"station_id":"n10004681635","station_name":"Cité 5 juillet 1962"},{"station_id":"n5353496380","station_name":"Cité Abane Ramdane"},{"station_id":"n5621744521","station_name":"Gare de Mostaganem SNTF (L1)"}]}],"route_count":1,"route_refs":["2"],"route_colors":["#ffb752"],"city":"Mostaganem","country":"Algeria"},"geometry":{"type":"MultiLineString","coordinates":[[[0.10605575,35.91774305],[0.10251735000000001,35.9212518],[0.0981484,35.92547915],[0.0935344,35.9297824]]]}},{"type":"Feature","properties":{"station_id":"n3895155840","station_name":"Cité Gouaich Charef","station_name_local":"Cité Gouaich Charef","station_name_en":null,"city":"Mostaganem","country":"Algeria","lines":["1"],"wikipedia":null,"merged_from":2,"merged_names":null,"is_terminus":false,"routes":[{"ref":"1","name":"Ligne 1","route_color":"#9ed4fc"}],"pass_count":1,"station_degree":2,"codes":null,"is_interchange":false,"station_role":"normal"},"geometry":{"type":"Point","coordinates":[0.0775362,35.91585135]},"__memberLines":{}},{"type":"Feature","properties":{"station_id":"n3895156198","station_name":"Cité El Arsa","station_name_local":"Cité El Arsa","station_name_en":null,"city":"Mostaganem","country":"Algeria","lines":["1"],"wikipedia":null,"merged_from":2,"merged_names":null,"is_terminus":false,"routes":[{"ref":"1","name":"Ligne 1","route_color":"#9ed4fc"}],"pass_count":1,"station_degree":2,"codes":null,"is_interchange":false,"station_role":"normal"},"geometry":{"type":"Point","coordinates":[0.09772715000000001,35.9356965]},"__memberLines":{}},{"type":"Feature","properties":{"station_id":"n3895156259","station_name":"Cité Universitaire Karouba","station_name_local":"Cité Universitaire Karouba","station_name_en":null,"city":"Mostaganem","country":"Algeria","lines":["1"],"wikipedia":null,"merged_from":2,"merged_names":null,"is_terminus":false,"routes":[{"ref":"1","name":"Ligne 1","route_color":"#9ed4fc"}],"pass_count":1,"station_degree":2,"codes":null,"is_interchange":false,"station_role":"normal"},"geometry":{"type":"Point","coordinates":[0.10686455,35.976317449999996]},"__memberLines":{}},{"type":"Feature","properties":{"station_id":"n4889757683","station_name":"Armée de Libération Nationale","station_name_local":"Armée de Libération Nationale","station_name_en":null,"city":"Mostaganem","country":"Algeria","lines":["1"],"wikipedia":null,"merged_from":2,"merged_names":null,"is_terminus":false,"routes":[{"ref":"1","name":"Ligne 1","route_color":"#9ed4fc"}],"pass_count":1,"station_degree":2,"codes":null,"is_interchange":false,"station_role":"normal"},"geometry":{"type":"Point","coordinates":[0.09455095,35.93953865]},"__memberLines":{}},{"type":"Feature","properties":{"station_id":"n4912435327","station_name":"Nouvelle Gare Routière","station_name_local":"Nouvelle Gare Routière","station_name_en":null,"city":"Mostaganem","country":"Algeria","lines":["2"],"wikipedia":null,"merged_from":2,"merged_names":null,"is_terminus":true,"routes":[{"ref":"2","name":"Ligne 2","route_color":"#ffb752"}],"pass_count":1,"station_degree":1,"codes":null,"is_interchange":false,"station_role":"terminus"},"geometry":{"type":"Point","coordinates":[0.10605575,35.91774305]},"__memberLines":{}},{"type":"Feature","properties":{"station_id":"n5353496380","station_name":"Cité Abane Ramdane","station_name_local":"Cité Abane Ramdane","station_name_en":null,"city":"Mostaganem","country":"Algeria","lines":["2"],"wikipedia":null,"merged_from":2,"merged_names":null,"is_terminus":false,"routes":[{"ref":"2","name":"Ligne 2","route_color":"#ffb752"}],"pass_count":1,"station_degree":2,"codes":null,"is_interchange":false,"station_role":"normal"},"geometry":{"type":"Point","coordinates":[0.0981484,35.92547915]},"__memberLines":{}},{"type":"Feature","properties":{"station_id":"n5353518198","station_name":"Route du port","station_name_local":"Route du port","station_name_en":null,"city":"Mostaganem","country":"Algeria","lines":["1"],"wikipedia":null,"merged_from":2,"merged_names":null,"is_terminus":false,"routes":[{"ref":"1","name":"Ligne 1","route_color":"#9ed4fc"}],"pass_count":1,"station_degree":2,"codes":null,"is_interchange":false,"station_role":"normal"},"geometry":{"type":"Point","coordinates":[0.07058405000000001,35.9207634]},"__memberLines":{}},{"type":"Feature","properties":{"station_id":"n5621744521","station_name":"Gare de Mostaganem SNTF (L1)","station_name_local":"Gare de Mostaganem SNTF (L1)","station_name_en":null,"city":"Mostaganem","country":"Algeria","lines":["1","2"],"wikipedia":null,"merged_from":3,"merged_names":null,"is_terminus":false,"routes":[{"ref":"1","name":"Ligne 1","route_color":"#9ed4fc"},{"ref":"2","name":"Ligne 2","route_color":"#ffb752"}],"pass_count":2,"station_degree":3,"codes":null,"is_interchange":true,"station_role":"interchange"},"geometry":{"type":"Point","coordinates":[0.0935344,35.9297824]},"__memberLines":{}},{"type":"Feature","properties":{"station_id":"n8447403800","station_name":"Cité Cheikh Hamada","station_name_local":"Cité Cheikh Hamada","station_name_en":null,"city":"Mostaganem","country":"Algeria","lines":["1"],"wikipedia":null,"merged_from":2,"merged_names":null,"is_terminus":false,"routes":[{"ref":"1","name":"Ligne 1","route_color":"#9ed4fc"}],"pass_count":1,"station_degree":2,"codes":null,"is_interchange":false,"station_role":"normal"},"geometry":{"type":"Point","coordinates":[0.08047645,35.9172171]},"__memberLines":{}},{"type":"Feature","properties":{"station_id":"n10003989284","station_name":"Cité Universitaire Benyahia Belkacem 2","station_name_local":"Cité Universitaire Benyahia Belkacem 2","station_name_en":null,"city":"Mostaganem","country":"Algeria","lines":["1"],"wikipedia":null,"merged_from":2,"merged_names":null,"is_terminus":false,"routes":[{"ref":"1","name":"Ligne 1","route_color":"#9ed4fc"}],"pass_count":1,"station_degree":2,"codes":null,"is_interchange":false,"station_role":"normal"},"geometry":{"type":"Point","coordinates":[0.1007802,35.9553154]},"__memberLines":{}},{"type":"Feature","properties":{"station_id":"n10003989286","station_name":"École de Protection Civile","station_name_local":"École de Protection Civile","station_name_en":null,"city":"Mostaganem","country":"Algeria","lines":["1"],"wikipedia":null,"merged_from":2,"merged_names":null,"is_terminus":false,"routes":[{"ref":"1","name":"Ligne 1","route_color":"#9ed4fc"}],"pass_count":1,"station_degree":2,"codes":null,"is_interchange":false,"station_role":"normal"},"geometry":{"type":"Point","coordinates":[0.1022037,35.9610014]},"__memberLines":{}},{"type":"Feature","properties":{"station_id":"n10003989288","station_name":"Faculté de Médecine","station_name_local":"Faculté de Médecine","station_name_en":null,"city":"Mostaganem","country":"Algeria","lines":["1"],"wikipedia":null,"merged_from":2,"merged_names":null,"is_terminus":false,"routes":[{"ref":"1","name":"Ligne 1","route_color":"#9ed4fc"}],"pass_count":1,"station_degree":2,"codes":null,"is_interchange":false,"station_role":"normal"},"geometry":{"type":"Point","coordinates":[0.1050363,35.96536715]},"__memberLines":{}},{"type":"Feature","properties":{"station_id":"n10003989290","station_name":"Haï Es Salam","station_name_local":"Haï Es Salam","station_name_en":null,"city":"Mostaganem","country":"Algeria","lines":["1"],"wikipedia":null,"merged_from":2,"merged_names":null,"is_terminus":false,"routes":[{"ref":"1","name":"Ligne 1","route_color":"#9ed4fc"}],"pass_count":1,"station_degree":2,"codes":null,"is_interchange":false,"station_role":"normal"},"geometry":{"type":"Point","coordinates":[0.1061839,35.972373950000005]},"__memberLines":{}},{"type":"Feature","properties":{"station_id":"n10003989292","station_name":"Institut d'Éducation Physique et Sportive","station_name_local":"Institut d'Éducation Physique et Sportive","station_name_en":null,"city":"Mostaganem","country":"Algeria","lines":["1"],"wikipedia":null,"merged_from":2,"merged_names":null,"is_terminus":false,"routes":[{"ref":"1","name":"Ligne 1","route_color":"#9ed4fc"}],"pass_count":1,"station_degree":2,"codes":null,"is_interchange":false,"station_role":"normal"},"geometry":{"type":"Point","coordinates":[0.10854130000000001,35.9799437]},"__memberLines":{}},{"type":"Feature","properties":{"station_id":"n10003989294","station_name":"Karouba","station_name_local":"Karouba","station_name_en":null,"city":"Mostaganem","country":"Algeria","lines":["1"],"wikipedia":null,"merged_from":2,"merged_names":null,"is_terminus":true,"routes":[{"ref":"1","name":"Ligne 1","route_color":"#9ed4fc"}],"pass_count":1,"station_degree":1,"codes":null,"is_interchange":false,"station_role":"terminus"},"geometry":{"type":"Point","coordinates":[0.11012649999999999,35.98367275]},"__memberLines":{}},{"type":"Feature","properties":{"station_id":"n10003998809","station_name":"Cité Administrative","station_name_local":"Cité Administrative","station_name_en":null,"city":"Mostaganem","country":"Algeria","lines":["1"],"wikipedia":null,"merged_from":2,"merged_names":null,"is_terminus":false,"routes":[{"ref":"1","name":"Ligne 1","route_color":"#9ed4fc"}],"pass_count":1,"station_degree":2,"codes":null,"is_interchange":false,"station_role":"normal"},"geometry":{"type":"Point","coordinates":[0.0654831,35.91869115]},"__memberLines":{}},{"type":"Feature","properties":{"station_id":"n10004681635","station_name":"Cité 5 juillet 1962","station_name_local":"Cité 5 juillet 1962","station_name_en":null,"city":"Mostaganem","country":"Algeria","lines":["2"],"wikipedia":null,"merged_from":2,"merged_names":null,"is_terminus":false,"routes":[{"ref":"2","name":"Ligne 2","route_color":"#ffb752"}],"pass_count":1,"station_degree":2,"codes":null,"is_interchange":false,"station_role":"normal"},"geometry":{"type":"Point","coordinates":[0.10251735000000001,35.9212518]},"__memberLines":{}},{"type":"Feature","properties":{"station_id":"n10004681639","station_name":"Cité Ben Djlidjel Kaddour","station_name_local":"Cité Ben Djlidjel Kaddour","station_name_en":null,"city":"Mostaganem","country":"Algeria","lines":["1"],"wikipedia":null,"merged_from":2,"merged_names":null,"is_terminus":false,"routes":[{"ref":"1","name":"Ligne 1","route_color":"#9ed4fc"}],"pass_count":1,"station_degree":2,"codes":null,"is_interchange":false,"station_role":"normal"},"geometry":{"type":"Point","coordinates":[0.072383,35.915298199999995]},"__memberLines":{}},{"type":"Feature","properties":{"station_id":"n10004681642","station_name":"Cité Khemisti","station_name_local":"Cité Khemisti","station_name_en":null,"city":"Mostaganem","country":"Algeria","lines":["1"],"wikipedia":null,"merged_from":2,"merged_names":null,"is_terminus":false,"routes":[{"ref":"1","name":"Ligne 1","route_color":"#9ed4fc"}],"pass_count":1,"station_degree":2,"codes":null,"is_interchange":false,"station_role":"normal"},"geometry":{"type":"Point","coordinates":[0.08556705,35.922524100000004]},"__memberLines":{}},{"type":"Feature","properties":{"station_id":"n10004681646","station_name":"Hôpital de Tijditt","station_name_local":"Hôpital de Tijditt","station_name_en":null,"city":"Mostaganem","country":"Algeria","lines":["1"],"wikipedia":null,"merged_from":2,"merged_names":null,"is_terminus":false,"routes":[{"ref":"1","name":"Ligne 1","route_color":"#9ed4fc"}],"pass_count":1,"station_degree":2,"codes":null,"is_interchange":false,"station_role":"normal"},"geometry":{"type":"Point","coordinates":[0.09600865,35.94400845]},"__memberLines":{}},{"type":"Feature","properties":{"station_id":"n10004681649","station_name":"Tijditt","station_name_local":"Tijditt","station_name_en":null,"city":"Mostaganem","country":"Algeria","lines":["1"],"wikipedia":null,"merged_from":2,"merged_names":null,"is_terminus":false,"routes":[{"ref":"1","name":"Ligne 1","route_color":"#9ed4fc"}],"pass_count":1,"station_degree":2,"codes":null,"is_interchange":false,"station_role":"normal"},"geometry":{"type":"Point","coordinates":[0.09626290000000001,35.94863275]},"__memberLines":{}},{"type":"Feature","properties":{"station_id":"n10004681650","station_name":"Cité Universitaire Benyahia Belkacem 1","station_name_local":"Cité Universitaire Benyahia Belkacem 1","station_name_en":null,"city":"Mostaganem","country":"Algeria","lines":["1"],"wikipedia":null,"merged_from":2,"merged_names":null,"is_terminus":false,"routes":[{"ref":"1","name":"Ligne 1","route_color":"#9ed4fc"}],"pass_count":1,"station_degree":2,"codes":null,"is_interchange":false,"station_role":"normal"},"geometry":{"type":"Point","coordinates":[0.0986003,35.9520802]},"__memberLines":{}},{"type":"Feature","properties":{"station_id":"n10685201984","station_name":"La Salamandre","station_name_local":"La Salamandre","station_name_en":null,"city":"Mostaganem","country":"Algeria","lines":["1"],"wikipedia":null,"merged_from":2,"merged_names":null,"is_terminus":true,"routes":[{"ref":"1","name":"Ligne 1","route_color":"#9ed4fc"}],"pass_count":1,"station_degree":1,"codes":null,"is_interchange":false,"station_role":"terminus"},"geometry":{"type":"Point","coordinates":[0.06108165,35.916423449999996]},"__memberLines":{}}]}