{"type":"FeatureCollection","metro_system":{"continent":"europe","country":"Russia","city":"Novotroitsk","official_website":null,"official_map":"https://ru.wikipedia.org/wiki/Новотроицкий_трамвай","wikipedia":"ru:Новотроицкий трамвай","line_count":5,"segment_count":8,"station_count":20,"modes":["tram"],"audit":{"strategies_tried":[],"passed":true,"checks":[{"id":"has_lines","ok":true,"detail":"9 lines","level":"error"},{"id":"has_stations","ok":true,"detail":"69 stations","level":"error"},{"id":"stations_have_lines","ok":true,"detail":"69/69 站皆有所屬路線","level":"error"},{"id":"line_geometry_stations","ok":true,"detail":"83 個折點/端點皆為車站","level":"error"},{"id":"route_stations_match_geometry","ok":true,"detail":"各線車站列表與圖面一致","level":"error"},{"id":"interchange_rule","ok":true,"detail":"所有車站紅/藍點符合骨架＋路線色規則（藍＝端點、紅＝交叉）","level":"error"},{"id":"stations_named","ok":true,"detail":"69/69 站皆有名稱","level":"error"},{"id":"station_order","ok":true,"detail":"所有線路站序合理","level":"warn"},{"id":"station_span","ok":true,"detail":"各線相鄰站距與系統站群跨度正常","level":"error"},{"id":"line_wiki_stations","ok":true,"detail":"各線站數與 wiki 線路條目相符（營運中站數）","level":"error"},{"id":"line_wiki_coverage","ok":false,"detail":"9 條線無 wiki 站數對照：Трамвай №2: Рынок – ФЛЦ、Трамвай №5: Рынок – КХП、Трамвай №4: ТУ – ФЛЦ","level":"warn"}],"reasons":[],"warnings":["9 條線無 wiki 站數對照：Трамвай №2: Рынок – ФЛЦ、Трамвай №5: Рынок – КХП、Трамвай №4: ТУ – ФЛЦ"],"audited_at":"2026-07-27T05:42:56.654Z"}},"features":[{"type":"Feature","properties":{"seg_id":"novotroitsk-0","routes":[{"route_id":"rm1675754","route_name":"Трамвай №1: ТУ – КХП","route_name_local":"Трамвай №1: ТУ – КХП","route_name_en":null,"route_ref":"1","route_color":null,"wikipedia":"ru:Новотроицкий трамвай","osm_route_ids":[1675752,1675753],"status":null,"order_suspect":0,"span_suspect":0,"stations":[{"station_id":"n1369903369","station_name":"КХП"},{"station_id":"n4373533590","station_name":"Силикатный завод"},{"station_id":"n4716037074","station_name":"Автоматика"},{"station_id":"n4716037536","station_name":"Автовокзал"},{"station_id":"n3440476110","station_name":"Железнодорожный вокзал"},{"station_id":"n3440472743","station_name":"Улица Пушкина"},{"station_id":"n3440461415","station_name":"Площадь Металлургов"},{"station_id":"n1419899281","station_name":"Строительный техникум"},{"station_id":"n3440420604","station_name":"Улица Марии Корецкой"},{"station_id":"n1425855336","station_name":"Городской рынок"},{"station_id":"n1426871067","station_name":"Улица Гагарина"},{"station_id":"n3439311312","station_name":"Универмаг «Новотроицк»"},{"station_id":"n3440420729","station_name":"Улица Винокурова"},{"station_id":"n1369903370","station_name":"Трамвайное управление"}]},{"route_id":"rm11748857","route_name":"Трамвай №5: Рынок – КХП","route_name_local":"Трамвай №5: Рынок – КХП","route_name_en":null,"route_ref":"5","route_color":null,"wikipedia":"ru:Новотроицкий трамвай","osm_route_ids":[11748855,11748856],"status":null,"order_suspect":0,"span_suspect":0,"stations":[{"station_id":"n1369924134","station_name":"Рынок"},{"station_id":"n3440444364","station_name":"Улица Ломоносова"},{"station_id":"n3440434367","station_name":"Улица Свистунова"},{"station_id":"n3440432277","station_name":"Железнодорожная улица"},{"station_id":"n1325341270","station_name":"Площадь Ленина"},{"station_id":"n1419899281","station_name":"Строительный техникум"},{"station_id":"n3440461415","station_name":"Площадь Металлургов"},{"station_id":"n3440472743","station_name":"Улица Пушкина"},{"station_id":"n3440476110","station_name":"Железнодорожный вокзал"},{"station_id":"n4716037536","station_name":"Автовокзал"},{"station_id":"n4716037074","station_name":"Автоматика"},{"station_id":"n4373533590","station_name":"Силикатный завод"},{"station_id":"n1369903369","station_name":"КХП"}]}],"route_count":2,"route_refs":["1","5"],"route_colors":["#e11d48","#e11d48"],"city":"Novotroitsk","country":"Russia"},"geometry":{"type":"MultiLineString","coordinates":[[[58.372104750000005,51.21427535],[58.368161099999995,51.21033525],[58.3587285,51.2060156]]]}},{"type":"Feature","properties":{"seg_id":"novotroitsk-1","routes":[{"route_id":"rm1675754","route_name":"Трамвай №1: ТУ – КХП","route_name_local":"Трамвай №1: ТУ – КХП","route_name_en":null,"route_ref":"1","route_color":null,"wikipedia":"ru:Новотроицкий трамвай","osm_route_ids":[1675752,1675753],"status":null,"order_suspect":0,"span_suspect":0,"stations":[{"station_id":"n1369903369","station_name":"КХП"},{"station_id":"n4373533590","station_name":"Силикатный завод"},{"station_id":"n4716037074","station_name":"Автоматика"},{"station_id":"n4716037536","station_name":"Автовокзал"},{"station_id":"n3440476110","station_name":"Железнодорожный вокзал"},{"station_id":"n3440472743","station_name":"Улица Пушкина"},{"station_id":"n3440461415","station_name":"Площадь Металлургов"},{"station_id":"n1419899281","station_name":"Строительный техникум"},{"station_id":"n3440420604","station_name":"Улица Марии Корецкой"},{"station_id":"n1425855336","station_name":"Городской рынок"},{"station_id":"n1426871067","station_name":"Улица Гагарина"},{"station_id":"n3439311312","station_name":"Универмаг «Новотроицк»"},{"station_id":"n3440420729","station_name":"Улица Винокурова"},{"station_id":"n1369903370","station_name":"Трамвайное управление"}]},{"route_id":"rm11650415","route_name":"Трамвай №2: Рынок – ФЛЦ","route_name_local":"Трамвай №2: Рынок – ФЛЦ","route_name_en":null,"route_ref":"2","route_color":null,"wikipedia":"ru:Новотроицкий трамвай","osm_route_ids":[1675773,11650413],"status":null,"order_suspect":0,"span_suspect":0,"stations":[{"station_id":"n1369924134","station_name":"Рынок"},{"station_id":"n3440444364","station_name":"Улица Ломоносова"},{"station_id":"n3440434367","station_name":"Улица Свистунова"},{"station_id":"n3440432277","station_name":"Железнодорожная улица"},{"station_id":"n1325341270","station_name":"Площадь Ленина"},{"station_id":"n1419899281","station_name":"Строительный техникум"},{"station_id":"n3440461415","station_name":"Площадь Металлургов"},{"station_id":"n3440472743","station_name":"Улица Пушкина"},{"station_id":"n3440476110","station_name":"Железнодорожный вокзал"},{"station_id":"n4716037536","station_name":"Автовокзал"},{"station_id":"n4716037074","station_name":"Автоматика"},{"station_id":"n1369937941","station_name":"ФЛЦ"}]},{"route_id":"rm11650416","route_name":"Трамвай №4: ТУ – ФЛЦ","route_name_local":"Трамвай №4: ТУ – ФЛЦ","route_name_en":null,"route_ref":"4","route_color":null,"wikipedia":"ru:Новотроицкий трамвай","osm_route_ids":[11650411,11650412],"status":null,"order_suspect":0,"span_suspect":0,"stations":[{"station_id":"n1369937941","station_name":"ФЛЦ"},{"station_id":"n4716037074","station_name":"Автоматика"},{"station_id":"n4716037536","station_name":"Автовокзал"},{"station_id":"n3440476110","station_name":"Железнодорожный вокзал"},{"station_id":"n3440472743","station_name":"Улица Пушкина"},{"station_id":"n3440461415","station_name":"Площадь Металлургов"},{"station_id":"n1419899281","station_name":"Строительный техникум"},{"station_id":"n3440420604","station_name":"Улица Марии Корецкой"},{"station_id":"n1425855336","station_name":"Городской рынок"},{"station_id":"n1426871067","station_name":"Улица Гагарина"},{"station_id":"n3439311312","station_name":"Универмаг «Новотроицк»"},{"station_id":"n3440420729","station_name":"Улица Винокурова"},{"station_id":"n1369903370","station_name":"Трамвайное управление"}]},{"route_id":"rm11748857","route_name":"Трамвай №5: Рынок – КХП","route_name_local":"Трамвай №5: Рынок – КХП","route_name_en":null,"route_ref":"5","route_color":null,"wikipedia":"ru:Новотроицкий трамвай","osm_route_ids":[11748855,11748856],"status":null,"order_suspect":0,"span_suspect":0,"stations":[{"station_id":"n1369924134","station_name":"Рынок"},{"station_id":"n3440444364","station_name":"Улица Ломоносова"},{"station_id":"n3440434367","station_name":"Улица Свистунова"},{"station_id":"n3440432277","station_name":"Железнодорожная улица"},{"station_id":"n1325341270","station_name":"Площадь Ленина"},{"station_id":"n1419899281","station_name":"Строительный техникум"},{"station_id":"n3440461415","station_name":"Площадь Металлургов"},{"station_id":"n3440472743","station_name":"Улица Пушкина"},{"station_id":"n3440476110","station_name":"Железнодорожный вокзал"},{"station_id":"n4716037536","station_name":"Автовокзал"},{"station_id":"n4716037074","station_name":"Автоматика"},{"station_id":"n4373533590","station_name":"Силикатный завод"},{"station_id":"n1369903369","station_name":"КХП"}]}],"route_count":4,"route_refs":["1","2","4","5"],"route_colors":["#e11d48","#e11d48","#e11d48","#e11d48"],"city":"Novotroitsk","country":"Russia"},"geometry":{"type":"MultiLineString","coordinates":[[[58.3587285,51.2060156],[58.348719599999995,51.202985999999996],[58.34095085,51.2015298],[58.331773150000004,51.19750025],[58.324542550000004,51.19567065],[58.31360025,51.19596225]]]}},{"type":"Feature","properties":{"seg_id":"novotroitsk-2","routes":[{"route_id":"rm1675754","route_name":"Трамвай №1: ТУ – КХП","route_name_local":"Трамвай №1: ТУ – КХП","route_name_en":null,"route_ref":"1","route_color":null,"wikipedia":"ru:Новотроицкий трамвай","osm_route_ids":[1675752,1675753],"status":null,"order_suspect":0,"span_suspect":0,"stations":[{"station_id":"n1369903369","station_name":"КХП"},{"station_id":"n4373533590","station_name":"Силикатный завод"},{"station_id":"n4716037074","station_name":"Автоматика"},{"station_id":"n4716037536","station_name":"Автовокзал"},{"station_id":"n3440476110","station_name":"Железнодорожный вокзал"},{"station_id":"n3440472743","station_name":"Улица Пушкина"},{"station_id":"n3440461415","station_name":"Площадь Металлургов"},{"station_id":"n1419899281","station_name":"Строительный техникум"},{"station_id":"n3440420604","station_name":"Улица Марии Корецкой"},{"station_id":"n1425855336","station_name":"Городской рынок"},{"station_id":"n1426871067","station_name":"Улица Гагарина"},{"station_id":"n3439311312","station_name":"Универмаг «Новотроицк»"},{"station_id":"n3440420729","station_name":"Улица Винокурова"},{"station_id":"n1369903370","station_name":"Трамвайное управление"}]},{"route_id":"rm11650416","route_name":"Трамвай №4: ТУ – ФЛЦ","route_name_local":"Трамвай №4: ТУ – ФЛЦ","route_name_en":null,"route_ref":"4","route_color":null,"wikipedia":"ru:Новотроицкий трамвай","osm_route_ids":[11650411,11650412],"status":null,"order_suspect":0,"span_suspect":0,"stations":[{"station_id":"n1369937941","station_name":"ФЛЦ"},{"station_id":"n4716037074","station_name":"Автоматика"},{"station_id":"n4716037536","station_name":"Автовокзал"},{"station_id":"n3440476110","station_name":"Железнодорожный вокзал"},{"station_id":"n3440472743","station_name":"Улица Пушкина"},{"station_id":"n3440461415","station_name":"Площадь Металлургов"},{"station_id":"n1419899281","station_name":"Строительный техникум"},{"station_id":"n3440420604","station_name":"Улица Марии Корецкой"},{"station_id":"n1425855336","station_name":"Городской рынок"},{"station_id":"n1426871067","station_name":"Улица Гагарина"},{"station_id":"n3439311312","station_name":"Универмаг «Новотроицк»"},{"station_id":"n3440420729","station_name":"Улица Винокурова"},{"station_id":"n1369903370","station_name":"Трамвайное управление"}]}],"route_count":2,"route_refs":["1","4"],"route_colors":["#e11d48","#e11d48"],"city":"Novotroitsk","country":"Russia"},"geometry":{"type":"MultiLineString","coordinates":[[[58.31360025,51.19596225],[58.29677425,51.19414865]]]}},{"type":"Feature","properties":{"seg_id":"novotroitsk-3","routes":[{"route_id":"rm1675754","route_name":"Трамвай №1: ТУ – КХП","route_name_local":"Трамвай №1: ТУ – КХП","route_name_en":null,"route_ref":"1","route_color":null,"wikipedia":"ru:Новотроицкий трамвай","osm_route_ids":[1675752,1675753],"status":null,"order_suspect":0,"span_suspect":0,"stations":[{"station_id":"n1369903369","station_name":"КХП"},{"station_id":"n4373533590","station_name":"Силикатный завод"},{"station_id":"n4716037074","station_name":"Автоматика"},{"station_id":"n4716037536","station_name":"Автовокзал"},{"station_id":"n3440476110","station_name":"Железнодорожный вокзал"},{"station_id":"n3440472743","station_name":"Улица Пушкина"},{"station_id":"n3440461415","station_name":"Площадь Металлургов"},{"station_id":"n1419899281","station_name":"Строительный техникум"},{"station_id":"n3440420604","station_name":"Улица Марии Корецкой"},{"station_id":"n1425855336","station_name":"Городской рынок"},{"station_id":"n1426871067","station_name":"Улица Гагарина"},{"station_id":"n3439311312","station_name":"Универмаг «Новотроицк»"},{"station_id":"n3440420729","station_name":"Улица Винокурова"},{"station_id":"n1369903370","station_name":"Трамвайное управление"}]},{"route_id":"rm1675774","route_name":"Трамвай №3: ТУ – Рынок","route_name_local":"Трамвай №3: ТУ – Рынок","route_name_en":null,"route_ref":"3","route_color":null,"wikipedia":"ru:Новотроицкий трамвай","osm_route_ids":[1675772,11650414],"status":null,"order_suspect":0,"span_suspect":0,"stations":[{"station_id":"n1369924134","station_name":"Рынок"},{"station_id":"n3440444364","station_name":"Улица Ломоносова"},{"station_id":"n3440434367","station_name":"Улица Свистунова"},{"station_id":"n3440432277","station_name":"Железнодорожная улица"},{"station_id":"n3440420604","station_name":"Улица Марии Корецкой"},{"station_id":"n1425855336","station_name":"Городской рынок"},{"station_id":"n1426871067","station_name":"Улица Гагарина"},{"station_id":"n3439311312","station_name":"Универмаг «Новотроицк»"},{"station_id":"n3440420729","station_name":"Улица Винокурова"},{"station_id":"n1369903370","station_name":"Трамвайное управление"}]},{"route_id":"rm11650416","route_name":"Трамвай №4: ТУ – ФЛЦ","route_name_local":"Трамвай №4: ТУ – ФЛЦ","route_name_en":null,"route_ref":"4","route_color":null,"wikipedia":"ru:Новотроицкий трамвай","osm_route_ids":[11650411,11650412],"status":null,"order_suspect":0,"span_suspect":0,"stations":[{"station_id":"n1369937941","station_name":"ФЛЦ"},{"station_id":"n4716037074","station_name":"Автоматика"},{"station_id":"n4716037536","station_name":"Автовокзал"},{"station_id":"n3440476110","station_name":"Железнодорожный вокзал"},{"station_id":"n3440472743","station_name":"Улица Пушкина"},{"station_id":"n3440461415","station_name":"Площадь Металлургов"},{"station_id":"n1419899281","station_name":"Строительный техникум"},{"station_id":"n3440420604","station_name":"Улица Марии Корецкой"},{"station_id":"n1425855336","station_name":"Городской рынок"},{"station_id":"n1426871067","station_name":"Улица Гагарина"},{"station_id":"n3439311312","station_name":"Универмаг «Новотроицк»"},{"station_id":"n3440420729","station_name":"Улица Винокурова"},{"station_id":"n1369903370","station_name":"Трамвайное управление"}]}],"route_count":3,"route_refs":["1","3","4"],"route_colors":["#e11d48","#e11d48","#e11d48"],"city":"Novotroitsk","country":"Russia"},"geometry":{"type":"MultiLineString","coordinates":[[[58.29677425,51.19414865],[58.2904473,51.19196825],[58.285552949999996,51.19155345],[58.2785127,51.1909524],[58.27219595,51.19040975],[58.26979835,51.1945374]]]}},{"type":"Feature","properties":{"seg_id":"novotroitsk-4","routes":[{"route_id":"rm1675774","route_name":"Трамвай №3: ТУ – Рынок","route_name_local":"Трамвай №3: ТУ – Рынок","route_name_en":null,"route_ref":"3","route_color":null,"wikipedia":"ru:Новотроицкий трамвай","osm_route_ids":[1675772,11650414],"status":null,"order_suspect":0,"span_suspect":0,"stations":[{"station_id":"n1369924134","station_name":"Рынок"},{"station_id":"n3440444364","station_name":"Улица Ломоносова"},{"station_id":"n3440434367","station_name":"Улица Свистунова"},{"station_id":"n3440432277","station_name":"Железнодорожная улица"},{"station_id":"n3440420604","station_name":"Улица Марии Корецкой"},{"station_id":"n1425855336","station_name":"Городской рынок"},{"station_id":"n1426871067","station_name":"Улица Гагарина"},{"station_id":"n3439311312","station_name":"Универмаг «Новотроицк»"},{"station_id":"n3440420729","station_name":"Улица Винокурова"},{"station_id":"n1369903370","station_name":"Трамвайное управление"}]},{"route_id":"rm11650415","route_name":"Трамвай №2: Рынок – ФЛЦ","route_name_local":"Трамвай №2: Рынок – ФЛЦ","route_name_en":null,"route_ref":"2","route_color":null,"wikipedia":"ru:Новотроицкий трамвай","osm_route_ids":[1675773,11650413],"status":null,"order_suspect":0,"span_suspect":0,"stations":[{"station_id":"n1369924134","station_name":"Рынок"},{"station_id":"n3440444364","station_name":"Улица Ломоносова"},{"station_id":"n3440434367","station_name":"Улица Свистунова"},{"station_id":"n3440432277","station_name":"Железнодорожная улица"},{"station_id":"n1325341270","station_name":"Площадь Ленина"},{"station_id":"n1419899281","station_name":"Строительный техникум"},{"station_id":"n3440461415","station_name":"Площадь Металлургов"},{"station_id":"n3440472743","station_name":"Улица Пушкина"},{"station_id":"n3440476110","station_name":"Железнодорожный вокзал"},{"station_id":"n4716037536","station_name":"Автовокзал"},{"station_id":"n4716037074","station_name":"Автоматика"},{"station_id":"n1369937941","station_name":"ФЛЦ"}]},{"route_id":"rm11748857","route_name":"Трамвай №5: Рынок – КХП","route_name_local":"Трамвай №5: Рынок – КХП","route_name_en":null,"route_ref":"5","route_color":null,"wikipedia":"ru:Новотроицкий трамвай","osm_route_ids":[11748855,11748856],"status":null,"order_suspect":0,"span_suspect":0,"stations":[{"station_id":"n1369924134","station_name":"Рынок"},{"station_id":"n3440444364","station_name":"Улица Ломоносова"},{"station_id":"n3440434367","station_name":"Улица Свистунова"},{"station_id":"n3440432277","station_name":"Железнодорожная улица"},{"station_id":"n1325341270","station_name":"Площадь Ленина"},{"station_id":"n1419899281","station_name":"Строительный техникум"},{"station_id":"n3440461415","station_name":"Площадь Металлургов"},{"station_id":"n3440472743","station_name":"Улица Пушкина"},{"station_id":"n3440476110","station_name":"Железнодорожный вокзал"},{"station_id":"n4716037536","station_name":"Автовокзал"},{"station_id":"n4716037074","station_name":"Автоматика"},{"station_id":"n4373533590","station_name":"Силикатный завод"},{"station_id":"n1369903369","station_name":"КХП"}]}],"route_count":3,"route_refs":["3","2","5"],"route_colors":["#e11d48","#e11d48","#e11d48"],"city":"Novotroitsk","country":"Russia"},"geometry":{"type":"MultiLineString","coordinates":[[[58.304301699999996,51.210163699999995],[58.2995945,51.208822299999994],[58.29911625,51.2049679],[58.30032225,51.1986199]]]}},{"type":"Feature","properties":{"seg_id":"novotroitsk-5","routes":[{"route_id":"rm1675774","route_name":"Трамвай №3: ТУ – Рынок","route_name_local":"Трамвай №3: ТУ – Рынок","route_name_en":null,"route_ref":"3","route_color":null,"wikipedia":"ru:Новотроицкий трамвай","osm_route_ids":[1675772,11650414],"status":null,"order_suspect":0,"span_suspect":0,"stations":[{"station_id":"n1369924134","station_name":"Рынок"},{"station_id":"n3440444364","station_name":"Улица Ломоносова"},{"station_id":"n3440434367","station_name":"Улица Свистунова"},{"station_id":"n3440432277","station_name":"Железнодорожная улица"},{"station_id":"n3440420604","station_name":"Улица Марии Корецкой"},{"station_id":"n1425855336","station_name":"Городской рынок"},{"station_id":"n1426871067","station_name":"Улица Гагарина"},{"station_id":"n3439311312","station_name":"Универмаг «Новотроицк»"},{"station_id":"n3440420729","station_name":"Улица Винокурова"},{"station_id":"n1369903370","station_name":"Трамвайное управление"}]}],"route_count":1,"route_refs":["3"],"route_colors":["#e11d48"],"city":"Novotroitsk","country":"Russia"},"geometry":{"type":"MultiLineString","coordinates":[[[58.30032225,51.1986199],[58.29677425,51.19414865]]]}},{"type":"Feature","properties":{"seg_id":"novotroitsk-6","routes":[{"route_id":"rm11650415","route_name":"Трамвай №2: Рынок – ФЛЦ","route_name_local":"Трамвай №2: Рынок – ФЛЦ","route_name_en":null,"route_ref":"2","route_color":null,"wikipedia":"ru:Новотроицкий трамвай","osm_route_ids":[1675773,11650413],"status":null,"order_suspect":0,"span_suspect":0,"stations":[{"station_id":"n1369924134","station_name":"Рынок"},{"station_id":"n3440444364","station_name":"Улица Ломоносова"},{"station_id":"n3440434367","station_name":"Улица Свистунова"},{"station_id":"n3440432277","station_name":"Железнодорожная улица"},{"station_id":"n1325341270","station_name":"Площадь Ленина"},{"station_id":"n1419899281","station_name":"Строительный техникум"},{"station_id":"n3440461415","station_name":"Площадь Металлургов"},{"station_id":"n3440472743","station_name":"Улица Пушкина"},{"station_id":"n3440476110","station_name":"Железнодорожный вокзал"},{"station_id":"n4716037536","station_name":"Автовокзал"},{"station_id":"n4716037074","station_name":"Автоматика"},{"station_id":"n1369937941","station_name":"ФЛЦ"}]},{"route_id":"rm11748857","route_name":"Трамвай №5: Рынок – КХП","route_name_local":"Трамвай №5: Рынок – КХП","route_name_en":null,"route_ref":"5","route_color":null,"wikipedia":"ru:Новотроицкий трамвай","osm_route_ids":[11748855,11748856],"status":null,"order_suspect":0,"span_suspect":0,"stations":[{"station_id":"n1369924134","station_name":"Рынок"},{"station_id":"n3440444364","station_name":"Улица Ломоносова"},{"station_id":"n3440434367","station_name":"Улица Свистунова"},{"station_id":"n3440432277","station_name":"Железнодорожная улица"},{"station_id":"n1325341270","station_name":"Площадь Ленина"},{"station_id":"n1419899281","station_name":"Строительный техникум"},{"station_id":"n3440461415","station_name":"Площадь Металлургов"},{"station_id":"n3440472743","station_name":"Улица Пушкина"},{"station_id":"n3440476110","station_name":"Железнодорожный вокзал"},{"station_id":"n4716037536","station_name":"Автовокзал"},{"station_id":"n4716037074","station_name":"Автоматика"},{"station_id":"n4373533590","station_name":"Силикатный завод"},{"station_id":"n1369903369","station_name":"КХП"}]}],"route_count":2,"route_refs":["2","5"],"route_colors":["#e11d48","#e11d48"],"city":"Novotroitsk","country":"Russia"},"geometry":{"type":"MultiLineString","coordinates":[[[58.30032225,51.1986199],[58.3048316,51.196211250000005],[58.31360025,51.19596225]]]}},{"type":"Feature","properties":{"seg_id":"novotroitsk-7","routes":[{"route_id":"rm11650415","route_name":"Трамвай №2: Рынок – ФЛЦ","route_name_local":"Трамвай №2: Рынок – ФЛЦ","route_name_en":null,"route_ref":"2","route_color":null,"wikipedia":"ru:Новотроицкий трамвай","osm_route_ids":[1675773,11650413],"status":null,"order_suspect":0,"span_suspect":0,"stations":[{"station_id":"n1369924134","station_name":"Рынок"},{"station_id":"n3440444364","station_name":"Улица Ломоносова"},{"station_id":"n3440434367","station_name":"Улица Свистунова"},{"station_id":"n3440432277","station_name":"Железнодорожная улица"},{"station_id":"n1325341270","station_name":"Площадь Ленина"},{"station_id":"n1419899281","station_name":"Строительный техникум"},{"station_id":"n3440461415","station_name":"Площадь Металлургов"},{"station_id":"n3440472743","station_name":"Улица Пушкина"},{"station_id":"n3440476110","station_name":"Железнодорожный вокзал"},{"station_id":"n4716037536","station_name":"Автовокзал"},{"station_id":"n4716037074","station_name":"Автоматика"},{"station_id":"n1369937941","station_name":"ФЛЦ"}]},{"route_id":"rm11650416","route_name":"Трамвай №4: ТУ – ФЛЦ","route_name_local":"Трамвай №4: ТУ – ФЛЦ","route_name_en":null,"route_ref":"4","route_color":null,"wikipedia":"ru:Новотроицкий трамвай","osm_route_ids":[11650411,11650412],"status":null,"order_suspect":0,"span_suspect":0,"stations":[{"station_id":"n1369937941","station_name":"ФЛЦ"},{"station_id":"n4716037074","station_name":"Автоматика"},{"station_id":"n4716037536","station_name":"Автовокзал"},{"station_id":"n3440476110","station_name":"Железнодорожный вокзал"},{"station_id":"n3440472743","station_name":"Улица Пушкина"},{"station_id":"n3440461415","station_name":"Площадь Металлургов"},{"station_id":"n1419899281","station_name":"Строительный техникум"},{"station_id":"n3440420604","station_name":"Улица Марии Корецкой"},{"station_id":"n1425855336","station_name":"Городской рынок"},{"station_id":"n1426871067","station_name":"Улица Гагарина"},{"station_id":"n3439311312","station_name":"Универмаг «Новотроицк»"},{"station_id":"n3440420729","station_name":"Улица Винокурова"},{"station_id":"n1369903370","station_name":"Трамвайное управление"}]}],"route_count":2,"route_refs":["2","4"],"route_colors":["#e11d48","#e11d48"],"city":"Novotroitsk","country":"Russia"},"geometry":{"type":"MultiLineString","coordinates":[[[58.3587285,51.2060156],[58.35780415,51.210448299999996]]]}},{"type":"Feature","properties":{"station_id":"n1369903369","station_name":"КХП","station_name_local":"КХП","station_name_en":null,"city":"Novotroitsk","country":"Russia","lines":["1","5"],"wikipedia":null,"merged_from":2,"merged_names":null,"is_terminus":true,"routes":[{"ref":"1","name":"Трамвай №1: ТУ – КХП","route_color":null},{"ref":"5","name":"Трамвай №5: Рынок – КХП","route_color":null}],"pass_count":2,"station_degree":1,"codes":null,"is_interchange":false,"station_role":"terminus"},"geometry":{"type":"Point","coordinates":[58.372104750000005,51.21427535]},"__memberLines":{}},{"type":"Feature","properties":{"station_id":"n1369903370","station_name":"Трамвайное управление","station_name_local":"Трамвайное управление","station_name_en":null,"city":"Novotroitsk","country":"Russia","lines":["1","3","4"],"wikipedia":null,"merged_from":2,"merged_names":null,"is_terminus":true,"routes":[{"ref":"1","name":"Трамвай №1: ТУ – КХП","route_color":null},{"ref":"3","name":"Трамвай №3: ТУ – Рынок","route_color":null},{"ref":"4","name":"Трамвай №4: ТУ – ФЛЦ","route_color":null}],"pass_count":3,"station_degree":1,"codes":null,"is_interchange":false,"station_role":"terminus"},"geometry":{"type":"Point","coordinates":[58.26979835,51.1945374]},"__memberLines":{}},{"type":"Feature","properties":{"station_id":"n1369924134","station_name":"Рынок","station_name_local":"Рынок","station_name_en":null,"city":"Novotroitsk","country":"Russia","lines":["2","3","5"],"wikipedia":null,"merged_from":2,"merged_names":null,"is_terminus":true,"routes":[{"ref":"2","name":"Трамвай №2: Рынок – ФЛЦ","route_color":null},{"ref":"3","name":"Трамвай №3: ТУ – Рынок","route_color":null},{"ref":"5","name":"Трамвай №5: Рынок – КХП","route_color":null}],"pass_count":3,"station_degree":1,"codes":null,"is_interchange":false,"station_role":"terminus"},"geometry":{"type":"Point","coordinates":[58.304301699999996,51.210163699999995]},"__memberLines":{}},{"type":"Feature","properties":{"station_id":"n1369937941","station_name":"ФЛЦ","station_name_local":"ФЛЦ","station_name_en":null,"city":"Novotroitsk","country":"Russia","lines":["2","4"],"wikipedia":null,"merged_from":2,"merged_names":null,"is_terminus":true,"routes":[{"ref":"2","name":"Трамвай №2: Рынок – ФЛЦ","route_color":null},{"ref":"4","name":"Трамвай №4: ТУ – ФЛЦ","route_color":null}],"pass_count":2,"station_degree":1,"codes":null,"is_interchange":false,"station_role":"terminus"},"geometry":{"type":"Point","coordinates":[58.35780415,51.210448299999996]},"__memberLines":{}},{"type":"Feature","properties":{"station_id":"n1419899281","station_name":"Строительный техникум","station_name_local":"Строительный техникум","station_name_en":null,"city":"Novotroitsk","country":"Russia","lines":["1","2","4","5"],"wikipedia":null,"merged_from":2,"merged_names":null,"is_terminus":false,"routes":[{"ref":"1","name":"Трамвай №1: ТУ – КХП","route_color":null},{"ref":"2","name":"Трамвай №2: Рынок – ФЛЦ","route_color":null},{"ref":"4","name":"Трамвай №4: ТУ – ФЛЦ","route_color":null},{"ref":"5","name":"Трамвай №5: Рынок – КХП","route_color":null}],"pass_count":4,"station_degree":3,"codes":null,"is_interchange":true,"station_role":"interchange"},"geometry":{"type":"Point","coordinates":[58.31360025,51.19596225]},"__memberLines":{}},{"type":"Feature","properties":{"station_id":"n1425855336","station_name":"Городской рынок","station_name_local":"Городской рынок","station_name_en":null,"city":"Novotroitsk","country":"Russia","lines":["1","3","4"],"wikipedia":null,"merged_from":2,"merged_names":null,"is_terminus":false,"routes":[{"ref":"1","name":"Трамвай №1: ТУ – КХП","route_color":null},{"ref":"3","name":"Трамвай №3: ТУ – Рынок","route_color":null},{"ref":"4","name":"Трамвай №4: ТУ – ФЛЦ","route_color":null}],"pass_count":3,"station_degree":2,"codes":null,"is_interchange":false,"station_role":"normal"},"geometry":{"type":"Point","coordinates":[58.2904473,51.19196825]},"__memberLines":{}},{"type":"Feature","properties":{"station_id":"n1426871067","station_name":"Улица Гагарина","station_name_local":"Улица Гагарина","station_name_en":null,"city":"Novotroitsk","country":"Russia","lines":["1","3","4"],"wikipedia":null,"merged_from":2,"merged_names":null,"is_terminus":false,"routes":[{"ref":"1","name":"Трамвай №1: ТУ – КХП","route_color":null},{"ref":"3","name":"Трамвай №3: ТУ – Рынок","route_color":null},{"ref":"4","name":"Трамвай №4: ТУ – ФЛЦ","route_color":null}],"pass_count":3,"station_degree":2,"codes":null,"is_interchange":false,"station_role":"normal"},"geometry":{"type":"Point","coordinates":[58.285552949999996,51.19155345]},"__memberLines":{}},{"type":"Feature","properties":{"station_id":"n3439311312","station_name":"Универмаг «Новотроицк»","station_name_local":"Универмаг «Новотроицк»","station_name_en":null,"city":"Novotroitsk","country":"Russia","lines":["1","3","4"],"wikipedia":null,"merged_from":2,"merged_names":null,"is_terminus":false,"routes":[{"ref":"1","name":"Трамвай №1: ТУ – КХП","route_color":null},{"ref":"3","name":"Трамвай №3: ТУ – Рынок","route_color":null},{"ref":"4","name":"Трамвай №4: ТУ – ФЛЦ","route_color":null}],"pass_count":3,"station_degree":2,"codes":null,"is_interchange":false,"station_role":"normal"},"geometry":{"type":"Point","coordinates":[58.2785127,51.1909524]},"__memberLines":{}},{"type":"Feature","properties":{"station_id":"n3440420604","station_name":"Улица Марии Корецкой","station_name_local":"Улица Марии Корецкой","station_name_en":null,"city":"Novotroitsk","country":"Russia","lines":["1","3","4"],"wikipedia":null,"merged_from":2,"merged_names":null,"is_terminus":false,"routes":[{"ref":"1","name":"Трамвай №1: ТУ – КХП","route_color":null},{"ref":"3","name":"Трамвай №3: ТУ – Рынок","route_color":null},{"ref":"4","name":"Трамвай №4: ТУ – ФЛЦ","route_color":null}],"pass_count":3,"station_degree":3,"codes":null,"is_interchange":true,"station_role":"interchange"},"geometry":{"type":"Point","coordinates":[58.29677425,51.19414865]},"__memberLines":{}},{"type":"Feature","properties":{"station_id":"n3440420729","station_name":"Улица Винокурова","station_name_local":"Улица Винокурова","station_name_en":null,"city":"Novotroitsk","country":"Russia","lines":["1","3","4"],"wikipedia":null,"merged_from":2,"merged_names":null,"is_terminus":false,"routes":[{"ref":"1","name":"Трамвай №1: ТУ – КХП","route_color":null},{"ref":"3","name":"Трамвай №3: ТУ – Рынок","route_color":null},{"ref":"4","name":"Трамвай №4: ТУ – ФЛЦ","route_color":null}],"pass_count":3,"station_degree":2,"codes":null,"is_interchange":false,"station_role":"normal"},"geometry":{"type":"Point","coordinates":[58.27219595,51.19040975]},"__memberLines":{}},{"type":"Feature","properties":{"station_id":"n3440432277","station_name":"Железнодорожная улица","station_name_local":"Железнодорожная улица","station_name_en":null,"city":"Novotroitsk","country":"Russia","lines":["2","3","5"],"wikipedia":null,"merged_from":2,"merged_names":null,"is_terminus":false,"routes":[{"ref":"2","name":"Трамвай №2: Рынок – ФЛЦ","route_color":null},{"ref":"3","name":"Трамвай №3: ТУ – Рынок","route_color":null},{"ref":"5","name":"Трамвай №5: Рынок – КХП","route_color":null}],"pass_count":3,"station_degree":3,"codes":null,"is_interchange":true,"station_role":"interchange"},"geometry":{"type":"Point","coordinates":[58.30032225,51.1986199]},"__memberLines":{}},{"type":"Feature","properties":{"station_id":"n3440434367","station_name":"Улица Свистунова","station_name_local":"Улица Свистунова","station_name_en":null,"city":"Novotroitsk","country":"Russia","lines":["2","3","5"],"wikipedia":null,"merged_from":2,"merged_names":null,"is_terminus":false,"routes":[{"ref":"2","name":"Трамвай №2: Рынок – ФЛЦ","route_color":null},{"ref":"3","name":"Трамвай №3: ТУ – Рынок","route_color":null},{"ref":"5","name":"Трамвай №5: Рынок – КХП","route_color":null}],"pass_count":3,"station_degree":2,"codes":null,"is_interchange":false,"station_role":"normal"},"geometry":{"type":"Point","coordinates":[58.29911625,51.2049679]},"__memberLines":{}},{"type":"Feature","properties":{"station_id":"n3440444364","station_name":"Улица Ломоносова","station_name_local":"Улица Ломоносова","station_name_en":null,"city":"Novotroitsk","country":"Russia","lines":["2","3","5"],"wikipedia":null,"merged_from":2,"merged_names":null,"is_terminus":false,"routes":[{"ref":"2","name":"Трамвай №2: Рынок – ФЛЦ","route_color":null},{"ref":"3","name":"Трамвай №3: ТУ – Рынок","route_color":null},{"ref":"5","name":"Трамвай №5: Рынок – КХП","route_color":null}],"pass_count":3,"station_degree":2,"codes":null,"is_interchange":false,"station_role":"normal"},"geometry":{"type":"Point","coordinates":[58.2995945,51.208822299999994]},"__memberLines":{}},{"type":"Feature","properties":{"station_id":"n3440461415","station_name":"Площадь Металлургов","station_name_local":"Площадь Металлургов","station_name_en":null,"city":"Novotroitsk","country":"Russia","lines":["1","2","4","5"],"wikipedia":null,"merged_from":2,"merged_names":null,"is_terminus":false,"routes":[{"ref":"1","name":"Трамвай №1: ТУ – КХП","route_color":null},{"ref":"2","name":"Трамвай №2: Рынок – ФЛЦ","route_color":null},{"ref":"4","name":"Трамвай №4: ТУ – ФЛЦ","route_color":null},{"ref":"5","name":"Трамвай №5: Рынок – КХП","route_color":null}],"pass_count":4,"station_degree":2,"codes":null,"is_interchange":false,"station_role":"normal"},"geometry":{"type":"Point","coordinates":[58.324542550000004,51.19567065]},"__memberLines":{}},{"type":"Feature","properties":{"station_id":"n3440472743","station_name":"Улица Пушкина","station_name_local":"Улица Пушкина","station_name_en":null,"city":"Novotroitsk","country":"Russia","lines":["1","2","4","5"],"wikipedia":null,"merged_from":2,"merged_names":null,"is_terminus":false,"routes":[{"ref":"1","name":"Трамвай №1: ТУ – КХП","route_color":null},{"ref":"2","name":"Трамвай №2: Рынок – ФЛЦ","route_color":null},{"ref":"4","name":"Трамвай №4: ТУ – ФЛЦ","route_color":null},{"ref":"5","name":"Трамвай №5: Рынок – КХП","route_color":null}],"pass_count":4,"station_degree":2,"codes":null,"is_interchange":false,"station_role":"normal"},"geometry":{"type":"Point","coordinates":[58.331773150000004,51.19750025]},"__memberLines":{}},{"type":"Feature","properties":{"station_id":"n3440476110","station_name":"Железнодорожный вокзал","station_name_local":"Железнодорожный вокзал","station_name_en":null,"city":"Novotroitsk","country":"Russia","lines":["1","2","4","5"],"wikipedia":null,"merged_from":2,"merged_names":null,"is_terminus":false,"routes":[{"ref":"1","name":"Трамвай №1: ТУ – КХП","route_color":null},{"ref":"2","name":"Трамвай №2: Рынок – ФЛЦ","route_color":null},{"ref":"4","name":"Трамвай №4: ТУ – ФЛЦ","route_color":null},{"ref":"5","name":"Трамвай №5: Рынок – КХП","route_color":null}],"pass_count":4,"station_degree":2,"codes":null,"is_interchange":false,"station_role":"normal"},"geometry":{"type":"Point","coordinates":[58.34095085,51.2015298]},"__memberLines":{}},{"type":"Feature","properties":{"station_id":"n4373533590","station_name":"Силикатный завод","station_name_local":"Силикатный завод","station_name_en":null,"city":"Novotroitsk","country":"Russia","lines":["1","5"],"wikipedia":null,"merged_from":2,"merged_names":null,"is_terminus":false,"routes":[{"ref":"1","name":"Трамвай №1: ТУ – КХП","route_color":null},{"ref":"5","name":"Трамвай №5: Рынок – КХП","route_color":null}],"pass_count":2,"station_degree":2,"codes":null,"is_interchange":false,"station_role":"normal"},"geometry":{"type":"Point","coordinates":[58.368161099999995,51.21033525]},"__memberLines":{}},{"type":"Feature","properties":{"station_id":"n4716037074","station_name":"Автоматика","station_name_local":"Автоматика","station_name_en":null,"city":"Novotroitsk","country":"Russia","lines":["1","2","4","5"],"wikipedia":null,"merged_from":2,"merged_names":null,"is_terminus":false,"routes":[{"ref":"1","name":"Трамвай №1: ТУ – КХП","route_color":null},{"ref":"2","name":"Трамвай №2: Рынок – ФЛЦ","route_color":null},{"ref":"4","name":"Трамвай №4: ТУ – ФЛЦ","route_color":null},{"ref":"5","name":"Трамвай №5: Рынок – КХП","route_color":null}],"pass_count":4,"station_degree":3,"codes":null,"is_interchange":true,"station_role":"interchange"},"geometry":{"type":"Point","coordinates":[58.3587285,51.2060156]},"__memberLines":{}},{"type":"Feature","properties":{"station_id":"n4716037536","station_name":"Автовокзал","station_name_local":"Автовокзал","station_name_en":null,"city":"Novotroitsk","country":"Russia","lines":["1","2","4","5"],"wikipedia":null,"merged_from":2,"merged_names":null,"is_terminus":false,"routes":[{"ref":"1","name":"Трамвай №1: ТУ – КХП","route_color":null},{"ref":"2","name":"Трамвай №2: Рынок – ФЛЦ","route_color":null},{"ref":"4","name":"Трамвай №4: ТУ – ФЛЦ","route_color":null},{"ref":"5","name":"Трамвай №5: Рынок – КХП","route_color":null}],"pass_count":4,"station_degree":2,"codes":null,"is_interchange":false,"station_role":"normal"},"geometry":{"type":"Point","coordinates":[58.348719599999995,51.202985999999996]},"__memberLines":{}},{"type":"Feature","properties":{"station_id":"n1325341270","station_name":"Площадь Ленина","station_name_local":"Площадь Ленина","station_name_en":null,"city":"Novotroitsk","country":"Russia","lines":["2","5"],"wikipedia":null,"merged_from":2,"merged_names":null,"is_terminus":false,"routes":[{"ref":"2","name":"Трамвай №2: Рынок – ФЛЦ","route_color":null},{"ref":"5","name":"Трамвай №5: Рынок – КХП","route_color":null}],"pass_count":2,"station_degree":2,"codes":null,"is_interchange":false,"station_role":"normal"},"geometry":{"type":"Point","coordinates":[58.3048316,51.196211250000005]}}]}