{"type":"FeatureCollection","features":[{"type":"Feature","properties":{"route_ref":"1","route_color":"#64748b"},"geometry":{"type":"LineString","coordinates":[[33.17368628934732,51.22499161979916],[33.17408055,51.2252347],[33.1745543125,51.2253521625],[33.18189571666666,51.22503101666667],[33.18471586338912,51.22513405259129],[33.18579162500001,51.225027125],[33.187355054573636,51.22460180928102],[33.188831875,51.22474167499999],[33.1925709254176,51.22485127714305],[33.19309488327715,51.22503290805474],[33.200978,51.23132005],[33.201357057142864,51.23174947142858],[33.208909925,51.23792985],[33.212100066666665,51.240341566666665],[33.21413295,51.24174271666667],[33.21504984924256,51.24207703643786],[33.21975049051227,51.24220167610429],[33.22004432986515,51.24224388169999],[33.220290170446134,51.24239625864329],[33.220441861061744,51.2429036386599],[33.22102897,51.243612119999995],[33.22173598571428,51.24766773571429],[33.22167756601444,51.24790222074296],[33.221017350000004,51.24854065],[33.22093200956603,51.24877231208356],[33.224114670000006,51.251713079999995],[33.225188544998744,51.25255457430999],[33.2257188,51.25261125],[33.22921457499999,51.252319400000005],[33.23076922,51.252022520000004],[33.232203047696345,51.25160443449759],[33.235371433333334,51.25153283333333],[33.23826584015147,51.25075890274025],[33.2426467,51.2502661]]}},{"type":"Feature","properties":{"route_ref":"3","route_color":"#64748b"},"geometry":{"type":"LineString","coordinates":[[33.17368628934732,51.22499161979916],[33.174301750000005,51.22531179999999],[33.175405787500004,51.2253609375],[33.18189571666666,51.22503101666667],[33.184963200000006,51.22512435],[33.186047666666674,51.22496926666667],[33.18718325149616,51.22460669968145],[33.188831875,51.22474167499999],[33.19257116194445,51.2248481782812],[33.192798148310686,51.22463881447174],[33.19304689312006,51.222300183578604],[33.19274815599121,51.221848001025165],[33.19135881111111,51.22076052222222],[33.18647166666667,51.21631850000001],[33.18399233451759,51.21389575688619],[33.183608059871,51.21371622509365],[33.15978673529412,51.21241517647059],[33.159307131127825,51.21226356385337],[33.1592903,51.2116799]]}},{"type":"Feature","properties":{"route_ref":"2","route_color":"#64748b"},"geometry":{"type":"MultiLineString","coordinates":[[[33.1881413,51.2246673],[33.1925709254176,51.22485127714305],[33.19309488327715,51.22503290805474],[33.200978,51.23132005],[33.201357057142864,51.23174947142858],[33.208909925,51.23792985],[33.212100066666665,51.240341566666665],[33.214235318792895,51.24180263123837],[33.215166530346615,51.24208933329886],[33.21975049051227,51.24220167610429],[33.22004432986515,51.24224388169999],[33.220290170446134,51.24239625864329],[33.220441861061744,51.2429036386599],[33.22102897,51.243612119999995],[33.22173598571428,51.24766773571429],[33.22167756601444,51.24790222074296],[33.221017350000004,51.24854065],[33.22093200956603,51.24877231208356],[33.22274435879722,51.25055924571823],[33.222993433333336,51.25261815],[33.22288767660405,51.252815421092784],[33.22264288823529,51.25287801764706],[33.21741873524704,51.253198898344756],[33.21608930894565,51.253142468211394],[33.21580340797132,51.2532018389043],[33.21545511205993,51.25340596720746],[33.215378927159456,51.25357788189042],[33.216116061241124,51.254669861601194],[33.21596926693302,51.25482246843659],[33.20701604836401,51.25740844154744],[33.206547391654354,51.257371386852796],[33.206165066666664,51.25720263333333],[33.20292669431138,51.255101327912236],[33.202475704264955,51.25496061584938],[33.201974792982654,51.25499207472019],[33.19862606666667,51.25646467777778],[33.197179150000004,51.257198849999995],[33.18992273333333,51.259916175],[33.1845106,51.2621037]],[[33.189722795606464,51.22479245664606],[33.18949944174429,51.22491453762077],[33.18933093333334,51.225413566666674],[33.18897570255189,51.22842250012295],[33.1879099,51.2299562],[33.18633877142857,51.236320985714286],[33.1865603882353,51.23737588823529],[33.185682586506424,51.24025226089264],[33.185183875,51.24038817499999],[33.1691546,51.24004079999999]]]}}]}