{"type":"FeatureCollection","features":[{"type":"Feature","properties":{"way_id":979201147,"route_colors":["#0000ff"],"route_refs":["Ouargla tram"]},"geometry":{"type":"LineString","coordinates":[[5.3300995,31.9560274],[5.3306284,31.9555039],[5.3308575,31.9552771],[5.3312041,31.9549341]]}},{"type":"Feature","properties":{"way_id":504333810,"route_colors":["#0000ff"],"route_refs":["Ouargla tram"]},"geometry":{"type":"LineString","coordinates":[[5.3312041,31.9549341],[5.3320439,31.9541029],[5.3327557,31.9533964],[5.3332652,31.9528922],[5.3333094,31.9528218],[5.3333278,31.9527556],[5.3333274,31.9526634],[5.3333124,31.9526134],[5.3333014,31.952577],[5.3332549,31.9525128],[5.333176,31.952449],[5.3328144,31.952198]]}},{"type":"Feature","properties":{"way_id":979201148,"route_colors":["#0000ff"],"route_refs":["Ouargla tram"]},"geometry":{"type":"LineString","coordinates":[[5.3328144,31.952198],[5.3322689,31.9518188],[5.3291041,31.9496189]]}},{"type":"Feature","properties":{"way_id":979201150,"route_colors":["#0000ff"],"route_refs":["Ouargla tram"]},"geometry":{"type":"LineString","coordinates":[[5.3291041,31.9496189],[5.3273187,31.9483847],[5.3258799,31.9473694],[5.3258101,31.9473198],[5.3254869,31.9470917]]}},{"type":"Feature","properties":{"way_id":979201152,"route_colors":["#0000ff"],"route_refs":["Ouargla tram"]},"geometry":{"type":"LineString","coordinates":[[5.3254869,31.9470917],[5.3235055,31.9456838],[5.3226674,31.9450983]]}},{"type":"Feature","properties":{"way_id":979201154,"route_colors":["#0000ff"],"route_refs":["Ouargla tram"]},"geometry":{"type":"LineString","coordinates":[[5.3226674,31.9450983],[5.3222391,31.9447923],[5.3220631,31.9446785],[5.3219212,31.9445948],[5.3216428,31.9444409],[5.3214423,31.9443619],[5.3212352,31.9442858],[5.3207867,31.9441515],[5.3189492,31.9436191],[5.3176418,31.9432311]]}},{"type":"Feature","properties":{"way_id":979201156,"route_colors":["#0000ff"],"route_refs":["Ouargla tram"]},"geometry":{"type":"LineString","coordinates":[[5.3176418,31.9432311],[5.3156142,31.9426314],[5.3140562,31.9421775],[5.3138816,31.9421278],[5.3136927,31.9420921],[5.3135132,31.942039],[5.313352,31.9420125],[5.3127477,31.9419304]]}},{"type":"Feature","properties":{"way_id":979201158,"route_colors":["#0000ff"],"route_refs":["Ouargla tram"]},"geometry":{"type":"LineString","coordinates":[[5.3127477,31.9419304],[5.3121319,31.9418453],[5.3119958,31.941832],[5.3117946,31.9418205],[5.3114574,31.9418161],[5.311123,31.9418221],[5.3093049,31.9418605],[5.3089969,31.9418719],[5.3076756,31.9418965]]}},{"type":"Feature","properties":{"way_id":979201160,"route_colors":["#0000ff"],"route_refs":["Ouargla tram"]},"geometry":{"type":"LineString","coordinates":[[5.3076756,31.9418965],[5.306912,31.9419112],[5.3048518,31.9419509],[5.3047107,31.9419549],[5.3032473,31.9419875],[5.3029985,31.9419976],[5.3027149,31.9420124],[5.3023963,31.9420441],[5.3019754,31.9420946],[5.3015507,31.942164],[5.3012992,31.9422135],[5.3009752,31.9422788],[5.2997323,31.9425586]]}},{"type":"Feature","properties":{"way_id":979201162,"route_colors":["#0000ff"],"route_refs":["Ouargla tram"]},"geometry":{"type":"LineString","coordinates":[[5.2997323,31.9425586],[5.2978567,31.9429592],[5.2941208,31.9437618],[5.2935453,31.9438834],[5.2930756,31.9439755],[5.2925617,31.9440396],[5.2920082,31.944093],[5.2910547,31.9441444]]}},{"type":"Feature","properties":{"way_id":979201164,"route_colors":["#0000ff"],"route_refs":["Ouargla tram"]},"geometry":{"type":"LineString","coordinates":[[5.2910547,31.9441444],[5.2873145,31.9443039],[5.2870931,31.9443009],[5.2869085,31.9442867],[5.2866829,31.9442364],[5.286526,31.9441826],[5.2863653,31.9441123],[5.2862209,31.9440302],[5.2861163,31.9439571],[5.2860137,31.9438726],[5.2859351,31.943791],[5.2858663,31.943717],[5.2858058,31.9436362],[5.285737,31.9435311],[5.2856968,31.9434507],[5.2856459,31.9433395],[5.2847669,31.9407196]]}},{"type":"Feature","properties":{"way_id":979201166,"route_colors":["#0000ff"],"route_refs":["Ouargla tram"]},"geometry":{"type":"LineString","coordinates":[[5.2847669,31.9407196],[5.2845901,31.9401678],[5.2840939,31.9387316],[5.284024,31.9384972],[5.28398,31.9383613],[5.2839388,31.9382667],[5.2838803,31.938167],[5.2837475,31.9379935],[5.2836787,31.937933],[5.2835778,31.9378529],[5.2834495,31.9377771],[5.2833105,31.9377077],[5.2831668,31.9376624],[5.2830417,31.9376312],[5.2828387,31.937611],[5.2826256,31.937617],[5.2824901,31.9376342],[5.282322,31.9376784],[5.2818444,31.9378236]]}},{"type":"Feature","properties":{"way_id":979201168,"route_colors":["#0000ff"],"route_refs":["Ouargla tram"]},"geometry":{"type":"LineString","coordinates":[[5.2818444,31.9378236],[5.2814357,31.9379503],[5.280712,31.9381781],[5.2793689,31.9385896],[5.2773712,31.9391936],[5.2767517,31.9393945],[5.2761217,31.9396311],[5.2748618,31.9401146]]}},{"type":"Feature","properties":{"way_id":979201170,"route_colors":["#0000ff"],"route_refs":["Ouargla tram"]},"geometry":{"type":"LineString","coordinates":[[5.2748618,31.9401146],[5.2739105,31.9404821],[5.2713185,31.9414835],[5.2681642,31.9426761],[5.2678625,31.9428106],[5.2675771,31.9429547],[5.2673341,31.9430965],[5.2671552,31.943241]]}},{"type":"Feature","properties":{"way_id":962936160,"route_colors":["#0000ff"],"route_refs":["Ouargla tram"]},"geometry":{"type":"LineString","coordinates":[[5.2671552,31.943241],[5.2669966,31.9434082],[5.2668511,31.943596],[5.2667651,31.9437319],[5.2666929,31.9438756],[5.2666302,31.9440248],[5.2665865,31.9441899],[5.2665209,31.9445334]]}},{"type":"Feature","properties":{"way_id":962936161,"route_colors":["#0000ff"],"route_refs":["Ouargla tram"]},"geometry":{"type":"LineString","coordinates":[[5.2665209,31.9445334],[5.2664594,31.9449018]]}},{"type":"Feature","properties":{"way_id":504333798,"route_colors":["#0000ff"],"route_refs":["Ouargla tram"]},"geometry":{"type":"LineString","coordinates":[[5.2664594,31.9449018],[5.2663497,31.9455589],[5.2663173,31.9456974],[5.26627,31.9458282],[5.2662081,31.9459766],[5.2661156,31.9461341]]}},{"type":"Feature","properties":{"way_id":979201175,"route_colors":["#0000ff"],"route_refs":["Ouargla tram"]},"geometry":{"type":"LineString","coordinates":[[5.2649844,31.9484678],[5.2650212,31.9481922],[5.2650658,31.947871],[5.2650899,31.9477029],[5.2651415,31.9474977],[5.265195,31.9473487],[5.2652728,31.9471996],[5.2653437,31.9470844],[5.2654411,31.9469531],[5.2658983,31.9464152],[5.266013,31.9462791],[5.2661156,31.9461341]]}},{"type":"Feature","properties":{"way_id":979201173,"route_colors":["#0000ff"],"route_refs":["Ouargla tram"]},"geometry":{"type":"LineString","coordinates":[[5.2660326,31.952737],[5.2658792,31.952308],[5.2656744,31.951674],[5.2654873,31.9510468],[5.2651153,31.9498216],[5.2649512,31.9493008],[5.2649258,31.9491946],[5.2649167,31.9490858],[5.2649222,31.9489825],[5.2649844,31.9484678]]}},{"type":"Feature","properties":{"way_id":537028259,"route_colors":["#0000ff"],"route_refs":["Ouargla tram"]},"geometry":{"type":"LineString","coordinates":[[5.2670245,31.9593031],[5.2675922,31.9585991],[5.2676533,31.9585064],[5.2676762,31.9584552],[5.2676916,31.9584209],[5.267709,31.9583427],[5.2677089,31.9582994],[5.2677088,31.958257],[5.2676988,31.958181],[5.2676362,31.9578074],[5.2675835,31.9575604],[5.2674267,31.9570073],[5.2674052,31.9569169],[5.2672053,31.9559966],[5.2671822,31.9558371],[5.2671717,31.9557436],[5.2671385,31.9551757],[5.2671253,31.9550553],[5.2671071,31.9549374],[5.2670671,31.9547808],[5.266979,31.9545351],[5.2668525,31.9542824],[5.2664679,31.953706],[5.2663087,31.9534538],[5.2662693,31.953369],[5.2662257,31.9532731],[5.2660326,31.952737]]}},{"type":"Feature","properties":{"way_id":979201176,"route_colors":["#0000ff"],"route_refs":["Ouargla tram"]},"geometry":{"type":"LineString","coordinates":[[5.2662796,31.9610108],[5.2661937,31.9606735],[5.2661804,31.9605996],[5.266177,31.9605123],[5.2661941,31.9604145],[5.2662357,31.9603269],[5.2663104,31.9602223],[5.2664253,31.9600744],[5.2666267,31.9598152],[5.2670245,31.9593031]]}},{"type":"Feature","properties":{"way_id":979201177,"route_colors":["#0000ff"],"route_refs":["Ouargla tram"]},"geometry":{"type":"LineString","coordinates":[[5.2669882,31.959282],[5.2665913,31.9597951],[5.2663951,31.9600526],[5.266227,31.9602715],[5.2661768,31.9603498],[5.2661441,31.9604429],[5.2661359,31.960533],[5.2661429,31.9606152],[5.2661593,31.9606895],[5.2662398,31.9610164]]}},{"type":"Feature","properties":{"way_id":962880923,"route_colors":["#0000ff"],"route_refs":["Ouargla tram"]},"geometry":{"type":"LineString","coordinates":[[5.2659915,31.9527488],[5.2661765,31.9532645],[5.2662273,31.9533853],[5.2662985,31.9535164],[5.2664294,31.9537214],[5.2668046,31.9542839],[5.2668683,31.9543954],[5.2669353,31.9545433],[5.2669863,31.9546696],[5.2670252,31.9547868],[5.2670534,31.9548915],[5.2670842,31.9550599],[5.2670976,31.9551953],[5.2671318,31.9557744],[5.2671395,31.9558401],[5.2671563,31.9559537],[5.2671797,31.9560776],[5.2673618,31.9569116],[5.2675334,31.9575456],[5.2675696,31.9576912],[5.2675919,31.957816],[5.2676618,31.9582043],[5.2676699,31.9582916],[5.267663,31.9583747],[5.2676403,31.958449],[5.2676,31.9585183],[5.2675451,31.9585926],[5.2669882,31.959282]]}},{"type":"Feature","properties":{"way_id":979201172,"route_colors":["#0000ff"],"route_refs":["Ouargla tram"]},"geometry":{"type":"LineString","coordinates":[[5.2649579,31.9483804],[5.2648751,31.9489772],[5.2648716,31.9490704],[5.2648804,31.9491589],[5.2648981,31.949252],[5.2649194,31.9493436],[5.2654501,31.9510646],[5.2658346,31.9523174],[5.2659915,31.9527488]]}},{"type":"Feature","properties":{"way_id":979201174,"route_colors":["#0000ff"],"route_refs":["Ouargla tram"]},"geometry":{"type":"LineString","coordinates":[[5.2664166,31.9448946],[5.266311,31.9455388],[5.2662826,31.9456655],[5.2662551,31.9457639],[5.2662125,31.9458734],[5.2661667,31.9459708],[5.2661169,31.9460614],[5.2660488,31.9461658],[5.2659594,31.9462856],[5.2656595,31.9466349],[5.265375,31.9469747],[5.2652428,31.9471705],[5.2651707,31.9473067],[5.2651087,31.947462],[5.2650762,31.9475784],[5.2650477,31.9476983],[5.2650335,31.9478104],[5.2650131,31.9479553],[5.2649579,31.9483804]]}},{"type":"Feature","properties":{"way_id":962880927,"route_colors":["#0000ff"],"route_refs":["Ouargla tram"]},"geometry":{"type":"LineString","coordinates":[[5.2664764,31.9445302],[5.2664166,31.9448946]]}},{"type":"Feature","properties":{"way_id":979201171,"route_colors":["#0000ff"],"route_refs":["Ouargla tram"]},"geometry":{"type":"LineString","coordinates":[[5.274907,31.9400583],[5.273931,31.9404257],[5.2712968,31.9414477],[5.2681474,31.9426456],[5.2678899,31.9427447],[5.2676445,31.9428619],[5.2674661,31.9429643],[5.267324,31.943061],[5.267159,31.943193],[5.2670557,31.943292],[5.2669766,31.9433751],[5.2668908,31.943481],[5.2668304,31.9435629],[5.2667258,31.9437211],[5.2666722,31.9438303],[5.2666306,31.9439214],[5.2665931,31.9440113],[5.2665622,31.9441194],[5.2665341,31.9442286],[5.2665126,31.9443288],[5.2664764,31.9445302]]}},{"type":"Feature","properties":{"way_id":979201169,"route_colors":["#0000ff"],"route_refs":["Ouargla tram"]},"geometry":{"type":"LineString","coordinates":[[5.2818304,31.9377957],[5.2810988,31.9380209],[5.2809345,31.9380743],[5.2806987,31.9381462],[5.2798352,31.9384133],[5.2796582,31.9384656],[5.2773553,31.9391685],[5.2767333,31.9393703],[5.2761052,31.9396032],[5.274907,31.9400583]]}},{"type":"Feature","properties":{"way_id":979201167,"route_colors":["#0000ff"],"route_refs":["Ouargla tram"]},"geometry":{"type":"LineString","coordinates":[[5.2848043,31.9407133],[5.2840537,31.9384619],[5.2840212,31.9383627],[5.2839815,31.9382696],[5.2839317,31.9381773],[5.2838748,31.9380902],[5.2838016,31.9380013],[5.2837283,31.9379333],[5.2836604,31.9378728],[5.2835465,31.9377909],[5.2834561,31.9377408],[5.2833392,31.9376848],[5.2832243,31.9376442],[5.2831121,31.93761],[5.2829438,31.9375794],[5.2828341,31.9375735],[5.2827345,31.9375752],[5.2826054,31.9375865],[5.2824743,31.9376037],[5.2823096,31.9376462],[5.2818304,31.9377957]]}},{"type":"Feature","properties":{"way_id":979201165,"route_colors":["#0000ff"],"route_refs":["Ouargla tram"]},"geometry":{"type":"LineString","coordinates":[[5.2910499,31.9441046],[5.2872995,31.9442703],[5.2871208,31.9442713],[5.2869959,31.9442614],[5.2867893,31.9442338],[5.2865464,31.9441504],[5.2863981,31.944087],[5.2862662,31.9440177],[5.2861623,31.9439453],[5.2860712,31.943873],[5.2859767,31.9437799],[5.2858972,31.9436949],[5.2858443,31.9436247],[5.2857849,31.9435313],[5.2857254,31.9434204],[5.2856763,31.9433074],[5.2848043,31.9407133]]}},{"type":"Feature","properties":{"way_id":979201163,"route_colors":["#0000ff"],"route_refs":["Ouargla tram"]},"geometry":{"type":"LineString","coordinates":[[5.299722,31.9425189],[5.2978452,31.9429242],[5.2938614,31.9437836],[5.2936273,31.9438333],[5.2933685,31.9438816],[5.2930758,31.9439339],[5.2927954,31.9439731],[5.2924488,31.9440176],[5.2919835,31.9440581],[5.2910499,31.9441046]]}},{"type":"Feature","properties":{"way_id":979201161,"route_colors":["#0000ff"],"route_refs":["Ouargla tram"]},"geometry":{"type":"LineString","coordinates":[[5.3076729,31.9418568],[5.307301,31.941864],[5.3048503,31.9419117],[5.3047111,31.9419134],[5.3032752,31.9419479],[5.3029886,31.9419583],[5.3026634,31.9419824],[5.3023219,31.9420169],[5.3020637,31.9420462],[5.3018218,31.9420842],[5.3015758,31.942129],[5.3013116,31.9421773],[5.299722,31.9425189]]}},{"type":"Feature","properties":{"way_id":979201159,"route_colors":["#0000ff"],"route_refs":["Ouargla tram"]},"geometry":{"type":"LineString","coordinates":[[5.3127951,31.9419036],[5.3121981,31.941822],[5.3120131,31.9418048],[5.3118271,31.941791],[5.311447,31.9417841],[5.3111238,31.941791],[5.3092972,31.9418301],[5.3090025,31.9418366],[5.3076729,31.9418568]]}},{"type":"Feature","properties":{"way_id":979201157,"route_colors":["#0000ff"],"route_refs":["Ouargla tram"]},"geometry":{"type":"LineString","coordinates":[[5.3176539,31.9431954],[5.3140804,31.9421489],[5.313702,31.9420437],[5.313366,31.9419783],[5.3127951,31.9419036]]}},{"type":"Feature","properties":{"way_id":979201155,"route_colors":["#0000ff"],"route_refs":["Ouargla tram"]},"geometry":{"type":"LineString","coordinates":[[5.3227012,31.94508],[5.322289,31.9447846],[5.3221142,31.9446649],[5.3219376,31.9445665],[5.321674,31.9444111],[5.3214651,31.9443314],[5.3212517,31.9442521],[5.3208004,31.944121],[5.3189547,31.9435828],[5.3176539,31.9431954]]}},{"type":"Feature","properties":{"way_id":979201153,"route_colors":["#0000ff"],"route_refs":["Ouargla tram"]},"geometry":{"type":"LineString","coordinates":[[5.3255134,31.9470644],[5.3235294,31.9456566],[5.3227012,31.94508]]}},{"type":"Feature","properties":{"way_id":979201151,"route_colors":["#0000ff"],"route_refs":["Ouargla tram"]},"geometry":{"type":"LineString","coordinates":[[5.3290281,31.9495105],[5.3273506,31.9483601],[5.3259054,31.9473411],[5.3258369,31.9472925],[5.3255134,31.9470644]]}},{"type":"Feature","properties":{"way_id":979201149,"route_colors":["#0000ff"],"route_refs":["Ouargla tram"]},"geometry":{"type":"LineString","coordinates":[[5.3328644,31.952191],[5.3325202,31.9519504],[5.3290281,31.9495105]]}},{"type":"Feature","properties":{"way_id":962880926,"route_colors":["#0000ff"],"route_refs":["Ouargla tram"]},"geometry":{"type":"LineString","coordinates":[[5.331193,31.9549952],[5.332074,31.9541196],[5.3332806,31.9529315],[5.3333199,31.952891],[5.3333491,31.9528478],[5.3333738,31.9528021],[5.3333861,31.9527511],[5.3333897,31.9526687],[5.3333684,31.9525969],[5.3333407,31.9525446],[5.3333083,31.9525073],[5.3332627,31.9524652],[5.3328644,31.952191]]}},{"type":"Feature","properties":{"way_id":979201146,"route_colors":["#0000ff"],"route_refs":["Ouargla tram"]},"geometry":{"type":"LineString","coordinates":[[5.3301358,31.9560459],[5.3306595,31.9555254],[5.3308888,31.9552976],[5.331193,31.9549952]]}}]}