{"type":"FeatureCollection","metro_system":{"continent":"europe","country":"Greece","city":"Athens","official_website":null,"official_map":"https://en.wikipedia.org/wiki/Athens_Metro","wikipedia":"en:Athens Metro","wiki":true,"wikipedia_zh":"zh:雅典地铁","line_count":3,"segment_count":3,"station_count":66,"modes":["metro"],"audit":{"strategies_tried":[],"passed":true,"checks":[{"id":"system_exists","ok":true,"detail":"matched OSM system metro-maps/europe/greece/eu-gre-athens/eu-gre-athens.geojson","level":"error"},{"id":"has_lines","ok":true,"detail":"3 lines","level":"error"},{"id":"has_stations","ok":true,"detail":"66 stations","level":"error"},{"id":"station_count_info","ok":true,"detail":"OSM 66 站（wiki List 記 66，計法含轉乘重複，僅參考）","level":"warn"},{"id":"stations_have_lines","ok":true,"detail":"66/66 站皆有所屬路線","level":"error"},{"id":"line_geometry_stations","ok":true,"detail":"71 個折點/端點皆為車站","level":"error"},{"id":"route_stations_match_geometry","ok":true,"detail":"各線車站列表與圖面一致","level":"error"},{"id":"interchange_rule","ok":true,"detail":"所有車站紅/藍點符合骨架＋路線色規則（藍＝端點、紅＝交叉）","level":"error"},{"id":"stations_named","ok":true,"detail":"66/66 站皆有名稱","level":"error"},{"id":"station_order","ok":true,"detail":"所有線路站序合理","level":"warn"},{"id":"line_wiki_stations","ok":true,"detail":"各線站數與 wiki 線路條目相符（營運中站數）","level":"error"}],"reasons":[],"warnings":[],"audited_at":"2026-07-27T02:38:22.557Z"}},"features":[{"type":"Feature","properties":{"seg_id":"athens-0","routes":[{"route_id":"rm7963514","route_name":"Metro Μ1","route_name_local":"Μετρό Μ1","route_name_en":"Metro Μ1","route_ref":"Μ1","route_color":"#007a33","wikipedia":"el:Γραμμή Ηλεκτρικού (Μετρό Αθήνας)","osm_route_ids":[445858,7963473],"status":null,"order_suspect":0,"span_suspect":0,"stations":[{"station_id":"n2397979323","station_name":"Piraeus"},{"station_id":"n2253053668","station_name":"Faliro"},{"station_id":"n2264918304","station_name":"Moschato"},{"station_id":"n2264918788","station_name":"Kallithea"},{"station_id":"n1024902125","station_name":"Tavros-Eleftherios Venizelos"},{"station_id":"n2278849833","station_name":"Petralona"},{"station_id":"n1005304990","station_name":"Thiseio"},{"station_id":"n97819323","station_name":"Monastiraki"},{"station_id":"n5374594466","station_name":"Omonia"},{"station_id":"n251082983","station_name":"Victoria"},{"station_id":"n251083098","station_name":"Attiki"},{"station_id":"n960915736","station_name":"Agios Nikolaos"},{"station_id":"n957182474","station_name":"Kato Patisia"},{"station_id":"n957182417","station_name":"Agios Eleftherios"},{"station_id":"n957178130","station_name":"Ano Patisia"},{"station_id":"n250929833","station_name":"Perissos"},{"station_id":"n957178135","station_name":"Pefkakia"},{"station_id":"n957178165","station_name":"Nea Ionia"},{"station_id":"n3951242228","station_name":"Irakleio"},{"station_id":"n4689709365","station_name":"Eirini"},{"station_id":"n152941813","station_name":"Νεραντζιώτισσα"},{"station_id":"n1815728753","station_name":"Marousi"},{"station_id":"n360188772","station_name":"KAT"},{"station_id":"n966323235","station_name":"Kifissia"}]}],"route_count":1,"route_refs":["Μ1"],"route_colors":["#007a33"],"city":"Athens","country":"Greece"},"geometry":{"type":"MultiLineString","coordinates":[[[23.642807516666668,37.94810223333333],[23.665246375,37.945072875],[23.680415800000002,37.95527166666667],[23.696967666666666,37.96042056666667],[23.70340006666667,37.962447266666665],[23.709101000000004,37.96844806666667],[23.7201799,37.97681376666667],[23.72555392,37.976370259999996],[23.72792078333333,37.98387436666667],[23.7302665,37.9930729],[23.72278738,37.99952918],[23.727705266666664,38.00698993333333],[23.728644833333334,38.0119229],[23.731687500000003,38.0199422],[23.736028566666665,38.02384116666667],[23.7447402,38.032851766666674],[23.750118266666664,38.037124166666665],[23.754873,38.04150633333333],[23.7660468,38.046276766666665],[23.783364025,38.043242575],[23.792973933333332,38.04514686666666],[23.804946599999997,38.05625559999999],[23.80406573333333,38.0658362],[23.8081878,38.07346463333334]]]}},{"type":"Feature","properties":{"seg_id":"athens-1","routes":[{"route_id":"rm2473158","route_name":"Metro Μ3","route_name_local":"Μετρό Μ3","route_name_en":"Metro Μ3","route_ref":"Μ3","route_color":"#10069f","wikipedia":"el:Γραμμή 3 (Μετρό Αθήνας)","osm_route_ids":[445945,2473157,3165353,7927355],"status":null,"order_suspect":0,"span_suspect":0,"stations":[{"station_id":"n2724167854","station_name":"Δημοτικό Θέατρο"},{"station_id":"n2397979323","station_name":"Piraeus"},{"station_id":"n2397979321","station_name":"Μανιάτικα"},{"station_id":"n7485440531","station_name":"Νίκαια"},{"station_id":"n7485440548","station_name":"Korydallos"},{"station_id":"n7485440560","station_name":"Agia Varvara"},{"station_id":"n2115110438","station_name":"Agia Marina"},{"station_id":"n851631431","station_name":"Egaleo"},{"station_id":"n638386566","station_name":"Eleonas"},{"station_id":"n850935197","station_name":"Kerameikos"},{"station_id":"n97819323","station_name":"Monastiraki"},{"station_id":"n5374534510","station_name":"Syntagma"},{"station_id":"n250702355","station_name":"Evangelismos"},{"station_id":"n250702349","station_name":"Megaro Mousikis"},{"station_id":"n1958901557","station_name":"Ambelokipi"},{"station_id":"n1958901565","station_name":"Panormou"},{"station_id":"n7478322246","station_name":"Katechaki"},{"station_id":"n492938281","station_name":"Ethniki Amyna"},{"station_id":"n1236161917","station_name":"Cholargos"},{"station_id":"n1846451020","station_name":"Nomismatokopio"},{"station_id":"n1236148123","station_name":"Agia Paraskevi"},{"station_id":"n1236192762","station_name":"Chalandri"},{"station_id":"n460405367","station_name":"Δουκίσσης Πλακεντίας"},{"station_id":"n937378162","station_name":"Παλλήνη"},{"station_id":"n937892866","station_name":"Peania-Kantza"},{"station_id":"n2541827616","station_name":"Koropi"},{"station_id":"n361456404","station_name":"Airport"}]}],"route_count":1,"route_refs":["Μ3"],"route_colors":["#10069f"],"city":"Athens","country":"Greece"},"geometry":{"type":"MultiLineString","coordinates":[[[23.6475856,37.942902600000004],[23.642807516666668,37.94810223333333],[23.639784633333335,37.95955276666666],[23.64733723333333,37.965756166666665],[23.6504072,37.97704926666666],[23.659332966666668,37.9899662],[23.667122133333333,37.99690833333334],[23.681822300000004,37.991438933333335],[23.6933664,37.98776386666666],[23.71095676666667,37.97874256666667],[23.72555392,37.976370259999996],[23.735684159999998,37.975245619999995],[23.7471036,37.9761258],[23.7530087,37.9790317],[23.7576802,37.9871933],[23.7635768,37.9932117],[23.7767523,37.993753833333336],[23.7844745,37.999184],[23.794708500000002,38.004909899999994],[23.8057757,38.0090991],[23.8124844,38.0171296],[23.8207549,38.0217116],[23.8325494,38.0239919],[23.8698763,38.0049831],[23.870066366666663,37.98468666666667],[23.896037433333333,37.912719333333335],[23.944770499999997,37.9369291]]]}},{"type":"Feature","properties":{"seg_id":"athens-2","routes":[{"route_id":"rm7963569","route_name":"Metro Μ2","route_name_local":"Μετρό Μ2","route_name_en":"Metro Μ2","route_ref":"Μ2","route_color":"#da291c","wikipedia":"el:Γραμμή 2 (Μετρό Αθήνας)","osm_route_ids":[3095900,7963539],"status":null,"order_suspect":0,"span_suspect":0,"stations":[{"station_id":"n2393088478","station_name":"Elliniko"},{"station_id":"n2393075541","station_name":"Argyroupoli"},{"station_id":"n2200308961","station_name":"Alimos"},{"station_id":"n2200308970","station_name":"Ilioupoli"},{"station_id":"n518535675","station_name":"Agios Dimitrios"},{"station_id":"n2482314349","station_name":"Dafni"},{"station_id":"n1957144317","station_name":"Agios Ioannis"},{"station_id":"n1957144325","station_name":"Neos Kosmos"},{"station_id":"n1957144329","station_name":"Syngrou-Fix"},{"station_id":"n1957144319","station_name":"Akropoli"},{"station_id":"n5374534510","station_name":"Syntagma"},{"station_id":"n250920014","station_name":"Panepistimio"},{"station_id":"n5374594466","station_name":"Omonia"},{"station_id":"n251083112","station_name":"Metaxourgeio"},{"station_id":"n251083102","station_name":"Σταθμός Λαρίσης"},{"station_id":"n251083098","station_name":"Attiki"},{"station_id":"n626786830","station_name":"Sepolia"},{"station_id":"n638707500","station_name":"Agios Antonios"},{"station_id":"n2251078982","station_name":"Peristeri"},{"station_id":"n2115108603","station_name":"Anthoupoli"}]}],"route_count":1,"route_refs":["Μ2"],"route_colors":["#da291c"],"city":"Athens","country":"Greece"},"geometry":{"type":"MultiLineString","coordinates":[[[23.747118633333333,37.89259153333333],[23.745537166666665,37.902750166666664],[23.744134366666668,37.91828773333333],[23.744673566666666,37.929525266666666],[23.740656466666668,37.9403249],[23.737232733333332,37.949556199999996],[23.7346855,37.956430399999995],[23.7283724,37.9576705],[23.7268179,37.9646255],[23.729559666666663,37.96885556666667],[23.735684159999998,37.975245619999995],[23.7330199,37.9803554],[23.72792078333333,37.98387436666667],[23.721379600000002,37.9858525],[23.720719900000002,37.992282200000005],[23.72278738,37.99952918],[23.7140398,38.002610100000005],[23.6997301,38.006104],[23.6957764,38.0128951],[23.6909034,38.0171329]]]}},{"type":"Feature","properties":{"station_id":"n97819323","station_name":"Monastiraki","station_name_local":"Μοναστηράκι","station_name_en":"Monastiraki","city":"Athens","country":"Greece","lines":["Μ1","Μ3"],"wikipedia":null,"merged_from":5,"merged_names":null,"is_terminus":false,"routes":[{"ref":"Μ1","name":"Metro Μ1","route_color":"#007a33"},{"ref":"Μ3","name":"Metro Μ3","route_color":"#10069f"}],"pass_count":2,"station_degree":4,"codes":null,"is_interchange":true,"station_role":"interchange"},"geometry":{"type":"Point","coordinates":[23.72555392,37.976370259999996]},"__memberLines":{}},{"type":"Feature","properties":{"station_id":"n152941813","station_name":"Νεραντζιώτισσα","station_name_local":"Νεραντζιώτισσα","station_name_en":null,"city":"Athens","country":"Greece","lines":["Μ1"],"wikipedia":null,"merged_from":3,"merged_names":null,"is_terminus":false,"routes":[{"ref":"Μ1","name":"Metro Μ1","route_color":"#007a33"}],"pass_count":1,"station_degree":2,"codes":null,"is_interchange":false,"station_role":"normal"},"geometry":{"type":"Point","coordinates":[23.792973933333332,38.04514686666666]},"__memberLines":{}},{"type":"Feature","properties":{"station_id":"n250702349","station_name":"Megaro Mousikis","station_name_local":"Μέγαρο Μουσικής","station_name_en":"Megaro Mousikis","city":"Athens","country":"Greece","lines":["Μ3"],"wikipedia":"el:Σταθμός Μεγάρου Μουσικής (Μετρό Αθήνας)","merged_from":3,"merged_names":null,"is_terminus":false,"routes":[{"ref":"Μ3","name":"Metro Μ3","route_color":"#10069f"}],"pass_count":1,"station_degree":2,"codes":null,"is_interchange":false,"station_role":"normal"},"geometry":{"type":"Point","coordinates":[23.7530087,37.9790317]},"__memberLines":{}},{"type":"Feature","properties":{"station_id":"n250702355","station_name":"Evangelismos","station_name_local":"Ευαγγελισμός","station_name_en":"Evangelismos","city":"Athens","country":"Greece","lines":["Μ3"],"wikipedia":"el:Σταθμός Ευαγγελισμού (Μετρό Αθήνας)","merged_from":3,"merged_names":null,"is_terminus":false,"routes":[{"ref":"Μ3","name":"Metro Μ3","route_color":"#10069f"}],"pass_count":1,"station_degree":2,"codes":null,"is_interchange":false,"station_role":"normal"},"geometry":{"type":"Point","coordinates":[23.7471036,37.9761258]},"__memberLines":{}},{"type":"Feature","properties":{"station_id":"n250920014","station_name":"Panepistimio","station_name_local":"Πανεπιστήμιο","station_name_en":"Panepistimio","city":"Athens","country":"Greece","lines":["Μ2"],"wikipedia":"el:Σταθμός Πανεπιστημίου (Μετρό Αθήνας)","merged_from":3,"merged_names":null,"is_terminus":false,"routes":[{"ref":"Μ2","name":"Metro Μ2","route_color":"#da291c"}],"pass_count":1,"station_degree":2,"codes":null,"is_interchange":false,"station_role":"normal"},"geometry":{"type":"Point","coordinates":[23.7330199,37.9803554]},"__memberLines":{}},{"type":"Feature","properties":{"station_id":"n250929833","station_name":"Perissos","station_name_local":"Περισσός","station_name_en":"Perissos","city":"Athens","country":"Greece","lines":["Μ1"],"wikipedia":null,"merged_from":3,"merged_names":null,"is_terminus":false,"routes":[{"ref":"Μ1","name":"Metro Μ1","route_color":"#007a33"}],"pass_count":1,"station_degree":2,"codes":null,"is_interchange":false,"station_role":"normal"},"geometry":{"type":"Point","coordinates":[23.7447402,38.032851766666674]},"__memberLines":{}},{"type":"Feature","properties":{"station_id":"n251082983","station_name":"Victoria","station_name_local":"Βικτώρια","station_name_en":"Victoria","city":"Athens","country":"Greece","lines":["Μ1"],"wikipedia":"el:Σταθμός Βικτωρίας (Μετρό Αθήνας)","merged_from":3,"merged_names":null,"is_terminus":false,"routes":[{"ref":"Μ1","name":"Metro Μ1","route_color":"#007a33"}],"pass_count":1,"station_degree":2,"codes":null,"is_interchange":false,"station_role":"normal"},"geometry":{"type":"Point","coordinates":[23.7302665,37.9930729]},"__memberLines":{}},{"type":"Feature","properties":{"station_id":"n251083098","station_name":"Attiki","station_name_local":"Αττική","station_name_en":"Attiki","city":"Athens","country":"Greece","lines":["Μ1","Μ2"],"wikipedia":null,"merged_from":5,"merged_names":null,"is_terminus":false,"routes":[{"ref":"Μ1","name":"Metro Μ1","route_color":"#007a33"},{"ref":"Μ2","name":"Metro Μ2","route_color":"#da291c"}],"pass_count":2,"station_degree":4,"codes":null,"is_interchange":true,"station_role":"interchange"},"geometry":{"type":"Point","coordinates":[23.72278738,37.99952918]},"__memberLines":{}},{"type":"Feature","properties":{"station_id":"n251083102","station_name":"Σταθμός Λαρίσης","station_name_local":"Σταθμός Λαρίσης","station_name_en":null,"city":"Athens","country":"Greece","lines":["Μ2"],"wikipedia":null,"merged_from":3,"merged_names":null,"is_terminus":false,"routes":[{"ref":"Μ2","name":"Metro Μ2","route_color":"#da291c"}],"pass_count":1,"station_degree":2,"codes":null,"is_interchange":false,"station_role":"normal"},"geometry":{"type":"Point","coordinates":[23.720719900000002,37.992282200000005]},"__memberLines":{}},{"type":"Feature","properties":{"station_id":"n251083112","station_name":"Metaxourgeio","station_name_local":"Μεταξουργείο","station_name_en":"Metaxourgeio","city":"Athens","country":"Greece","lines":["Μ2"],"wikipedia":null,"merged_from":3,"merged_names":null,"is_terminus":false,"routes":[{"ref":"Μ2","name":"Metro Μ2","route_color":"#da291c"}],"pass_count":1,"station_degree":2,"codes":null,"is_interchange":false,"station_role":"normal"},"geometry":{"type":"Point","coordinates":[23.721379600000002,37.9858525]},"__memberLines":{}},{"type":"Feature","properties":{"station_id":"n360188772","station_name":"KAT","station_name_local":"ΚΑΤ","station_name_en":"KAT","city":"Athens","country":"Greece","lines":["Μ1"],"wikipedia":null,"merged_from":3,"merged_names":null,"is_terminus":false,"routes":[{"ref":"Μ1","name":"Metro Μ1","route_color":"#007a33"}],"pass_count":1,"station_degree":2,"codes":null,"is_interchange":false,"station_role":"normal"},"geometry":{"type":"Point","coordinates":[23.80406573333333,38.0658362]},"__memberLines":{}},{"type":"Feature","properties":{"station_id":"n361456404","station_name":"Airport","station_name_local":"Αεροδρόμιο","station_name_en":"Airport","city":"Athens","country":"Greece","lines":["Μ3"],"wikipedia":null,"merged_from":2,"merged_names":null,"is_terminus":true,"routes":[{"ref":"Μ3","name":"Metro Μ3","route_color":"#10069f"}],"pass_count":1,"station_degree":1,"codes":null,"is_interchange":false,"station_role":"terminus"},"geometry":{"type":"Point","coordinates":[23.944770499999997,37.9369291]},"__memberLines":{}},{"type":"Feature","properties":{"station_id":"n460405367","station_name":"Δουκίσσης Πλακεντίας","station_name_local":"Δουκίσσης Πλακεντίας","station_name_en":null,"city":"Athens","country":"Greece","lines":["Μ3"],"wikipedia":null,"merged_from":3,"merged_names":null,"is_terminus":false,"routes":[{"ref":"Μ3","name":"Metro Μ3","route_color":"#10069f"}],"pass_count":1,"station_degree":2,"codes":null,"is_interchange":false,"station_role":"normal"},"geometry":{"type":"Point","coordinates":[23.8325494,38.0239919]},"__memberLines":{}},{"type":"Feature","properties":{"station_id":"n492938281","station_name":"Ethniki Amyna","station_name_local":"Εθνική Άμυνα","station_name_en":"Ethniki Amyna","city":"Athens","country":"Greece","lines":["Μ3"],"wikipedia":"el:Σταθμός Εθνικής Άμυνας (Μετρό Αθήνας)","merged_from":3,"merged_names":null,"is_terminus":false,"routes":[{"ref":"Μ3","name":"Metro Μ3","route_color":"#10069f"}],"pass_count":1,"station_degree":2,"codes":null,"is_interchange":false,"station_role":"normal"},"geometry":{"type":"Point","coordinates":[23.7844745,37.999184]},"__memberLines":{}},{"type":"Feature","properties":{"station_id":"n518535675","station_name":"Agios Dimitrios","station_name_local":"Άγιος Δημήτριος","station_name_en":"Agios Dimitrios","city":"Athens","country":"Greece","lines":["Μ2"],"wikipedia":null,"merged_from":3,"merged_names":null,"is_terminus":false,"routes":[{"ref":"Μ2","name":"Metro Μ2","route_color":"#da291c"}],"pass_count":1,"station_degree":2,"codes":null,"is_interchange":false,"station_role":"normal"},"geometry":{"type":"Point","coordinates":[23.740656466666668,37.9403249]},"__memberLines":{}},{"type":"Feature","properties":{"station_id":"n626786830","station_name":"Sepolia","station_name_local":"Σεπόλια","station_name_en":"Sepolia","city":"Athens","country":"Greece","lines":["Μ2"],"wikipedia":null,"merged_from":3,"merged_names":null,"is_terminus":false,"routes":[{"ref":"Μ2","name":"Metro Μ2","route_color":"#da291c"}],"pass_count":1,"station_degree":2,"codes":null,"is_interchange":false,"station_role":"normal"},"geometry":{"type":"Point","coordinates":[23.7140398,38.002610100000005]},"__memberLines":{}},{"type":"Feature","properties":{"station_id":"n638386566","station_name":"Eleonas","station_name_local":"Ελαιώνας","station_name_en":"Eleonas","city":"Athens","country":"Greece","lines":["Μ3"],"wikipedia":"el:Σταθμός Ελαιώνας (Μετρό Αθήνας)","merged_from":3,"merged_names":null,"is_terminus":false,"routes":[{"ref":"Μ3","name":"Metro Μ3","route_color":"#10069f"}],"pass_count":1,"station_degree":2,"codes":null,"is_interchange":false,"station_role":"normal"},"geometry":{"type":"Point","coordinates":[23.6933664,37.98776386666666]},"__memberLines":{}},{"type":"Feature","properties":{"station_id":"n638707500","station_name":"Agios Antonios","station_name_local":"Άγιος Αντώνιος","station_name_en":"Agios Antonios","city":"Athens","country":"Greece","lines":["Μ2"],"wikipedia":null,"merged_from":3,"merged_names":null,"is_terminus":false,"routes":[{"ref":"Μ2","name":"Metro Μ2","route_color":"#da291c"}],"pass_count":1,"station_degree":2,"codes":null,"is_interchange":false,"station_role":"normal"},"geometry":{"type":"Point","coordinates":[23.6997301,38.006104]},"__memberLines":{}},{"type":"Feature","properties":{"station_id":"n850935197","station_name":"Kerameikos","station_name_local":"Κεραμεικός","station_name_en":"Kerameikos","city":"Athens","country":"Greece","lines":["Μ3"],"wikipedia":"el:Σταθμός Κεραμεικού (Μετρό Αθήνας)","merged_from":3,"merged_names":null,"is_terminus":false,"routes":[{"ref":"Μ3","name":"Metro Μ3","route_color":"#10069f"}],"pass_count":1,"station_degree":2,"codes":null,"is_interchange":false,"station_role":"normal"},"geometry":{"type":"Point","coordinates":[23.71095676666667,37.97874256666667]},"__memberLines":{}},{"type":"Feature","properties":{"station_id":"n851631431","station_name":"Egaleo","station_name_local":"Αιγάλεω","station_name_en":"Egaleo","city":"Athens","country":"Greece","lines":["Μ3"],"wikipedia":"el:Σταθμός Αιγάλεω (Μετρό Αθήνας)","merged_from":3,"merged_names":null,"is_terminus":false,"routes":[{"ref":"Μ3","name":"Metro Μ3","route_color":"#10069f"}],"pass_count":1,"station_degree":2,"codes":null,"is_interchange":false,"station_role":"normal"},"geometry":{"type":"Point","coordinates":[23.681822300000004,37.991438933333335]},"__memberLines":{}},{"type":"Feature","properties":{"station_id":"n937378162","station_name":"Παλλήνη","station_name_local":"Παλλήνη","station_name_en":null,"city":"Athens","country":"Greece","lines":["Μ3"],"wikipedia":null,"merged_from":3,"merged_names":null,"is_terminus":false,"codes":["24","4","Αεροδρόμιο","Δημοτικό","Θέατρο","Προς","προς"],"routes":[{"ref":"Μ3","name":"Metro Μ3","route_color":"#10069f"}],"pass_count":1,"station_degree":2,"is_interchange":false,"station_role":"normal"},"geometry":{"type":"Point","coordinates":[23.8698763,38.0049831]},"__memberLines":{}},{"type":"Feature","properties":{"station_id":"n937892866","station_name":"Peania-Kantza","station_name_local":"Παιανία-Κάντζα","station_name_en":"Peania-Kantza","city":"Athens","country":"Greece","lines":["Μ3"],"wikipedia":null,"merged_from":3,"merged_names":null,"is_terminus":false,"routes":[{"ref":"Μ3","name":"Metro Μ3","route_color":"#10069f"}],"pass_count":1,"station_degree":2,"codes":null,"is_interchange":false,"station_role":"normal"},"geometry":{"type":"Point","coordinates":[23.870066366666663,37.98468666666667]},"__memberLines":{}},{"type":"Feature","properties":{"station_id":"n957178130","station_name":"Ano Patisia","station_name_local":"Άνω Πατήσια","station_name_en":"Ano Patisia","city":"Athens","country":"Greece","lines":["Μ1"],"wikipedia":"el:Σταθμός Άνω Πατησίων (Μετρό Αθήνας)","merged_from":3,"merged_names":null,"is_terminus":false,"routes":[{"ref":"Μ1","name":"Metro Μ1","route_color":"#007a33"}],"pass_count":1,"station_degree":2,"codes":null,"is_interchange":false,"station_role":"normal"},"geometry":{"type":"Point","coordinates":[23.736028566666665,38.02384116666667]},"__memberLines":{}},{"type":"Feature","properties":{"station_id":"n957178135","station_name":"Pefkakia","station_name_local":"Πευκάκια","station_name_en":"Pefkakia","city":"Athens","country":"Greece","lines":["Μ1"],"wikipedia":null,"merged_from":3,"merged_names":null,"is_terminus":false,"routes":[{"ref":"Μ1","name":"Metro Μ1","route_color":"#007a33"}],"pass_count":1,"station_degree":2,"codes":null,"is_interchange":false,"station_role":"normal"},"geometry":{"type":"Point","coordinates":[23.750118266666664,38.037124166666665]},"__memberLines":{}},{"type":"Feature","properties":{"station_id":"n957178165","station_name":"Nea Ionia","station_name_local":"Νέα Ιωνία","station_name_en":"Nea Ionia","city":"Athens","country":"Greece","lines":["Μ1"],"wikipedia":null,"merged_from":3,"merged_names":null,"is_terminus":false,"routes":[{"ref":"Μ1","name":"Metro Μ1","route_color":"#007a33"}],"pass_count":1,"station_degree":2,"codes":null,"is_interchange":false,"station_role":"normal"},"geometry":{"type":"Point","coordinates":[23.754873,38.04150633333333]},"__memberLines":{}},{"type":"Feature","properties":{"station_id":"n957182417","station_name":"Agios Eleftherios","station_name_local":"Άγιος Ελευθέριος","station_name_en":"Agios Eleftherios","city":"Athens","country":"Greece","lines":["Μ1"],"wikipedia":"el:Σταθμός Αγίου Ελευθερίου (Μετρό Αθήνας)","merged_from":3,"merged_names":null,"is_terminus":false,"routes":[{"ref":"Μ1","name":"Metro Μ1","route_color":"#007a33"}],"pass_count":1,"station_degree":2,"codes":null,"is_interchange":false,"station_role":"normal"},"geometry":{"type":"Point","coordinates":[23.731687500000003,38.0199422]},"__memberLines":{}},{"type":"Feature","properties":{"station_id":"n957182474","station_name":"Kato Patisia","station_name_local":"Κάτω Πατήσια","station_name_en":"Kato Patisia","city":"Athens","country":"Greece","lines":["Μ1"],"wikipedia":"el:Σταθμός Κάτω Πατησίων (Μετρό Αθήνας)","merged_from":3,"merged_names":null,"is_terminus":false,"routes":[{"ref":"Μ1","name":"Metro Μ1","route_color":"#007a33"}],"pass_count":1,"station_degree":2,"codes":null,"is_interchange":false,"station_role":"normal"},"geometry":{"type":"Point","coordinates":[23.728644833333334,38.0119229]},"__memberLines":{}},{"type":"Feature","properties":{"station_id":"n960915736","station_name":"Agios Nikolaos","station_name_local":"Άγιος Νικόλαος","station_name_en":"Agios Nikolaos","city":"Athens","country":"Greece","lines":["Μ1"],"wikipedia":null,"merged_from":3,"merged_names":null,"is_terminus":false,"routes":[{"ref":"Μ1","name":"Metro Μ1","route_color":"#007a33"}],"pass_count":1,"station_degree":2,"codes":null,"is_interchange":false,"station_role":"normal"},"geometry":{"type":"Point","coordinates":[23.727705266666664,38.00698993333333]},"__memberLines":{}},{"type":"Feature","properties":{"station_id":"n966323235","station_name":"Kifissia","station_name_local":"Κηφισιά","station_name_en":"Kifissia","city":"Athens","country":"Greece","lines":["Μ1"],"wikipedia":null,"merged_from":3,"merged_names":null,"is_terminus":true,"routes":[{"ref":"Μ1","name":"Metro Μ1","route_color":"#007a33"}],"pass_count":1,"station_degree":1,"codes":null,"is_interchange":false,"station_role":"terminus"},"geometry":{"type":"Point","coordinates":[23.8081878,38.07346463333334]},"__memberLines":{}},{"type":"Feature","properties":{"station_id":"n1005304990","station_name":"Thiseio","station_name_local":"Θησείο","station_name_en":"Thiseio","city":"Athens","country":"Greece","lines":["Μ1"],"wikipedia":null,"merged_from":3,"merged_names":null,"is_terminus":false,"routes":[{"ref":"Μ1","name":"Metro Μ1","route_color":"#007a33"}],"pass_count":1,"station_degree":2,"codes":null,"is_interchange":false,"station_role":"normal"},"geometry":{"type":"Point","coordinates":[23.7201799,37.97681376666667]},"__memberLines":{}},{"type":"Feature","properties":{"station_id":"n1024902125","station_name":"Tavros-Eleftherios Venizelos","station_name_local":"Ταύρος-Ελευθέριος Βενιζέλος","station_name_en":"Tavros-Eleftherios Venizelos","city":"Athens","country":"Greece","lines":["Μ1"],"wikipedia":null,"merged_from":3,"merged_names":null,"is_terminus":false,"routes":[{"ref":"Μ1","name":"Metro Μ1","route_color":"#007a33"}],"pass_count":1,"station_degree":2,"codes":null,"is_interchange":false,"station_role":"normal"},"geometry":{"type":"Point","coordinates":[23.70340006666667,37.962447266666665]},"__memberLines":{}},{"type":"Feature","properties":{"station_id":"n1236148123","station_name":"Agia Paraskevi","station_name_local":"Αγία Παρασκευή","station_name_en":"Agia Paraskevi","city":"Athens","country":"Greece","lines":["Μ3"],"wikipedia":null,"merged_from":3,"merged_names":null,"is_terminus":false,"routes":[{"ref":"Μ3","name":"Metro Μ3","route_color":"#10069f"}],"pass_count":1,"station_degree":2,"codes":null,"is_interchange":false,"station_role":"normal"},"geometry":{"type":"Point","coordinates":[23.8124844,38.0171296]},"__memberLines":{}},{"type":"Feature","properties":{"station_id":"n1236161917","station_name":"Cholargos","station_name_local":"Χολαργός","station_name_en":"Cholargos","city":"Athens","country":"Greece","lines":["Μ3"],"wikipedia":null,"merged_from":3,"merged_names":null,"is_terminus":false,"routes":[{"ref":"Μ3","name":"Metro Μ3","route_color":"#10069f"}],"pass_count":1,"station_degree":2,"codes":null,"is_interchange":false,"station_role":"normal"},"geometry":{"type":"Point","coordinates":[23.794708500000002,38.004909899999994]},"__memberLines":{}},{"type":"Feature","properties":{"station_id":"n1236192762","station_name":"Chalandri","station_name_local":"Χαλάνδρι","station_name_en":"Chalandri","city":"Athens","country":"Greece","lines":["Μ3"],"wikipedia":null,"merged_from":3,"merged_names":null,"is_terminus":false,"routes":[{"ref":"Μ3","name":"Metro Μ3","route_color":"#10069f"}],"pass_count":1,"station_degree":2,"codes":null,"is_interchange":false,"station_role":"normal"},"geometry":{"type":"Point","coordinates":[23.8207549,38.0217116]},"__memberLines":{}},{"type":"Feature","properties":{"station_id":"n1815728753","station_name":"Marousi","station_name_local":"Μαρούσι","station_name_en":"Marousi","city":"Athens","country":"Greece","lines":["Μ1"],"wikipedia":null,"merged_from":3,"merged_names":null,"is_terminus":false,"routes":[{"ref":"Μ1","name":"Metro Μ1","route_color":"#007a33"}],"pass_count":1,"station_degree":2,"codes":null,"is_interchange":false,"station_role":"normal"},"geometry":{"type":"Point","coordinates":[23.804946599999997,38.05625559999999]},"__memberLines":{}},{"type":"Feature","properties":{"station_id":"n1846451020","station_name":"Nomismatokopio","station_name_local":"Νομισματοκοπείο","station_name_en":"Nomismatokopio","city":"Athens","country":"Greece","lines":["Μ3"],"wikipedia":null,"merged_from":3,"merged_names":null,"is_terminus":false,"routes":[{"ref":"Μ3","name":"Metro Μ3","route_color":"#10069f"}],"pass_count":1,"station_degree":2,"codes":null,"is_interchange":false,"station_role":"normal"},"geometry":{"type":"Point","coordinates":[23.8057757,38.0090991]},"__memberLines":{}},{"type":"Feature","properties":{"station_id":"n1957144317","station_name":"Agios Ioannis","station_name_local":"Άγιος Ιωάννης","station_name_en":"Agios Ioannis","city":"Athens","country":"Greece","lines":["Μ2"],"wikipedia":null,"merged_from":3,"merged_names":null,"is_terminus":false,"routes":[{"ref":"Μ2","name":"Metro Μ2","route_color":"#da291c"}],"pass_count":1,"station_degree":2,"codes":null,"is_interchange":false,"station_role":"normal"},"geometry":{"type":"Point","coordinates":[23.7346855,37.956430399999995]},"__memberLines":{}},{"type":"Feature","properties":{"station_id":"n1957144319","station_name":"Akropoli","station_name_local":"Ακρόπολη","station_name_en":"Akropoli","city":"Athens","country":"Greece","lines":["Μ2"],"wikipedia":"el:Σταθμός Ακρόπολη (Μετρό Αθήνας)","merged_from":3,"merged_names":null,"is_terminus":false,"routes":[{"ref":"Μ2","name":"Metro Μ2","route_color":"#da291c"}],"pass_count":1,"station_degree":2,"codes":null,"is_interchange":false,"station_role":"normal"},"geometry":{"type":"Point","coordinates":[23.729559666666663,37.96885556666667]},"__memberLines":{}},{"type":"Feature","properties":{"station_id":"n1957144325","station_name":"Neos Kosmos","station_name_local":"Νέος Κόσμος","station_name_en":"Neos Kosmos","city":"Athens","country":"Greece","lines":["Μ2"],"wikipedia":null,"merged_from":3,"merged_names":null,"is_terminus":false,"routes":[{"ref":"Μ2","name":"Metro Μ2","route_color":"#da291c"}],"pass_count":1,"station_degree":2,"codes":null,"is_interchange":false,"station_role":"normal"},"geometry":{"type":"Point","coordinates":[23.7283724,37.9576705]},"__memberLines":{}},{"type":"Feature","properties":{"station_id":"n1957144329","station_name":"Syngrou-Fix","station_name_local":"Συγγρού-Φιξ","station_name_en":"Syngrou-Fix","city":"Athens","country":"Greece","lines":["Μ2"],"wikipedia":null,"merged_from":3,"merged_names":null,"is_terminus":false,"routes":[{"ref":"Μ2","name":"Metro Μ2","route_color":"#da291c"}],"pass_count":1,"station_degree":2,"codes":null,"is_interchange":false,"station_role":"normal"},"geometry":{"type":"Point","coordinates":[23.7268179,37.9646255]},"__memberLines":{}},{"type":"Feature","properties":{"station_id":"n1958901557","station_name":"Ambelokipi","station_name_local":"Αμπελόκηποι","station_name_en":"Ambelokipi","city":"Athens","country":"Greece","lines":["Μ3"],"wikipedia":"el:Σταθμός Αμπελοκήπων (Μετρό Αθήνας)","merged_from":3,"merged_names":null,"is_terminus":false,"routes":[{"ref":"Μ3","name":"Metro Μ3","route_color":"#10069f"}],"pass_count":1,"station_degree":2,"codes":null,"is_interchange":false,"station_role":"normal"},"geometry":{"type":"Point","coordinates":[23.7576802,37.9871933]},"__memberLines":{}},{"type":"Feature","properties":{"station_id":"n1958901565","station_name":"Panormou","station_name_local":"Πανόρμου","station_name_en":"Panormou","city":"Athens","country":"Greece","lines":["Μ3"],"wikipedia":"el:Σταθμός Πανόρμου (Μετρό Αθήνας)","merged_from":3,"merged_names":null,"is_terminus":false,"routes":[{"ref":"Μ3","name":"Metro Μ3","route_color":"#10069f"}],"pass_count":1,"station_degree":2,"codes":null,"is_interchange":false,"station_role":"normal"},"geometry":{"type":"Point","coordinates":[23.7635768,37.9932117]},"__memberLines":{}},{"type":"Feature","properties":{"station_id":"n2115108603","station_name":"Anthoupoli","station_name_local":"Ανθούπολη","station_name_en":"Anthoupoli","city":"Athens","country":"Greece","lines":["Μ2"],"wikipedia":null,"merged_from":3,"merged_names":null,"is_terminus":true,"routes":[{"ref":"Μ2","name":"Metro Μ2","route_color":"#da291c"}],"pass_count":1,"station_degree":1,"codes":null,"is_interchange":false,"station_role":"terminus"},"geometry":{"type":"Point","coordinates":[23.6909034,38.0171329]},"__memberLines":{}},{"type":"Feature","properties":{"station_id":"n2115110438","station_name":"Agia Marina","station_name_local":"Αγία Μαρίνα","station_name_en":"Agia Marina","city":"Athens","country":"Greece","lines":["Μ3"],"wikipedia":null,"merged_from":3,"merged_names":null,"is_terminus":false,"routes":[{"ref":"Μ3","name":"Metro Μ3","route_color":"#10069f"}],"pass_count":1,"station_degree":2,"codes":null,"is_interchange":false,"station_role":"normal"},"geometry":{"type":"Point","coordinates":[23.667122133333333,37.99690833333334]},"__memberLines":{}},{"type":"Feature","properties":{"station_id":"n2200308961","station_name":"Alimos","station_name_local":"Άλιμος","station_name_en":"Alimos","city":"Athens","country":"Greece","lines":["Μ2"],"wikipedia":null,"merged_from":3,"merged_names":null,"is_terminus":false,"routes":[{"ref":"Μ2","name":"Metro Μ2","route_color":"#da291c"}],"pass_count":1,"station_degree":2,"codes":null,"is_interchange":false,"station_role":"normal"},"geometry":{"type":"Point","coordinates":[23.744134366666668,37.91828773333333]},"__memberLines":{}},{"type":"Feature","properties":{"station_id":"n2200308970","station_name":"Ilioupoli","station_name_local":"Ηλιούπολη","station_name_en":"Ilioupoli","city":"Athens","country":"Greece","lines":["Μ2"],"wikipedia":null,"merged_from":3,"merged_names":null,"is_terminus":false,"routes":[{"ref":"Μ2","name":"Metro Μ2","route_color":"#da291c"}],"pass_count":1,"station_degree":2,"codes":null,"is_interchange":false,"station_role":"normal"},"geometry":{"type":"Point","coordinates":[23.744673566666666,37.929525266666666]},"__memberLines":{}},{"type":"Feature","properties":{"station_id":"n2251078982","station_name":"Peristeri","station_name_local":"Περιστέρι","station_name_en":"Peristeri","city":"Athens","country":"Greece","lines":["Μ2"],"wikipedia":null,"merged_from":3,"merged_names":null,"is_terminus":false,"routes":[{"ref":"Μ2","name":"Metro Μ2","route_color":"#da291c"}],"pass_count":1,"station_degree":2,"codes":null,"is_interchange":false,"station_role":"normal"},"geometry":{"type":"Point","coordinates":[23.6957764,38.0128951]},"__memberLines":{}},{"type":"Feature","properties":{"station_id":"n2253053668","station_name":"Faliro","station_name_local":"Φάληρο","station_name_en":"Faliro","city":"Athens","country":"Greece","lines":["Μ1"],"wikipedia":null,"merged_from":4,"merged_names":null,"is_terminus":false,"routes":[{"ref":"Μ1","name":"Metro Μ1","route_color":"#007a33"}],"pass_count":1,"station_degree":2,"codes":null,"is_interchange":false,"station_role":"normal"},"geometry":{"type":"Point","coordinates":[23.665246375,37.945072875]},"__memberLines":{}},{"type":"Feature","properties":{"station_id":"n2264918304","station_name":"Moschato","station_name_local":"Μοσχάτο","station_name_en":"Moschato","city":"Athens","country":"Greece","lines":["Μ1"],"wikipedia":null,"merged_from":3,"merged_names":null,"is_terminus":false,"routes":[{"ref":"Μ1","name":"Metro Μ1","route_color":"#007a33"}],"pass_count":1,"station_degree":2,"codes":null,"is_interchange":false,"station_role":"normal"},"geometry":{"type":"Point","coordinates":[23.680415800000002,37.95527166666667]},"__memberLines":{}},{"type":"Feature","properties":{"station_id":"n2264918788","station_name":"Kallithea","station_name_local":"Καλλιθέα","station_name_en":"Kallithea","city":"Athens","country":"Greece","lines":["Μ1"],"wikipedia":null,"merged_from":3,"merged_names":null,"is_terminus":false,"routes":[{"ref":"Μ1","name":"Metro Μ1","route_color":"#007a33"}],"pass_count":1,"station_degree":2,"codes":null,"is_interchange":false,"station_role":"normal"},"geometry":{"type":"Point","coordinates":[23.696967666666666,37.96042056666667]},"__memberLines":{}},{"type":"Feature","properties":{"station_id":"n2278849833","station_name":"Petralona","station_name_local":"Πετράλωνα","station_name_en":"Petralona","city":"Athens","country":"Greece","lines":["Μ1"],"wikipedia":null,"merged_from":3,"merged_names":null,"is_terminus":false,"routes":[{"ref":"Μ1","name":"Metro Μ1","route_color":"#007a33"}],"pass_count":1,"station_degree":2,"codes":null,"is_interchange":false,"station_role":"normal"},"geometry":{"type":"Point","coordinates":[23.709101000000004,37.96844806666667]},"__memberLines":{}},{"type":"Feature","properties":{"station_id":"n2393075541","station_name":"Argyroupoli","station_name_local":"Αργυρούπολη","station_name_en":"Argyroupoli","city":"Athens","country":"Greece","lines":["Μ2"],"wikipedia":null,"merged_from":3,"merged_names":null,"is_terminus":false,"routes":[{"ref":"Μ2","name":"Metro Μ2","route_color":"#da291c"}],"pass_count":1,"station_degree":2,"codes":null,"is_interchange":false,"station_role":"normal"},"geometry":{"type":"Point","coordinates":[23.745537166666665,37.902750166666664]},"__memberLines":{}},{"type":"Feature","properties":{"station_id":"n2393088478","station_name":"Elliniko","station_name_local":"Ελληνικό","station_name_en":"Elliniko","city":"Athens","country":"Greece","lines":["Μ2"],"wikipedia":null,"merged_from":3,"merged_names":null,"is_terminus":true,"routes":[{"ref":"Μ2","name":"Metro Μ2","route_color":"#da291c"}],"pass_count":1,"station_degree":1,"codes":null,"is_interchange":false,"station_role":"terminus"},"geometry":{"type":"Point","coordinates":[23.747118633333333,37.89259153333333]},"__memberLines":{}},{"type":"Feature","properties":{"station_id":"n2397979321","station_name":"Μανιάτικα","station_name_local":"Μανιάτικα","station_name_en":null,"city":"Athens","country":"Greece","lines":["Μ3"],"wikipedia":"el:Σταθμός Μανιάτικα (Μετρό Αθήνας)","merged_from":3,"merged_names":null,"is_terminus":false,"routes":[{"ref":"Μ3","name":"Metro Μ3","route_color":"#10069f"}],"pass_count":1,"station_degree":2,"codes":null,"is_interchange":false,"station_role":"normal"},"geometry":{"type":"Point","coordinates":[23.639784633333335,37.95955276666666]},"__memberLines":{}},{"type":"Feature","properties":{"station_id":"n2397979323","station_name":"Piraeus","station_name_local":"Πειραιάς","station_name_en":"Piraeus","city":"Athens","country":"Greece","lines":["Μ1","Μ3"],"wikipedia":"el:Σταθμός Πειραιάς (Μετρό Αθήνας)","merged_from":6,"merged_names":null,"is_terminus":false,"routes":[{"ref":"Μ1","name":"Metro Μ1","route_color":"#007a33"},{"ref":"Μ3","name":"Metro Μ3","route_color":"#10069f"}],"pass_count":2,"station_degree":3,"codes":null,"is_interchange":true,"station_role":"interchange"},"geometry":{"type":"Point","coordinates":[23.642807516666668,37.94810223333333]},"__memberLines":{}},{"type":"Feature","properties":{"station_id":"n2482314349","station_name":"Dafni","station_name_local":"Δάφνη","station_name_en":"Dafni","city":"Athens","country":"Greece","lines":["Μ2"],"wikipedia":null,"merged_from":3,"merged_names":null,"is_terminus":false,"routes":[{"ref":"Μ2","name":"Metro Μ2","route_color":"#da291c"}],"pass_count":1,"station_degree":2,"codes":null,"is_interchange":false,"station_role":"normal"},"geometry":{"type":"Point","coordinates":[23.737232733333332,37.949556199999996]},"__memberLines":{}},{"type":"Feature","properties":{"station_id":"n2541827616","station_name":"Koropi","station_name_local":"Κορωπί","station_name_en":"Koropi","city":"Athens","country":"Greece","lines":["Μ3"],"wikipedia":null,"merged_from":3,"merged_names":null,"is_terminus":false,"routes":[{"ref":"Μ3","name":"Metro Μ3","route_color":"#10069f"}],"pass_count":1,"station_degree":2,"codes":null,"is_interchange":false,"station_role":"normal"},"geometry":{"type":"Point","coordinates":[23.896037433333333,37.912719333333335]},"__memberLines":{}},{"type":"Feature","properties":{"station_id":"n2724167854","station_name":"Δημοτικό Θέατρο","station_name_local":"Δημοτικό Θέατρο","station_name_en":null,"city":"Athens","country":"Greece","lines":["Μ3"],"wikipedia":"el:Σταθμός Δημοτικό Θέατρο (Μετρό Αθήνας)","merged_from":3,"merged_names":null,"is_terminus":true,"routes":[{"ref":"Μ3","name":"Metro Μ3","route_color":"#10069f"}],"pass_count":1,"station_degree":1,"codes":null,"is_interchange":false,"station_role":"terminus"},"geometry":{"type":"Point","coordinates":[23.6475856,37.942902600000004]},"__memberLines":{}},{"type":"Feature","properties":{"station_id":"n3951242228","station_name":"Irakleio","station_name_local":"Ηράκλειο","station_name_en":"Irakleio","city":"Athens","country":"Greece","lines":["Μ1"],"wikipedia":null,"merged_from":3,"merged_names":null,"is_terminus":false,"routes":[{"ref":"Μ1","name":"Metro Μ1","route_color":"#007a33"}],"pass_count":1,"station_degree":2,"codes":null,"is_interchange":false,"station_role":"normal"},"geometry":{"type":"Point","coordinates":[23.7660468,38.046276766666665]},"__memberLines":{}},{"type":"Feature","properties":{"station_id":"n4689709365","station_name":"Eirini","station_name_local":"Ειρήνη","station_name_en":"Eirini","city":"Athens","country":"Greece","lines":["Μ1"],"wikipedia":null,"merged_from":4,"merged_names":null,"is_terminus":false,"routes":[{"ref":"Μ1","name":"Metro Μ1","route_color":"#007a33"}],"pass_count":1,"station_degree":2,"codes":null,"is_interchange":false,"station_role":"normal"},"geometry":{"type":"Point","coordinates":[23.783364025,38.043242575]},"__memberLines":{}},{"type":"Feature","properties":{"station_id":"n5374534510","station_name":"Syntagma","station_name_local":"Σύνταγμα","station_name_en":"Syntagma","city":"Athens","country":"Greece","lines":["Μ2","Μ3"],"wikipedia":null,"merged_from":5,"merged_names":null,"is_terminus":false,"routes":[{"ref":"Μ2","name":"Metro Μ2","route_color":"#da291c"},{"ref":"Μ3","name":"Metro Μ3","route_color":"#10069f"}],"pass_count":2,"station_degree":4,"codes":null,"is_interchange":true,"station_role":"interchange"},"geometry":{"type":"Point","coordinates":[23.735684159999998,37.975245619999995]},"__memberLines":{}},{"type":"Feature","properties":{"station_id":"n5374594466","station_name":"Omonia","station_name_local":"Ομόνοια","station_name_en":"Omonia","city":"Athens","country":"Greece","lines":["Μ1","Μ2"],"wikipedia":"el:Σταθμός Ομονοίας (Μετρό Αθήνας)","merged_from":6,"merged_names":null,"is_terminus":false,"routes":[{"ref":"Μ1","name":"Metro Μ1","route_color":"#007a33"},{"ref":"Μ2","name":"Metro Μ2","route_color":"#da291c"}],"pass_count":2,"station_degree":4,"codes":null,"is_interchange":true,"station_role":"interchange"},"geometry":{"type":"Point","coordinates":[23.72792078333333,37.98387436666667]},"__memberLines":{}},{"type":"Feature","properties":{"station_id":"n7478322246","station_name":"Katechaki","station_name_local":"Κατεχάκη","station_name_en":"Katechaki","city":"Athens","country":"Greece","lines":["Μ3"],"wikipedia":null,"merged_from":3,"merged_names":null,"is_terminus":false,"routes":[{"ref":"Μ3","name":"Metro Μ3","route_color":"#10069f"}],"pass_count":1,"station_degree":2,"codes":null,"is_interchange":false,"station_role":"normal"},"geometry":{"type":"Point","coordinates":[23.7767523,37.993753833333336]},"__memberLines":{}},{"type":"Feature","properties":{"station_id":"n7485440531","station_name":"Νίκαια","station_name_local":"Νίκαια","station_name_en":null,"city":"Athens","country":"Greece","lines":["Μ3"],"wikipedia":null,"merged_from":3,"merged_names":null,"is_terminus":false,"routes":[{"ref":"Μ3","name":"Metro Μ3","route_color":"#10069f"}],"pass_count":1,"station_degree":2,"codes":null,"is_interchange":false,"station_role":"normal"},"geometry":{"type":"Point","coordinates":[23.64733723333333,37.965756166666665]},"__memberLines":{}},{"type":"Feature","properties":{"station_id":"n7485440548","station_name":"Korydallos","station_name_local":"Κορυδαλλός","station_name_en":"Korydallos","city":"Athens","country":"Greece","lines":["Μ3"],"wikipedia":null,"merged_from":3,"merged_names":null,"is_terminus":false,"routes":[{"ref":"Μ3","name":"Metro Μ3","route_color":"#10069f"}],"pass_count":1,"station_degree":2,"codes":null,"is_interchange":false,"station_role":"normal"},"geometry":{"type":"Point","coordinates":[23.6504072,37.97704926666666]},"__memberLines":{}},{"type":"Feature","properties":{"station_id":"n7485440560","station_name":"Agia Varvara","station_name_local":"Αγία Βαρβάρα","station_name_en":"Agia Varvara","city":"Athens","country":"Greece","lines":["Μ3"],"wikipedia":null,"merged_from":3,"merged_names":null,"is_terminus":false,"routes":[{"ref":"Μ3","name":"Metro Μ3","route_color":"#10069f"}],"pass_count":1,"station_degree":2,"codes":null,"is_interchange":false,"station_role":"normal"},"geometry":{"type":"Point","coordinates":[23.659332966666668,37.9899662]},"__memberLines":{}}]}