{"type":"FeatureCollection","features":[{"type":"Feature","properties":{"route_ref":"Minimetrò","route_color":"#e6194b"},"geometry":{"type":"LineString","coordinates":[[12.390530544979212,43.110232796737684],[12.3878835,43.110517859999995],[12.385540766666667,43.11045829999999],[12.378823857191227,43.10963769373663],[12.378336966666666,43.10940793333334],[12.377489527945126,43.10880671182481],[12.37685268,43.10766264000001],[12.376558099999999,43.1073541],[12.375441200000004,43.106694250000004],[12.372362949019976,43.10425550969779],[12.371702018661699,43.10404720587164],[12.369041000000001,43.1044973],[12.366503285714286,43.10404321428572],[12.365972568932802,43.10405273324467],[12.365372900000004,43.10424615],[12.364860833333335,43.1046301],[12.3645735,43.1055771],[12.364393266666667,43.105839599999996],[12.360721200000002,43.1090812]]}}]}