{"type":"FeatureCollection","features":[{"type":"Feature","properties":{"route_ref":"3","route_color":"#4169e1"},"geometry":{"type":"LineString","coordinates":[[77.0584460311923,28.55199836122936],[77.06292894256731,28.557487739900974],[77.06462271424762,28.559709399772448],[77.06569754632507,28.56137065737906],[77.06658922522064,28.563546075684666],[77.06682604426462,28.564446343455312],[77.0671270860249,28.566444147780214],[77.06723285000001,28.568393659999998],[77.06715807259464,28.56975658843602],[77.06672188924216,28.57130818907138],[77.06540953600978,28.574112844015815],[77.06405858066238,28.5760963675652],[77.06356171258903,28.576667209977813],[77.06137750123816,28.578477062216407],[77.02929370000001,28.599832506250007],[77.0269398125,28.601441837500005],[77.02556090680226,28.602564907883703],[77.02354151428571,28.604846900000002],[77.02261481538461,28.60631681538462],[77.02208268086815,28.607700221366766],[77.02178997966364,28.609298956149782],[77.02180272561834,28.61144011817148],[77.02195125216383,28.612233594964838],[77.02342146449689,28.617326098956195],[77.02395677372587,28.618230002737334],[77.0244708545912,28.618707759839385],[77.02499390991336,28.619033034592416],[77.02605311961582,28.619322743604222],[77.03114769822636,28.6190760562352],[77.03407372413376,28.619417016528885],[77.03584616086957,28.619752143478262],[77.03969005714286,28.620269971428574],[77.04122528191157,28.620304248142222],[77.04358342178182,28.620182769700353],[77.04508010633646,28.62028029527401],[77.05121787296805,28.621035978571342],[77.05551102547444,28.621721609721376],[77.05838080625847,28.622382030854315],[77.06050097270634,28.622978803971417],[77.0732122,28.627886085714284],[77.07561081692451,28.62862788113019],[77.08101778,28.630849079999994],[77.08219819672922,28.631245217714724],[77.08565955253803,28.632639414114852],[77.08928784820871,28.633996239586676],[77.09138979536883,28.63457963564499],[77.09393693197765,28.63570485906417],[77.09665962998238,28.636629301578182],[77.09885532048932,28.637694914503083],[77.10093547900588,28.63887801886021],[77.10540536129221,28.64055459765226],[77.1092743,28.642256528571423],[77.11191570515726,28.643250571103145],[77.11488697639511,28.644940743813528],[77.11715085923906,28.646539617185695],[77.11856775866143,28.647369049322375],[77.12291781118829,28.649144347761762],[77.12737124718362,28.651576380428953],[77.12855345599999,28.651975259999997],[77.13343121762571,28.65320660648754],[77.13482274297014,28.653638829298345],[77.14268807142857,28.658006092857143],[77.1442544,28.658631999999997],[77.14477116875051,28.658699321173838],[77.14554252654995,28.658662900172793],[77.14646593333333,28.658391466666664],[77.15205624683627,28.654903098200467],[77.15307136828277,28.654327989475934],[77.15484069691408,28.65359330684975],[77.15612571290323,28.65288737419354],[77.17114497600001,28.643963192],[77.1729483224568,28.642807456869036],[77.17381435841911,28.64234761063916],[77.17438686054543,28.64215979436442],[77.17520289111903,28.64207809809695],[77.1760408916501,28.642150961318624],[77.19593472857143,28.645096957142854],[77.19722739761116,28.645235327263553],[77.19790015800145,28.645163651651558],[77.19840227243242,28.645003343766657],[77.20307874190742,28.64288808092531],[77.2049384920379,28.641277419819577],[77.20714363478261,28.640120191304344],[77.20960377006094,28.63863249142972],[77.21377050357144,28.636293657142854],[77.21881154182445,28.633233449894014],[77.22090312105263,28.632141189473682],[77.23141437406365,28.6260537174792],[77.23246173545868,28.625732708321518],[77.23906115,28.625407309999996],[77.240307673342,28.625165755897385],[77.2408601875,28.624926649999995],[77.2414106978444,28.624514128548228],[77.24432844204196,28.621838088069364],[77.2453435439458,28.62136145197569],[77.24726923971349,28.621103322920124],[77.25198697018357,28.620165227409554],[77.2526850492614,28.620117338422556],[77.25354841105526,28.620182850523285],[77.26080830959756,28.621077134599574],[77.26264805948135,28.62140386425883],[77.26529633941306,28.622278558598396],[77.26535493304085,28.62238346346675],[77.26548525366015,28.622343210845663],[77.26563990000001,28.622488749999995],[77.2688223,28.62361885],[77.27096310284811,28.624556129628438],[77.2718008,28.624822449999996],[77.27302116666667,28.6249044],[77.27416153262361,28.624573395861972],[77.27472139783386,28.62421861831414],[77.27525833043963,28.623670028431334],[77.28010923138004,28.617073590563383],[77.28074441068276,28.61642607409564],[77.28175504047974,28.61574166668591],[77.2823265558494,28.615207170161092],[77.28433560058798,28.61235992971835],[77.28656707082074,28.60971030843537],[77.28719693018729,28.608808764231522],[77.28838147387806,28.6063482727313],[77.2890841307188,28.605227011947623],[77.29061008282135,28.601879471107107],[77.29143215957458,28.60045320270509],[77.29315614855206,28.5969615319905],[77.29428795,28.595027924999997],[77.29552325509911,28.59254359419843],[77.29686563411923,28.590427429828438],[77.2972233321984,28.59003920183989],[77.29769225764161,28.58966772029535],[77.29829126082508,28.589368876746075],[77.29927339769428,28.589165300715177],[77.30169950377011,28.589107617822357],[77.30736185350487,28.589185441289843],[77.30840629632361,28.58898179886207],[77.30917766861589,28.58859368935934],[77.30990104560591,28.587882847215333],[77.31102901713169,28.585950027142548],[77.31341579172847,28.582519940287863],[77.3177178391665,28.578261890993698],[77.32198283933513,28.574574836980005],[77.32326429791242,28.57357958695452],[77.32848139594469,28.568662864202416],[77.32980770751149,28.567610463048407],[77.33165281923078,28.5663871576923],[77.33301049173652,28.565313886283786],[77.33521077848712,28.563126715898655],[77.33587101673453,28.562585074024792],[77.33654648496356,28.562201047528834],[77.33739914251983,28.56196752830635],[77.3380243323547,28.561935446764934],[77.33864500580972,28.56201269554564],[77.33931605016137,28.562231923902598],[77.33984322046372,28.562529722846044],[77.3422895848667,28.56430288531352],[77.34661448000001,28.56765409999999],[77.35103016153845,28.570994030769228],[77.35115023884411,28.571008723702757],[77.35126172923077,28.571169184615385],[77.35138214086803,28.571183536952834],[77.35195643230769,28.571694646153844],[77.35797098615602,28.576076365639512],[77.3695302471698,28.584802152830182],[77.37095329175335,28.585813139405797],[77.3740654,28.587473],[77.3744296134863,28.587768110482756],[77.37483394366066,28.588311423354913],[77.37513994571555,28.58924078589367],[77.37504539224534,28.590328034321843],[77.37484782904829,28.59076766200465],[77.37346100470586,28.592501538138343],[77.37309216384106,28.593241212901702],[77.37229937153067,28.595507906628523],[77.37218107142857,28.596707028571426],[77.3728303375,28.609760499999997],[77.37404365094339,28.622358696226414],[77.37416614285716,28.622971885714286],[77.37452893826983,28.623808547249133],[77.37472585664261,28.62456725662703],[77.37506987317099,28.628260069536488]]}},{"type":"Feature","properties":{"route_ref":"4","route_color":"#4169e1"},"geometry":{"type":"LineString","coordinates":[[77.3395187169627,28.64974372251621],[77.33409663729849,28.646440196616513],[77.33306165151929,28.646017223232363],[77.33191056100391,28.645838384864614],[77.3249505,28.64540465263158],[77.32025385461228,28.64523645297083],[77.31929180138492,28.645283726720127],[77.31828620164256,28.645633971760457],[77.31684608616297,28.646466610778674],[77.31502932394389,28.647290032874203],[77.31087888916399,28.648366732810157],[77.30928042659937,28.648686063025213],[77.30659506122994,28.648589735353035],[77.30458611208515,28.64818096697193],[77.30347098270185,28.647736851086353],[77.30297124390943,28.647438471949073],[77.30277999230769,28.647209488461538],[77.29332274545455,28.63986760909091],[77.2858276561853,28.6360210175886],[77.28215198135594,28.633508262711867],[77.27495170493755,28.62888653634709],[77.2739470124935,28.627934074803008],[77.27248961501174,28.625601307631015],[77.27188886771634,28.624928610111755],[77.27096352328115,28.624360110835973],[77.2677362,28.6231869]]}},{"type":"Feature","properties":{"route_ref":"2","route_color":"#ffdf00"},"geometry":{"type":"LineString","coordinates":[[77.0726621778807,28.459347641037766],[77.07355168402418,28.4603833708851],[77.0738796707204,28.461171253983323],[77.07393252931372,28.46183832096099],[77.07189621738613,28.47596404478321],[77.07219990911031,28.477230247775612],[77.07272807992086,28.47786301809348],[77.07337484937935,28.478329754909556],[77.07436971558813,28.478640849813242],[77.08560771086167,28.480428192293374],[77.0875463079304,28.480647958518148],[77.08915733530598,28.48057234614491],[77.09048866153846,28.48075247692308],[77.096210869496,28.48193937800705],[77.09774359976342,28.48207030509262],[77.10047325326597,28.48183328975295],[77.10296502874289,28.482135238542373],[77.1051606279005,28.482187545050675],[77.10687482433833,28.482569247594522],[77.10754636203849,28.48262733673009],[77.10834590434455,28.482586873903944],[77.10885850252518,28.482460683032905],[77.1101232168802,28.481829607298693],[77.11098341316624,28.481578863568355],[77.1123786,28.4815279],[77.11358934819206,28.48159935442745],[77.11774209612288,28.480784712127416],[77.11821572912028,28.480585251856386],[77.12010342,28.479306140000002],[77.12079797426739,28.4789655642609],[77.12115847151479,28.4788552902165],[77.12222656203683,28.478750259877245],[77.12304082832054,28.47892673410921],[77.12379748683628,28.479281617064824],[77.12635812896322,28.481221552305463],[77.13010867142857,28.48381360000001],[77.13144624009983,28.48511546249872],[77.13323717491745,28.486562391342307],[77.13506168708747,28.487553148550166],[77.13875083571428,28.489245285714286],[77.14216264817217,28.49099397601869],[77.14551335,28.492163350000006],[77.14711370689656,28.492824300000006],[77.15923388507446,28.49830807632413],[77.16331606225413,28.49995972436633],[77.16665294487466,28.501567307182412],[77.1684326532815,28.502235594836453],[77.16966774679366,28.502836327880015],[77.17191119149503,28.503731320453277],[77.17278525889104,28.504304804255778],[77.17341520669129,28.504883231566662],[77.17584755571158,28.507929787008244],[77.17645598279316,28.508477505206628],[77.17693911749595,28.508776472542348],[77.17745690081898,28.508967110225512],[77.17970145000001,28.509270850000004],[77.18105558260869,28.50987949565218],[77.18432821117429,28.511511775984673],[77.18798686453157,28.51402732372026],[77.1890674843537,28.514654639742005],[77.19038572900784,28.51495924510753],[77.19186759835775,28.514865103708818],[77.19362082857143,28.51501362857143],[77.19469345384616,28.51533151538462],[77.19621532857141,28.516055992857144],[77.19668886111111,28.51638547222223],[77.20079983508806,28.520108883095375],[77.20285666923077,28.52145897692308],[77.20315377475974,28.52174152442757],[77.20322904860488,28.521873964791478],[77.20317662560566,28.5219735107987],[77.20334515777928,28.522123525334926],[77.2033174758786,28.522233687842927],[77.20355423749999,28.522748490625002],[77.2049005625,28.527852309375],[77.20494878571428,28.528632885714288],[77.20469175516189,28.52959644840689],[77.20466806073205,28.530297973276635],[77.20595102903225,28.53476564516129],[77.20672761976374,28.538404269631414],[77.20644007256254,28.54246858520838],[77.20668384,28.543899999999997],[77.2068108884882,28.54658701271746],[77.20665848857068,28.54741102299871],[77.20598025701483,28.548736075501164],[77.20573016732679,28.55185871932202],[77.20614977886434,28.555201021877412],[77.20676512352941,28.557732411764707],[77.20741058527415,28.561652148809053],[77.20758473942635,28.563556656613645],[77.20759355819344,28.566028675048422],[77.20810069981455,28.567929566482185],[77.20949925855224,28.57503658861924],[77.21237607142857,28.58360968],[77.2124299941128,28.585330661035613],[77.21280622941175,28.589362773529412],[77.21272061666666,28.591002533333338],[77.21099487016696,28.59786346007442],[77.2120139245925,28.61283320155954],[77.21210664507042,28.613188014084507],[77.212074622781,28.61364026514506],[77.21214787605633,28.613726011267605],[77.21272279405167,28.62094545687063],[77.21303143988894,28.621626087881015],[77.21436432499999,28.623427868750003],[77.21574544999999,28.625652050000006],[77.21580235894712,28.627090116969676],[77.2159417740574,28.62761650594619],[77.21883154999999,28.631585874999995],[77.2192762,28.632404633333334],[77.22276286179421,28.64347294996103],[77.22653356190665,28.64925578455818],[77.23009880806626,28.65610893227036],[77.23025657727271,28.656746454545456],[77.23038705172317,28.659255915715935],[77.2300906673913,28.66313488695652],[77.22997341363636,28.66366009090909],[77.22935537490578,28.66526839923887],[77.22761114544582,28.668611755072337],[77.22614775499679,28.67222527360459],[77.2255156,28.6754609],[77.22421888691707,28.679292252914298],[77.22272820222517,28.681581011944633],[77.22260027511733,28.68190971185782],[77.22255282695794,28.68268572967729],[77.22169894479879,28.68650094728072],[77.2212881586287,28.68906699263452],[77.22124038087318,28.69043778165501],[77.2209866732973,28.69175215742175],[77.22064879999999,28.692452759999995],[77.22030700784383,28.692855617506172],[77.21960067142857,28.69329418571428],[77.21809026873647,28.69377752442345],[77.21446533090909,28.695203738181817],[77.1924034477554,28.70331184469015],[77.1893547238814,28.70465786108822],[77.18496071664507,28.70607051335482],[77.18249204295348,28.706395826102693],[77.18159243715792,28.706625434365495],[77.17950250031187,28.70734107403511],[77.17838032778626,28.707866783008168],[77.17769154170547,28.708388427586762],[77.16977875813514,28.717299338971674],[77.16694302570971,28.720632975776432],[77.1656812126967,28.721946113954814],[77.16447859727174,28.72343590851256],[77.16285053023255,28.7257580744186],[77.1590442,28.730820559999998],[77.15854084989753,28.7313541160021],[77.15775969558025,28.73184421575458],[77.15729101434786,28.732019540399133],[77.1548421124482,28.73257001863221],[77.15393954512625,28.732613238160994],[77.15321185871882,28.73251156822674],[77.15250642365112,28.732264405879263],[77.1518969,28.7319305],[77.1478474,28.72926556666667],[77.14710509999999,28.728965633333335],[77.14643140000001,28.72886473333333],[77.1457403,28.728891],[77.14500788468581,28.72905442388818],[77.1441392417071,28.729496647162392],[77.14163448424593,28.73102801302792],[77.14059687950596,28.731791194740826],[77.13888300418353,28.73359444462687],[77.13847204774487,28.73410528577705],[77.1381649862395,28.73485741937306],[77.13810665975235,28.73578550237682],[77.13827426017599,28.736388233226737],[77.13871945324026,28.737114214531708],[77.14063832709188,28.739262490182153],[77.14095580074505,28.739963042856004],[77.14106879981188,28.74054619435605],[77.14090482632938,28.74148668339045],[77.14052596972996,28.742201304113934],[77.13828261821851,28.74462716121477]]}},{"type":"Feature","properties":{"route_ref":"1","route_color":"#ff4040"},"geometry":{"type":"LineString","coordinates":[[77.4153715,28.670647100000004],[77.41443852772605,28.670965647141188],[77.40943818888888,28.67228000555556],[77.40673931141795,28.67335865330812],[77.40201937537569,28.67468626100838],[77.40056635244675,28.67500208555997],[77.399247361744,28.675103460275047],[77.39817602692308,28.675299703846157],[77.38704419739453,28.678268740908866],[77.38524079247718,28.678472163652103],[77.38029380210217,28.678659208821788],[77.36092072142857,28.677728328571433],[77.36081367677403,28.67778373981022],[77.36061228571428,28.677711814285722],[77.35947712048193,28.67771219992721],[77.35937854285714,28.67764575714286],[77.3553100242198,28.677429200782278],[77.35083227831325,28.677232014457832],[77.3507270686488,28.67728814035157],[77.35052697228915,28.67721865180723],[77.35042176384388,28.677274756236653],[77.35022166626506,28.67720528915663],[77.35011645903897,28.67726137212173],[77.34991636024095,28.677191926506023],[77.34981115423406,28.677247988006805],[77.34961105421687,28.67717856385542],[77.34950584942915,28.677234603891886],[77.34930574819276,28.67716520120482],[77.34920054462424,28.677221219776957],[77.34900044216867,28.677151838554217],[77.34889523981933,28.677207835662035],[77.34869513614458,28.677138475903615],[77.34858993501442,28.677194451547113],[77.34838983012048,28.677125113253013],[77.346551888,28.677044668000004],[77.3464444837969,28.677103497353272],[77.34624047599999,28.677031036000006],[77.344579612,28.676958332],[77.32827598143179,28.67651256346557],[77.32705063165228,28.676429209376213],[77.32498053019609,28.676101139127844],[77.32151454184304,28.67583143760197],[77.31777202077035,28.676053161089637],[77.31543471732986,28.67581025940349],[77.31270001,28.675700980000006],[77.30846341868819,28.675701070171478],[77.30198547647058,28.67536639411765],[77.29947489571248,28.675363625535606],[77.29855939801128,28.675125418636743],[77.29734470459874,28.674511240142635],[77.296377725,28.674201060000005],[77.28827216153846,28.67321192307692],[77.28773905397867,28.673212030637533],[77.28753893846154,28.673125876923077],[77.28294339079085,28.67265037183707],[77.28275084,28.672559264000004],[77.27913416097783,28.67199873659374],[77.26423630000065,28.66934028457064],[77.26049538992346,28.668392583674123],[77.2568849,28.667355],[77.25544587467992,28.667134783495378],[77.25438501553319,28.66720841780635],[77.2537642,28.667356199999997],[77.24701557750001,28.669575152500002],[77.24552151538461,28.67016464615385],[77.24287542297245,28.671554576687498],[77.2422272,28.6717258],[77.24138608313206,28.671811299999707],[77.23997435286479,28.6715013680626],[77.23343743914988,28.668971331889253],[77.23223726597726,28.668620501812462],[77.23050936006443,28.667801994363927],[77.2292926026214,28.667519364379086],[77.22714086442232,28.667432360537042],[77.2239069151396,28.66782080036047],[77.2228671558955,28.66765033853539],[77.22019929136961,28.666999051194324],[77.2190702,28.666921433333336],[77.21612820000001,28.667209350000004],[77.21311437264464,28.66781546162049],[77.21225022807522,28.667820300884383],[77.21104946088448,28.667584321514962],[77.2093493597361,28.666830702088557],[77.20808776999999,28.666499020000003],[77.20559240942961,28.66618719420259],[77.20394636690766,28.665728246273808],[77.2025659107111,28.665714411716845],[77.18771462381318,28.669683218234105],[77.18680018396844,28.669810524475047],[77.18166383719878,28.670085887359303],[77.18049010249999,28.6702594775],[77.17433714285714,28.671491185714288],[77.17290184038058,28.672041766063558],[77.1716586625,28.672645000000006],[77.1703355814049,28.673579390785704],[77.16881102400001,28.67505832],[77.16845704615385,28.675498161538464],[77.1667347008757,28.67830273101771],[77.16116168327737,28.69004079998392],[77.16044368393206,28.691160063141137],[77.15971901249999,28.6925745875],[77.15836510780181,28.69552281842973],[77.1575118911525,28.696444396076],[77.15629529267346,28.697019784252337],[77.15572985943597,28.697113374762505],[77.15490675053361,28.697078087876562],[77.15381517331382,28.696710315215544],[77.15046028868336,28.695050525915477],[77.14934714764384,28.694855922492962],[77.14826973705955,28.69490999016069],[77.14717511521879,28.6951973978683],[77.14600534639814,28.695642407662497],[77.1393340686653,28.69854258799041],[77.13771010662347,28.699468556115544],[77.13339106428573,28.702378153571434],[77.13216269284769,28.703330815729394],[77.12904920551303,28.70538462514559],[77.11572922238192,28.71471454845351],[77.108711588,28.719524220000004],[77.1071112,28.7207504]]}},{"type":"Feature","properties":{"route_ref":"7","route_color":"#fc8eac"},"geometry":{"type":"LineString","coordinates":[[77.27862825949612,28.69020363801221],[77.279786825,28.692700225],[77.28251798357783,28.69808985808396],[77.28305055410463,28.698800842135284],[77.28355354285715,28.699206457142857],[77.28400782,28.699896499999998],[77.28414461370514,28.700590246402424],[77.28402944811378,28.70134806436893],[77.28373398297288,28.701781087371888],[77.28320612936872,28.702131857382184],[77.28260784583054,28.70231099909803],[77.28194123633743,28.702368318731185],[77.28097216516066,28.702251705369246],[77.278428597933,28.702275999137218],[77.2602876726672,28.70376779321562],[77.25867670202611,28.704075718848372],[77.2575206923077,28.70443451538461],[77.25492043408444,28.705055716243567],[77.24614601764705,28.707739429411767],[77.24432804937943,28.708243935856085],[77.24421131069015,28.708212312634704],[77.24413799999999,28.708298],[77.24110454,28.70912062],[77.24032921273792,28.70911605137047],[77.2396685,28.708988349999995],[77.2388817942247,28.708396433482513],[77.23841821478268,28.70777203022293],[77.23774657194771,28.707192281936774],[77.23743470000001,28.70713585],[77.23737603840605,28.7070336662711],[77.23673157232895,28.70692703726999],[77.23604516226949,28.70697932317287],[77.23055245454545,28.708288368181815],[77.22891242371834,28.70855048841858],[77.22854596876674,28.708711501929272],[77.22804501361136,28.70912008227252],[77.227338041693,28.710716764792227],[77.22681694328875,28.71222512232452],[77.2270130228357,28.713489184810882],[77.22790290973873,28.716635223851615],[77.22785897282911,28.717552564409136],[77.22763357499998,28.718096674999995],[77.22702923026577,28.719023088987573],[77.22535637272806,28.72037359733835],[77.22233994812898,28.72195099371727],[77.20807562620675,28.726778632414497],[77.20209171664423,28.729217791761258],[77.20040501777777,28.72968456243657],[77.19654355210135,28.730409455113577],[77.19553562922756,28.730325387289117],[77.19331512993465,28.72956898372714],[77.19244164724667,28.729494626409856],[77.19148125915845,28.72966669544522],[77.18551305820489,28.73117831189404],[77.18499018623075,28.731229783327098],[77.18423772614797,28.731129457953166],[77.18349158729973,28.730769037508704],[77.183023014466,28.73037381870615],[77.18263099556025,28.729833082134554],[77.18236262941876,28.729106418377828],[77.1822149695804,28.727334217310226],[77.1818888,28.72572515],[77.18166976666667,28.72245463333333],[77.18169903969672,28.721027292018032],[77.18152763203302,28.717934203841136],[77.18138267974238,28.717333582648617],[77.18048388975598,28.715417937662732],[77.18022912,28.71288198],[77.18050713333334,28.71173616666667],[77.180833925,28.711400287500002],[77.18249406639322,28.710171040581],[77.18307006254042,28.709544100926514],[77.18339735665357,28.708183501720637],[77.1830471391699,28.706821793178833],[77.18092034059885,28.70485204404172],[77.17973099596438,28.704175983207694],[77.17864615619274,28.7036950321347],[77.17651695852021,28.7031832452576],[77.17439012008568,28.702967925272624],[77.17243489999998,28.70316547272727],[77.17139780434782,28.70316305217391],[77.16973439162557,28.703080601986336],[77.16822585488214,28.702856546914067],[77.16571673076922,28.702085038461533],[77.16506836230066,28.701789083485398],[77.16167715005906,28.700820257753],[77.15766459112552,28.70010151090557],[77.15710167744916,28.699800854105995],[77.15640136666666,28.6991753],[77.15504316018966,28.696770374169137],[77.153266728125,28.692263853125],[77.15250866289502,28.688423972921676],[77.15218055475032,28.687785260932575],[77.15164642725927,28.687226514611503],[77.15111432365622,28.686840358431244],[77.149399,28.6858582],[77.1474845,28.684423500000005],[77.14746066759992,28.684300951478004],[77.14723737058824,28.684258270588238],[77.14571773317225,28.68321390219709],[77.14364398605706,28.68152426158904],[77.14247585450259,28.680701501316484],[77.1418738052556,28.68006771206807],[77.14134124316287,28.67908404984128],[77.14053135616597,28.676710116066097],[77.13979498,28.67496032],[77.13877695908587,28.671368414939945],[77.13834831903958,28.67040484619072],[77.13754585234696,28.66944914101573],[77.13577738387097,28.66805858709677],[77.13150970000001,28.664434836363636],[77.13019678333333,28.663266333333326],[77.1294910117601,28.66249305016415],[77.12898814000002,28.661659771428567],[77.12787685283159,28.659148097295084],[77.12725613630921,28.65806712967132],[77.12627332735411,28.656879528042666],[77.12475981428572,28.6555083],[77.12413838556478,28.6546806013279],[77.12376159124835,28.653485596866407],[77.12379422919666,28.652493632840898],[77.12402191428573,28.651583700000003],[77.1256061752116,28.64851583164808],[77.12611398372093,28.64704093255814],[77.12789925862658,28.642645680107556],[77.1291984910888,28.639130510839614],[77.130148485,28.6357042],[77.13067740368636,28.634364339722865],[77.13111695987966,28.63364626853593],[77.13187675121475,28.63277906239749],[77.13264910585906,28.63167844327197],[77.13417516923077,28.62757922307693],[77.13453140534187,28.626943800413606],[77.13553545095046,28.62595794415705],[77.13643722306855,28.624381849738775],[77.1370422274691,28.62285604848928],[77.13718342065869,28.62190851480711],[77.13691668262223,28.616627017444024],[77.13684325376593,28.615932907879635],[77.1365517473659,28.615014845419683],[77.13649832348395,28.614370198461774],[77.13670701371345,28.61349596635924],[77.13710506666666,28.612794433333335],[77.13924106908483,28.610195946969647],[77.14077286305017,28.608123509821738],[77.14150454181717,28.607377160882166],[77.14292609,28.60632374],[77.14355085987276,28.60602215073462],[77.1451987,28.60555483846154],[77.15510199274127,28.604066642169798],[77.15637704116686,28.603784281144286],[77.15721072005651,28.603324659289278],[77.16060312577953,28.600785645824907],[77.16316037515307,28.59847897997811],[77.16537461525634,28.594728241825766],[77.16717836000001,28.592266900000002],[77.16854704792532,28.59071694757917],[77.1727259540941,28.584323536209002],[77.17407551338668,28.58198862970964],[77.17500715246788,28.57980613223583],[77.17643336479267,28.577276728717223],[77.17775424403314,28.57547318474034],[77.1794055260616,28.572953298465425],[77.18024974983467,28.57210824222362],[77.18123473168535,28.571380865009733],[77.18266908067655,28.570694625488514],[77.18435947881214,28.570409799928736],[77.19028456039392,28.570087075942237],[77.192501124,28.570553584000002],[77.19289150358452,28.57078934875475],[77.19352074375,28.571630837500006],[77.19377006129032,28.572123361290323],[77.19446812113263,28.574381327629894],[77.1946562110558,28.57470443037851],[77.19518376134123,28.57525640815033],[77.19580351336585,28.575552719878573],[77.19657481951526,28.57575902389525],[77.20061204877256,28.575870455978954],[77.20127623098443,28.575753051391704],[77.20193368395626,28.57551983499382],[77.20480902727273,28.574193631818183],[77.20549885,28.573979500000004],[77.20830936470588,28.573556588235295],[77.21183304770372,28.573406776889758],[77.21222818390811,28.573316696000997],[77.2141538,28.5723717],[77.21586787381545,28.570108714125258],[77.21728145622461,28.568988869260938],[77.2177218,28.568799115384618],[77.21904903333333,28.568617650000004],[77.22376889323422,28.568367724231322],[77.23081235804784,28.57061509550767],[77.23414567599457,28.571024885580258],[77.23577366905668,28.570585539258524],[77.2388455,28.569309200000003],[77.2407077966961,28.568773258128086],[77.24707674959205,28.56596090652084],[77.24861663333333,28.5657854],[77.25083727724042,28.565977869424973],[77.25163676051099,28.566220993969797],[77.25228533636363,28.566536181818183],[77.25348073933243,28.567390926695364],[77.25795969305844,28.571887561654762],[77.25962,28.573216199999997],[77.26038911818182,28.574122381818185],[77.2606077,28.574516400000004],[77.2605553375,28.57493705],[77.2603114320947,28.575506478899083],[77.25763227586206,28.587240748275864],[77.25754357895121,28.587316828979922],[77.25757080689655,28.5875055862069],[77.25748210971511,28.58758166686256],[77.25710917092212,28.589649169855058],[77.25688930190697,28.59293363711695],[77.25701906196623,28.594110241539674],[77.25753208871599,28.595556234810523],[77.25817024621219,28.596743212551925],[77.25876926258026,28.597628897605706],[77.25955855981576,28.59826430481307],[77.26052783358163,28.598781810800634],[77.27228239923761,28.604075621521368],[77.27373029588749,28.604679696858774],[77.27456901252933,28.604905047285513],[77.27613110161204,28.60506720906321],[77.2776767824954,28.604920834356626],[77.28480921428572,28.60255615714286],[77.2859094157955,28.602318478521127],[77.28718677994163,28.60232896842839],[77.2885542,28.602655728571428],[77.2924100129608,28.604201546812522],[77.29400771518824,28.60442218554032],[77.29890016666667,28.605890446666667],[77.2995368474156,28.60615028223557],[77.29965403333333,28.606121433333335],[77.2998195428338,28.60623691375807],[77.300416095,28.606353760000005],[77.30722705,28.608396900000006],[77.30809423844464,28.608791735659306],[77.30839752606259,28.609022510911956],[77.30858446379479,28.609313883087637],[77.30874050354666,28.61002040599144],[77.30868389684204,28.61077079823373],[77.30847153439862,28.61150226662391],[77.30848173143032,28.612022444184756],[77.30971902519661,28.616787949822932],[77.30970644744187,28.61747807749038],[77.3094887424788,28.618153144537473],[77.30882926230872,28.619005396365573],[77.30777243976978,28.619619766719122],[77.30358016428252,28.620452552301224],[77.30272331808459,28.620802482011094],[77.3021684451734,28.621295410628782],[77.30187123775792,28.62179008569156],[77.30172832251449,28.622347065131024],[77.30175803629545,28.62291735954037],[77.30189260855119,28.6233294360273],[77.30221184664693,28.623826618376285],[77.30254347451425,28.624141014842227],[77.30308285141385,28.624459048474375],[77.30571759631607,28.625413415130485],[77.30795939873711,28.62609380928431],[77.30854556637367,28.62618231266756],[77.31005213867516,28.62616004345088],[77.31065769933653,28.626247192063865],[77.31157213558858,28.626769864737753],[77.31201483263915,28.627355702077754],[77.31219142286947,28.628047185220936],[77.31210277076768,28.628725918034945],[77.30942106555078,28.634933449753326],[77.30934918490323,28.635293672553054],[77.30940150222565,28.635818122956373],[77.30975528945716,28.6364882420097],[77.31044066674778,28.636995889299037],[77.31106393440828,28.637182587964205],[77.31213382885414,28.63720495581229],[77.31286435945017,28.637334229733927],[77.31356735887313,28.63762472649083],[77.31409011147508,28.63805302882881],[77.31466549144483,28.639059729031924],[77.31515351989101,28.640428132286075],[77.31599107382705,28.641433600872173],[77.31643113749999,28.642202550000007],[77.31716926361362,28.644555166253685],[77.31719494169413,28.644792372857196],[77.31701535987895,28.64548968623673],[77.31662895234277,28.64597020365001],[77.31598979526602,28.646423785736815],[77.31409499923159,28.647280434158763],[77.31341115550929,28.64747938374539],[77.31224490724591,28.647549716019917],[77.30987441681718,28.647065725551297],[77.30938576109241,28.64703285459803],[77.30858008930795,28.647143264141004],[77.30784041205443,28.647444281223958],[77.30735534843363,28.647788999996756],[77.30658105205276,28.64858491757952],[77.30582034349528,28.649771700888838],[77.3049257,28.650847966666664],[77.30156575454545,28.65422312727272],[77.30076506244666,28.654742155442325],[77.3002505,28.65489985],[77.29933830875396,28.654862264420203],[77.29691364994265,28.65388181881636],[77.29460248473758,28.653388316344486],[77.29353046298044,28.653516691833627],[77.29306094284938,28.653724414661387],[77.2923274272369,28.65431484093899],[77.29130984781793,28.65634377229297],[77.28442373846154,28.66527224615384],[77.28354263461537,28.666313176923072],[77.2819933317433,28.667855334795625],[77.28162247001322,28.668354549815174],[77.2811589428652,28.66919608298513],[77.28068327323783,28.67124742258058],[77.28002670872071,28.671981721400716],[77.27933597571798,28.672379283478556],[77.27869802776834,28.672540109119023],[77.27805665496354,28.672572188865818],[77.27429124778592,28.671849637734624],[77.27258253454683,28.671719227621487],[77.27194936719977,28.67191499313652],[77.27138820061633,28.67226618433854],[77.27086872993311,28.67287552037518],[77.2706093969656,28.673460118738774],[77.27060173247261,28.674177083941032],[77.27086528835437,28.67494594864696],[77.27444808499763,28.681601462530647],[77.2754176182602,28.684403788467073],[77.27666019773086,28.686982131495956],[77.27812779385816,28.68924432372668],[77.2814934036494,28.695730900617804],[77.28264743202291,28.69713546401005],[77.28404445401242,28.699574415470217],[77.2842104263158,28.699697052631578],[77.28612673314859,28.70242403874818],[77.28858323499999,28.706188595000004],[77.29077279317461,28.710388988405434],[77.2908251579301,28.71081822947884],[77.29074140838223,28.711354336673484],[77.29013134343614,28.712881423949256],[77.2899067941097,28.714257262207134],[77.28924485336712,28.724850091064262]]}},{"type":"Feature","properties":{"route_ref":"5","route_color":"#008000"},"geometry":{"type":"MultiLineString","coordinates":[[[77.1691376,28.6726319],[77.16799289966302,28.671717298898937],[77.16659435442381,28.67090272572173],[77.16551639999999,28.670555100000005],[77.16470456256752,28.670551704010734],[77.16380728749999,28.670769412500004],[77.16209507788669,28.67151311292228],[77.16151234583842,28.671656011868862],[77.16043401317489,28.67168803032405],[77.15828927523233,28.67130784838399],[77.15742018284278,28.671260265007657],[77.15497856153846,28.671586084615388],[77.15140134553009,28.672202460009736],[77.14494470920799,28.67307989455456],[77.1427248219233,28.673728027041918],[77.14185023417924,28.673887340798075],[77.13760768295327,28.67436078280975],[77.13460900227273,28.67440241363637],[77.1304615205354,28.674988057523887],[77.12505493793104,28.67560861379311],[77.10985851309634,28.677686112924256],[77.09420038146543,28.679593725304194],[77.090734144,28.679904336000007],[77.07400412270687,28.681828796061076],[77.07116751501115,28.6822838762698],[77.05933404849833,28.68238520839014],[77.05769743668556,28.68218845742501],[77.05593440454545,28.68213094545455],[77.02964194520936,28.682390391016018],[77.02397240979832,28.682764482359666],[77.00267056000001,28.68461024],[76.99632919606674,28.68524392832075],[76.99238598387097,28.685478725806455],[76.97720148484095,28.68682317753027],[76.9739234685047,28.687186128069694],[76.9635195,28.6879496],[76.95935769750236,28.688502752256085],[76.93349667857143,28.69084140714286],[76.9314264,28.691228233333337],[76.92912029584603,28.691968436315943],[76.91916170431942,28.697368323957797]],[[77.1513566917159,28.654543217351463],[77.15327392611603,28.657065515541714],[77.15425583333335,28.658879566666663],[77.15641029728772,28.661242663922604],[77.15806520526316,28.662391799999995],[77.15969988421054,28.66336414736842],[77.16336945098202,28.66530641707742],[77.16397723832509,28.6659489952401],[77.16425285313439,28.66658292354435],[77.16431139535375,28.667336715244385],[77.16410428929217,28.66815498930321],[77.16370782281439,28.66869560839168],[77.16320749062143,28.669088741336964],[77.16161388264719,28.66984143779422],[77.15901255168296,28.67087680823174],[77.15769857460339,28.671196387000368],[77.15593415142936,28.67146511575969]]]}},{"type":"Feature","properties":{"route_ref":"6","route_color":"#553592"},"geometry":{"type":"LineString","coordinates":[[77.228075,28.668686],[77.22954018666665,28.666705493333332],[77.23136592057604,28.663975009175495],[77.23170772132453,28.66365047964093],[77.23549911577298,28.66105324451835],[77.23592555714286,28.66056517142857],[77.23659094,28.65933566],[77.23674554444445,28.658074455555553],[77.23670567499998,28.6569532],[77.23647343813228,28.655859873465023],[77.23630252111498,28.653602653697288],[77.23638820551592,28.65240064992654],[77.23687826387135,28.651081752310038],[77.2381639514736,28.649366166117023],[77.23912524912004,28.648310151937633],[77.23934929999999,28.647868449999997],[77.23948926973684,28.64734065131579],[77.24031483113964,28.6408198668605],[77.24120733489339,28.63786221176347],[77.24129656923076,28.636931853846157],[77.24100459279356,28.62792494568358],[77.24064075,28.62727515],[77.239657631856,28.626492328308853],[77.23830936879295,28.625726513389083],[77.2369926,28.625401033333333],[77.22031491329294,28.62622203000416],[77.2197231645759,28.6261554935713],[77.21948588651416,28.625942761907478],[77.21933092721221,28.62542268962613],[77.21905323846153,28.62085796923077],[77.21883913727557,28.62010719702758],[77.21863165421075,28.619872334774954],[77.21826155705824,28.619656932198872],[77.21350987634821,28.617595271172455],[77.21297405918635,28.617215633581953],[77.21241094659248,28.6161222998398],[77.2124236240275,28.61479989060248],[77.21254431960169,28.614524283963423],[77.21302975018374,28.61397668799246],[77.22441736854462,28.605251429677313],[77.22997494281604,28.60169898989506],[77.23024484,28.60128506],[77.23168371350036,28.595351584134306],[77.2330650826923,28.591148736538464],[77.23380430507507,28.588247124644532],[77.23453329658832,28.58736524611914],[77.2379418859471,28.584922245038477],[77.23920748467566,28.583338130116434],[77.23931477142855,28.58277652857143],[77.23915962857143,28.58145367142857],[77.23884672016423,28.58034868718375],[77.23871932564633,28.579245439129462],[77.23868843095775,28.577376503160963],[77.23880638333333,28.575472883333333],[77.23866675846536,28.574584169069823],[77.23834739428573,28.57381730285714],[77.23519163355377,28.568572420772206],[77.23470755416805,28.567339613064444],[77.23443449342955,28.566140488587127],[77.23424156070412,28.564055624977822],[77.23436959255615,28.56251014628275],[77.23463567087751,28.561369262136456],[77.23515968669872,28.560438361278955],[77.23573145091417,28.559793516507924],[77.23643154712808,28.559304643833695],[77.23730885423292,28.558886439349305],[77.23858282172051,28.558496257904196],[77.23932785035358,28.558136179241004],[77.2398681884366,28.55768115506666],[77.2416249816825,28.55564590724228],[77.24245067749274,28.554933926476206],[77.2452083990935,28.552982539193394],[77.2475654092635,28.551773500621007],[77.24891216494787,28.551505844816692],[77.25194672763367,28.551421256466675],[77.25325669610258,28.55155000096755],[77.25550584584911,28.551943538300645],[77.25645544079659,28.55185737348249],[77.2572958374964,28.55152957154833],[77.25815222539325,28.55083664059175],[77.25909572887153,28.549486118283976],[77.26015203660646,28.548441421328725],[77.26284793873329,28.54669496559871],[77.26345008559606,28.546149066529736],[77.26376325,28.54566551666666],[77.26424212553528,28.544368886663165],[77.26550092999841,28.541582937665464],[77.26614024963484,28.540896950991712],[77.26696401016204,28.54043818946505],[77.26803212432142,28.540197894593963],[77.268555349483,28.54019836290649],[77.26934744589612,28.540366619294648],[77.27329186515186,28.54201756118644],[77.27615848880782,28.543520860717923],[77.27674791924157,28.543728265797988],[77.27766472092993,28.543834834337407],[77.27822547180668,28.543776135456312],[77.2790203,28.543545149999993],[77.27961681158794,28.543146640762412],[77.28038389999999,28.542343879999997],[77.2822094111111,28.539854911111107],[77.28589015916369,28.53358117056394],[77.28748844540335,28.52993640627313],[77.28818800184777,28.528742640349954],[77.28869761307712,28.52806801078269],[77.28970199862549,28.52701212853584],[77.29147985262568,28.52539604427577],[77.29223924644945,28.524359386161898],[77.29506238571427,28.518498828571424],[77.30012387454761,28.50641489079352],[77.30030727673345,28.505630315474324],[77.30024639532435,28.504920725157746],[77.29881958405711,28.501325346450628],[77.29871358538314,28.50020243254527],[77.29894135072554,28.499529914977344],[77.29936498323879,28.498895321500356],[77.30167022260649,28.49725295361637],[77.30215359147252,28.49657496910114],[77.3023392282569,28.49614014950064],[77.30398736666666,28.488757433333337],[77.30465635085629,28.482182477096025],[77.30521463586281,28.473825385665297],[77.30542261411959,28.47320442712597],[77.30614362556823,28.471867883581176],[77.30631692,28.47112144],[77.30671534490466,28.464972353194284],[77.30747834210527,28.456715810526315],[77.30821716030998,28.446816242456293],[77.30861471470587,28.44324215882353],[77.31096152134636,28.41546473547546],[77.3114622,28.4108364],[77.31170597519086,28.407660623145265],[77.31177439940902,28.40477718179105],[77.31216800909091,28.40091012727273],[77.31290290461013,28.391461750969142],[77.31348131249999,28.3855617875],[77.31413740301309,28.377292055032576],[77.3145797,28.374162435714286],[77.31656068905386,28.35043436637681],[77.31618234052766,28.34872868639133],[77.31610181280317,28.347668862453503],[77.31638640053058,28.344360876577927],[77.31683489351816,28.34241295813631],[77.31645156915876,28.340008736141844]]}},{"type":"Feature","properties":{"route_ref":"AEx","route_color":"#ff8c00"},"geometry":{"type":"LineString","coordinates":[[77.04530998072832,28.550828319861704],[77.04840659838872,28.54868372197834],[77.0500905,28.547947833333335],[77.05098269999999,28.54774400000001],[77.05231845,28.547682200000004],[77.0536939375,28.5478648125],[77.05462614285715,28.54811342857143],[77.05553727272728,28.548487600000005],[77.05636721166452,28.549023408789704],[77.06049987336439,28.55406389568653],[77.06207901909455,28.555713415478696],[77.06387683642564,28.55732077013866],[77.06544494770009,28.558190067866388],[77.06708533414582,28.558736399006882],[77.0691508482835,28.559038732324705],[77.07105417167078,28.55911273048959],[77.07625884640845,28.558534232477932],[77.0816298007494,28.55756648851636],[77.10010620623713,28.553498506371984],[77.12003424037975,28.548896927576447],[77.12210925640197,28.548720798816564],[77.1234343579135,28.548898357836503],[77.12528989823853,28.549336062901205],[77.12718720834998,28.550174225766863],[77.1289999375,28.551395925000005],[77.1308998,28.55345640000001],[77.13178328571429,28.5552434],[77.13290510759334,28.558676226305863],[77.13312001229964,28.559392247392953],[77.1332405354479,28.560926290969203],[77.1330798812465,28.562082237382306],[77.13237885798209,28.564611667434004],[77.13226922673846,28.56646897767036],[77.1324957670704,28.56767586257703],[77.13313714338923,28.56916821268032],[77.13361856064495,28.569951520975266],[77.13505559116165,28.571385157018298],[77.13775009670755,28.57313513366958],[77.14151981250001,28.575011687500005],[77.14229637578781,28.575619872146852],[77.14302221512303,28.576347041808],[77.14359965019717,28.57718205070378],[77.14403144037114,28.57806526051807],[77.14589237800901,28.583624399914022],[77.14657738685126,28.584749713583477],[77.14742828569058,28.585723876374594],[77.14838533925396,28.586491133076297],[77.14986961654186,28.587291359939666],[77.1558301934324,28.589773647094844],[77.15917316764755,28.590852266259752],[77.16286818125,28.5923665625],[77.16385567812192,28.592884358347085],[77.16492564014291,28.593714347122003],[77.16561091331447,28.59450578056123],[77.16627235870602,28.59572260546765],[77.16698792305982,28.59859764127761],[77.16741275986597,28.599863135026556],[77.17050367058823,28.60510681176471],[77.17095579390951,28.60607070563843],[77.17150262866066,28.607683034001532],[77.17199889799151,28.60865362323846],[77.17254286729955,28.60946430453823],[77.17412413912461,28.611403538989652],[77.17580440144528,28.61274981907806],[77.17843382352763,28.61431749747667],[77.19580822222223,28.621924666666672],[77.21440882702704,28.630264310810812],[77.2149069,28.63056246363637],[77.21548336957757,28.631053359099525],[77.21598594160984,28.631687178237986],[77.22311424744886,28.642480296137293]]}},{"type":"Feature","properties":{"route_ref":"9","route_color":"#838996"},"geometry":{"type":"LineString","coordinates":[[77.02236827571156,28.615911708533666],[77.02244678863595,28.617984138759297],[77.02215560521384,28.61921273968673],[77.02177748865374,28.61972832218428],[77.02095981762196,28.620272270118793],[77.02031365123345,28.620500203134586],[77.01950995,28.620558499999994],[77.01871337665465,28.620403650459878],[77.01718146352587,28.619705359549233],[77.01408796835793,28.618566745267298],[77.00637828571428,28.61592306428571],[77.00532538895496,28.615502393314593],[77.00287554134383,28.61423786623401],[77.00045387531189,28.61348334406321],[76.99946764789688,28.613311793749936],[76.99797659705882,28.61319952647058],[76.9949807189358,28.61262053083354],[76.99242429839349,28.61237104495799],[76.98879654712557,28.612359268378448],[76.98624605,28.612458349999997],[76.97854756219569,28.611909450826793]]}},{"type":"Feature","properties":{"route_ref":"8","route_color":"#cc338b"},"geometry":{"type":"MultiLineString","coordinates":[[[77.0843102,28.6478016],[77.08299074523546,28.643556938350734],[77.08076065225565,28.63739814461803],[77.08030520667438,28.636694525916308],[77.07926213333334,28.6355671],[77.0775651,28.6333274],[77.0772623,28.632678309090906],[77.0772077,28.63204309090909],[77.07736872666668,28.63069862],[77.07773576875,28.629422093750005],[77.07945916341464,28.625831697560976],[77.07977953076923,28.62538085961539],[77.08315738590304,28.621894744842173],[77.08508521082327,28.618959798357718],[77.08533123894217,28.618454259935643],[77.0856335891991,28.617380410048323],[77.08526164548456,28.61592182199378],[77.08416481935484,28.613310341935485],[77.08263496016357,28.602991550850128],[77.08114726666666,28.596130661111108],[77.08111875454547,28.595598527272728],[77.08138028181818,28.59300909090909],[77.0817358823183,28.590904182565648],[77.08336966,28.588453060000006],[77.0843012142623,28.587502209512767],[77.08468707884616,28.587220265384616],[77.09396147999999,28.582560390000005],[77.09685843999999,28.58124567],[77.10236912484163,28.579669357643137],[77.10406435544257,28.579010756019816],[77.10584759963679,28.578636723740566],[77.10866955921963,28.577732681802388],[77.11123400053668,28.577081896785934],[77.1139669625,28.576163212500003],[77.11861703017198,28.575192692986278],[77.12003002135712,28.574815338635528],[77.12085641846687,28.57439961815427],[77.12138316076923,28.573709402957228],[77.12193348058973,28.571330850705152],[77.1220106055798,28.56986869750288],[77.121938,28.5684584],[77.12316111428572,28.56245162857143],[77.12341818481741,28.561972165624514],[77.1239698,28.561315999999998],[77.1243934,28.5609426],[77.12490085,28.560715081250002],[77.12648520769231,28.560575757692312],[77.12850659230769,28.560826142307693],[77.13248786443891,28.561887453918665],[77.1333591200846,28.561987496670167],[77.13447732880351,28.561982428195236],[77.14044749038928,28.560805637133512],[77.14265392534644,28.560515239026312],[77.14534672958665,28.559786200858728],[77.15029587062685,28.558806589431743],[77.162903178125,28.557682987500005],[77.16585805668844,28.55784592490461],[77.17010134609055,28.55893870593643],[77.1707218834988,28.559016542697375],[77.17198552743798,28.558985908095448],[77.17302861667343,28.558636225129145],[77.17361471438566,28.558289896303908],[77.17461,28.557272120000004],[77.17528732018349,28.556721433944958],[77.184255,28.550962152941178],[77.187626159375,28.549483665625],[77.19234900367165,28.547678907541183],[77.19566866579497,28.54666511556756],[77.1979710779621,28.545842918260096],[77.20174313882151,28.5441045583211],[77.20392470751187,28.543495046534673],[77.20621825956842,28.543194468911803],[77.2223395201545,28.54230910443693],[77.22639649624384,28.541965056521807],[77.22924485384615,28.541232323076926],[77.2343213701462,28.54075565310897],[77.23616092406455,28.540964818438205],[77.23864873661992,28.541956038422512],[77.24847592727272,28.544900063636366],[77.24991852173913,28.54539119565218],[77.25177602727273,28.546160445454547],[77.2529294413564,28.546739800260536],[77.25434170000001,28.547782528571428],[77.25692403986719,28.550358207279597],[77.25788990041391,28.551123977497472],[77.25944263664924,28.551876953161166],[77.26199928,28.552787520000003],[77.2635079918461,28.553444841742643],[77.26409605384616,28.55383420769231],[77.26583339197589,28.555336091423268],[77.26899851047682,28.556978942474057],[77.27144012308607,28.558189712407152],[77.27711762542215,28.560791470055705],[77.27845844002988,28.56101287676653],[77.28273161704932,28.561033322356646],[77.28346805,28.561138150000005],[77.28452359794348,28.56152331021613],[77.28531274,28.561942680000005],[77.28695429398931,28.56375201637919],[77.28808627744947,28.564630330468916],[77.28870912448035,28.56490519721704],[77.28962601141781,28.565002528189677],[77.29042954995292,28.564781400755937],[77.29111554644226,28.56439792105195],[77.29157756568735,28.56390159198701],[77.29187249504238,28.563247209587267],[77.29196867343357,28.562620001921555],[77.29186834994647,28.56014320812726],[77.29173897264867,28.559295090392617],[77.29136316793594,28.558019339609494],[77.29141586247331,28.556918105682893],[77.29173171250001,28.555977425000005],[77.29296710987512,28.55330651129086],[77.29325463333335,28.55209],[77.29363495655414,28.551027311941542],[77.29822916442762,28.543059239294458],[77.30067961,28.539706630000005],[77.30114179179066,28.539209649243013],[77.3017922851057,28.538756001922163],[77.3030704696208,28.538174653882827],[77.30399379358029,28.538037217852864],[77.30462881851392,28.538082652228784],[77.30522015780612,28.538241215655216],[77.30618281341907,28.538805984110496],[77.30693318124999,28.539553225000002],[77.30850595250861,28.541403882699004],[77.30926708143798,28.542140311895075],[77.31302007226182,28.545450118952406],[77.31786665,28.549464907142855],[77.31919247696572,28.55070418948405],[77.32058767284788,28.552196800153702],[77.32477952064676,28.5552106909134],[77.32691808728067,28.556349832856405],[77.33376259238608,28.55914835976746],[77.33457899999999,28.559645133333337],[77.33509698784964,28.560401175700953],[77.33524768360714,28.56087747361858],[77.33527270859281,28.561539021757863],[77.33493311076528,28.562450170426857],[77.33383573031081,28.56390421135333]],[[77.11827734837127,28.698094006075213],[77.12145963560683,28.69902442007989],[77.12518759711094,28.70041137858933],[77.12801259738714,28.70204372503086],[77.13116430509363,28.704471754990337],[77.1335018,28.707042592307683],[77.13542064292147,28.7087022569911],[77.13730391564037,28.71080693296803],[77.13812198635922,28.711972515023813],[77.1387904811996,28.71335963652384],[77.1392883651343,28.71487250309617],[77.14067654593542,28.721258101251166],[77.14090408317584,28.72195474782108],[77.14187365000001,28.72408085],[77.14296200000001,28.725580899999997],[77.1441061152165,28.726742631193968],[77.14577339096829,28.728086895895764],[77.14648630901145,28.72854028109779],[77.14818838973954,28.729380068122804],[77.15085636721449,28.731173777691566],[77.15241195624999,28.732462399999996],[77.15702313125,28.735240118749996],[77.16061545306938,28.73699757286071],[77.16178095509025,28.73729189388212],[77.16378803125001,28.737371531249995],[77.16579641887103,28.737376682274892],[77.1673066,28.737126471428567],[77.17043130543287,28.736329076424067],[77.17266386100765,28.735633737051476],[77.17735734,28.733871639999997],[77.18065142176924,28.73240579529771],[77.18110071052975,28.73206774298526],[77.18151393193966,28.731596909092488],[77.18180361085048,28.731051921616068],[77.18194979444367,28.730464353679437],[77.1816387,28.724089]]]}}]}