{"type":"FeatureCollection","features":[{"type":"Feature","properties":{"route_ref":"E2","route_color":"#bcbe00"},"geometry":{"type":"MultiLineString","coordinates":[[[-1.9814268477114385,43.31300410503171],[-1.9812119015080178,43.31215802632771],[-1.9814003189434894,43.312994782099075],[-1.9812294628157991,43.311742361267086],[-1.9815418909151303,43.31061688556182],[-1.9822285292002428,43.306909472220255],[-1.9828644652358078,43.305528909924035],[-1.9829429490359567,43.30439806964007],[-1.9825265400802847,43.303557185270016],[-1.9816238703801676,43.302753705052744],[-1.9806180643537024,43.30228529168902],[-1.978757504740303,43.301594709930214],[-1.9774583619148756,43.30144475884298],[-1.976298747540655,43.30166987961646],[-1.9739178076319626,43.302633273618035],[-1.9706600992650505,43.30473270510477],[-1.969805173283069,43.3056745183734],[-1.9690636032817925,43.30715198019847],[-1.9691199535239476,43.307979159686354],[-1.9694907332507536,43.309025913547096],[-1.969273524909393,43.30970135250032],[-1.9683947737342944,43.31027846377059],[-1.9659197588074029,43.31153672507301],[-1.962986311889199,43.31245957325065],[-1.9596420731083033,43.3126659870713],[-1.957635031471417,43.31307153150107],[-1.9561562652220583,43.313603287065945],[-1.9542329939338856,43.3145677817521],[-1.9522047411828523,43.315407480306995],[-1.9411973442211514,43.31823883312481],[-1.940156762216953,43.31864895823991],[-1.9385695148328184,43.31969709388301],[-1.936519391930693,43.320241657116455],[-1.9352944231094018,43.320469669482755],[-1.9347076792500388,43.32046016300382],[-1.9339955725322042,43.3202876599627],[-1.933161681898978,43.31975598515774],[-1.9327718703870924,43.31908833813246],[-1.932672109096573,43.31772510991509],[-1.9324885537165815,43.317341032202734],[-1.9321119440358185,43.316942215816844],[-1.9293945504544183,43.31545770742847],[-1.9278475227046001,43.314917006056],[-1.9264252280553698,43.31479398715422],[-1.925299784724317,43.315007346826796],[-1.9244136233224114,43.315417893753704],[-1.9225655982074656,43.316961589593554],[-1.9217086613992849,43.31740932416856],[-1.9206224050675555,43.31765195508348],[-1.9195378988402938,43.31763865770029],[-1.918583397686971,43.31741107762481],[-1.916569774813896,43.316654767438564],[-1.912384628973854,43.31439473924659],[-1.9110148113377217,43.31344067790135],[-1.909997432710819,43.312868855743375],[-1.9079707117418714,43.312433655172626],[-1.906622825559832,43.31237393086435],[-1.906133702687197,43.31240155047022],[-1.9072739,43.3124068],[-1.9039332793847785,43.3124198036222],[-1.9027776130571514,43.31225997048434],[-1.9004439492460237,43.31150163663845],[-1.895416850222909,43.310077869219235],[-1.892606844775009,43.308563958029154],[-1.8917653413756907,43.30826660603372],[-1.8912693403419403,43.30816995826005],[-1.88681362744003,43.30830106314779],[-1.8771632253481119,43.308739344137315],[-1.8764606642252162,43.30897442008991],[-1.8757353256200247,43.30956729663269],[-1.8719002666666693,43.31414949999999],[-1.8710622625000013,43.3154354],[-1.86938505,43.318815],[-1.8688496,43.31957155],[-1.868148210644695,43.32029782443064],[-1.8669198863512062,43.321170630603504],[-1.862778267862766,43.3233304136097],[-1.8570469749999972,43.32714485],[-1.8554049210493668,43.32809292989895],[-1.853710455555554,43.32871213333334],[-1.8470942750000006,43.33083814999999],[-1.8462506203396662,43.331012355082116],[-1.8453118379522155,43.331027729188605],[-1.8417752200000026,43.33015991999999],[-1.8398147023242106,43.32941480131052],[-1.838273,43.3284918],[-1.8351576134780843,43.326163829094256],[-1.8337381616723716,43.32542348507382],[-1.8329784025274816,43.325142547953924],[-1.8319348632006511,43.32486529739564],[-1.8300315546559947,43.32465433596454],[-1.8285732806292083,43.32475553231854],[-1.8272106300748245,43.32507951333388],[-1.8228652815669313,43.326873820840255],[-1.8140557799999995,43.33207084],[-1.8093572916612208,43.33380139641098],[-1.8079396750000032,43.33454965],[-1.8053859550079465,43.336118528938094],[-1.8046750609420064,43.33635701079197],[-1.8023674923360191,43.33675286639801],[-1.8013807873980754,43.337005884405876],[-1.797461200000003,43.3387573],[-1.7967415908833568,43.339416092198164],[-1.7958582851669067,43.3416780549325],[-1.7961057,43.34105460000001],[-1.7956735371065424,43.34197931655753],[-1.7951744499999946,43.34252935],[-1.7849380999999997,43.35052183333333],[-1.7822986280200845,43.35237484546588]],[[-2.020161919521301,43.270824566348566],[-2.0213060749999996,43.27319945],[-2.021440933554006,43.27373875551953],[-2.0213266018766287,43.27562213208395],[-2.02113921811072,43.27604747327259],[-2.0208034520072764,43.27641127394832],[-2.020355339635891,43.276683864607406],[-2.019859685522543,43.276849379542405],[-2.0170506846505094,43.27723257016018],[-2.0147200165540826,43.27818672885886],[-2.0138621509895276,43.27841814062615],[-2.0127932233099775,43.27850536148018],[-2.0106061914583817,43.27824635365323],[-2.009546397313037,43.27821009009409],[-2.0084382263396603,43.27842213465324],[-2.0064040810756567,43.27909520481216],[-2.0052469,43.2799791],[-2.003854682563899,43.28148762545918],[-2.0034165657540894,43.282096568693085],[-2.003099433333335,43.2829763],[-2.0027040046777578,43.28542424649473],[-2.002325696043325,43.28611587463737],[-2.0015811458051105,43.28695124942626],[-2.0010567171813736,43.28735938349503],[-2.0002369851250354,43.28776415373171],[-1.995616447420211,43.289365497916656],[-1.9949884132856688,43.28977031715641],[-1.99458726236443,43.290264534581816],[-1.994429755564249,43.29110622849324],[-1.9946497021396103,43.29199283416812],[-1.9950870922019128,43.29302770198128],[-1.9954889072211037,43.295677575159694],[-1.9957918672425985,43.29666265652858],[-1.9959739047910372,43.29691468911228],[-1.9965593953811418,43.29733186810139],[-1.999072607076091,43.298157757348676],[-1.999814103977337,43.2985402299767],[-2.000461625617789,43.29906221942505],[-2.0011451599602466,43.299997965807066],[-2.0014871996990173,43.300994796613956],[-2.0014249683512872,43.301499324468125],[-2.0010621203659147,43.30205315154541],[-1.9961284349350203,43.306005773286124],[-1.9941136547661293,43.3071568157832],[-1.9911387082711673,43.3083419671645],[-1.989405572303934,43.30882452987102],[-1.9880476555202777,43.30908137738803],[-1.9859878551488506,43.309337571033254],[-1.9835500035415208,43.30914491961944],[-1.9827325843830592,43.30925987099327],[-1.9823146298149907,43.30944749511237],[-1.9817896407617221,43.30989289152476],[-1.9815973306701362,43.31022553903136],[-1.9813984000000002,43.311139]]]}},{"type":"Feature","properties":{"route_ref":"E1","route_color":"#bcbe00"},"geometry":{"type":"LineString","coordinates":[[-2.026105,43.2772075],[-2.0247367113855192,43.27721175022853],[-2.020066987448641,43.27691498961916],[-2.0177135133983053,43.277088517043005],[-2.0167283011715855,43.27733404192315],[-2.0146237510880094,43.278221106396806],[-2.01350817530997,43.278477390956084],[-2.0126694521226383,43.27849805766161],[-2.0099639671286647,43.27820574264754],[-2.008857562463298,43.278312966839046],[-2.0065862524745652,43.27900661802929],[-2.0057988287809456,43.27948388640748],[-2.0044386000000003,43.28083595],[-2.0034165657540894,43.282096568693085],[-2.003099433333335,43.2829763],[-2.0027040046777578,43.28542424649473],[-2.002325696043325,43.28611587463737],[-2.0015811458051105,43.28695124942626],[-2.0010567171813736,43.28735938349503],[-2.0002369851250354,43.28776415373171],[-1.9954667225479574,43.289437492126666],[-1.9947523887974477,43.290004974739446],[-1.9944929982826665,43.29050819473639],[-1.994427072279142,43.29103548917512],[-1.9945342107657704,43.29162465242871],[-1.9950870922019128,43.29302770198128],[-1.9954889072211037,43.295677575159694],[-1.9957918672425985,43.29666265652858],[-1.9959739047910372,43.29691468911228],[-1.9965593953811418,43.29733186810139],[-1.999072607076091,43.298157757348676],[-1.999814103977337,43.2985402299767],[-2.000461625617789,43.29906221942505],[-2.0011451599602466,43.299997965807066],[-2.001425918595476,43.30073853449455],[-2.0014629957908587,43.30132246765428],[-2.001208748957597,43.30189244528482],[-1.9961284349350203,43.306005773286124],[-1.9941136547661293,43.3071568157832],[-1.9911387082711673,43.3083419671645],[-1.989405572303934,43.30882452987102],[-1.9880476555202777,43.30908137738803],[-1.9859878551488506,43.309337571033254],[-1.9835500035415208,43.30914491961944],[-1.9827325843830592,43.30925987099327],[-1.9821225072742645,43.309579166072965],[-1.9818205457435498,43.30990422132609],[-1.9815436272147955,43.31061212333992],[-1.9814518122357005,43.311248140416396],[-1.9815327008410877,43.310672931213034],[-1.9818197999999998,43.30990839999999],[-1.9821178844826315,43.30958240690927],[-1.9826244979922616,43.30929099224319],[-1.983544109708507,43.30914610072039],[-1.9851470892790537,43.309322253592654],[-1.9861175891409992,43.309333145773095],[-1.988561649999997,43.3089996],[-1.9912756083963066,43.30829830104513],[-1.9941107599153043,43.30716106857827],[-1.9963456394930983,43.305856055095404],[-2.0011496946147287,43.30196897100014],[-2.001466273096029,43.30137126867447],[-2.0014650188004253,43.30081339047305],[-2.001145029170445,43.29999295066585],[-2.000424389200384,43.299026136066445],[-1.999856406198947,43.298567318789004],[-1.9991491491865192,43.298188711397216],[-1.9965252885440568,43.29731583650745],[-1.9960764913677473,43.297012637284716],[-1.9957904926800185,43.29665731051856],[-1.995479879626677,43.29561962023222],[-1.9951211170926846,43.29316319581135],[-1.994448464341188,43.29116466233092],[-1.994507566371537,43.290447320642144],[-1.994968770707118,43.289795703578655],[-1.9956091364163588,43.289369417584574],[-2.000144101547789,43.287802137744436],[-2.0008568789168355,43.28747712445305],[-2.0014700039846676,43.28706452021946],[-2.0020858978612113,43.28644147791846],[-2.002714672578261,43.28538254352092],[-2.003101619669925,43.28297692037333],[-2.003375898452527,43.28217953384559],[-2.004567303745691,43.28069974203381],[-2.0055034384789425,43.27973333560853],[-2.006092684662659,43.27928745309752],[-2.0071798877841145,43.278829411116945],[-2.009417537920495,43.278222914299256],[-2.010265060388081,43.27821730673197],[-2.0127893031572874,43.27851091751063],[-2.013861165056399,43.27841850182849],[-2.014822489091924,43.27814823874019],[-2.0169412693924538,43.27725589772019],[-2.017827448377315,43.27707439347454],[-2.0200612341414614,43.27691523973287],[-2.0224180630454454,43.27710248807315],[-2.0254818212165913,43.277221311304494],[-2.02745905,43.2771803],[-2.0285473987581737,43.277006463550286],[-2.037209953978427,43.27410802859082],[-2.04579895,43.2689546],[-2.0472889174113345,43.26839497852062],[-2.0488519,43.26818385000001],[-2.0498239333333337,43.26821823333334],[-2.053238050768336,43.26864103133365],[-2.0635949673469387,43.27010176530612],[-2.064641587755154,43.27018778401306],[-2.0656957642434355,43.27005320306995],[-2.0673874987574266,43.26951007437604],[-2.0692389,43.26838446666667],[-2.0704449666666664,43.267957333333335],[-2.0738674818786853,43.267575721424],[-2.0762138021547427,43.267678303097384],[-2.077052910496243,43.26808082093251],[-2.0777470288720026,43.268704270578716],[-2.0780360568549985,43.26910750492025],[-2.0781409308452634,43.26951911166343],[-2.078144467494254,43.270676756556746],[-2.0789532843207885,43.27210179020448],[-2.0795394263458347,43.27506268556984],[-2.0797826709339913,43.27549777814149],[-2.0802477590904553,43.2759411277803],[-2.0810573368291703,43.27630790334164],[-2.081923341091478,43.27643102464083],[-2.0844350915253083,43.275980132088634],[-2.0863575223496644,43.27609819220057],[-2.0874376651318123,43.27636565659979],[-2.0894735121731394,43.27730701412123],[-2.0902354738629803,43.277466278653094],[-2.090857545551331,43.277422068266574],[-2.091386187448852,43.27724835779854],[-2.0918890779355523,43.276892597055785],[-2.0921614810138607,43.2764731983254],[-2.092179969768995,43.27575304154157],[-2.0913251500000003,43.27296945],[-2.091376200000001,43.2721965],[-2.091639986116214,43.27156941896683],[-2.0924291000000004,43.270516],[-2.092969769727782,43.27003604597947],[-2.0936023372567267,43.26974692344655],[-2.0968716666666665,43.26967603333333],[-2.097858959090909,43.269844636363636],[-2.1005450151786915,43.27066657426998],[-2.1029970122865778,43.27245811510422],[-2.1036753666666668,43.2727393],[-2.1047558813997624,43.27302673490498],[-2.105361552586519,43.273039314367686],[-2.1058484174491374,43.272938167587924],[-2.1086881279716048,43.27180098421141],[-2.1103253499504424,43.271757444234986],[-2.112014023628816,43.27146299179348],[-2.113689352468546,43.27167137161008],[-2.114129486584465,43.27180114373324],[-2.1161473391862544,43.27317880794551],[-2.1171393548019,43.27363602167866],[-2.118114069646988,43.273911018030695],[-2.1194803175628065,43.274033472639125],[-2.1226604989685853,43.27396590525023],[-2.125225651198779,43.274188708095906],[-2.1270775776116837,43.27424856349384],[-2.128171624003236,43.274065101618746],[-2.128847498637652,43.273630524220884],[-2.1291501524560235,43.27311046404588],[-2.1293915176021176,43.27175586807795],[-2.129891003134366,43.271153870303124],[-2.1315794219556836,43.27007410757994],[-2.132075943546785,43.26992622823271],[-2.132640812044715,43.269924297048405],[-2.133445063425362,43.27026205401272],[-2.134348341041445,43.27135776622023],[-2.134881333333333,43.2717933],[-2.1434090398965293,43.27729461741413],[-2.1438542021014904,43.2777501986825],[-2.1447972037514806,43.279172527772054],[-2.1465273836830723,43.280673637496776],[-2.1471408000000003,43.28090645],[-2.1505309250000018,43.2817695],[-2.1523214224102154,43.28210845987655],[-2.1542290178051116,43.282899920434915],[-2.1552441666666686,43.28318956666667],[-2.1560314333333337,43.28330626666667],[-2.1598377552361883,43.28345097807939],[-2.161813433333333,43.28363303333333],[-2.1687540347614713,43.2839223670447],[-2.172493023332382,43.28439799595842],[-2.173275194542268,43.28427259591239],[-2.1740915388330446,43.283865590712345],[-2.1745010500000004,43.28338965],[-2.17526652476324,43.28176652976718],[-2.1756843105454955,43.281435618588446],[-2.176424622291237,43.28121472275076],[-2.1773836974263254,43.28130272414781],[-2.179879633333334,43.28218256666667],[-2.1817116,43.2824033],[-2.1833165699711166,43.28227648391192],[-2.185960443042353,43.28158815584075],[-2.1872751990098562,43.28142432509222],[-2.18981785,43.281523475],[-2.1928998,43.2818921],[-2.19995292,43.281810500000006],[-2.205362292621034,43.28151983576824],[-2.2061692,43.2815694],[-2.2128824999999996,43.28264215],[-2.215458408680719,43.2833530143223],[-2.2161045243100843,43.283662815284124],[-2.216683560611219,43.28409990696819],[-2.2170872440168288,43.28458017508414],[-2.217800139771223,43.285789894569355],[-2.218124518260242,43.286046484276476],[-2.2185625622340632,43.28622788972968],[-2.2192325520870204,43.28630175951642],[-2.220728038432024,43.28608580221757],[-2.221451257885303,43.28611591989418],[-2.2324221938280413,43.28867366128726],[-2.233280692002246,43.28911384108147],[-2.236075350000003,43.2913908],[-2.237046862651112,43.291783601805164],[-2.2381632865810857,43.29194771984473],[-2.246816649839584,43.29158983128299],[-2.248543426753134,43.29183926791814],[-2.2499469999999993,43.2918093],[-2.2513027030904755,43.29163575667455],[-2.2528441117397167,43.29108104802156],[-2.253558529963779,43.29065687226441],[-2.2539879084560446,43.290114816075366],[-2.255593471861809,43.285086957174435],[-2.255969057017047,43.28446735349373],[-2.25642057872293,43.28405987283523],[-2.257187074279136,43.28364842494964],[-2.258278774827154,43.2834191714049],[-2.263219856500812,43.283209501689036],[-2.2655834756134596,43.283352248643844],[-2.2664972190232673,43.28317932968227],[-2.2669144,43.2829607],[-2.2672777350859388,43.2825888908456],[-2.2676078064167307,43.281091525293796],[-2.268036075466445,43.28043773258243],[-2.2709712169023075,43.27818629171406],[-2.272822018472649,43.27625882573432],[-2.273617651775649,43.27593086878174],[-2.2745165525022792,43.27590102254492],[-2.2754429999999957,43.27620974999999],[-2.276399488233266,43.27703422517898],[-2.2768707944702893,43.27725564918775],[-2.2775088500000007,43.2773427],[-2.2800050550205095,43.27734608905286],[-2.2830559000000004,43.277895900000004],[-2.283720592907181,43.278125814261294],[-2.2854206499999985,43.27910005],[-2.286039664112443,43.27930710664117],[-2.288556450000001,43.279244600000006],[-2.2919067222849367,43.27968777715989],[-2.2934199511341027,43.28025075213815],[-2.2943792000000003,43.2804668],[-2.299752375,43.2806253],[-2.300927621816151,43.28075078848453],[-2.301732455244957,43.28097222222788],[-2.302274549999998,43.281335750000004],[-2.304141350000003,43.283029275000004],[-2.308204500000001,43.286143550000006],[-2.3086023130601303,43.28656449144],[-2.308741224820276,43.286932415239285],[-2.308705759107817,43.28734065360427],[-2.307805315831613,43.28849792628556],[-2.3076562359162685,43.28891146697506],[-2.30812715,43.2910762],[-2.3083700902176822,43.29164672448039],[-2.310888540000002,43.29332351000001],[-2.314642100811881,43.29552555811821],[-2.315207244156465,43.29559158506628],[-2.3159183678740023,43.2954544799585],[-2.3182559204422195,43.293864253692966],[-2.319008999999999,43.293499600000004],[-2.3199075750000007,43.29331325],[-2.320642133333333,43.29330553333334],[-2.3277028999999994,43.2938435],[-2.329021349999998,43.29403225000001],[-2.330141681590814,43.294309693136185],[-2.3312498508810062,43.29475812355145],[-2.3321331273708275,43.29532231851342],[-2.332793699999997,43.295947999999996],[-2.3336829278081432,43.29712780343575],[-2.334125650062812,43.29749071930595],[-2.33472384599718,43.29776952506464],[-2.3357955851545102,43.298036499746516],[-2.3483448318396904,43.29712979550297],[-2.3489990568113,43.29712938576945],[-2.350465277933108,43.29735568448145],[-2.351140416568628,43.29731363487023],[-2.3543521164610204,43.29629063556393],[-2.3550824235016248,43.29582049925129],[-2.3553775358132127,43.29520131143248],[-2.3555711234193253,43.2933262237319],[-2.3557380210417156,43.292939138571015],[-2.3563796189898523,43.292129003221696],[-2.356803899999998,43.291261340000005],[-2.357144899999998,43.2904962],[-2.3573544372202875,43.28943765222779],[-2.357749375514038,43.28901880182637],[-2.3586776842048494,43.2884286362905],[-2.3593384561717707,43.28825262788081],[-2.3599127777531286,43.28825919740752],[-2.3614322799797907,43.288787672378014],[-2.362025368711191,43.28926192539917],[-2.3635216281082063,43.29103578365083],[-2.3641057373148966,43.29136434877657],[-2.364764813540239,43.291439611445945],[-2.365303574645115,43.291342087519475],[-2.366305593689276,43.29099498579355],[-2.366906653705721,43.29055614606158],[-2.367144251553428,43.29016796811427],[-2.367212885257812,43.289637377218746],[-2.366596452607346,43.288277178850144],[-2.36649635,43.2876205],[-2.366599486841638,43.28344230856357],[-2.3670162666666665,43.28248283333333],[-2.367329889597835,43.28206239582162],[-2.367822763450588,43.28173598167241],[-2.3718899333333345,43.27993366666667],[-2.3737489820596895,43.27924304833558],[-2.3741241914057443,43.27901429457425],[-2.3744306977587346,43.27855284287638],[-2.374794448926867,43.27675497403735],[-2.3755554162988775,43.27567672505541],[-2.37552109221015,43.275213923253354],[-2.3752200398338483,43.274869284837095],[-2.3732525744946837,43.2739445057496],[-2.3727691236823993,43.27360027060114],[-2.3724306499999996,43.273163649999994],[-2.3719111332127634,43.271992544378364],[-2.371976024826683,43.27146088747553],[-2.3732816898715425,43.26852138044132],[-2.37333043,43.265081599999995],[-2.3734244143175323,43.264683470698806],[-2.373640802664675,43.26441592029917],[-2.3739677893759557,43.264223287837794],[-2.3760284653810566,43.263418304907304],[-2.3764364393928803,43.26316486095395],[-2.3775003333333364,43.262055533333324],[-2.379312693689288,43.260591261020444],[-2.3802179,43.25907706666666],[-2.3809959106654763,43.258205041450815],[-2.384040827537939,43.256807807443785],[-2.3861417280432575,43.256200545124315],[-2.3865723434613293,43.25591051151217],[-2.3867476645068115,43.2554023932233],[-2.386179768215991,43.2544100972281],[-2.3861120175431636,43.25410172969972],[-2.386378139467567,43.25337667798333],[-2.3867750889735113,43.252964301955274],[-2.38854635,43.251960049999994],[-2.3890329573815503,43.25156335528679],[-2.3897697106067257,43.25032834223878],[-2.3900105103483034,43.24970988602015],[-2.3900260096034294,43.249054470317496],[-2.389795770390107,43.248407846647005],[-2.389464346077152,43.24795686680891],[-2.3887257818704906,43.24726345116218],[-2.388521296969343,43.246913210702715],[-2.3885243075061555,43.246447017575306],[-2.388807293587247,43.246013415430944],[-2.389268029343647,43.24574118349968],[-2.3897754488462852,43.245632028022484],[-2.392199245030703,43.24588333485964],[-2.393251537497776,43.2457028980562],[-2.394067448639687,43.24514762435797],[-2.3946533520065008,43.24416460729875],[-2.3950337079415367,43.24375039069055],[-2.3973324,43.242537500000005],[-2.3977193399588077,43.24222114180971],[-2.3978696764892775,43.24185422945527],[-2.397853327946615,43.241500108928626],[-2.396981965533688,43.23824502305724],[-2.397024397980652,43.23775006694057],[-2.3972595999999995,43.237179850000004],[-2.397677100000004,43.236681499999996],[-2.398506905413926,43.23615108049239],[-2.402149758510457,43.2350079074661],[-2.4026459999999976,43.23456968333334],[-2.4031930310432705,43.23384110288624],[-2.4031791085426164,43.23331563561276],[-2.4027395337096045,43.2328644911555],[-2.400205279049789,43.232240160053564],[-2.399476550000002,43.23190545],[-2.3989156000000014,43.2312484],[-2.398808579806509,43.23060493176495],[-2.3990646,43.2299762],[-2.3999311,43.228797500000006],[-2.40255312,43.226893180000005],[-2.4033123000000023,43.226025875],[-2.403642671428571,43.224949442857145],[-2.40345515,43.22300955],[-2.403904568276641,43.22136049006579],[-2.4042018500000024,43.220803599999996],[-2.4049155666666664,43.22003183333334],[-2.408927783416975,43.21751601358976],[-2.4092753270936687,43.21711809509555],[-2.410099956649969,43.21565332100912],[-2.4103923092736657,43.21537187284355],[-2.4110356227310348,43.21515671114636],[-2.412486131948035,43.2153336852385],[-2.4131343415207906,43.21521875743464],[-2.4151877857142807,43.21394071428571],[-2.416667599999997,43.21285593333334],[-2.417046749999998,43.21240875000001],[-2.417301711960132,43.211739426235965],[-2.4174167682672105,43.20948088261918],[-2.417506367555934,43.20900598374934],[-2.4177237079116276,43.208631709397345],[-2.418657009467608,43.207990110346365],[-2.419988353027129,43.207517265010694],[-2.4205588894366676,43.20719236726221],[-2.4227568848145453,43.205023865296],[-2.4236848554036254,43.204391666021166],[-2.4259451878458362,43.203456333384715],[-2.427334989514113,43.203349665355184],[-2.4279553903156206,43.203084205223924],[-2.429533600000002,43.201233099999996],[-2.4325632201523075,43.198275296818636],[-2.4331208265021607,43.19700958959668],[-2.4335607608904493,43.1963782723507],[-2.434068357771826,43.19597579169995],[-2.435352398925791,43.19534948122201],[-2.4357209392511163,43.195022600409665],[-2.436464904402066,43.1939409366761],[-2.4367863381779014,43.192812742733146],[-2.437229404340142,43.19228401192417],[-2.4375770862868626,43.192045172023136],[-2.4385092035477216,43.19179755502849],[-2.4435403014340182,43.19163353489527],[-2.4442785999999996,43.191433350000004],[-2.4454518732292407,43.1908557106667],[-2.4459361035929907,43.190707087090416],[-2.447938531813892,43.190893125425674],[-2.4484560021497495,43.190868705103114],[-2.4498125501782884,43.19014468055403],[-2.451056327531867,43.189842263114066],[-2.4516516433470814,43.18989484583844],[-2.4527547756803014,43.19035285947669],[-2.45381850553764,43.19054823951624],[-2.45592220501375,43.19027900864211],[-2.457389819182599,43.189978360958655],[-2.4582139127449785,43.18971161133381],[-2.4637509502972192,43.1875131003513],[-2.4668860301205284,43.1868447408531],[-2.4700728857142846,43.186587242857144],[-2.4709218500985006,43.186420524086856],[-2.4716885606920522,43.18607726938427],[-2.473155499166406,43.18500178297028],[-2.474101769784433,43.184644822971315],[-2.4757192,43.1843797],[-2.4783933935355584,43.18505400825906],[-2.478874884202764,43.18508158617598],[-2.4794398573602643,43.184971795111636],[-2.480911919932711,43.18424493345416],[-2.482822250678492,43.18262033097569],[-2.484565833333334,43.181720399999996],[-2.4872179018732488,43.180709667703034],[-2.488686913149963,43.180366381565],[-2.4895889152806037,43.1803529999639],[-2.490193559729974,43.180177573494746],[-2.490430928617883,43.17999129781784],[-2.4914740797221935,43.17859820592414],[-2.4918807336442383,43.17832607359569],[-2.4923577,43.1782253],[-2.492911123828559,43.17826251359359],[-2.493307308440179,43.178392361780865],[-2.4942656263361753,43.17923438963021],[-2.494791408209778,43.17948111777839],[-2.495325816453379,43.17951688292794],[-2.496494622006445,43.17930667615518],[-2.49702326467972,43.1794241152264],[-2.497333319349813,43.1796145589405],[-2.497592615045475,43.179988656824705],[-2.4978140326539955,43.18095350821722],[-2.4988043764670023,43.18207036149129],[-2.4987976121462228,43.18335654645084],[-2.4993301375937778,43.18498307645846],[-2.4995844099574156,43.18522801454866],[-2.4998907594297908,43.185351152270144],[-2.5005319160950576,43.18532870850248],[-2.501149786643226,43.1848813662717],[-2.501578774024161,43.184278779787086],[-2.5018510391237814,43.183402366913995],[-2.5016214808650368,43.18278105581468],[-2.5002707679846403,43.18135172837189],[-2.4999399869714107,43.18087517975],[-2.4997997363356728,43.18042333082625],[-2.499814313850961,43.180001009573175],[-2.500142000772878,43.1792677835701],[-2.500931523354023,43.178623285290385],[-2.5034795056060513,43.1779157062613],[-2.507474260156185,43.17575531418074],[-2.5084737024832724,43.175380364406344],[-2.509337329421148,43.175312631994764],[-2.5100640837535053,43.17541998822714],[-2.511324766293182,43.17578086288157],[-2.5125678405939786,43.17634589555459],[-2.5131059164428766,43.17647990286272],[-2.517058663531593,43.17639307979039],[-2.518977000000001,43.17691656666667],[-2.521477498770498,43.17743553916674],[-2.5236368420755415,43.1781078258183],[-2.525660012230593,43.17841703357009],[-2.5280866995063134,43.17900583613408],[-2.5304932936063755,43.1797172214515],[-2.531371033875034,43.17976262664592],[-2.5343663732577597,43.179627364577854],[-2.5349777890004708,43.17942830642779],[-2.5353498015946525,43.17907582206489],[-2.538486600000002,43.17294343333333],[-2.5389347007431624,43.17247925897775],[-2.539599134272337,43.17230784349909],[-2.5412637006826477,43.17254064259599],[-2.5426655373241465,43.17239689365436],[-2.543057442210689,43.172432150258665],[-2.543602852425514,43.17269396412466],[-2.5441259197398702,43.17342933995693],[-2.5444515030069863,43.1737105242006],[-2.544947080575309,43.173868445443986],[-2.5456026936651677,43.17382725466493],[-2.5462428935799073,43.173439420057555],[-2.546678804872695,43.172237960685315],[-2.54703631340463,43.171914384405106],[-2.54759478335435,43.171707259658135],[-2.5498507044055843,43.171587134658644],[-2.5505354134019,43.17141592818369],[-2.5509566087090096,43.17111520037786],[-2.5515400709992146,43.170202255768466],[-2.5519035241565846,43.16988623927851],[-2.5550074126589144,43.16854255837941],[-2.555801101309645,43.16844929782562],[-2.5585313719203073,43.1684351771856],[-2.5613479000000003,43.16911865],[-2.5649221476129376,43.169447883183615],[-2.5688355430899223,43.16926628419021],[-2.5694387061200863,43.16940146976293],[-2.5712096383535807,43.170126423889535],[-2.5722684999999994,43.17017145],[-2.5732656874939908,43.1699777666849],[-2.5738720182838515,43.169582024590596],[-2.5749947211748876,43.16731152975531],[-2.5755292535773284,43.16669358697861],[-2.5762845396174994,43.166307576757454],[-2.5772917142433283,43.166151377162514],[-2.578397770213339,43.166337564264786],[-2.584894505699573,43.16881230432934],[-2.5855942425198646,43.16896567968424],[-2.586241186542105,43.16897108357391],[-2.5919542,43.16786675],[-2.602551457498214,43.164608065031295],[-2.603322956266142,43.164305903561086],[-2.6047930181384746,43.16404267955728],[-2.6099387632326687,43.16442942106423],[-2.6114298551886894,43.16484270570114],[-2.613854661681721,43.165746410763305],[-2.614998217016099,43.16601826131508],[-2.6167122569294397,43.16610001496003],[-2.61972274899449,43.16580960409281],[-2.621217034526538,43.16576443785959],[-2.623026503633537,43.166012728938874],[-2.624534899819961,43.16635413587224],[-2.635506900000004,43.169711379999995],[-2.647072053296512,43.17280311909311],[-2.657717154974696,43.17715219966954],[-2.6635891629405193,43.17891995630087],[-2.6701585373416803,43.182412389974964],[-2.671091707792802,43.18300847662383],[-2.6724804130942297,43.18415873501088],[-2.6739358545439393,43.18489410020011],[-2.6749411862628523,43.1851698913726],[-2.676067176596424,43.1853275033813],[-2.681535847884338,43.185341355311415],[-2.6831341155964012,43.18544636121202],[-2.685177302762545,43.18581102492833],[-2.687098534813538,43.186433347891146],[-2.688571153489558,43.18706795193136],[-2.690585265787609,43.18809867920474],[-2.6930383456056086,43.18959061479371],[-2.693769788199459,43.19014051901868],[-2.694439102319989,43.19087352099536],[-2.695480393041916,43.19282099894428],[-2.6973689917642307,43.19524680650516],[-2.698196427901529,43.196029554699024],[-2.6991432327031726,43.196594505309946],[-2.7002779920425364,43.19696459888082],[-2.701509902505658,43.19710256455733],[-2.7028037058139915,43.19703419802747],[-2.704664397341633,43.19677626991129],[-2.705768699801329,43.19681346885681],[-2.706765609128073,43.19698836597914],[-2.7075081580346736,43.19722750423792],[-2.7089446356867866,43.197964809086],[-2.7098040043240617,43.19876822806122],[-2.711294697781216,43.20061699288593],[-2.7144621562107414,43.20377577894498],[-2.714975301718694,43.2045484590348],[-2.7159360422998655,43.20642113595591],[-2.7165611249337593,43.2072024612766],[-2.717285835249443,43.20782641916757],[-2.7194507776014114,43.209242033424005],[-2.7203033371064,43.2096495702793],[-2.7217057077763296,43.21003853654982],[-2.7241666049228748,43.21025476473236],[-2.727086042558987,43.21090832916665],[-2.728582348042027,43.21134274635333],[-2.73018481204892,43.21201775982643],[-2.7312766134765885,43.21274047853422],[-2.733291364150167,43.21476967635889],[-2.7365435066905746,43.21683859425489],[-2.737438140632289,43.21721513666665],[-2.7379666502442332,43.21728392263327],[-2.738603855965731,43.21723544826019],[-2.739264581733847,43.21697209585177],[-2.73965177540718,43.21667538278788],[-2.7401078208724843,43.21594268687473],[-2.74134278817497,43.213178596171325],[-2.7429898428100064,43.21133043216831],[-2.743391053091054,43.21105008499775],[-2.744067045407755,43.21081906443907],[-2.74510617119635,43.210818147219314],[-2.746574526761939,43.21110582707913],[-2.749061098833199,43.21211533790301],[-2.7496555304044534,43.212281740573815],[-2.7503740313631386,43.2123582787871],[-2.7510344903623647,43.21231983547448],[-2.751846746647213,43.21214720148103],[-2.7538789648125612,43.21147732218765],[-2.7559386995100454,43.21062044310331],[-2.757628599482828,43.21028242599595],[-2.7581332950007464,43.21030759020327],[-2.758945068321879,43.21051063309156],[-2.760802956423001,43.21148659326381],[-2.7613748773576923,43.21166068330296],[-2.7624254147208678,43.211739691974714],[-2.7635010309588375,43.211503442998435],[-2.7644727776267444,43.210887552845136],[-2.7649163385693236,43.21021261384837],[-2.765020426303875,43.20943145641525],[-2.764949595936844,43.20799369697787],[-2.76542545787417,43.20625048063466],[-2.7662381091251222,43.2052834400018],[-2.767025371779879,43.204846713068896],[-2.767589622094254,43.204695667098974],[-2.7684865730350814,43.20469727534703],[-2.7693556017850516,43.20497876378982],[-2.7699981988437736,43.20546389655415],[-2.7715273223462313,43.20702260179832],[-2.772396009307793,43.207424481960395],[-2.7730017976053896,43.20750349149159],[-2.7735759786696224,43.20746590668736],[-2.7766562935673926,43.20674340648086],[-2.7775121779264067,43.20660322395008],[-2.77802216144536,43.20663302875328],[-2.7788710738223577,43.20690335217171],[-2.7809603199140565,43.20804276809958],[-2.782304321961811,43.20863776170034],[-2.7853472495702314,43.20952734137882],[-2.7865114032251728,43.20972836852852],[-2.787080598527896,43.209720663516926],[-2.787659451593059,43.2095816294304],[-2.7944840213855127,43.20652799356527],[-2.795984505353982,43.206157399442645],[-2.798378598825378,43.206120661261345],[-2.807359412587956,43.20628832736937],[-2.8081239094334203,43.206365688523775],[-2.809072799904206,43.2066017112952],[-2.8100756872887,43.20718751885926],[-2.812439705505722,43.2091741396522],[-2.812818626057243,43.20969983051211],[-2.8150835876199376,43.21412276112546],[-2.8155985870296423,43.21488166087143],[-2.816098902174605,43.21537356275724],[-2.8172216200704288,43.216002506718915],[-2.821035429261126,43.21734085590654],[-2.8233830371776754,43.2186147250294],[-2.841328534500497,43.22385139949762],[-2.8424886526462614,43.22401182743899],[-2.8456116700425897,43.2239776342285],[-2.846825994047347,43.224239838360326],[-2.847275576395457,43.224461846427346],[-2.848076769098431,43.225066567923434],[-2.8485531,43.2255565],[-2.849341537497303,43.22723001643123],[-2.84972509874734,43.227651723718566],[-2.850592753913881,43.228251658304224],[-2.8517056326882604,43.22868796463062],[-2.8525705494696445,43.2288387168729],[-2.855936567531347,43.22869415211008],[-2.8571046378977534,43.228737011168974],[-2.8611424567774213,43.22958206065142],[-2.8667396373249447,43.23039580599956],[-2.8687463586740964,43.23118656255037],[-2.87116314796912,43.23251665307277],[-2.872254440352091,43.23330983343968],[-2.8752034941388094,43.236112901903596],[-2.87808131982981,43.23846627705925],[-2.87964615,43.24087995],[-2.880158327256648,43.24156418241217],[-2.880667718595712,43.24202738182135],[-2.8816918254102246,43.24244020721848],[-2.8871499064305257,43.24329260777389],[-2.887851163248966,43.24349293093785],[-2.8885129396301767,43.24383358788683],[-2.8911839742449965,43.24571511656238],[-2.8915488332735855,43.246345648358776],[-2.891574370863034,43.24702904212556],[-2.8913810424897917,43.24747223772462],[-2.890424885108886,43.248574251004065],[-2.8899305027779314,43.24940746565066],[-2.889249801697897,43.254288386002564],[-2.8893916636674466,43.25538371212849],[-2.889712570709639,43.25609747423946],[-2.890482349207003,43.25701713672621],[-2.8917370782956557,43.25785187605543],[-2.892891391236009,43.258265050627244],[-2.894260203970279,43.258502619729576],[-2.8990928000000005,43.2587173],[-2.9008112821027936,43.25867392176428],[-2.9024986759068914,43.25814360823315],[-2.903413892835529,43.25799687496768],[-2.904441086141731,43.2580773716039],[-2.905029498231492,43.2582461532439],[-2.906011027155925,43.258807906867396],[-2.906910632053087,43.259522308880186],[-2.907457382046606,43.26001334509748],[-2.9077510919267264,43.260452663893375],[-2.9079138100176727,43.261010199763916],[-2.9078896969763672,43.26257150496278],[-2.9083546324510103,43.263465044023576],[-2.908697178256066,43.263823542699974],[-2.9094112524846145,43.264234494880355],[-2.9105546569737735,43.26451433973545],[-2.9113774767001734,43.26450311535072],[-2.9122713779218388,43.2643200141267],[-2.915866346037082,43.26278646780926],[-2.916811745005281,43.26194805750599],[-2.917783374751231,43.259985836672264],[-2.9185446826859507,43.259320400339014],[-2.9192200926240472,43.259071212295254],[-2.9199040333244883,43.25898243625985],[-2.9203683101363778,43.25900413543941],[-2.9212005456154464,43.25924011156356],[-2.9216631492936718,43.259652689111086],[-2.921872286954305,43.26046331742401],[-2.9217162451120964,43.25986822387173],[-2.9218232323642757,43.260228115324935],[-2.921736948810527,43.26025507087393],[-2.9218262413093274,43.26024270015215],[-2.9218635540417304,43.260441235459886],[-2.9217460844182273,43.26039005895671],[-2.9218977610992165,43.26044577456402],[-2.9218542884206515,43.26133845634899],[-2.9216705538337577,43.261949081570755],[-2.921419462256534,43.26243625180623],[-2.9205534149169554,43.26357280713327],[-2.919283791601407,43.26426660765812],[-2.9187138826871704,43.26468874983172],[-2.9184509945587944,43.26524566804681],[-2.9185717949313963,43.265885902486744],[-2.9189031751104233,43.26629609998795],[-2.919933201838508,43.26685019784853],[-2.9209548422959104,43.26724978721769],[-2.922039891205225,43.2674717173606],[-2.9244110329620856,43.26873468176711],[-2.9254402957093335,43.26901223614182],[-2.924403196528601,43.26873185189546],[-2.9221769352806355,43.26752492758782],[-2.9208724634643657,43.26722366297186],[-2.9195866679883786,43.26667595138406],[-2.918907832907459,43.2662959233055],[-2.918573853305494,43.26589243589278],[-2.918448541203435,43.26533457628086],[-2.918690258375942,43.26473141548593],[-2.9193206176717346,43.26423970060279],[-2.920469616399139,43.263650828215056],[-2.921299467393126,43.262618816982105],[-2.921731718199994,43.26179313725753],[-2.921891309681828,43.26084982119558],[-2.9217738883654523,43.25985410492257],[-2.921921694835371,43.26023197758521],[-2.9218472524487153,43.26023016140681],[-2.9218819619562466,43.2604364705389],[-2.9219822625195415,43.260371604393626],[-2.9218980051865904,43.26045188890113],[-2.9216293265113062,43.25959749228292],[-2.921055301074209,43.259172269144344],[-2.919949556569291,43.25898001742159],[-2.9192578288362485,43.2590622823299],[-2.918600227374145,43.25929421489309],[-2.918207502706862,43.259547326110656],[-2.917702854752992,43.26009409078267],[-2.9171555616980274,43.2614006263206],[-2.916806176565997,43.26195414777628],[-2.9158637364804414,43.26278669979753],[-2.912265259262462,43.26432260359923],[-2.911381515560287,43.264502882095904],[-2.910734338937764,43.26451975293331],[-2.9099736943318297,43.26441986975075],[-2.9094139641415446,43.26422438639311],[-2.9085329672638998,43.26366412493751],[-2.908146012574157,43.26320076427914],[-2.907933491418208,43.262709361850995],[-2.90790571076488,43.260931644036944],[-2.9076473618750085,43.260274402283],[-2.907332847494462,43.25987988577161],[-2.9061157620771665,43.25888895006569],[-2.905010384862878,43.25823813735134],[-2.904274599669474,43.25804699031334],[-2.9032415860937073,43.25800949344841],[-2.9024196962001194,43.258176063723084],[-2.9011715286687374,43.25859521339338],[-2.9001942843925668,43.25873738962011],[-2.8951556198068955,43.258553793377956],[-2.894097127817152,43.2584909260837],[-2.8928779174365915,43.258274213092875],[-2.8918372461124924,43.257899769402485],[-2.8911123866404136,43.257500473449966],[-2.8903063136889413,43.25683286757446],[-2.889716216052892,43.256102662086896],[-2.889393817369397,43.255388302129845],[-2.8892617307653676,43.25444129555849],[-2.8899295011759816,43.249406686126676],[-2.8903582692969025,43.248655028067404],[-2.8913436657356537,43.247529268245195],[-2.8915769074477784,43.24701869534134],[-2.8915792810123664,43.24642187418098],[-2.89127691733611,43.24582477176381],[-2.8902657666666656,43.2450078],[-2.888514916604562,43.24383503116529],[-2.8878264964635227,43.24348178573751],[-2.887135615849448,43.24329086114687],[-2.8814630511862305,43.242384225818725],[-2.8805792540652444,43.241967144366285],[-2.8793829091447827,43.2404978226846],[-2.8779809602735384,43.23836410625726],[-2.8751890854337474,43.23609951844399],[-2.8719093030762197,43.23301850442456],[-2.8698914899368155,43.23174541506895],[-2.8676729399999985,43.23071667999999],[-2.8667547607149433,43.230406583031765],[-2.861412471954895,43.22963232399698],[-2.857343270690301,43.228766479340024],[-2.855513924194855,43.22869670851592],[-2.8526137134275196,43.22884263948163],[-2.851697819051956,43.228685289698554],[-2.8505784492192094,43.22824351905577],[-2.84974696378085,43.227671475390146],[-2.849277063970202,43.22713002613646],[-2.8488397059458235,43.22600134056711],[-2.848500980408999,43.22549593449711],[-2.847876349999994,43.22490315],[-2.846829560918722,43.224240141587906],[-2.84548764115487,43.223963645113315],[-2.8424232,43.2240093],[-2.84133355840649,43.22385255240808],[-2.8233786933480323,43.21861300095934],[-2.821127957754534,43.217384750005294],[-2.817289187782198,43.21602896406001],[-2.816151766323674,43.21541768673444],[-2.815626546251379,43.21491216066083],[-2.815113562392768,43.21417497506078],[-2.8128778179763696,43.20981038144715],[-2.812489606841986,43.20923149453865],[-2.8097480794908893,43.20693932252906],[-2.8086510145285706,43.20646028342247],[-2.807678228166059,43.206303127511305],[-2.8060065999999995,43.20624885000001],[-2.797156325811288,43.206096107907335],[-2.7959835546986165,43.206156628187834],[-2.794532827786332,43.206509650435216],[-2.7878111250506135,43.20952657451033],[-2.7872171601488467,43.20969941906349],[-2.786732959254355,43.2097375557616],[-2.785344339221452,43.209527057429305],[-2.7820195618707935,43.208529122212575],[-2.7788680445294314,43.20690374618374],[-2.7780163756099507,43.206633092372805],[-2.7770062598659893,43.206667740798935],[-2.773561395216156,43.20746916569542],[-2.7724099,43.20741590000001],[-2.7718723324611845,43.207231455248596],[-2.7714901,43.2069812],[-2.7699952217522164,43.20545983112656],[-2.7693362466448557,43.204960808293826],[-2.76848811236272,43.20469774291568],[-2.7675895609082732,43.20469429627734],[-2.7671219604973336,43.2048086134887],[-2.7662210850453692,43.20529587156147],[-2.765602690792885,43.205955597837],[-2.7651301,43.2070638],[-2.764948513086836,43.20799545570782],[-2.765019075048775,43.20942736551032],[-2.7649168474162558,43.21021122568709],[-2.764464108747866,43.210896345723555],[-2.764071399012213,43.21121422333807],[-2.763483433730667,43.211509419963996],[-2.762596235407286,43.21172280178393],[-2.761497965988,43.211685097945356],[-2.7606530616076808,43.211410396985244],[-2.759466430001099,43.21073254186151],[-2.7588006417493527,43.21046213745267],[-2.758023624062121,43.21029308399465],[-2.757314932952078,43.21030774171864],[-2.755928253302704,43.210623931592394],[-2.7540860483997487,43.21139482099126],[-2.7515823268610236,43.21221965679901],[-2.7501909034428733,43.21235132933537],[-2.7491204460398726,43.212136125670376],[-2.7465775613260037,43.211107280776],[-2.744901452782128,43.21078172599478],[-2.7440487905827826,43.21082151945207],[-2.7436190477599207,43.21093723718824],[-2.7430817389252744,43.211240334006085],[-2.741345337701432,43.213175184456134],[-2.7399063271723807,43.21633221310801],[-2.739655045620433,43.21667040629691],[-2.739268640124572,43.216969863455155],[-2.7387294622054044,43.217204341162294],[-2.7381674972946146,43.21728993875852],[-2.737561638462892,43.21724066717929],[-2.736687091131359,43.21691944225589],[-2.7331664703335474,43.21467747578381],[-2.7314476753176997,43.21287944029357],[-2.7299875048597015,43.21191987169335],[-2.7284494195305022,43.211279890252804],[-2.7252510975700837,43.21046571685995],[-2.7241610654108532,43.2102541095205],[-2.722171819543401,43.21009547715782],[-2.7211671718766617,43.20991323348023],[-2.720207214899995,43.209596627246874],[-2.7191931720644313,43.209068776026804],[-2.717145428179229,43.20772315232098],[-2.7164296386421807,43.207060230570825],[-2.7159817118258833,43.20649474286034],[-2.7149710499999995,43.204539450000006],[-2.7143077737036627,43.203598215583064],[-2.711173285258096,43.20048681921846],[-2.7098257550163654,43.198770226210904],[-2.7089410910474157,43.197961741396746],[-2.707401971438129,43.197189834560206],[-2.7067524073718596,43.19698511040576],[-2.705627465237794,43.19679893432317],[-2.704123337623432,43.19681497901987],[-2.7028718885092027,43.19702538922148],[-2.701640033526762,43.19710498660003],[-2.7001998606304087,43.196946749700075],[-2.6992129411355723,43.19662471391454],[-2.698290911487553,43.196096836202116],[-2.697472806197798,43.19536738407314],[-2.6955963838279535,43.19298699041515],[-2.6944867285522234,43.19093211547979],[-2.6936826141369026,43.190062769846],[-2.6900640076818796,43.18779628435041],[-2.686675222045717,43.186253778931516],[-2.685328381128559,43.185834162561875],[-2.6828954280844646,43.18541917761004],[-2.6815338052092534,43.18532821973264],[-2.6760003865500956,43.185311839718516],[-2.674939416924398,43.185169527272784],[-2.6740400436298244,43.184925595542325],[-2.672402184844182,43.1841005557451],[-2.6713213529464954,43.18318631088701],[-2.670372888146593,43.182532580667925],[-2.663594207782502,43.17892122722692],[-2.6575992859366666,43.17710877607637],[-2.6468208654896155,43.17270611038478],[-2.6383077731791245,43.17049151874839],[-2.635670330769229,43.16968104615385],[-2.6352022753258937,43.16961614287884],[-2.6247401592592574,43.166416062962966],[-2.6232541514187635,43.16605681786969],[-2.621926428599531,43.16582962042075],[-2.6208584447746697,43.165753764531274],[-2.6165999372464954,43.166102112188796],[-2.614998263816794,43.16601823747977],[-2.6138547216916566,43.1657464301112],[-2.611421220222171,43.16483916733401],[-2.6099398620907284,43.164429947977474],[-2.6078336499999994,43.1642077],[-2.604710236079773,43.164042575206324],[-2.603263264489843,43.16432367633232],[-2.602877502683335,43.164505873656644],[-2.6023971714285716,43.164591771428576],[-2.6015250630567075,43.16492637937466],[-2.593571017861372,43.16736252806741]]}}]}