{"type":"FeatureCollection","features":[{"type":"Feature","properties":{"route_ref":"2","route_color":"#64748b"},"geometry":{"type":"LineString","coordinates":[[61.41293189608928,55.1852213172502],[61.41439832202539,55.18537250616545],[61.40561237323858,55.184553218753344],[61.399734099999996,55.18439123333333],[61.39923166277502,55.184306160338004],[61.399049879068706,55.184175227307264],[61.39904405000001,55.183010925],[61.40029341100574,55.16813442644313],[61.40001390931633,55.16792507673187],[61.399199531819875,55.16784362455036],[61.389840405244136,55.16757544940327],[61.38882774727652,55.1675189424866],[61.38844436797434,55.1673645632557],[61.388357320000004,55.16705368],[61.38922891554142,55.157227811055854],[61.38976685585735,55.14715538596484],[61.38937632152546,55.14672594562722],[61.37562873341294,55.13671447359083],[61.37553831640581,55.13639875708462],[61.37584706481974,55.13618936271025]]}},{"type":"Feature","properties":{"route_ref":"5","route_color":"#64748b"},"geometry":{"type":"LineString","coordinates":[[61.41139306003917,55.138330823252794],[61.41143054459166,55.13910485471877],[61.41371359442188,55.14308242470193],[61.41374403511389,55.14388325922549],[61.41217556394733,55.147908365858186],[61.41152560080902,55.150222335621045],[61.40697074924103,55.155054636460925],[61.40650800112236,55.15882667437656],[61.40605008,55.159204939999995],[61.40435594166426,55.16019689137391],[61.40412648702905,55.160455520352755],[61.403780363813816,55.16521295650887],[61.404095785448575,55.16536923403792],[61.40499098486488,55.1654336798903],[61.41558660114773,55.16577668078173],[61.415828224672644,55.16606366087364],[61.41577094722663,55.167634667737154],[61.416100811317165,55.16783488332305],[61.41655408256412,55.16788750273317],[61.43210776596971,55.16830028332528],[61.44199539814504,55.16770976419255],[61.442631614768274,55.167841238328656],[61.442954216980205,55.168834549589256],[61.44288072814179,55.16950480592215],[61.43268371232138,55.1852404229936],[61.43252980686618,55.186284872669724],[61.432640840000005,55.18530251999999],[61.442919953597794,55.16942752487516],[61.442965534660125,55.16889646317892],[61.44261421379761,55.16782780958167],[61.44197629268729,55.167710821722196],[61.43229658309686,55.16829981684267],[61.4167452,55.167894],[61.416076682963784,55.1678279802903],[61.4157734301516,55.167644265287784],[61.41582995043529,55.166059297162604],[61.41560428729767,55.16577951288955],[61.404679413732865,55.16542562674322],[61.40407833913837,55.165367067498075],[61.403769307374525,55.165188401599565],[61.40409201585599,55.16053551494328],[61.40450236725574,55.16008966058837],[61.40648596970465,55.158852487748696],[61.40696936462936,55.155057040911366],[61.41093231056002,55.150936146831135],[61.411594445924216,55.15011002796075],[61.41217062420725,55.14792356176352],[61.413777387487315,55.14377172332931],[61.41371245040723,55.14308120024315],[61.41192874980772,55.13987695307809],[61.41077831713781,55.138497999606216]]}},{"type":"Feature","properties":{"route_ref":"18","route_color":"#64748b"},"geometry":{"type":"MultiLineString","coordinates":[[[61.4920853,55.100184],[61.487328675,55.106044],[61.486650669064744,55.106687450746634],[61.48584018857715,55.10716381650396],[61.48479178071122,55.10754509655461],[61.46886184053124,55.11132199466522],[61.4674600015529,55.11177084002844],[61.46744734117783,55.11210609972184],[61.472415755555545,55.119981366666664],[61.47254069937198,55.1203249173021],[61.47233643098043,55.12060741911869],[61.47047697777778,55.12106868888889],[61.46227749285714,55.12278309999999],[61.44937918233048,55.125327053114034],[61.44857143937412,55.125665751188244],[61.44033079125886,55.13066983926437],[61.43713254819691,55.13134989963873],[61.43655852486468,55.131612278182196],[61.43658741046667,55.13204171033361],[61.44423149494167,55.14452950991179],[61.44472941438851,55.1448724073685],[61.44660885138482,55.1456857244869],[61.44691102522163,55.145970719275546],[61.44659963359876,55.14634256134444],[61.44330261642764,55.14879738733053],[61.44252959408406,55.14963906303073],[61.44237893954026,55.150104231176556],[61.44236806032663,55.151106851428985],[61.442833060251736,55.15312950374934],[61.443229845426124,55.15390040504609],[61.44343288389435,55.1556561393759],[61.443754428646926,55.15596076058835],[61.44426682625422,55.15620947038073],[61.44464689407602,55.1567317184537],[61.44527402316789,55.160341130220246],[61.445083896425146,55.1607026394318],[61.44455193571428,55.16082118571428],[61.44227429446407,55.1609993983615],[61.441600020574015,55.16145674692717],[61.442954216980205,55.168834549589256],[61.44293230107433,55.169398085399585],[61.43255620666499,55.18554893487718],[61.43228458412601,55.18578666493602],[61.43177038833282,55.18583539800427],[61.43235826243243,55.185760769323146],[61.43255808385938,55.18554084724533],[61.442919953597794,55.16942752487516],[61.442965534660125,55.16889646317892],[61.44157040910511,55.16156139375682],[61.44171663661085,55.16129600957813],[61.44227724522392,55.16099540197018],[61.445010324844304,55.16071792032042],[61.44524688982048,55.16055482338523],[61.44527301170528,55.160341059966285],[61.44464379549766,55.15670226104583],[61.444333416506076,55.15627882680389],[61.443517236298085,55.1557768274765],[61.443349984011036,55.155420925855424],[61.44326005289637,55.15403192109937],[61.44284435554331,55.15317542442531],[61.4423849,55.1512126],[61.442414347154156,55.14995316522854],[61.44269593299802,55.149443918213954],[61.44376555000001,55.14837715],[61.44665542636823,55.14630274206208],[61.44690331964342,55.14600785094238],[61.4466029961265,55.14568321189784],[61.44490882352942,55.14497345294117],[61.44415895000001,55.1444224],[61.436573934375,55.13201964375],[61.43657743084894,55.13157771724277],[61.437304020000006,55.13131420500001],[61.43971098014697,55.13085854516066],[61.440461734588766,55.130605785483915],[61.44855786208303,55.12564788672658],[61.44905622766053,55.12542858432665],[61.46233347942238,55.12277146800495],[61.47233172097067,55.120606495210296],[61.472534130772154,55.120316122407715],[61.47232624858107,55.119887718191464],[61.46741840147909,55.11205918169278],[61.46744413246076,55.11178306533996],[61.46767859429943,55.111639030854086],[61.46983650000001,55.111089276470594],[61.48492392598518,55.10750830340448],[61.48581626368537,55.1071737886079],[61.48677871575426,55.106607067340086],[61.48725067263634,55.10613742592787],[61.492794745163216,55.0992562093979]],[[61.3862896690126,55.19882917591638],[61.38621805,55.20067345],[61.38567634398494,55.20237373505044],[61.385121467235834,55.205432938898724],[61.38133825937499,55.216101300000005],[61.37897830714286,55.22153674285714],[61.37681872376733,55.22534521649189],[61.37598703949172,55.22662266013097],[61.3747239698802,55.22779681007651],[61.37432191630538,55.22833730454098],[61.37534522494033,55.230872727721426],[61.378176862410925,55.236009155366574],[61.379188859938765,55.23726994576237],[61.380829812551966,55.238708285890795],[61.38108305195752,55.239084754831936],[61.380946084830626,55.239664082549766],[61.3795370975573,55.24207887905777],[61.37740460887998,55.246351678010264],[61.37753759551507,55.24654850311311],[61.37817581706305,55.24672100806728],[61.403361582162354,55.251014118683116],[61.405204659999995,55.25178244],[61.41008547679822,55.254340407812784],[61.418563282426014,55.25883673990236],[61.41889097636473,55.25919903673136],[61.41869994136223,55.25957736558538],[61.41612584113649,55.26159862544809],[61.41528755,55.262029749999996],[61.41374445915172,55.262627963625256],[61.41148287513514,55.26433334852246],[61.41345808209552,55.262787511864914],[61.414340057142866,55.26234805714285],[61.415420268047235,55.26197204968618],[61.41621589414213,55.261536927024075],[61.4188137,55.259469],[61.4188939,55.2592175],[61.418527020016626,55.258817124688925],[61.40988250462493,55.25423357241149],[61.40464304843844,55.25149389067628],[61.403200627766665,55.250987023618585],[61.37935393636363,55.24695329090909],[61.3781591,55.2467394],[61.37760378749849,55.246585436922366],[61.377413847787224,55.246423136200036],[61.37750412894738,55.24594531578948],[61.3810963,55.239209],[61.38084661671899,55.23875534407783],[61.378999607290446,55.237066838881596],[61.37821084,55.236067999999996],[61.375445421732465,55.23107352507567],[61.37437753270978,55.22869166879077],[61.37432327929805,55.228302945535255],[61.37598386470605,55.22662636941712],[61.37838628602934,55.22259367235336],[61.37984099042463,55.219605887461164],[61.381350571788204,55.21604698858555],[61.38511418279488,55.20545348429201],[61.38567669673573,55.20237731443145],[61.38621536833574,55.20068270196815],[61.38628840403218,55.19883218272409]],[[61.39007183869301,55.192923441246464],[61.39171816587432,55.19112182596291],[61.39187039747894,55.190148449256284],[61.39376609999999,55.186889],[61.39404062105263,55.18592386842105],[61.39419985332062,55.18446937507811],[61.394536367076974,55.184231117865764],[61.40561237323858,55.184553218753344],[61.41487875222688,55.18541606730097],[61.41880108571428,55.18542210000001],[61.4317739,55.1858059],[61.418871267227594,55.18542434537049],[61.414375976802354,55.185373170585265],[61.41494017357902,55.18542154611927]]]}},{"type":"Feature","properties":{"route_ref":"15","route_color":"#64748b"},"geometry":{"type":"MultiLineString","coordinates":[[[61.2926211,55.1828756],[61.30095891125868,55.18656295163943],[61.30358223346914,55.18754036627991],[61.30558425612038,55.18808229208523],[61.30757606658621,55.18847786968015],[61.31003115496358,55.188819101881634],[61.31248612862686,55.188952611950604],[61.35569869980406,55.18901609056312],[61.35746522516717,55.188945879724656],[61.35891435957653,55.18866030256047],[61.36047877715249,55.18812409033031],[61.37102642170794,55.18387845618805],[61.37196294667381,55.183709790232555],[61.37730521084028,55.183667526913275],[61.379603991246825,55.1838356369983],[61.38657619012999,55.18390119848464],[61.40508427468235,55.18452859489465],[61.41487875222688,55.18541606730097],[61.41880108571428,55.18542210000001],[61.4317739,55.1858059],[61.418871267227594,55.18542434537049],[61.414375976802354,55.185373170585265],[61.41494017357902,55.18542154611927]],[[61.46560095158431,55.15991751379479],[61.46549003114431,55.159594145054555],[61.465229139094774,55.15950489169983],[61.463408109504556,55.15956781260195],[61.44676712851681,55.16056583419564],[61.44520076666666,55.160777999999986],[61.44246753593644,55.16096195893744],[61.44174749327897,55.16127577797768],[61.4415663819487,55.16160023785787],[61.442954216980205,55.168834549589256],[61.44293230107433,55.169398085399585],[61.43255620666499,55.18554893487718],[61.43228458412601,55.18578666493602],[61.43177038833282,55.18583539800427],[61.43235826243243,55.185760769323146],[61.43255808385938,55.18554084724533],[61.442919953597794,55.16942752487516],[61.442965534660125,55.16889646317892],[61.44158116261327,55.16167992669219],[61.44171663661085,55.16129600957813],[61.44243961980449,55.16096707947264],[61.445163027384154,55.16077930981444],[61.44733965882353,55.16051835882353],[61.464920664755674,55.15948739817743],[61.466248533666786,55.159780351113994]]]}},{"type":"Feature","properties":{"route_ref":"3","route_color":"#64748b"},"geometry":{"type":"MultiLineString","coordinates":[[[61.3862896690126,55.19882917591638],[61.38621805,55.20067345],[61.38567634398494,55.20237373505044],[61.385121467235834,55.205432938898724],[61.38133825937499,55.216101300000005],[61.37897830714286,55.22153674285714],[61.37681872376733,55.22534521649189],[61.37598703949172,55.22662266013097],[61.3747239698802,55.22779681007651],[61.37432191630538,55.22833730454098],[61.37534522494033,55.230872727721426],[61.378176862410925,55.236009155366574],[61.379188859938765,55.23726994576237],[61.380829812551966,55.238708285890795],[61.38108305195752,55.239084754831936],[61.380946084830626,55.239664082549766],[61.3795370975573,55.24207887905777],[61.37740460887998,55.246351678010264],[61.37753759551507,55.24654850311311],[61.37817581706305,55.24672100806728],[61.403361582162354,55.251014118683116],[61.405204659999995,55.25178244],[61.41008547679822,55.254340407812784],[61.418563282426014,55.25883673990236],[61.41889097636473,55.25919903673136],[61.41869994136223,55.25957736558538],[61.41612584113649,55.26159862544809],[61.41528755,55.262029749999996],[61.41374445915172,55.262627963625256],[61.41148287513514,55.26433334852246],[61.41345808209552,55.262787511864914],[61.414340057142866,55.26234805714285],[61.415420268047235,55.26197204968618],[61.41621589414213,55.261536927024075],[61.4188137,55.259469],[61.4188939,55.2592175],[61.418527020016626,55.258817124688925],[61.40988250462493,55.25423357241149],[61.40464304843844,55.25149389067628],[61.403200627766665,55.250987023618585],[61.37935393636363,55.24695329090909],[61.3781591,55.2467394],[61.37760378749849,55.246585436922366],[61.377413847787224,55.246423136200036],[61.37750412894738,55.24594531578948],[61.3810963,55.239209],[61.38084661671899,55.23875534407783],[61.378999607290446,55.237066838881596],[61.37821084,55.236067999999996],[61.375445421732465,55.23107352507567],[61.37437753270978,55.22869166879077],[61.37432327929805,55.228302945535255],[61.37598386470605,55.22662636941712],[61.37838628602934,55.22259367235336],[61.37984099042463,55.219605887461164],[61.381350571788204,55.21604698858555],[61.38511418279488,55.20545348429201],[61.38567669673573,55.20237731443145],[61.38621536833574,55.20068270196815],[61.38628840403218,55.19883218272409]],[[61.3903506,55.1925605],[61.38900612307692,55.19450322307693],[61.38643937652893,55.1977416910031],[61.386320014433,55.198827571990094],[61.38644359043091,55.19774164975879],[61.38881130241253,55.19475148639189],[61.38997820000001,55.19301717142857],[61.39176729113814,55.19103488443157],[61.3918572,55.190170599999995],[61.393913609883136,55.18651087043884],[61.39425098472099,55.184367477477],[61.39445585619486,55.184248725654854],[61.39494961287872,55.184198800929614],[61.3985541650921,55.18431450919662],[61.398845137356005,55.184218356491954],[61.39900099819134,55.18399890980406],[61.4003007,55.1681794],[61.39900023530302,55.18400604147476],[61.398830119139376,55.184230917559404],[61.3985223515014,55.18431820262842],[61.394844016052495,55.18420647566491],[61.39427545161562,55.18435166825703],[61.393904332611356,55.18654237586573],[61.39187039747894,55.190148449256284],[61.39171816587432,55.19112182596291],[61.390072180375725,55.192926406314356]],[[61.411312476267895,55.13833663265121],[61.41137344918332,55.139115429437524],[61.411673497765015,55.13942272919726],[61.41357586666666,55.1428179],[61.41379304146542,55.14348776408922],[61.41328705714285,55.145145285714285],[61.41217556394733,55.147908365858186],[61.411700560253706,55.14981745358166],[61.411022366666664,55.15084348888889],[61.40697074924103,55.155054636460925],[61.40650800112236,55.15882667437656],[61.40605008,55.159204939999995],[61.40435594166426,55.16019689137391],[61.40412648702905,55.160455520352755],[61.40351050082418,55.16745881747006],[61.403090882777576,55.167659254284175],[61.40070069841799,55.16765580162737],[61.40042635154176,55.1677895132823],[61.40032989124751,55.168174235414746],[61.40041535887933,55.167789527101256],[61.40065780175196,55.16765903082974],[61.40302874092038,55.16766454370774],[61.4033336722645,55.16759389093209],[61.40351061052876,55.16742769337305],[61.40409201585599,55.16053551494328],[61.40450236725574,55.16008966058837],[61.40648596970465,55.158852487748696],[61.40696936462936,55.155057040911366],[61.41093231056002,55.150936146831135],[61.41145660064539,55.15033200568163],[61.411700654075645,55.149816654981194],[61.41213778508577,55.14802342731204],[61.4137281650385,55.143929821152504],[61.41379482522102,55.1433824158918],[61.41192874980772,55.13987695307809],[61.41123354087273,55.138906434532],[61.411332935601294,55.1388365321319],[61.41116907800444,55.13880236270748],[61.41072680708372,55.13832281350046]]]}},{"type":"Feature","properties":{"route_ref":"20","route_color":"#64748b"},"geometry":{"type":"MultiLineString","coordinates":[[[61.3862896690126,55.19882917591638],[61.38621805,55.20067345],[61.38567634398494,55.20237373505044],[61.385121467235834,55.205432938898724],[61.38133825937499,55.216101300000005],[61.37897830714286,55.22153674285714],[61.37681872376733,55.22534521649189],[61.37598703949172,55.22662266013097],[61.3747239698802,55.22779681007651],[61.37432191630538,55.22833730454098],[61.37534522494033,55.230872727721426],[61.378176862410925,55.236009155366574],[61.379188859938765,55.23726994576237],[61.380829812551966,55.238708285890795],[61.38108305195752,55.239084754831936],[61.380946084830626,55.239664082549766],[61.3795370975573,55.24207887905777],[61.37740460887998,55.246351678010264],[61.37753759551507,55.24654850311311],[61.37817581706305,55.24672100806728],[61.403361582162354,55.251014118683116],[61.405204659999995,55.25178244],[61.41008547679822,55.254340407812784],[61.418563282426014,55.25883673990236],[61.41889097636473,55.25919903673136],[61.41869994136223,55.25957736558538],[61.41612584113649,55.26159862544809],[61.41528755,55.262029749999996],[61.41374445915172,55.262627963625256],[61.41148287513514,55.26433334852246],[61.41345808209552,55.262787511864914],[61.414340057142866,55.26234805714285],[61.415420268047235,55.26197204968618],[61.41621589414213,55.261536927024075],[61.4188137,55.259469],[61.4188939,55.2592175],[61.418527020016626,55.258817124688925],[61.40988250462493,55.25423357241149],[61.40464304843844,55.25149389067628],[61.403200627766665,55.250987023618585],[61.37935393636363,55.24695329090909],[61.3781591,55.2467394],[61.37760378749849,55.246585436922366],[61.377413847787224,55.246423136200036],[61.37750412894738,55.24594531578948],[61.3810963,55.239209],[61.38084661671899,55.23875534407783],[61.378999607290446,55.237066838881596],[61.37821084,55.236067999999996],[61.375445421732465,55.23107352507567],[61.37437753270978,55.22869166879077],[61.37432327929805,55.228302945535255],[61.37598386470605,55.22662636941712],[61.37838628602934,55.22259367235336],[61.37984099042463,55.219605887461164],[61.381350571788204,55.21604698858555],[61.38511418279488,55.20545348429201],[61.38567669673573,55.20237731443145],[61.38621536833574,55.20068270196815],[61.38628840403218,55.19883218272409]],[[61.376254113443075,55.13671854463141],[61.37605815994017,55.136872905681244],[61.376202836425406,55.13713800660865],[61.389448957564646,55.14677907039405],[61.38976336078043,55.14713605631644],[61.38921212727272,55.15749773636364],[61.38836913357118,55.16691970126421],[61.388438468919965,55.16735099694311],[61.388834211103116,55.16751517940153],[61.3898312722337,55.16757464429532],[61.39941317692308,55.16785063076924],[61.40002463979411,55.16792543962071],[61.40028841638635,55.16811829361523],[61.39896400278937,55.18409053418707],[61.40029341100574,55.16813442644313],[61.40001390931633,55.16792507673187],[61.399199531819875,55.16784362455036],[61.389840405244136,55.16757544940327],[61.38882774727652,55.1675189424866],[61.38844436797434,55.1673645632557],[61.388357320000004,55.16705368],[61.38922891554142,55.157227811055854],[61.38976685585735,55.14715538596484],[61.38937632152546,55.14672594562722],[61.37562873341294,55.13671447359083],[61.37553831640581,55.13639875708462],[61.37584706481974,55.13618936271025]],[[61.3903506,55.1925605],[61.38900612307692,55.19450322307693],[61.38643937652893,55.1977416910031],[61.386320014433,55.198827571990094],[61.38644359043091,55.19774164975879],[61.38881130241253,55.19475148639189],[61.38997820000001,55.19301717142857],[61.39176729113814,55.19103488443157],[61.3918572,55.190170599999995],[61.393913609883136,55.18651087043884],[61.39425098472099,55.184367477477],[61.39445585619486,55.184248725654854],[61.39494961287872,55.184198800929614],[61.3985541650921,55.18431450919662],[61.39895393331902,55.18413287811537],[61.3985223515014,55.18431820262842],[61.394844016052495,55.18420647566491],[61.39427545161562,55.18435166825703],[61.393904332611356,55.18654237586573],[61.39187039747894,55.190148449256284],[61.39171816587432,55.19112182596291],[61.390072180375725,55.192926406314356]]]}},{"type":"Feature","properties":{"route_ref":"16","route_color":"#64748b"},"geometry":{"type":"MultiLineString","coordinates":[[[61.291690001026524,55.18240726883066],[61.3009490731518,55.18655651875441],[61.30343367226625,55.18749331325183],[61.30575904334949,55.188123209728516],[61.307576318409865,55.18847763738473],[61.310249999852196,55.188840876190646],[61.31258144457759,55.18895399614557],[61.357120794495025,55.188973210881784],[61.358657362005744,55.18873768393092],[61.360476056662655,55.188124447060034],[61.37083453007138,55.18395130377008],[61.371693915687594,55.183727648084],[61.374948988,55.183634420000004],[61.378126908,55.18367722000001],[61.37960353047142,55.18383464144009],[61.38642037431946,55.18389719566447],[61.3985541650921,55.18431450919662],[61.398887670278604,55.184185347543455],[61.399027838152904,55.18390970967052],[61.4003007,55.1681794],[61.39902675470802,55.183923833016095],[61.39890519640162,55.18417207416408],[61.39859562461906,55.18431100135238],[61.386419583184946,55.1838971428808],[61.379603991246825,55.1838356369983],[61.37730521084028,55.183667526913275],[61.375124564767894,55.18363813871187],[61.3716682,55.183731],[61.37025825241729,55.18417989768058],[61.36047877715249,55.18812409033031],[61.35878981347338,55.18869267436642],[61.357139116213894,55.18897287580998],[61.31248612862686,55.188952611950604],[61.31003115496358,55.188819101881634],[61.30757606658621,55.18847786968015],[61.30558425612038,55.18808229208523],[61.30358223346914,55.18754036627991],[61.30095891125868,55.18656295163943],[61.2926211,55.1828756]],[[61.411312476267895,55.13833663265121],[61.41125049459805,55.138638273934724],[61.41143054459166,55.13910485471877],[61.41357586666666,55.1428179],[61.41379304146542,55.14348776408922],[61.41328705714285,55.145145285714285],[61.41217556394733,55.147908365858186],[61.411700560253706,55.14981745358166],[61.411022366666664,55.15084348888889],[61.40697074924103,55.155054636460925],[61.40650800112236,55.15882667437656],[61.40605008,55.159204939999995],[61.40435594166426,55.16019689137391],[61.40412648702905,55.160455520352755],[61.40351050082418,55.16745881747006],[61.403090882777576,55.167659254284175],[61.40070069841799,55.16765580162737],[61.40042635154176,55.1677895132823],[61.40032989124751,55.168174235414746],[61.40041535887933,55.167789527101256],[61.40065780175196,55.16765903082974],[61.40302874092038,55.16766454370774],[61.4033336722645,55.16759389093209],[61.40351061052876,55.16742769337305],[61.40409201585599,55.16053551494328],[61.40450236725574,55.16008966058837],[61.40648596970465,55.158852487748696],[61.40696936462936,55.155057040911366],[61.41093231056002,55.150936146831135],[61.41145660064539,55.15033200568163],[61.411700654075645,55.149816654981194],[61.41213778508577,55.14802342731204],[61.4137281650385,55.143929821152504],[61.41379482522102,55.1433824158918],[61.41192874980772,55.13987695307809],[61.41077831713781,55.138497999606216]]]}},{"type":"Feature","properties":{"route_ref":"22","route_color":"#64748b"},"geometry":{"type":"MultiLineString","coordinates":[[[61.4920853,55.100184],[61.487328675,55.106044],[61.486650669064744,55.106687450746634],[61.48584018857715,55.10716381650396],[61.48479178071122,55.10754509655461],[61.46886184053124,55.11132199466522],[61.4674600015529,55.11177084002844],[61.46744734117783,55.11210609972184],[61.472415755555545,55.119981366666664],[61.47254069937198,55.1203249173021],[61.47233643098043,55.12060741911869],[61.47047697777778,55.12106868888889],[61.46227749285714,55.12278309999999],[61.44937918233048,55.125327053114034],[61.44857143937412,55.125665751188244],[61.44033079125886,55.13066983926437],[61.43713254819691,55.13134989963873],[61.43655852486468,55.131612278182196],[61.43658741046667,55.13204171033361],[61.44423149494167,55.14452950991179],[61.44472941438851,55.1448724073685],[61.44660885138482,55.1456857244869],[61.44691102522163,55.145970719275546],[61.44659963359876,55.14634256134444],[61.44382358585492,55.14832525350148],[61.44275018227271,55.14938007169263],[61.44240872158905,55.149945677547095],[61.44236806032663,55.151106851428985],[61.442833060251736,55.15312950374934],[61.443229845426124,55.15390040504609],[61.44343288389435,55.1556561393759],[61.443754428646926,55.15596076058835],[61.44426682625422,55.15620947038073],[61.44464689407602,55.1567317184537],[61.44527402316789,55.160341130220246],[61.445083896425146,55.1607026394318],[61.44455193571428,55.16082118571428],[61.4423617545288,55.16098062244192],[61.44200957055949,55.1611058463896],[61.44161440131485,55.16141450907431],[61.44266870824022,55.16734580263312],[61.442569005621735,55.16755713213592],[61.44220489729461,55.167734377387966],[61.44255226944073,55.16757213964739],[61.44266935455166,55.167346646492014],[61.44159870788162,55.16145891734251],[61.44192279403713,55.16114896029692],[61.44227724522392,55.16099540197018],[61.44505969843083,55.16070638666175],[61.44527301170528,55.160341059966285],[61.44464379549766,55.15670226104583],[61.444333416506076,55.15627882680389],[61.443517236298085,55.1557768274765],[61.443349984011036,55.155420925855424],[61.44326005289637,55.15403192109937],[61.44284435554331,55.15317542442531],[61.4423849,55.1512126],[61.442414347154156,55.14995316522854],[61.44269593299802,55.149443918213954],[61.44332790000001,55.1487711],[61.44423180000001,55.14800119375001],[61.44665542636823,55.14630274206208],[61.44689378054335,55.14590515444687],[61.44647809584306,55.14562449452118],[61.44490882352942,55.14497345294117],[61.44415895000001,55.1444224],[61.436573934375,55.13201964375],[61.43657743084894,55.13157771724277],[61.437304020000006,55.13131420500001],[61.43971098014697,55.13085854516066],[61.440461734588766,55.130605785483915],[61.44855786208303,55.12564788672658],[61.44905622766053,55.12542858432665],[61.46233347942238,55.12277146800495],[61.47233172097067,55.120606495210296],[61.472534130772154,55.120316122407715],[61.47232624858107,55.119887718191464],[61.46741840147909,55.11205918169278],[61.46744413246076,55.11178306533996],[61.46767859429943,55.111639030854086],[61.46983650000001,55.111089276470594],[61.48492392598518,55.10750830340448],[61.48581626368537,55.1071737886079],[61.48677871575426,55.106607067340086],[61.48725067263634,55.10613742592787],[61.492794745163216,55.0992562093979]],[[61.291690001026524,55.18240726883066],[61.3009490731518,55.18655651875441],[61.30343367226625,55.18749331325183],[61.30575904334949,55.188123209728516],[61.307576318409865,55.18847763738473],[61.310249999852196,55.188840876190646],[61.31258144457759,55.18895399614557],[61.357120794495025,55.188973210881784],[61.358657362005744,55.18873768393092],[61.360476056662655,55.188124447060034],[61.37083453007138,55.18395130377008],[61.371693915687594,55.183727648084],[61.374948988,55.183634420000004],[61.378126908,55.18367722000001],[61.37960353047142,55.18383464144009],[61.38642037431946,55.18389719566447],[61.3985541650921,55.18431450919662],[61.398887670278604,55.184185347543455],[61.399027838152904,55.18390970967052],[61.4003007,55.1681794],[61.39902675470802,55.183923833016095],[61.39890519640162,55.18417207416408],[61.39859562461906,55.18431100135238],[61.386419583184946,55.1838971428808],[61.379603991246825,55.1838356369983],[61.37730521084028,55.183667526913275],[61.375124564767894,55.18363813871187],[61.3716682,55.183731],[61.37025825241729,55.18417989768058],[61.36047877715249,55.18812409033031],[61.35878981347338,55.18869267436642],[61.357139116213894,55.18897287580998],[61.31248612862686,55.188952611950604],[61.31003115496358,55.188819101881634],[61.30757606658621,55.18847786968015],[61.30558425612038,55.18808229208523],[61.30358223346914,55.18754036627991],[61.30095891125868,55.18656295163943],[61.2926211,55.1828756]],[[61.40415984086766,55.165409707892756],[61.41558660114773,55.16577668078173],[61.415828224672644,55.16606366087364],[61.41577094722663,55.167634667737154],[61.416100811317165,55.16783488332305],[61.41655408256412,55.16788750273317],[61.43210776596971,55.16830028332528],[61.4422081,55.1676961],[61.43229658309686,55.16829981684267],[61.4167452,55.167894],[61.416076682963784,55.1678279802903],[61.4157734301516,55.167644265287784],[61.41582995043529,55.166059297162604],[61.41560428729767,55.16577951288955],[61.404517039365096,55.16540611433664],[61.40394421640086,55.16544588956063],[61.403698562991266,55.16564268367437],[61.4035837625,55.1671884],[61.40338986455859,55.167568677456366],[61.402990438797254,55.16766365609516],[61.40070069841799,55.16765580162737],[61.40042635154176,55.1677895132823],[61.40032989124751,55.168174235414746],[61.40041535887933,55.167789527101256],[61.40065780175196,55.16765903082974],[61.40302874092038,55.16766454370774],[61.40341296713577,55.16754534109462],[61.403578528506024,55.16725487396636],[61.40370074981449,55.16562086572177],[61.403893650580585,55.16545753857648],[61.4041702984698,55.165409823211846]]]}},{"type":"Feature","properties":{"route_ref":"7","route_color":"#64748b"},"geometry":{"type":"LineString","coordinates":[[61.41139306003917,55.138330823252794],[61.41143054459166,55.13910485471877],[61.41371359442188,55.14308242470193],[61.41374403511389,55.14388325922549],[61.41217556394733,55.147908365858186],[61.41152560080902,55.150222335621045],[61.40697074924103,55.155054636460925],[61.40650800112236,55.15882667437656],[61.40605008,55.159204939999995],[61.40435594166426,55.16019689137391],[61.40412648702905,55.160455520352755],[61.403555966666666,55.16766556666666],[61.40374580379037,55.1679554130183],[61.40432811293488,55.1680348100843],[61.41301872115027,55.16833797556085],[61.41398491824708,55.168732303859734],[61.41520797275527,55.168837819925706],[61.415528257354694,55.1690041455667],[61.41535634374999,55.17205765625],[61.41469038282461,55.17852998053984],[61.41436368181818,55.18404972727273],[61.414126620151244,55.18510156137691],[61.4143417610054,55.18404826466396],[61.41551528026773,55.16900367649595],[61.41524947544253,55.168850226479755],[61.41405193251402,55.16875010730832],[61.412974315274354,55.16833614390413],[61.404325868883674,55.16803511631617],[61.40377597730145,55.167967768631776],[61.40355851764729,55.167763709338786],[61.40409201585599,55.16053551494328],[61.40450236725574,55.16008966058837],[61.40648596970465,55.158852487748696],[61.40696936462936,55.155057040911366],[61.41093231056002,55.150936146831135],[61.411594445924216,55.15011002796075],[61.41217062420725,55.14792356176352],[61.413777387487315,55.14377172332931],[61.41371245040723,55.14308120024315],[61.41192874980772,55.13987695307809],[61.41077831713781,55.138497999606216]]}},{"type":"Feature","properties":{"route_ref":"12","route_color":"#64748b"},"geometry":{"type":"LineString","coordinates":[[61.44615777323637,55.14655989168605],[61.44665542636823,55.14630274206208],[61.44689378054335,55.14590515444687],[61.44647809584306,55.14562449452118],[61.44490882352942,55.14497345294117],[61.44415895000001,55.1444224],[61.436573934375,55.13201964375],[61.43657743084894,55.13157771724277],[61.437304020000006,55.13131420500001],[61.43971098014697,55.13085854516066],[61.440461734588766,55.130605785483915],[61.44855786208303,55.12564788672658],[61.44905622766053,55.12542858432665],[61.46233347942238,55.12277146800495],[61.47233172097067,55.120606495210296],[61.472534130772154,55.120316122407715],[61.47232624858107,55.119887718191464],[61.46741840147909,55.11205918169278],[61.46744413246076,55.11178306533996],[61.46767859429943,55.111639030854086],[61.46983650000001,55.111089276470594],[61.48492392598518,55.10750830340448],[61.48581626368537,55.1071737886079],[61.48677871575426,55.106607067340086],[61.48725067263634,55.10613742592787],[61.492794745163216,55.0992562093979]]}},{"type":"Feature","properties":{"route_ref":"19","route_color":"#64748b"},"geometry":{"type":"MultiLineString","coordinates":[[[61.41709972949014,55.25805515029486],[61.40464304843844,55.25149389067628],[61.40371030583217,55.25112503610275],[61.391153157677046,55.24891603631764],[61.37935393636363,55.24695329090909],[61.3781591,55.2467394],[61.37760378749849,55.246585436922366],[61.377413847787224,55.246423136200036],[61.37750412894738,55.24594531578948],[61.3810963,55.239209],[61.38084661671899,55.23875534407783],[61.378999607290446,55.237066838881596],[61.37821084,55.236067999999996],[61.375445421732465,55.23107352507567],[61.37437753270978,55.22869166879077],[61.37432327929805,55.228302945535255],[61.37598386470605,55.22662636941712],[61.37838628602934,55.22259367235336],[61.37984099042463,55.219605887461164],[61.381350571788204,55.21604698858555],[61.38511418279488,55.20545348429201],[61.38567669673573,55.20237731443145],[61.38621536833574,55.20068270196815],[61.38628524355785,55.198825443120384],[61.38621805,55.20067345],[61.38567634398494,55.20237373505044],[61.385121467235834,55.205432938898724],[61.38133825937499,55.216101300000005],[61.37897830714286,55.22153674285714],[61.37681872376733,55.22534521649189],[61.37598703949172,55.22662266013097],[61.3747239698802,55.22779681007651],[61.37432191630538,55.22833730454098],[61.37534522494033,55.230872727721426],[61.378176862410925,55.236009155366574],[61.379188859938765,55.23726994576237],[61.380829812551966,55.238708285890795],[61.38108305195752,55.239084754831936],[61.380946084830626,55.239664082549766],[61.377588517027284,55.245789853065205],[61.377413106789234,55.24626190059685],[61.377508706453575,55.24653139753118],[61.38006132702624,55.247056223162794],[61.403361582162354,55.251014118683116],[61.405204659999995,55.25178244],[61.414896254108584,55.25694463411396],[61.416909518700166,55.25796640311275],[61.41732436138357,55.25808557185725],[61.417627989559435,55.2580213787778],[61.4183782785272,55.25751699988248],[61.43186365849337,55.24709975151554],[61.43455790489975,55.24535696982341],[61.43530477604153,55.245068620200264],[61.43712983333333,55.244953333333335],[61.44049653676003,55.24523188745],[61.44160274615384,55.24548595384616],[61.4458915,55.246903],[61.44779549624199,55.247630722649994],[61.44990198992559,55.248916706159655],[61.45055890641449,55.24960024987185],[61.451018949986285,55.2504088019773],[61.4504301833042,55.24944598592075],[61.44990850472161,55.248920202992366],[61.4476874,55.2475788],[61.44588163815654,55.24692026236434],[61.44145450746445,55.24546116764703],[61.440492274129056,55.24523150247876],[61.43714339018442,55.24495864189076],[61.4352757,55.245075],[61.4346023,55.2453268],[61.431799023017646,55.24715045064183],[61.41829813999999,55.25758030000001],[61.417588085757146,55.25804386105011],[61.41709975788882,55.25804383270989]],[[61.291690001026524,55.18240726883066],[61.3009490731518,55.18655651875441],[61.30343367226625,55.18749331325183],[61.30575904334949,55.188123209728516],[61.307576318409865,55.18847763738473],[61.310249999852196,55.188840876190646],[61.31258144457759,55.18895399614557],[61.357120794495025,55.188973210881784],[61.358657362005744,55.18873768393092],[61.360476056662655,55.188124447060034],[61.37083453007138,55.18395130377008],[61.37160126000827,55.18373895627833],[61.374948988,55.183634420000004],[61.378126908,55.18367722000001],[61.37960353047142,55.18383464144009],[61.38654140468085,55.183900309953636],[61.393753101420806,55.184187318987455],[61.39422445530138,55.18444352192545],[61.39366353646814,55.18418183633829],[61.38657619012999,55.18390119848464],[61.379603991246825,55.1838356369983],[61.37808241778891,55.18369667828295],[61.375124564767894,55.18363813871187],[61.3716682,55.183731],[61.37025825241729,55.18417989768058],[61.36047877715249,55.18812409033031],[61.35878981347338,55.18869267436642],[61.357139116213894,55.18897287580998],[61.31248612862686,55.188952611950604],[61.31003115496358,55.188819101881634],[61.30757606658621,55.18847786968015],[61.30558425612038,55.18808229208523],[61.30358223346914,55.18754036627991],[61.30095891125868,55.18656295163943],[61.2926211,55.1828756]],[[61.45136814501309,55.251128074738574],[61.4526445280237,55.253599577466005],[61.45299729683639,55.257035688417176],[61.45048546773462,55.26942485971648],[61.44995098418948,55.272747350712756],[61.449751413387816,55.27298395600785],[61.44934019179816,55.27307880903704],[61.449034922028495,55.27301901574293],[61.44892966469169,55.272742753181824],[61.44985944499996,55.27240405985091],[61.45005472653559,55.27217674041501],[61.450490684360254,55.26939661599419],[61.45299003877245,55.25704860636982],[61.45265605152599,55.25364854956335],[61.45229144388454,55.25273977659151],[61.4513228,55.2510447]],[[61.3903506,55.1925605],[61.38900612307692,55.19450322307693],[61.38643937652893,55.1977416910031],[61.386320014433,55.198827571990094],[61.38644359043091,55.19774164975879],[61.38881130241253,55.19475148639189],[61.38997820000001,55.19301717142857],[61.39176729113814,55.19103488443157],[61.3918572,55.190170599999995],[61.393913609883136,55.18651087043884],[61.394129171621366,55.18441890153956],[61.39403365684851,55.18592361141178],[61.39376609999999,55.186889],[61.39187039747894,55.190148449256284],[61.39171816587432,55.19112182596291],[61.390072180375725,55.192926406314356]]]}},{"type":"Feature","properties":{"route_ref":"14","route_color":"#64748b"},"geometry":{"type":"MultiLineString","coordinates":[[[61.3862896690126,55.19882917591638],[61.38621805,55.20067345],[61.38567634398494,55.20237373505044],[61.385121467235834,55.205432938898724],[61.38133825937499,55.216101300000005],[61.37897830714286,55.22153674285714],[61.37681872376733,55.22534521649189],[61.37598703949172,55.22662266013097],[61.3747239698802,55.22779681007651],[61.37432191630538,55.22833730454098],[61.37534522494033,55.230872727721426],[61.378176862410925,55.236009155366574],[61.379188859938765,55.23726994576237],[61.380829812551966,55.238708285890795],[61.38108305195752,55.239084754831936],[61.380946084830626,55.239664082549766],[61.3795370975573,55.24207887905777],[61.37740460887998,55.246351678010264],[61.37753759551507,55.24654850311311],[61.37817581706305,55.24672100806728],[61.403361582162354,55.251014118683116],[61.405204659999995,55.25178244],[61.416003124999996,55.25747120000001],[61.418563282426014,55.25883673990236],[61.41886852667752,55.2591334961965],[61.41890411046771,55.259354695924266],[61.41596951581623,55.26170427656048],[61.41374445915172,55.262627963625256],[61.411436329530346,55.264384306515204],[61.41345808209552,55.262787511864914],[61.414340057142866,55.26234805714285],[61.415420268047235,55.26197204968618],[61.41621589414213,55.261536927024075],[61.4188137,55.259469],[61.4188939,55.2592175],[61.418527020016626,55.258817124688925],[61.40988250462493,55.25423357241149],[61.40464304843844,55.25149389067628],[61.403200627766665,55.250987023618585],[61.37935393636363,55.24695329090909],[61.3781591,55.2467394],[61.37760378749849,55.246585436922366],[61.377413847787224,55.246423136200036],[61.37750412894738,55.24594531578948],[61.3810963,55.239209],[61.38084661671899,55.23875534407783],[61.378999607290446,55.237066838881596],[61.37821084,55.236067999999996],[61.375445421732465,55.23107352507567],[61.37437753270978,55.22869166879077],[61.37432327929805,55.228302945535255],[61.37598386470605,55.22662636941712],[61.37838628602934,55.22259367235336],[61.37984099042463,55.219605887461164],[61.381350571788204,55.21604698858555],[61.38511418279488,55.20545348429201],[61.38567669673573,55.20237731443145],[61.38621536833574,55.20068270196815],[61.38628840403218,55.19883218272409]],[[61.4435497,55.2890626],[61.4442734,55.2878712],[61.4437563887621,55.28722462938153],[61.44395656787176,55.28704437415243],[61.444263136420346,55.28700543797859],[61.444624578022,55.287176487999794],[61.4446238,55.287425666666664],[61.442491192253485,55.290864083823635],[61.44133743628382,55.29217726931252],[61.4321248,55.299332979999996],[61.431010417792045,55.29994347399405],[61.426396246711754,55.3012362181633],[61.42530505191065,55.30125427129427],[61.42452670155774,55.30100515074817],[61.42370074285715,55.30024745714285],[61.42133004495618,55.29736544549009],[61.42164158103312,55.29458080293969],[61.421497753354664,55.29378897533461],[61.419434134696196,55.29140288599491],[61.41827143333333,55.29024713333333],[61.41413450165034,55.28542346036606],[61.413416054233956,55.28498948438681],[61.40973815083142,55.28340840304286],[61.395773425,55.277546375],[61.39512898185929,55.2771373957575],[61.39513426991456,55.276914029419174],[61.39550048235295,55.276548897058824],[61.411391057892274,55.26437732030445],[61.39545312353467,55.276586040951784],[61.39510584407395,55.27705446299768],[61.39527262278492,55.27728054986836],[61.396363018016004,55.27779749045276],[61.41193853124999,55.2843433375],[61.41365948228641,55.285100731580705],[61.41413650729153,55.28542505565909],[61.4214942699212,55.293785834547464],[61.42165403999999,55.294481100000006],[61.421330308320336,55.29737029429863],[61.42376195363544,55.3003146462946],[61.42452612195575,55.30100243420064],[61.42555785165295,55.30128433091109],[61.426394720320985,55.3012314802414],[61.43101519639621,55.29994042511139],[61.431565849023194,55.29969491710081],[61.44075830710025,55.29268350627166],[61.442342428467086,55.29102727515987],[61.4435497,55.2890626]],[[61.291690001026524,55.18240726883066],[61.3009490731518,55.18655651875441],[61.30343367226625,55.18749331325183],[61.30575904334949,55.188123209728516],[61.307576318409865,55.18847763738473],[61.310249999852196,55.188840876190646],[61.31258144457759,55.18895399614557],[61.357120794495025,55.188973210881784],[61.358657362005744,55.18873768393092],[61.360476056662655,55.188124447060034],[61.37083453007138,55.18395130377008],[61.37160126000827,55.18373895627833],[61.374948988,55.183634420000004],[61.378126908,55.18367722000001],[61.37960353047142,55.18383464144009],[61.38654140468085,55.183900309953636],[61.393753101420806,55.184187318987455],[61.39422445530138,55.18444352192545],[61.39366353646814,55.18418183633829],[61.38657619012999,55.18390119848464],[61.379603991246825,55.1838356369983],[61.37808241778891,55.18369667828295],[61.375124564767894,55.18363813871187],[61.3716682,55.183731],[61.37025825241729,55.18417989768058],[61.36047877715249,55.18812409033031],[61.35878981347338,55.18869267436642],[61.357139116213894,55.18897287580998],[61.31248612862686,55.188952611950604],[61.31003115496358,55.188819101881634],[61.30757606658621,55.18847786968015],[61.30558425612038,55.18808229208523],[61.30358223346914,55.18754036627991],[61.30095891125868,55.18656295163943],[61.2926211,55.1828756]],[[61.3903506,55.1925605],[61.38900612307692,55.19450322307693],[61.38643937652893,55.1977416910031],[61.386320014433,55.198827571990094],[61.38644359043091,55.19774164975879],[61.38881130241253,55.19475148639189],[61.38997820000001,55.19301717142857],[61.39176729113814,55.19103488443157],[61.3918572,55.190170599999995],[61.393913609883136,55.18651087043884],[61.394129171621366,55.18441890153956],[61.39403365684851,55.18592361141178],[61.39376609999999,55.186889],[61.39187039747894,55.190148449256284],[61.39171816587432,55.19112182596291],[61.390072180375725,55.192926406314356]]]}},{"type":"Feature","properties":{"route_ref":"10","route_color":"#64748b"},"geometry":{"type":"MultiLineString","coordinates":[[[61.4435497,55.2890626],[61.4442734,55.2878712],[61.4437563887621,55.28722462938153],[61.44395656787176,55.28704437415243],[61.444263136420346,55.28700543797859],[61.444624578022,55.287176487999794],[61.4446238,55.287425666666664],[61.442491192253485,55.290864083823635],[61.44133743628382,55.29217726931252],[61.4321248,55.299332979999996],[61.431010417792045,55.29994347399405],[61.426396246711754,55.3012362181633],[61.42530505191065,55.30125427129427],[61.42452670155774,55.30100515074817],[61.42370074285715,55.30024745714285],[61.42133004495618,55.29736544549009],[61.42164158103312,55.29458080293969],[61.421497753354664,55.29378897533461],[61.419434134696196,55.29140288599491],[61.41827143333333,55.29024713333333],[61.41413450165034,55.28542346036606],[61.413416054233956,55.28498948438681],[61.40973815083142,55.28340840304286],[61.395773425,55.277546375],[61.39512898185929,55.2771373957575],[61.39513426991456,55.276914029419174],[61.39550048235295,55.276548897058824],[61.411391057892274,55.26437732030445],[61.39545312353467,55.276586040951784],[61.39510584407395,55.27705446299768],[61.39527262278492,55.27728054986836],[61.396363018016004,55.27779749045276],[61.41193853124999,55.2843433375],[61.41365948228641,55.285100731580705],[61.41413650729153,55.28542505565909],[61.4214942699212,55.293785834547464],[61.42165403999999,55.294481100000006],[61.421330308320336,55.29737029429863],[61.42376195363544,55.3003146462946],[61.42452612195575,55.30100243420064],[61.42555785165295,55.30128433091109],[61.426394720320985,55.3012314802414],[61.43101519639621,55.29994042511139],[61.431565849023194,55.29969491710081],[61.44075830710025,55.29268350627166],[61.442342428467086,55.29102727515987],[61.4435497,55.2890626]],[[61.37972045406591,55.237700658414994],[61.381034573071354,55.23896411509479],[61.38107289917404,55.23940237978988],[61.377588517027284,55.245789853065205],[61.37740460887998,55.246351678010264],[61.37753759551507,55.24654850311311],[61.38006132702624,55.247056223162794],[61.403361582162354,55.251014118683116],[61.40401416952506,55.25122649866917],[61.40554828,55.251959920000004],[61.41875518618492,55.25897810398544],[61.41890411046771,55.259354695924266],[61.41877900805823,55.259499692548076],[61.41641462222221,55.26138793333334],[61.415664607188305,55.26186429022634],[61.41374445915172,55.262627963625256],[61.411436329530346,55.264384306515204],[61.41345808209552,55.262787511864914],[61.414340057142866,55.26234805714285],[61.415420268047235,55.26197204968618],[61.41621589414213,55.261536927024075],[61.4188137,55.259469],[61.41887281045252,55.25913578793],[61.418645516392225,55.25888591885519],[61.40464304843844,55.25149389067628],[61.40371030583217,55.25112503610275],[61.391153157677046,55.24891603631764],[61.37980272436051,55.24703215060571],[61.37760378749849,55.246585436922366],[61.37740188113261,55.24635479968492],[61.37750412894738,55.24594531578948],[61.38108460975695,55.239356075735145],[61.380975600000006,55.23890335000001],[61.3798308,55.2378747]]]}},{"type":"Feature","properties":{"route_ref":"9","route_color":"#64748b"},"geometry":{"type":"MultiLineString","coordinates":[[[61.4435497,55.2890626],[61.4442734,55.2878712],[61.4437563887621,55.28722462938153],[61.44395656787176,55.28704437415243],[61.444263136420346,55.28700543797859],[61.444624578022,55.287176487999794],[61.4446238,55.287425666666664],[61.442491192253485,55.290864083823635],[61.44133743628382,55.29217726931252],[61.4321248,55.299332979999996],[61.431010417792045,55.29994347399405],[61.426396246711754,55.3012362181633],[61.42530505191065,55.30125427129427],[61.42452670155774,55.30100515074817],[61.42370074285715,55.30024745714285],[61.42133004495618,55.29736544549009],[61.42164158103312,55.29458080293969],[61.421497753354664,55.29378897533461],[61.419434134696196,55.29140288599491],[61.41827143333333,55.29024713333333],[61.41413450165034,55.28542346036606],[61.413416054233956,55.28498948438681],[61.40973815083142,55.28340840304286],[61.395773425,55.277546375],[61.39512898185929,55.2771373957575],[61.39513426991456,55.276914029419174],[61.39550048235295,55.276548897058824],[61.411391057892274,55.26437732030445],[61.39545312353467,55.276586040951784],[61.39510584407395,55.27705446299768],[61.39527262278492,55.27728054986836],[61.396363018016004,55.27779749045276],[61.41193853124999,55.2843433375],[61.41365948228641,55.285100731580705],[61.41413650729153,55.28542505565909],[61.4214942699212,55.293785834547464],[61.42165403999999,55.294481100000006],[61.421330308320336,55.29737029429863],[61.42376195363544,55.3003146462946],[61.42452612195575,55.30100243420064],[61.42555785165295,55.30128433091109],[61.426394720320985,55.3012314802414],[61.43101519639621,55.29994042511139],[61.431565849023194,55.29969491710081],[61.44075830710025,55.29268350627166],[61.442342428467086,55.29102727515987],[61.4435497,55.2890626]],[[61.417908773410616,55.257883521475584],[61.43186365849337,55.24709975151554],[61.43497268950507,55.245154333480436],[61.435781969446595,55.24498929190648],[61.43712983333333,55.244953333333335],[61.44049653676003,55.24523188745],[61.44160274615384,55.24548595384616],[61.4458915,55.246903],[61.44145450746445,55.24546116764703],[61.440492274129056,55.24523150247876],[61.43794935766202,55.24499808779445],[61.43630201150095,55.244964842936064],[61.4352757,55.245075],[61.4346023,55.2453268],[61.431515504952976,55.24736256124064],[61.41796409170961,55.257783392060674],[61.4178674,55.2583437],[61.41802610194643,55.258559077276445],[61.41881205049015,55.2590479221908],[61.41890411046771,55.259354695924266],[61.41877900805823,55.259499692548076],[61.41596951581623,55.26170427656048],[61.41374445915172,55.262627963625256],[61.411436329530346,55.264384306515204],[61.41345808209552,55.262787511864914],[61.414340057142866,55.26234805714285],[61.415420268047235,55.26197204968618],[61.41621589414213,55.261536927024075],[61.4188137,55.259469],[61.41881403542744,55.2590503330413],[61.41790185977869,55.25841791637847],[61.41792264877451,55.25787171429845]],[[61.45136814501309,55.251128074738574],[61.4526445280237,55.253599577466005],[61.45299729683639,55.257035688417176],[61.45048546773462,55.26942485971648],[61.44995098418948,55.272747350712756],[61.449751413387816,55.27298395600785],[61.44934019179816,55.27307880903704],[61.449034922028495,55.27301901574293],[61.44892966469169,55.272742753181824],[61.44985944499996,55.27240405985091],[61.45005472653559,55.27217674041501],[61.450490684360254,55.26939661599419],[61.45299003877245,55.25704860636982],[61.45265605152599,55.25364854956335],[61.45229144388454,55.25273977659151],[61.4513228,55.2510447]]]}}]}