{"type":"FeatureCollection","features":[{"type":"Feature","properties":{"way_id":340404122,"route_colors":["#0d0dff","#08ff08"],"route_refs":["T3","T2"]},"geometry":{"type":"LineString","coordinates":[[37.3506704,37.0854823],[37.3503561,37.0855053],[37.350194,37.0855031],[37.3500717,37.0854973],[37.3497595,37.0854684],[37.3493638,37.085437],[37.3491694,37.0854294],[37.3490149,37.085441],[37.3489675,37.0854673],[37.3489179,37.0854948],[37.3488356,37.085564],[37.3487693,37.0856615],[37.3485484,37.0863519],[37.3484923,37.0865065],[37.3484036,37.0866704],[37.3482518,37.0868194],[37.3481001,37.0869461],[37.3458152,37.0887445],[37.3453163,37.0891339],[37.3447775,37.0894028],[37.3442994,37.0896068],[37.3436484,37.0898117],[37.3410939,37.0905211],[37.3405372,37.0907162],[37.3396473,37.0911288],[37.3395792,37.0911423],[37.3395122,37.0911409],[37.3394765,37.0911403],[37.3394147,37.0911403],[37.3393334,37.0911331],[37.3392478,37.0910974],[37.338741,37.0906679],[37.338395,37.0903923],[37.3382243,37.0902222],[37.338213,37.0902108],[37.3380233,37.0900211],[37.3377771,37.0897802],[37.3376837,37.0896558],[37.3376128,37.0895277],[37.3372717,37.088777],[37.3368007,37.0877405],[37.3361995,37.0866242],[37.3358643,37.0860013],[37.3357881,37.085866],[37.3354919,37.0853144],[37.3345506,37.0836095],[37.3345097,37.0835404],[37.3335741,37.0818281],[37.3330865,37.0809359],[37.3323172,37.079528],[37.3320014,37.0789498],[37.3319409,37.078839],[37.3316273,37.0782494],[37.330989,37.0771529],[37.3307594,37.0767499],[37.3290299,37.0736723],[37.3288039,37.0732811],[37.3286275,37.0729546],[37.3285515,37.0728075],[37.3283279,37.0723748],[37.327294,37.070551],[37.3272807,37.0704757],[37.3272885,37.0704],[37.3273119,37.070341],[37.3273172,37.0703275],[37.3273654,37.0702619],[37.3273809,37.0702457],[37.3274306,37.0702064],[37.3275096,37.0701639],[37.3275984,37.0701364],[37.3320955,37.0695943],[37.3321783,37.0695836],[37.3331311,37.0694551],[37.3378517,37.0686928],[37.3379847,37.0686572],[37.3381349,37.0686128],[37.3395623,37.0681999],[37.3396195,37.0681727],[37.3396712,37.0681392],[37.3397163,37.0681001],[37.3397462,37.0680664],[37.3397711,37.0680301],[37.3397868,37.0679908],[37.3398604,37.067616],[37.3399332,37.0670261],[37.3399585,37.0668692],[37.340003,37.0665992],[37.3403044,37.064834],[37.3403866,37.064495],[37.3405652,37.0638212]]}},{"type":"Feature","properties":{"way_id":1143863881,"route_colors":["#0d0dff"],"route_refs":["T3"]},"geometry":{"type":"LineString","coordinates":[[37.3405652,37.0638212],[37.3405714,37.0637579],[37.3405704,37.0636922],[37.340562,37.063628],[37.3405464,37.0635656],[37.3405199,37.0635102],[37.3404772,37.0634633],[37.3404237,37.0634204],[37.3403571,37.0633748],[37.3402893,37.0633343],[37.3402086,37.0632941],[37.3401239,37.0632594],[37.3400346,37.0632301]]}},{"type":"Feature","properties":{"way_id":722498114,"route_colors":["#0d0dff","#ff2b0a"],"route_refs":["T3","T1"]},"geometry":{"type":"LineString","coordinates":[[37.3400346,37.0632301],[37.3376182,37.0625285],[37.3364809,37.0621938],[37.3362677,37.0621347],[37.3359931,37.0620439],[37.3356897,37.0619731],[37.3346047,37.06178],[37.3342894,37.0617177],[37.3340644,37.0616591],[37.3339465,37.0615907],[37.3338212,37.061449],[37.3334759,37.0608849],[37.3310186,37.0568708],[37.3309351,37.0567267],[37.3306422,37.0562463],[37.3268429,37.0497951],[37.3260919,37.0484807],[37.3259152,37.048145],[37.3238029,37.0444334],[37.3237646,37.0443661],[37.3236573,37.0441723],[37.3235958,37.0440533],[37.3234823,37.0438359],[37.3234372,37.0437362],[37.3228636,37.0424675],[37.3225031,37.0417049],[37.322195,37.0411939],[37.3219552,37.0407929],[37.3210038,37.0390572],[37.3199651,37.0372111],[37.319241,37.0362204],[37.3185215,37.0354884],[37.3180717,37.0350366]]}},{"type":"Feature","properties":{"way_id":1144090593,"route_colors":["#0d0dff"],"route_refs":["T3"]},"geometry":{"type":"LineString","coordinates":[[37.3180717,37.0350366],[37.3177278,37.0347344],[37.3171787,37.0341705],[37.3151322,37.0320219],[37.3148896,37.0316962],[37.3145579,37.0312109],[37.3135695,37.0297741],[37.3129986,37.0289963],[37.3125486,37.0284667],[37.3121016,37.0279405],[37.3120071,37.0278293],[37.3117109,37.0274945],[37.3115979,37.0273617]]}},{"type":"Feature","properties":{"way_id":1144090592,"route_colors":["#0d0dff"],"route_refs":["T3"]},"geometry":{"type":"LineString","coordinates":[[37.3116769,37.0273322],[37.3117898,37.0274651],[37.3120396,37.0278115],[37.3123239,37.0281471],[37.3123777,37.0282106],[37.31303,37.0289806],[37.3136037,37.0297585],[37.3145923,37.0311956],[37.3149239,37.0316806],[37.3151651,37.0320046],[37.3172044,37.0341546],[37.3177544,37.0347129],[37.3179908,37.0349291],[37.3180831,37.035026]]}},{"type":"Feature","properties":{"way_id":1144535870,"route_colors":["#0d0dff","#ff2b0a"],"route_refs":["T3","T1"]},"geometry":{"type":"LineString","coordinates":[[37.3180831,37.035026],[37.3192685,37.0362085],[37.3195866,37.0366509],[37.3199964,37.0372003],[37.3210449,37.0390424],[37.3219871,37.040782],[37.322225,37.0411804],[37.3225343,37.041683],[37.3229115,37.0424681],[37.3233297,37.0433772],[37.323628,37.0440255],[37.3236902,37.0441492],[37.3239536,37.044612],[37.3259562,37.0481302],[37.330672,37.0562274],[37.3309708,37.0567026],[37.3310572,37.0568517],[37.3333348,37.0605942],[37.3338504,37.0614414],[37.3339769,37.0615639],[37.3340203,37.0615891],[37.3340851,37.0616267],[37.3343018,37.0616832],[37.334615,37.061745],[37.3357009,37.0619382],[37.3360081,37.0620099],[37.3362847,37.0621014],[37.3366907,37.0622188],[37.3380469,37.0626173],[37.3400474,37.0632051]]}},{"type":"Feature","properties":{"way_id":1143863882,"route_colors":["#0d0dff"],"route_refs":["T3"]},"geometry":{"type":"LineString","coordinates":[[37.3400474,37.0632051],[37.3401381,37.0632349],[37.3402253,37.0632706],[37.3402732,37.0632945],[37.3403084,37.063312],[37.3403869,37.0633589],[37.3404454,37.0633998],[37.3405031,37.0634459],[37.3405505,37.063498],[37.340579,37.0635581],[37.3405954,37.0636239],[37.3405987,37.0636843],[37.340603,37.0638279]]}},{"type":"Feature","properties":{"way_id":1143863884,"route_colors":["#0d0dff","#08ff08"],"route_refs":["T3","T2"]},"geometry":{"type":"LineString","coordinates":[[37.340603,37.0638279],[37.3404197,37.0645003],[37.3403378,37.0648383],[37.3401985,37.0656805],[37.3400808,37.0666052],[37.3400354,37.0668843],[37.3400067,37.0670475],[37.3398939,37.0676192],[37.3398198,37.067997],[37.3398023,37.0680408],[37.3397749,37.0680807],[37.3397533,37.0681011],[37.3397216,37.0681354],[37.3396944,37.0681589],[37.3396389,37.0681949],[37.3395768,37.0682244],[37.3381472,37.0686379],[37.3379993,37.0686819],[37.3378611,37.0687188],[37.3331367,37.0694816],[37.3321866,37.0696095],[37.3321051,37.0696199],[37.3307608,37.0697899],[37.3276071,37.0701627],[37.3275254,37.070188],[37.3274517,37.0702276],[37.3274342,37.0702415],[37.3273941,37.0702762],[37.3273483,37.0703385],[37.3273309,37.0703826],[37.3273219,37.0704053],[37.3273147,37.0704749],[37.3273268,37.0705435],[37.3283491,37.0723633],[37.3285854,37.0728023],[37.3286594,37.0729457],[37.3288287,37.0732732],[37.3290518,37.0736643],[37.3292972,37.0740823],[37.3307917,37.076738],[37.3310264,37.0771353],[37.3316537,37.0782416],[37.3319683,37.0788289],[37.3320289,37.0789402],[37.332345,37.0795206],[37.3332474,37.0811591],[37.3336088,37.0818153],[37.334551,37.083526],[37.3345916,37.0835946],[37.3355333,37.0853002],[37.3358294,37.0858517],[37.3359053,37.0859864],[37.3362405,37.0866094],[37.3368426,37.0877273],[37.3373143,37.0887654],[37.3376543,37.0895136],[37.3377203,37.0896349],[37.3378063,37.0897423],[37.3380535,37.0900009],[37.3382428,37.0901916],[37.3384216,37.0903717],[37.3387561,37.0906475],[37.3392749,37.0910682],[37.3393504,37.0910996],[37.3394154,37.0911076],[37.3394982,37.0911108],[37.3395648,37.0911082],[37.339629,37.0910958],[37.3405323,37.0906802],[37.3410869,37.0904976],[37.3436262,37.0897867],[37.3442837,37.0895722],[37.3447394,37.0893505],[37.3450827,37.0891994],[37.3452947,37.0890931],[37.3457841,37.0887185],[37.3480813,37.0869235],[37.3482248,37.086806],[37.3483647,37.0866516],[37.3484769,37.0864648],[37.3487679,37.0855893],[37.3487995,37.0855422],[37.3488884,37.0854674],[37.3489219,37.0854488],[37.3489418,37.0854378],[37.3489989,37.0854061],[37.349169,37.0853933],[37.3493681,37.0854012],[37.3497638,37.0854327],[37.3500749,37.0854615],[37.3501957,37.0854671],[37.3503544,37.0854694],[37.3506662,37.0854465]]}},{"type":"Feature","properties":{"way_id":1144681168,"route_colors":["#08ff08"],"route_refs":["T2"]},"geometry":{"type":"LineString","coordinates":[[37.3405652,37.0638212],[37.3405987,37.0636843],[37.3406364,37.0636374],[37.3406749,37.0635995],[37.3407201,37.0635667],[37.3407711,37.0635398],[37.3408322,37.0635177],[37.3408692,37.06351],[37.3409258,37.0635052],[37.3410956,37.0635163],[37.3414051,37.0635688]]}},{"type":"Feature","properties":{"way_id":197344364,"route_colors":["#08ff08","#ff2b0a"],"route_refs":["T2","T1"]},"geometry":{"type":"LineString","coordinates":[[37.3414051,37.0635688],[37.3435029,37.0640856],[37.3444001,37.0643049],[37.344773,37.0643841],[37.3453613,37.064464],[37.3460877,37.06452],[37.3462145,37.0645297],[37.3466687,37.0645647],[37.3470931,37.0646089],[37.3478334,37.0646763],[37.348174,37.0647159],[37.3485146,37.0647255],[37.3487882,37.0647169],[37.3491463,37.064687],[37.3496827,37.0646335],[37.3499966,37.0646057],[37.3503909,37.0645789],[37.3508911,37.0645414],[37.3513752,37.0645265],[37.3517605,37.0645275],[37.3521883,37.0645435],[37.3524789,37.0645725],[37.3527327,37.0645981],[37.3535097,37.0647163],[37.3536756,37.0647415],[37.3537758,37.0647512],[37.3538995,37.0647565],[37.3541759,37.0647659],[37.3543767,37.0647708],[37.3546314,37.0647822],[37.3549769,37.0648346],[37.3553663,37.0648935],[37.3559114,37.0649562],[37.356327,37.0650433],[37.3568915,37.0651996],[37.3572994,37.0653468],[37.3580985,37.0656811],[37.3584982,37.0658844],[37.3589328,37.0660499],[37.3593163,37.0661905],[37.3595389,37.0662547],[37.3602456,37.0664066],[37.3606645,37.066492],[37.361421,37.0666567],[37.3615407,37.0666828],[37.3623323,37.0668552],[37.364736,37.0674193],[37.3651152,37.0675142],[37.3652905,37.0675678],[37.3654461,37.0676159],[37.3661666,37.0678352],[37.3665609,37.0679636],[37.3667349,37.068029],[37.3672852,37.0682628],[37.367957,37.0685008],[37.3681605,37.0685677],[37.3682688,37.0686058],[37.3685525,37.0686656],[37.3691158,37.0687395],[37.3691926,37.0687474],[37.3694882,37.068778],[37.3705802,37.0688272],[37.3708685,37.0688207],[37.3714335,37.0687687],[37.3718375,37.0687314],[37.3720468,37.0687075],[37.372325,37.0686805],[37.3727178,37.0686345],[37.3728123,37.0686066],[37.372891,37.0685833],[37.3730058,37.068533],[37.3731051,37.0684784],[37.3732529,37.0683735],[37.3755126,37.0665779],[37.3756229,37.066496],[37.3756942,37.0664655],[37.375753,37.0664404],[37.3758519,37.0664013],[37.3759914,37.0663649],[37.3769643,37.0661293],[37.3774988,37.0660064],[37.377653,37.065985],[37.3777212,37.0659818],[37.377799,37.0659914],[37.3778504,37.0660018],[37.3778835,37.0660128],[37.3779331,37.0660375],[37.3779908,37.0660696],[37.3780299,37.0661037],[37.3780798,37.0661472],[37.3781358,37.0662183],[37.3789422,37.0683029],[37.379611,37.0699601],[37.3797435,37.0702736],[37.3799847,37.0708667]]}},{"type":"Feature","properties":{"way_id":1144681169,"route_colors":["#08ff08","#ff2b0a"],"route_refs":["T2","T1"]},"geometry":{"type":"LineString","coordinates":[[37.3799511,37.0708768],[37.3797018,37.0702874],[37.3795694,37.0699742],[37.3788992,37.0683137],[37.3780943,37.0662332],[37.3780438,37.0661691],[37.3779967,37.066128],[37.377946,37.0660836],[37.3778628,37.0660449],[37.3777971,37.0660281],[37.3777191,37.0660179],[37.3776582,37.0660208],[37.3775089,37.0660415],[37.3769767,37.0661638],[37.3760057,37.066399],[37.375869,37.0664347],[37.3757647,37.0664762],[37.3756309,37.0665365],[37.3755415,37.0666054],[37.3732835,37.0683998],[37.373133,37.0685067],[37.3729813,37.0685847],[37.3729098,37.0686161],[37.3728631,37.0686333],[37.3727291,37.0686695],[37.372331,37.0687162],[37.3720528,37.0687431],[37.3718433,37.0687671],[37.3714387,37.0688044],[37.3708717,37.0688566],[37.3705804,37.0688632],[37.3694837,37.0688138],[37.3691092,37.068775],[37.3685431,37.0687008],[37.368238,37.0686343],[37.3681318,37.0685972],[37.3679393,37.0685338],[37.3672654,37.0682952],[37.3667147,37.0680611],[37.3665428,37.0679965],[37.3661501,37.0678687],[37.3654299,37.0676494],[37.3652743,37.0676013],[37.3651004,37.0675481],[37.364724,37.067454],[37.3623194,37.0668895],[37.3615231,37.0667161],[37.361403,37.06669],[37.3606532,37.0665266],[37.3602343,37.0664414],[37.3595254,37.066289],[37.3592992,37.0662238],[37.3589137,37.0660824],[37.3584763,37.0659159],[37.3580759,37.0657122],[37.3572796,37.0653791],[37.3568748,37.065233],[37.3563138,37.0650777],[37.3559024,37.0649914],[37.3553589,37.064929],[37.3549685,37.0648699],[37.3546259,37.064818],[37.3543704,37.0648066],[37.3541707,37.0648017],[37.3538973,37.0647924],[37.3537719,37.064787],[37.3536687,37.064777],[37.3530256,37.0646792],[37.3527257,37.0646336],[37.3524733,37.0646081],[37.3521844,37.0645794],[37.3517593,37.0645634],[37.351376,37.0645624],[37.3508941,37.0645773],[37.3503949,37.0646147],[37.350001,37.0646414],[37.349688,37.0646692],[37.3491514,37.0647227],[37.3487915,37.0647528],[37.3485147,37.0647615],[37.3481699,37.0647517],[37.3478275,37.0647119],[37.347088,37.0646414],[37.3466629,37.0646017],[37.3462094,37.0645641],[37.3460831,37.0645537],[37.3456742,37.0645194],[37.3453434,37.0644925],[37.3447634,37.0644193],[37.3443877,37.0643395],[37.3434896,37.0641199],[37.3413897,37.0635954]]}},{"type":"Feature","properties":{"way_id":1144681167,"route_colors":["#08ff08"],"route_refs":["T2"]},"geometry":{"type":"LineString","coordinates":[[37.3413897,37.0635954],[37.3410758,37.0635487],[37.3410058,37.0635451],[37.3409062,37.0635468],[37.3408531,37.0635533],[37.3407999,37.0635658],[37.3407421,37.0635893],[37.3406726,37.0636469],[37.3406361,37.0636931],[37.340603,37.0638279]]}},{"type":"Feature","properties":{"way_id":1144681166,"route_colors":["#ff2b0a"],"route_refs":["T1"]},"geometry":{"type":"LineString","coordinates":[[37.3413897,37.0635954],[37.3410956,37.0635163],[37.3402732,37.0632945],[37.3400346,37.0632301]]}},{"type":"Feature","properties":{"way_id":1147463602,"route_colors":["#ff2b0a"],"route_refs":["T1"]},"geometry":{"type":"LineString","coordinates":[[37.3180717,37.0350366],[37.3179908,37.0349291],[37.3179607,37.0348213],[37.317956,37.034779],[37.3179601,37.0346914],[37.3179743,37.0346443],[37.3180292,37.0345648],[37.3181044,37.0344999],[37.318206,37.0344415],[37.3183741,37.0343625],[37.3196218,37.0337766],[37.3197875,37.0336886],[37.3221761,37.0323084],[37.3222403,37.0322741],[37.3244531,37.0311282],[37.3249568,37.0308544],[37.3253486,37.0306275],[37.325858,37.0303057],[37.3266686,37.0297807],[37.3270002,37.0295674],[37.3274158,37.0292973],[37.3276754,37.0291247],[37.3278299,37.0290243],[37.3281061,37.0288824],[37.3339174,37.0257101]]}},{"type":"Feature","properties":{"way_id":1147463599,"route_colors":["#ff2b0a"],"route_refs":["T1"]},"geometry":{"type":"LineString","coordinates":[[37.3339174,37.0257101],[37.334287,37.0255058],[37.3347142,37.0252651]]}},{"type":"Feature","properties":{"way_id":339928665,"route_colors":["#ff2b0a"],"route_refs":["T1"]},"geometry":{"type":"LineString","coordinates":[[37.3347142,37.0252651],[37.3357205,37.0247034],[37.3361134,37.0245043],[37.336493,37.0243297],[37.338569,37.0234999],[37.3387017,37.0234346],[37.3387145,37.023425],[37.3387533,37.0233957],[37.3388225,37.0233436],[37.3388922,37.0232922],[37.3389485,37.0232098],[37.3390679,37.0230139],[37.3396995,37.0219173],[37.3399114,37.0215493],[37.3407928,37.0200189],[37.3410763,37.0195583],[37.3411397,37.0194586],[37.3414179,37.0190196],[37.3419927,37.0180718],[37.3427761,37.0167798],[37.3428359,37.016688],[37.3429088,37.0165956],[37.3429859,37.0165208],[37.343114,37.0164479],[37.3431652,37.0164284],[37.343224,37.0164061],[37.3433407,37.0163783],[37.3434305,37.0163663],[37.3436344,37.0163568],[37.3474659,37.0164036],[37.3476081,37.0163986],[37.347747,37.0163713],[37.3478709,37.0163183],[37.3479729,37.0162585],[37.3490428,37.0153761],[37.3491476,37.0153212],[37.349262,37.015271],[37.3493574,37.0152494],[37.3494393,37.015235],[37.3495644,37.015222],[37.349964,37.0152142],[37.3503827,37.0152113],[37.35141,37.0151915],[37.3523012,37.0151915],[37.3524145,37.0151915],[37.3555023,37.0151916],[37.3575052,37.0151916],[37.3580863,37.0151929],[37.358243,37.0151933],[37.3609736,37.0151997],[37.3638034,37.0152063],[37.3642995,37.0152075],[37.3669794,37.0152138],[37.3673816,37.0152206],[37.3698666,37.0152624],[37.3700134,37.015264],[37.3731253,37.0152989],[37.3734809,37.0152875],[37.3737851,37.0152892],[37.3742397,37.0152971],[37.3745875,37.0153163],[37.3761698,37.0153332],[37.3763066,37.0153347],[37.3827951,37.0154041],[37.3834244,37.0153954],[37.3840159,37.0154018]]}},{"type":"Feature","properties":{"way_id":492419503,"route_colors":["#ff2b0a"],"route_refs":["T1"]},"geometry":{"type":"LineString","coordinates":[[37.3839822,37.0154763],[37.3834744,37.0154696],[37.3831078,37.0154528],[37.3828017,37.0154388],[37.3763111,37.0153637],[37.3761746,37.0153621],[37.3745874,37.0153437],[37.3742362,37.0153573],[37.3737795,37.0153485],[37.3734813,37.0153428],[37.3731226,37.015331],[37.3700117,37.0152981],[37.3698663,37.0152966],[37.3677101,37.0152608],[37.3669791,37.0152487],[37.3643008,37.0152431],[37.363806,37.0152421],[37.360973,37.0152362],[37.3582448,37.0152306],[37.3580875,37.0152302],[37.3575046,37.015229],[37.3555023,37.0152279],[37.3524153,37.0152261],[37.3523011,37.015226],[37.3516915,37.0152257],[37.3514101,37.0152255],[37.3503799,37.0152423],[37.3495687,37.0152516],[37.3494127,37.0152685],[37.3492699,37.015305],[37.3491684,37.0153439],[37.3490772,37.0154054],[37.3480251,37.0162605],[37.3479433,37.0163194],[37.3478535,37.0163611],[37.3477422,37.016404],[37.3476282,37.0164243],[37.347541,37.0164318],[37.3473962,37.0164318],[37.3436733,37.01639],[37.3434909,37.0163986],[37.343342,37.0164125],[37.3432199,37.016445],[37.3431154,37.0164885],[37.3430443,37.0165228],[37.3430034,37.0165496],[37.3429377,37.0166157],[37.3428201,37.0167649],[37.3420132,37.018081],[37.3411629,37.0194679],[37.3411015,37.0195682],[37.3408221,37.0200237],[37.339774,37.0218517],[37.3397296,37.021929],[37.3389986,37.023204],[37.3389378,37.0232944],[37.3388645,37.0233536],[37.3387895,37.0234104],[37.3387178,37.0234646],[37.3385836,37.0235233],[37.3364983,37.0243629],[37.3361313,37.0245323],[37.3357413,37.0247279],[37.3347999,37.0252513],[37.334739,37.0252851]]}},{"type":"Feature","properties":{"way_id":1147463600,"route_colors":["#ff2b0a"],"route_refs":["T1"]},"geometry":{"type":"LineString","coordinates":[[37.334739,37.0252851],[37.3343111,37.0255284],[37.3339397,37.0257407]]}},{"type":"Feature","properties":{"way_id":492425132,"route_colors":["#ff2b0a"],"route_refs":["T1"]},"geometry":{"type":"LineString","coordinates":[[37.3339397,37.0257407],[37.328125,37.0289053],[37.3278716,37.0290443],[37.3276913,37.0291553],[37.3274386,37.029321],[37.3268518,37.0297171],[37.3258768,37.0303319],[37.3253665,37.0306531],[37.3249809,37.0308769],[37.3244795,37.0311574],[37.3222716,37.0322984],[37.3222108,37.0323337],[37.3198339,37.0337001],[37.3196388,37.0338015],[37.3188478,37.0341768],[37.3183957,37.0343925],[37.3182492,37.0344624],[37.318167,37.0345091],[37.3181233,37.0345498],[37.3180637,37.034608],[37.3180304,37.0346704],[37.3180061,37.0347451],[37.3180034,37.0348046],[37.3180186,37.0348755],[37.3180512,37.0349559],[37.3180831,37.035026]]}},{"type":"Feature","properties":{"way_id":1144681165,"route_colors":["#ff2b0a"],"route_refs":["T1"]},"geometry":{"type":"LineString","coordinates":[[37.3400474,37.0632051],[37.3414051,37.0635688]]}}]}