{"type":"FeatureCollection","features":[{"type":"Feature","properties":{"route_ref":"A","route_color":"#e2121a"},"geometry":{"type":"LineString","coordinates":[[1.9194163,47.8374584],[1.9177892155304033,47.83705920599384],[1.9175068578829628,47.836755780047554],[1.9174527009373792,47.83624857679479],[1.9198103,47.8317462],[1.9204962755540729,47.83090275456492],[1.9208350426854508,47.83068910676596],[1.9211668031648632,47.830618841177106],[1.925900575,47.830486675],[1.92725292216977,47.83018913977269],[1.927813344283224,47.83028806661781],[1.92843308,47.83090358],[1.9359006048631102,47.84100154837229],[1.9363877027322882,47.8413314817869],[1.9372115101814529,47.841522555773544],[1.9374403326747283,47.84169774994275],[1.9392333714285732,47.8441119],[1.9393529123671351,47.844430211710865],[1.939093496580404,47.84465151801348],[1.9371144,47.845060866666664],[1.9293557750000034,47.847658100000004],[1.928058875000001,47.84820345],[1.9248314024575879,47.8499887212056],[1.9241728666966578,47.850165409867685],[1.9236562054966295,47.85012472005336],[1.9232776609675784,47.84997905426363],[1.922879557948959,47.84949667831949],[1.9232581934804405,47.847524256080725],[1.923111154116453,47.846892747959394],[1.9227444333450359,47.84652920234902],[1.921063718749997,47.84544786874999],[1.9204813967631291,47.845308552460594],[1.9175860802297373,47.84598784719733],[1.9163595702299059,47.84687889955947],[1.9152616999999998,47.84974355],[1.9147148999999997,47.850510166666666],[1.914129733333331,47.85109033333333],[1.9129121666666622,47.85202063333334],[1.9097261400000012,47.85403176],[1.907711849999997,47.8552674],[1.9055473666666662,47.8563448],[1.9051185161121935,47.85672664461904],[1.9050493877482912,47.8576672006962],[1.905288422564453,47.858082679075004],[1.9080992800000014,47.85947658],[1.9103241114474425,47.86104858105074],[1.9114220238750064,47.861441132303575],[1.9121318500000002,47.862371550000006],[1.9128517999999999,47.86435083333333],[1.9129758393286989,47.86527832997429],[1.9127971644030284,47.866175153384745],[1.9119203075545566,47.8678259607291],[1.9118483,47.8682879],[1.9123036523619363,47.868989344169854],[1.912278269236405,47.87019649977331],[1.9130544500000009,47.873465200000005],[1.9131432999999993,47.87444200000001],[1.9128419500000018,47.875616574999995],[1.9119651624999985,47.87707270000001],[1.911378200000002,47.87772927499999],[1.9092754097091964,47.879577100270595],[1.9094328345873428,47.880013469929196],[1.910574533872109,47.88124097538285],[1.9105537559291184,47.881778158717005],[1.9067651632901248,47.88697149712396],[1.9054170823538814,47.88798175538894],[1.9054235269110318,47.88873950423485],[1.9049634753402709,47.88931388792592],[1.9040139672097047,47.90019419872173],[1.9038317090452122,47.900397738753426],[1.9029682380974475,47.90084407822614],[1.9027548468508582,47.90159859434164],[1.9032939772689004,47.90222741594233],[1.9034528503712296,47.902577709991625],[1.903962073894947,47.902970224530875],[1.904943351931578,47.9061337931572],[1.905247789817969,47.906330718986986],[1.9059044501105666,47.90626719504122],[1.9060844754148856,47.906513714287755],[1.905822579869733,47.9066603565333],[1.9042947167974777,47.90695184458966],[1.9040254632524896,47.90711400091705],[1.9039566,47.9074299],[1.9041935060017015,47.910711169235775],[1.900717878423544,47.914679727030936],[1.9001185575738686,47.91717656203715],[1.9003363500000021,47.917599949999996],[1.9007225916790518,47.917892495077865],[1.9022018,47.91839495],[1.9028241792557201,47.918740401087646],[1.9031614504214804,47.91911924718812],[1.9038365428571422,47.92034141428571],[1.9042106308831273,47.92070300920662],[1.9050183666666665,47.920975933333324],[1.906714508800742,47.92117625467511],[1.9069445708882238,47.92136029188892],[1.9070222333333335,47.9234167],[1.907387648831853,47.92473404635283],[1.9073833666666664,47.92533683333333],[1.9060959000000013,47.9284206],[1.9061740380288514,47.92877898241295],[1.9065667032877767,47.92888450331319],[1.9075180050361307,47.928753786853214],[1.9088203689489514,47.928753606699615],[1.9123062006368083,47.92933715225054],[1.914524042964601,47.92895305825036],[1.914802446662629,47.928814562746446],[1.9151676446892183,47.92843423878914],[1.9155245235187264,47.92833322197114],[1.9171047225321354,47.92832428808224],[1.91823847,47.92810401999999],[1.9252953,47.928181499999994]]}},{"type":"Feature","properties":{"route_ref":"B","route_color":"#762a80"},"geometry":{"type":"LineString","coordinates":[[1.9765974405979638,47.91095760415996],[1.9704956586975118,47.91064084958835],[1.968091891347059,47.91013525563578],[1.9673826599329507,47.91015178605072],[1.9666087139111053,47.910389039227624],[1.9650987116784493,47.91035247766964],[1.9646731409192708,47.91025494934973],[1.964084711537062,47.90952228806328],[1.9636467531732817,47.90940977907233],[1.9520983810515264,47.90898978063095],[1.9516726807214484,47.909083928799966],[1.9508554540732703,47.90974626192625],[1.9504801350672822,47.90988163342476],[1.9492165839959072,47.9099823352385],[1.9480002234383091,47.90968581351703],[1.9475606999999997,47.909663],[1.9469202697103718,47.909831774531085],[1.9456418460360905,47.910374857409984],[1.9451109420135313,47.91047679910234],[1.9443077125000066,47.91014237499999],[1.9420557206786484,47.90878844605054],[1.9382618129209774,47.908595563982836],[1.9373867797918323,47.90868186924577],[1.9345611527378048,47.909400625611674],[1.9320351767406838,47.910713646677316],[1.9309318198152543,47.91109953869053],[1.929732599999998,47.9113614],[1.928953103447102,47.91145120568067],[1.9250220209930045,47.91145334041153],[1.9223586971870081,47.911836476718904],[1.9126212545365708,47.91275770256187],[1.9123259278282487,47.91257352949383],[1.9121634825374239,47.91166700727033],[1.9110479432894165,47.90927401828374],[1.9109055342098678,47.90854159786952],[1.9101685954992291,47.90655287578699],[1.9087244485979418,47.903382757784435],[1.9087012173527695,47.902767885738186],[1.9088623456212916,47.90216410378984],[1.9088192971440223,47.90193369561923],[1.908646485326472,47.90182046989751],[1.9021984346309744,47.90125773534455],[1.9012616000000002,47.901524849999994],[1.8997727343550543,47.90174717281599],[1.8977381665985475,47.901904773606994],[1.8916155748630725,47.90117404128899],[1.8870290904128184,47.90072376864742],[1.8842543284513285,47.90027592949833],[1.8785792917979667,47.899555720475746],[1.8759653478664218,47.89906146921885],[1.8757517174703728,47.899099589796165],[1.8755791203639107,47.89925189929512],[1.8751218038395763,47.90059659487548],[1.8747636664682434,47.901186695783736],[1.8736174585531877,47.90202986809717],[1.872457758407291,47.902661097969656],[1.8688334565344284,47.90227045776113],[1.8668006328096847,47.901753330157895],[1.8662687092978796,47.90169200203479],[1.8636752428571428,47.901947299999996],[1.859565679840059,47.90193489137922],[1.857017529056255,47.901481000912185],[1.8565213809452012,47.90131761796726],[1.8561782141630563,47.90107288388832],[1.8557492302685799,47.89960250160129],[1.8540018031628953,47.896620152106806],[1.8538996,47.8959523]]}}]}