{"type":"FeatureCollection","features":[{"type":"Feature","properties":{"route_ref":"16","route_color":"#64748b"},"geometry":{"type":"LineString","coordinates":[[55.92480454094384,54.727084621191196],[55.92529251130386,54.72760805214877],[55.92583719234554,54.72765897410278],[55.93400497267167,54.726390077888574],[55.934687245179795,54.72636644012797],[55.93809468399999,54.733333132],[55.93979929218643,54.73723562454561],[55.9400532100259,54.73756265108285],[55.940585,54.737625900000005],[55.968577666140355,54.73315964409086],[55.96975667381531,54.732891194550426],[55.96987841116791,54.73276238746769],[55.969751622599624,54.73231367401836],[55.96594605493648,54.72420735980668],[55.96892529760971,54.71830206446749],[55.96921078231612,54.71798313086857],[55.96947134779612,54.71790115938471],[55.97083821919112,54.718039451901866],[55.97108345278073,54.71796729050172],[55.97173768750001,54.716685537500005],[55.97211394222036,54.716251272409565],[55.97269825291125,54.715842719215445],[55.98124937299946,54.71278707263957],[55.98167498906556,54.71248578472384],[55.982677022185555,54.711379467180144],[55.98316533293926,54.711141378294045],[55.983712895601535,54.71107061941998],[55.98723337991336,54.71130124084576],[55.9892417781505,54.71156618038635],[55.996355564285714,54.71328987142857],[55.99773623749999,54.71372587500001],[56.00291549432175,54.71565232342963],[56.006857480434796,54.71840589228511],[56.0074863395318,54.718930950844324],[56.007519,54.7193687]]}},{"type":"Feature","properties":{"route_ref":"18","route_color":"#64748b"},"geometry":{"type":"MultiLineString","coordinates":[[[56.0175432,54.7667864],[56.017898144644874,54.76673524591639],[56.018138683994025,54.76690997213778],[56.01790702470712,54.76704302404057],[56.01706155074406,54.7670308029788],[56.01500804495129,54.76785001330824],[56.0142862760963,54.767801150027545],[56.009528269088236,54.766526103654215],[56.00544692509396,54.76339126839386],[56.005046044716316,54.76338373179842],[56.00345213336771,54.76394181373297],[56.00293309501467,54.76379658284181],[55.99136869651314,54.75474192310467],[55.98204645695247,54.747185010655144],[55.98074744235414,54.74670287593794],[55.97812284074074,54.746065018518514],[55.9770845510899,54.74569963673519],[55.97669556666667,54.74514693333333],[55.975049259586896,54.74167530429632],[55.97203974611276,54.737307874490654],[55.96990439963205,54.73266769908069],[55.9720047058856,54.737242543422454],[55.97504743208615,54.74167406177152],[55.976697570632176,54.74514062637088],[55.97708868452075,54.745701539674734],[55.97838440327952,54.74613200577259],[55.98092281111111,54.7467477888889],[55.982055539647305,54.747192369633154],[55.99164030988644,54.754956360285654],[56.00308619684381,54.76387570165615],[56.00345261264467,54.76394146551455],[56.005041269748105,54.763376278626566],[56.00544701647285,54.76339098453774],[56.009525823143534,54.76652606495018],[56.01428509013417,54.76780084327067],[56.01484453213497,54.767870047100274],[56.015155406181485,54.767807502963166],[56.0175432,54.7667864]],[[56.006856734199104,54.71905069397511],[56.007090010418004,54.71890197863679],[56.00712029798852,54.71862575649842],[56.003129299280545,54.715782100210234],[56.002527340357005,54.71545995373271],[55.9978949496709,54.71378363739557],[55.99618443670518,54.71324936101284],[55.988978010401574,54.711510725523226],[55.98756560217945,54.71132669762977],[55.984369053945045,54.71110125155852],[55.98351134534721,54.7110830612381],[55.98303886801998,54.711181599584805],[55.9826641,54.7113893],[55.9816572266015,54.71250657843405],[55.98124425649915,54.71278986099171],[55.9727166,54.7158295],[55.971916863604164,54.71645209404178],[55.971066454074155,54.718000483218006],[55.970674572491774,54.71803533178604],[55.969533852232615,54.717898998659464],[55.96919067560223,54.71799602839556],[55.96899236548959,54.71820516820306],[55.96594845532505,54.72421378417012],[55.969900626765565,54.7326663508973],[55.96594605493648,54.72420735980668],[55.96892529760971,54.71830206446749],[55.96921078231612,54.71798313086857],[55.96947134779612,54.71790115938471],[55.97083821919112,54.718039451901866],[55.97108345278073,54.71796729050172],[55.97173768750001,54.716685537500005],[55.97211394222036,54.716251272409565],[55.97269825291125,54.715842719215445],[55.98124937299946,54.71278707263957],[55.98167498906556,54.71248578472384],[55.98250098834994,54.71153561907287],[55.98303912600698,54.71118041908689],[55.98402440388975,54.71108299316712],[55.98848222174831,54.71143203489961],[55.99196724210526,54.71220013157896],[55.996355564285714,54.71328987142857],[55.99773623749999,54.71372587500001],[56.00291549432175,54.71565232342963],[56.006857480434796,54.71840589228511],[56.0074863395318,54.718930950844324],[56.007519,54.7193687]]]}},{"type":"Feature","properties":{"route_ref":"1","route_color":"#64748b"},"geometry":{"type":"MultiLineString","coordinates":[[[56.006856734199104,54.71905069397511],[56.007090010418004,54.71890197863679],[56.00712029798852,54.71862575649842],[56.003129299280545,54.715782100210234],[56.002527340357005,54.71545995373271],[55.9978949496709,54.71378363739557],[55.99618443670518,54.71324936101284],[55.988978010401574,54.711510725523226],[55.98756560217945,54.71132669762977],[55.984369053945045,54.71110125155852],[55.98351134534721,54.7110830612381],[55.98303886801998,54.711181599584805],[55.9826641,54.7113893],[55.9816572266015,54.71250657843405],[55.98124425649915,54.71278986099171],[55.9727166,54.7158295],[55.971916863604164,54.71645209404178],[55.971066454074155,54.718000483218006],[55.970674572491774,54.71803533178604],[55.969533852232615,54.717898998659464],[55.96919067560223,54.71799602839556],[55.96899236548959,54.71820516820306],[55.96594845532505,54.72421378417012],[55.969900626765565,54.7326663508973],[55.96594605493648,54.72420735980668],[55.96892529760971,54.71830206446749],[55.96921078231612,54.71798313086857],[55.96947134779612,54.71790115938471],[55.97083821919112,54.718039451901866],[55.97108345278073,54.71796729050172],[55.97173768750001,54.716685537500005],[55.97211394222036,54.716251272409565],[55.97269825291125,54.715842719215445],[55.98124937299946,54.71278707263957],[55.98167498906556,54.71248578472384],[55.98250098834994,54.71153561907287],[55.98303912600698,54.71118041908689],[55.98402440388975,54.71108299316712],[55.98848222174831,54.71143203489961],[55.99196724210526,54.71220013157896],[55.996355564285714,54.71328987142857],[55.99773623749999,54.71372587500001],[56.00291549432175,54.71565232342963],[56.006857480434796,54.71840589228511],[56.0074863395318,54.718930950844324],[56.007519,54.7193687]],[[55.94936387556035,54.7475240051526],[55.950641484344914,54.74785213579234],[55.95294703029401,54.7479751625663],[55.95592671081051,54.7489238213955],[55.957825220205436,54.74920310837576],[55.95916750480265,54.74923273850028],[55.95969223761518,54.74908942179135],[55.96022264685793,54.74879921512801],[55.960402953345515,54.74852352643426],[55.96027123990307,54.74814310366201],[55.957006711017044,54.7432372976491],[55.95690219903324,54.742895184934724],[55.95702607107751,54.74268178855399],[55.95735296,54.74254708],[55.97307677245367,54.73899718616723],[55.97295018648324,54.73855083681102],[55.97195815375727,54.73714543688713],[55.96990439963205,54.73266769908069],[55.9720047058856,54.737242543422454],[55.97294861042523,54.738547833487424],[55.97316501078934,54.7389488024507],[55.97311329233278,54.73910339278561],[55.972708941463424,54.739325585365854],[55.9569590803483,54.742851448681414],[55.95700908611401,54.743227004739516],[55.96030793749999,54.7481973125],[55.960402541338304,54.74857612614006],[55.960204261609476,54.748813576021114],[55.9597140057108,54.749085210063214],[55.95917307853789,54.74923120637155],[55.95845150455097,54.74925928961779],[55.95754900714286,54.74917182142857],[55.95563683084963,54.748852157961714],[55.952932168721695,54.74798657827813],[55.950476274223576,54.747831299583986],[55.9491391,54.74744259999999]]]}},{"type":"Feature","properties":{"route_ref":"5","route_color":"#64748b"},"geometry":{"type":"MultiLineString","coordinates":[[[56.0175432,54.7667864],[56.017898144644874,54.76673524591639],[56.018138683994025,54.76690997213778],[56.01790702470712,54.76704302404057],[56.01706155074406,54.7670308029788],[56.01500804495129,54.76785001330824],[56.0142862760963,54.767801150027545],[56.009528269088236,54.766526103654215],[56.00544692509396,54.76339126839386],[56.005046044716316,54.76338373179842],[56.00345213336771,54.76394181373297],[56.00293309501467,54.76379658284181],[55.99136869651314,54.75474192310467],[55.98204645695247,54.747185010655144],[55.98074744235414,54.74670287593794],[55.97812284074074,54.746065018518514],[55.9770845510899,54.74569963673519],[55.97669556666667,54.74514693333333],[55.975049259586896,54.74167530429632],[55.97203974611276,54.737307874490654],[55.970075051580636,54.73306719565832],[55.9720047058856,54.737242543422454],[55.97504743208615,54.74167406177152],[55.976697570632176,54.74514062637088],[55.97708868452075,54.745701539674734],[55.97838440327952,54.74613200577259],[55.98092281111111,54.7467477888889],[55.982055539647305,54.747192369633154],[55.99164030988644,54.754956360285654],[56.00308619684381,54.76387570165615],[56.00345261264467,54.76394146551455],[56.005041269748105,54.763376278626566],[56.00544701647285,54.76339098453774],[56.009525823143534,54.76652606495018],[56.01428509013417,54.76780084327067],[56.01484453213497,54.767870047100274],[56.015155406181485,54.767807502963166],[56.0175432,54.7667864]],[[55.92480454094384,54.727084621191196],[55.92529251130386,54.72760805214877],[55.92583719234554,54.72765897410278],[55.93400497267167,54.726390077888574],[55.934687245179795,54.72636644012797],[55.93809468399999,54.733333132],[55.93979929218643,54.73723562454561],[55.9400532100259,54.73756265108285],[55.94039643079433,54.737627174524555],[55.94549875670815,54.73689654453411],[55.94828238235294,54.736356358823535],[55.96963109932043,54.73297732158392],[55.94828066013154,54.7363570623439],[55.94548597894737,54.73689958947369],[55.9403645340534,54.73763037361738],[55.940065328809055,54.73755840455578],[55.93979885267917,54.73723518252078],[55.93797037590596,54.73307581721025],[55.93475660046047,54.72641312813574],[55.93442072874883,54.72633650193111],[55.93383530650019,54.726412838713145],[55.92562043410342,54.727674807954365],[55.92538432742217,54.72764975007735],[55.924874602948385,54.727229777183574],[55.9243402,54.7270617]]]}},{"type":"Feature","properties":{"route_ref":"10","route_color":"#64748b"},"geometry":{"type":"LineString","coordinates":[[55.94936387556035,54.7475240051526],[55.950641484344914,54.74785213579234],[55.95294703029401,54.7479751625663],[55.95476883088008,54.748613627267126],[55.95649433002651,54.74903515834915],[55.95880080913656,54.74926703335384],[55.95969223761518,54.74908942179135],[55.960286700000005,54.74872665],[55.96035570482019,54.74832729832178],[55.957006711017044,54.7432372976491],[55.95690219903324,54.742895184934724],[55.95702607107751,54.74268178855399],[55.95735296,54.74254708],[55.97260531282051,54.73915116923078],[55.97290968388347,54.7391280766356],[55.973254435555326,54.7392200811413],[55.97393682499999,54.740010162500006],[55.97504743208615,54.74167406177152],[55.976697570632176,54.74514062637088],[55.97708868452075,54.745701539674734],[55.97838440327952,54.74613200577259],[55.98092281111111,54.7467477888889],[55.982055539647305,54.747192369633154],[55.99164030988644,54.754956360285654],[56.00278259020756,54.763696816053844],[56.00323008418624,54.76393433381364],[56.00345261264467,54.76394146551455],[56.005041269748105,54.763376278626566],[56.00544701647285,54.76339098453774],[56.009525823143534,54.76652606495018],[56.01428509013417,54.76780084327067],[56.01484453213497,54.767870047100274],[56.015155406181485,54.767807502963166],[56.0176365,54.76674465],[56.017898144644874,54.76673524591639],[56.018138683994025,54.76690997213778],[56.01790702470712,54.76704302404057],[56.01706155074406,54.7670308029788],[56.01500804495129,54.76785001330824],[56.0142862760963,54.767801150027545],[56.009528269088236,54.766526103654215],[56.00544692509396,54.76339126839386],[56.005046044716316,54.76338373179842],[56.00345213336771,54.76394181373297],[56.00293309501467,54.76379658284181],[55.99136869651314,54.75474192310467],[55.98204645695247,54.747185010655144],[55.98074744235414,54.74670287593794],[55.97812284074074,54.746065018518514],[55.9770845510899,54.74569963673519],[55.97669556666667,54.74514693333333],[55.975049259586896,54.74167530429632],[55.97390263361191,54.7399629583087],[55.97327080168937,54.73930411010089],[55.972853970731705,54.73929409268293],[55.967197829268294,54.740522307317065],[55.9569590803483,54.742851448681414],[55.95700908611401,54.743227004739516],[55.96030793749999,54.7481973125],[55.960402541338304,54.74857612614006],[55.960204261609476,54.748813576021114],[55.9597140057108,54.749085210063214],[55.958802254905706,54.74926742698777],[55.956668335714284,54.749061207142844],[55.95508481098183,54.7487093879101],[55.952932168721695,54.74798657827813],[55.950476274223576,54.747831299583986],[55.9491391,54.74744259999999]]}},{"type":"Feature","properties":{"route_ref":"8","route_color":"#64748b"},"geometry":{"type":"LineString","coordinates":[[56.03959121946278,54.796600489631444],[56.03955810647858,54.7962667500481],[56.03993659362815,54.79610983344735],[56.043065729411765,54.796225935294125],[56.06951961385159,54.797757309649455],[56.10502195399812,54.79967888621161],[56.10621806031013,54.799664669993255],[56.10864885192813,54.799467120161665],[56.11621087,54.798615680000005],[56.12983348238326,54.797443142580036],[56.136872712461994,54.79744648265578],[56.13761794999999,54.79759950000001],[56.13845278490228,54.79790444867435],[56.13888904442459,54.79827917502996],[56.13908679741478,54.799086225287766],[56.138910520812075,54.79963710925044],[56.13705995891213,54.80282677086515],[56.136646796100266,54.80318458718241],[56.13395254139078,54.80437226179076],[56.13324010724146,54.80493309278007],[56.127924954159546,54.812674941149055],[56.126146067672316,54.815915366132884],[56.125768439806386,54.816245927833286],[56.09368262086802,54.825447961494206],[56.0924673,54.8253455],[56.085406500888126,54.824222161010574],[56.08516263637629,54.82409460455648],[56.0843745850635,54.822984570721026],[56.08413862676898,54.82287020358956],[56.0837740627627,54.822940375019414],[56.08356667239105,54.82333991651212],[56.08329159444975,54.82347749423794],[56.07708775102076,54.82542361589342],[56.072080025,54.82544391428571],[56.07082216732645,54.82532658794781],[56.07068050866238,54.823010648878885],[56.070260689998506,54.82290545309455],[56.06746178400778,54.822827085263555],[56.06640841825058,54.82249627951001],[56.06598592,54.82221103],[56.063639469230765,54.81944790769231],[56.063420183333335,54.81887263333334],[56.06397802045803,54.81720010648927],[56.066841083333344,54.816264800000006],[56.07649600873927,54.81352080079085],[56.07679581645254,54.81345915876171],[56.077179504137426,54.81352545922325],[56.07840068685746,54.814812091807916],[56.07914842713306,54.814665078279276],[56.08777733669639,54.81221036743968],[56.0882175819486,54.812040642957825],[56.08837586574214,54.81184603473969],[56.0875834607273,54.8107205277732],[56.08763484718675,54.81050405716556],[56.08796141367818,54.810249151600004],[56.08796524843424,54.81001248253415]]}},{"type":"Feature","properties":{"route_ref":"6","route_color":"#64748b"},"geometry":{"type":"LineString","coordinates":[[56.08812782171216,54.810276187017486],[56.087672817537516,54.81047906793128],[56.087585273383155,54.81072259844173],[56.08837928998945,54.811914503818045],[56.08802003810712,54.812140141198654],[56.08680767664723,54.812494955769004],[56.079419282503146,54.81458967109615],[56.07839291102535,54.81481164515813],[56.077183120826234,54.81352824948006],[56.076793957254175,54.813461474346205],[56.07648824192012,54.81352401134667],[56.066266254727104,54.81644138741243],[56.064375818220654,54.817000619262714],[56.06398302028129,54.817203599184396],[56.06346285977838,54.818823568627195],[56.06353103571586,54.81932383611274],[56.065587120678394,54.82173264721299],[56.06642379836803,54.82250762578932],[56.06761222959445,54.8228437113211],[56.07014712242208,54.822892894923314],[56.07067601109618,54.823005698573645],[56.07080382305384,54.825315659967835],[56.07141222403035,54.82541655982134],[56.07254567904136,54.82544780364195],[56.07704628868301,54.82542961096798],[56.083230633032606,54.823505966116045],[56.083598535431726,54.82329427301769],[56.08373987737345,54.82295336591799],[56.08407963519966,54.82285979027935],[56.084351780030296,54.82295299681272],[56.0845736,54.8231876],[56.08515636203911,54.824086173755255],[56.08555678019107,54.82425883725276],[56.09247911897624,54.825346826551005],[56.09369486771947,54.825446543760556],[56.12561434079375,54.816307210105855],[56.126108305302104,54.81596416694862],[56.12802412000001,54.812527020000005],[56.13324337268102,54.80492809841762],[56.13425967325336,54.804192254701604],[56.13655230481631,54.80323174162492],[56.13702149842269,54.80287221429351],[56.13875723160444,54.799871710170905],[56.1390704302295,54.799086239191894],[56.1387571933196,54.79812074722203],[56.13809950000001,54.7977933]]}}]}