{"type":"FeatureCollection","metro_system":{"continent":"europe","country":"Hungary","city":"Debrecen","official_website":null,"official_map":"https://en.wikipedia.org/wiki/Trams_in_Debrecen","wikipedia":"en:Trams in Debrecen","line_count":2,"segment_count":3,"station_count":23,"modes":["tram"],"audit":{"strategies_tried":[],"passed":true,"checks":[{"id":"has_lines","ok":true,"detail":"2 lines","level":"error"},{"id":"has_stations","ok":true,"detail":"23 stations","level":"error"},{"id":"stations_have_lines","ok":true,"detail":"23/23 站皆有所屬路線","level":"error"},{"id":"line_geometry_stations","ok":true,"detail":"25 個折點/端點皆為車站","level":"error"},{"id":"route_stations_match_geometry","ok":true,"detail":"各線車站列表與圖面一致","level":"error"},{"id":"interchange_rule","ok":true,"detail":"所有車站紅/藍點符合骨架＋路線色規則（藍＝端點、紅＝交叉）","level":"error"},{"id":"stations_named","ok":true,"detail":"23/23 站皆有名稱","level":"error"},{"id":"station_order","ok":true,"detail":"所有線路站序合理","level":"warn"},{"id":"station_span","ok":true,"detail":"各線相鄰站距與系統站群跨度正常","level":"error"},{"id":"line_wiki_stations","ok":true,"detail":"各線站數與 wiki 線路條目相符（營運中站數）","level":"error"},{"id":"line_wiki_coverage","ok":false,"detail":"2 條線無 wiki 站數對照：Tram 1、Tram 2","level":"warn"}],"reasons":[],"warnings":["2 條線無 wiki 站數對照：Tram 1、Tram 2"],"audited_at":"2026-07-27T05:15:28.386Z"}},"features":[{"type":"Feature","properties":{"seg_id":"debrecen-0","routes":[{"route_id":"r2773495","route_name":"Tram 1","route_name_local":"Tram 1","route_name_en":null,"route_ref":"1","route_color":"#ffff00","wikipedia":"hu:1-es villamos (Debrecen)","osm_route_ids":[2773495],"status":null,"order_suspect":1.78,"span_suspect":0,"stations":[{"station_id":"n1346223108","station_name":"Nagyállomás"},{"station_id":"n608614244","station_name":"Vásáry István utca"},{"station_id":"n608614247","station_name":"Szent Anna utca"},{"station_id":"n608614248","station_name":"Városháza"},{"station_id":"n608614251","station_name":"Kossuth tér"},{"station_id":"n1348532554","station_name":"Kálvin tér"},{"station_id":"n1349149247","station_name":"Eötvös utca"},{"station_id":"n1349330989","station_name":"Bem tér"},{"station_id":"n1349331000","station_name":"Weszprémy utca"},{"station_id":"n249780142","station_name":"Nagyerdei körút"},{"station_id":"n608614268","station_name":"Aquaticum"},{"station_id":"n608614271","station_name":"Klinikai Központ Nagyerdei Campus"},{"station_id":"n608614262","station_name":"Egyetem"},{"station_id":"n1346223108","station_name":"Nagyállomás"}]},{"route_id":"r4459896","route_name":"Tram 2","route_name_local":"Tram 2","route_name_en":null,"route_ref":"2","route_color":"#e2e200","wikipedia":"hu:2-es villamos (Debrecen)","osm_route_ids":[4459896],"status":null,"order_suspect":1.88,"span_suspect":0,"stations":[{"station_id":"n1346223108","station_name":"Nagyállomás"},{"station_id":"n608614244","station_name":"Vásáry István utca"},{"station_id":"n608614247","station_name":"Szent Anna utca"},{"station_id":"n608614248","station_name":"Városháza"},{"station_id":"n608614251","station_name":"Kossuth tér"},{"station_id":"n1348532554","station_name":"Kálvin tér"},{"station_id":"n10033819751","station_name":"Kölcsey Központ (Hunyadi János utca)"},{"station_id":"n10033819747","station_name":"Csemete utca"},{"station_id":"n10033819742","station_name":"Dózsa György utca"},{"station_id":"n10033819738","station_name":"Nádor utca"},{"station_id":"n10033819736","station_name":"Szent László Görögkatolikus Gimnázium"},{"station_id":"n10033819733","station_name":"DAB-székház"},{"station_id":"n1369686633","station_name":"Károlyi Mihály utca"},{"station_id":"n10033819727","station_name":"Csokonai Vitéz Mihály Gimnázium"},{"station_id":"n10033819726","station_name":"Kartács utca"},{"station_id":"n3833878152","station_name":"Doberdó utca"},{"station_id":"n1346223108","station_name":"Nagyállomás"}]}],"route_count":2,"route_refs":["1","2"],"route_colors":["#ffff00","#e2e200"],"city":"Debrecen","country":"Hungary"},"geometry":{"type":"MultiLineString","coordinates":[[[21.62746265,47.521161425],[21.62670855,47.5243605],[21.62621665,47.52694915],[21.62526305,47.5293081],[21.62470995,47.531086200000004],[21.62573365,47.53395385]]]}},{"type":"Feature","properties":{"seg_id":"debrecen-1","routes":[{"route_id":"r2773495","route_name":"Tram 1","route_name_local":"Tram 1","route_name_en":null,"route_ref":"1","route_color":"#ffff00","wikipedia":"hu:1-es villamos (Debrecen)","osm_route_ids":[2773495],"status":null,"order_suspect":1.78,"span_suspect":0,"stations":[{"station_id":"n1346223108","station_name":"Nagyállomás"},{"station_id":"n608614244","station_name":"Vásáry István utca"},{"station_id":"n608614247","station_name":"Szent Anna utca"},{"station_id":"n608614248","station_name":"Városháza"},{"station_id":"n608614251","station_name":"Kossuth tér"},{"station_id":"n1348532554","station_name":"Kálvin tér"},{"station_id":"n1349149247","station_name":"Eötvös utca"},{"station_id":"n1349330989","station_name":"Bem tér"},{"station_id":"n1349331000","station_name":"Weszprémy utca"},{"station_id":"n249780142","station_name":"Nagyerdei körút"},{"station_id":"n608614268","station_name":"Aquaticum"},{"station_id":"n608614271","station_name":"Klinikai Központ Nagyerdei Campus"},{"station_id":"n608614262","station_name":"Egyetem"},{"station_id":"n1346223108","station_name":"Nagyállomás"}]}],"route_count":1,"route_refs":["1"],"route_colors":["#ffff00"],"city":"Debrecen","country":"Hungary"},"geometry":{"type":"MultiLineString","coordinates":[[[21.62573365,47.53395385],[21.6254251,47.5382694],[21.6250467,47.5416004],[21.6262677,47.5451748],[21.628616,47.5490415],[21.6304874,47.5521343],[21.6292396,47.5560887],[21.623184,47.5529706],[21.62746265,47.521161425]]]}},{"type":"Feature","properties":{"seg_id":"debrecen-2","routes":[{"route_id":"r4459896","route_name":"Tram 2","route_name_local":"Tram 2","route_name_en":null,"route_ref":"2","route_color":"#e2e200","wikipedia":"hu:2-es villamos (Debrecen)","osm_route_ids":[4459896],"status":null,"order_suspect":1.88,"span_suspect":0,"stations":[{"station_id":"n1346223108","station_name":"Nagyállomás"},{"station_id":"n608614244","station_name":"Vásáry István utca"},{"station_id":"n608614247","station_name":"Szent Anna utca"},{"station_id":"n608614248","station_name":"Városháza"},{"station_id":"n608614251","station_name":"Kossuth tér"},{"station_id":"n1348532554","station_name":"Kálvin tér"},{"station_id":"n10033819751","station_name":"Kölcsey Központ (Hunyadi János utca)"},{"station_id":"n10033819747","station_name":"Csemete utca"},{"station_id":"n10033819742","station_name":"Dózsa György utca"},{"station_id":"n10033819738","station_name":"Nádor utca"},{"station_id":"n10033819736","station_name":"Szent László Görögkatolikus Gimnázium"},{"station_id":"n10033819733","station_name":"DAB-székház"},{"station_id":"n1369686633","station_name":"Károlyi Mihály utca"},{"station_id":"n10033819727","station_name":"Csokonai Vitéz Mihály Gimnázium"},{"station_id":"n10033819726","station_name":"Kartács utca"},{"station_id":"n3833878152","station_name":"Doberdó utca"},{"station_id":"n1346223108","station_name":"Nagyállomás"}]}],"route_count":1,"route_refs":["2"],"route_colors":["#e2e200"],"city":"Debrecen","country":"Hungary"},"geometry":{"type":"MultiLineString","coordinates":[[[21.62573365,47.53395385],[21.62297745,47.5347781],[21.6179947,47.53573265],[21.617134749999998,47.5386005],[21.6173308,47.54170095],[21.6170798,47.5462601],[21.6150393,47.54830495],[21.61446925,47.551433599999996],[21.61275165,47.553862300000006],[21.6129565,47.5569835],[21.609756,47.5568925],[21.62746265,47.521161425]]]}},{"type":"Feature","properties":{"station_id":"n249780142","station_name":"Nagyerdei körút","station_name_local":"Nagyerdei körút","station_name_en":null,"city":"Debrecen","country":"Hungary","lines":["1"],"wikipedia":null,"is_terminus":false,"routes":[{"ref":"1","name":"Tram 1","route_color":"#ffff00"}],"pass_count":1,"station_degree":2,"codes":null,"merged_from":null,"merged_names":null,"is_interchange":false,"station_role":"normal"},"geometry":{"type":"Point","coordinates":[21.628616,47.5490415]},"__memberLines":{}},{"type":"Feature","properties":{"station_id":"n608614244","station_name":"Vásáry István utca","station_name_local":"Vásáry István utca","station_name_en":null,"city":"Debrecen","country":"Hungary","lines":["1","2"],"wikipedia":null,"merged_from":2,"merged_names":null,"is_terminus":false,"routes":[{"ref":"1","name":"Tram 1","route_color":"#ffff00"},{"ref":"2","name":"Tram 2","route_color":"#e2e200"}],"pass_count":2,"station_degree":2,"codes":null,"is_interchange":false,"station_role":"normal"},"geometry":{"type":"Point","coordinates":[21.62670855,47.5243605]},"__memberLines":{}},{"type":"Feature","properties":{"station_id":"n608614247","station_name":"Szent Anna utca","station_name_local":"Szent Anna utca","station_name_en":null,"city":"Debrecen","country":"Hungary","lines":["1","2"],"wikipedia":null,"merged_from":2,"merged_names":null,"is_terminus":false,"routes":[{"ref":"1","name":"Tram 1","route_color":"#ffff00"},{"ref":"2","name":"Tram 2","route_color":"#e2e200"}],"pass_count":2,"station_degree":2,"codes":null,"is_interchange":false,"station_role":"normal"},"geometry":{"type":"Point","coordinates":[21.62621665,47.52694915]},"__memberLines":{}},{"type":"Feature","properties":{"station_id":"n608614248","station_name":"Városháza","station_name_local":"Városháza","station_name_en":null,"city":"Debrecen","country":"Hungary","lines":["1","2"],"wikipedia":null,"merged_from":2,"merged_names":null,"is_terminus":false,"routes":[{"ref":"1","name":"Tram 1","route_color":"#ffff00"},{"ref":"2","name":"Tram 2","route_color":"#e2e200"}],"pass_count":2,"station_degree":2,"codes":null,"is_interchange":false,"station_role":"normal"},"geometry":{"type":"Point","coordinates":[21.62526305,47.5293081]},"__memberLines":{}},{"type":"Feature","properties":{"station_id":"n608614251","station_name":"Kossuth tér","station_name_local":"Kossuth tér","station_name_en":null,"city":"Debrecen","country":"Hungary","lines":["1","2"],"wikipedia":null,"merged_from":2,"merged_names":null,"is_terminus":false,"routes":[{"ref":"1","name":"Tram 1","route_color":"#ffff00"},{"ref":"2","name":"Tram 2","route_color":"#e2e200"}],"pass_count":2,"station_degree":2,"codes":null,"is_interchange":false,"station_role":"normal"},"geometry":{"type":"Point","coordinates":[21.62470995,47.531086200000004]},"__memberLines":{}},{"type":"Feature","properties":{"station_id":"n608614262","station_name":"Egyetem","station_name_local":"Egyetem","station_name_en":null,"city":"Debrecen","country":"Hungary","lines":["1"],"wikipedia":null,"is_terminus":false,"routes":[{"ref":"1","name":"Tram 1","route_color":"#ffff00"}],"pass_count":1,"station_degree":2,"codes":null,"merged_from":null,"merged_names":null,"is_interchange":false,"station_role":"normal"},"geometry":{"type":"Point","coordinates":[21.623184,47.5529706]},"__memberLines":{}},{"type":"Feature","properties":{"station_id":"n608614268","station_name":"Aquaticum","station_name_local":"Aquaticum","station_name_en":null,"city":"Debrecen","country":"Hungary","lines":["1"],"wikipedia":null,"is_terminus":false,"routes":[{"ref":"1","name":"Tram 1","route_color":"#ffff00"}],"pass_count":1,"station_degree":2,"codes":null,"merged_from":null,"merged_names":null,"is_interchange":false,"station_role":"normal"},"geometry":{"type":"Point","coordinates":[21.6304874,47.5521343]},"__memberLines":{}},{"type":"Feature","properties":{"station_id":"n608614271","station_name":"Klinikai Központ Nagyerdei Campus","station_name_local":"Klinikai Központ Nagyerdei Campus","station_name_en":null,"city":"Debrecen","country":"Hungary","lines":["1"],"wikipedia":null,"is_terminus":false,"routes":[{"ref":"1","name":"Tram 1","route_color":"#ffff00"}],"pass_count":1,"station_degree":2,"codes":null,"merged_from":null,"merged_names":null,"is_interchange":false,"station_role":"normal"},"geometry":{"type":"Point","coordinates":[21.6292396,47.5560887]},"__memberLines":{}},{"type":"Feature","properties":{"station_id":"n1346223108","station_name":"Nagyállomás","station_name_local":"Nagyállomás","station_name_en":null,"city":"Debrecen","country":"Hungary","lines":["1","2"],"wikipedia":null,"merged_from":4,"merged_names":null,"is_terminus":false,"codes":["1","2"],"routes":[{"ref":"1","name":"Tram 1","route_color":"#ffff00"},{"ref":"2","name":"Tram 2","route_color":"#e2e200"}],"pass_count":2,"station_degree":3,"is_interchange":true,"station_role":"interchange"},"geometry":{"type":"Point","coordinates":[21.62746265,47.521161425]},"__memberLines":{}},{"type":"Feature","properties":{"station_id":"n1348532554","station_name":"Kálvin tér","station_name_local":"Kálvin tér","station_name_en":null,"city":"Debrecen","country":"Hungary","lines":["1","2"],"wikipedia":null,"merged_from":2,"merged_names":null,"is_terminus":false,"routes":[{"ref":"1","name":"Tram 1","route_color":"#ffff00"},{"ref":"2","name":"Tram 2","route_color":"#e2e200"}],"pass_count":2,"station_degree":3,"codes":null,"is_interchange":true,"station_role":"interchange"},"geometry":{"type":"Point","coordinates":[21.62573365,47.53395385]},"__memberLines":{}},{"type":"Feature","properties":{"station_id":"n1349149247","station_name":"Eötvös utca","station_name_local":"Eötvös utca","station_name_en":null,"city":"Debrecen","country":"Hungary","lines":["1"],"wikipedia":null,"is_terminus":false,"routes":[{"ref":"1","name":"Tram 1","route_color":"#ffff00"}],"pass_count":1,"station_degree":2,"codes":null,"merged_from":null,"merged_names":null,"is_interchange":false,"station_role":"normal"},"geometry":{"type":"Point","coordinates":[21.6254251,47.5382694]},"__memberLines":{}},{"type":"Feature","properties":{"station_id":"n1349330989","station_name":"Bem tér","station_name_local":"Bem tér","station_name_en":null,"city":"Debrecen","country":"Hungary","lines":["1"],"wikipedia":null,"merged_from":2,"merged_names":null,"is_terminus":false,"routes":[{"ref":"1","name":"Tram 1","route_color":"#ffff00"}],"pass_count":1,"station_degree":2,"codes":null,"is_interchange":false,"station_role":"normal"},"geometry":{"type":"Point","coordinates":[21.6250467,47.5416004]},"__memberLines":{}},{"type":"Feature","properties":{"station_id":"n1349331000","station_name":"Weszprémy utca","station_name_local":"Weszprémy utca","station_name_en":null,"city":"Debrecen","country":"Hungary","lines":["1"],"wikipedia":null,"is_terminus":false,"routes":[{"ref":"1","name":"Tram 1","route_color":"#ffff00"}],"pass_count":1,"station_degree":2,"codes":null,"merged_from":null,"merged_names":null,"is_interchange":false,"station_role":"normal"},"geometry":{"type":"Point","coordinates":[21.6262677,47.5451748]},"__memberLines":{}},{"type":"Feature","properties":{"station_id":"n1369686633","station_name":"Károlyi Mihály utca","station_name_local":"Károlyi Mihály utca","station_name_en":null,"city":"Debrecen","country":"Hungary","lines":["2"],"wikipedia":null,"merged_from":2,"merged_names":null,"is_terminus":false,"routes":[{"ref":"2","name":"Tram 2","route_color":"#e2e200"}],"pass_count":1,"station_degree":2,"codes":null,"is_interchange":false,"station_role":"normal"},"geometry":{"type":"Point","coordinates":[21.61446925,47.551433599999996]},"__memberLines":{}},{"type":"Feature","properties":{"station_id":"n3833878152","station_name":"Doberdó utca","station_name_local":"Doberdó utca","station_name_en":null,"city":"Debrecen","country":"Hungary","lines":["2"],"wikipedia":null,"is_terminus":false,"routes":[{"ref":"2","name":"Tram 2","route_color":"#e2e200"}],"pass_count":1,"station_degree":2,"codes":null,"merged_from":null,"merged_names":null,"is_interchange":false,"station_role":"normal"},"geometry":{"type":"Point","coordinates":[21.609756,47.5568925]},"__memberLines":{}},{"type":"Feature","properties":{"station_id":"n10033819726","station_name":"Kartács utca","station_name_local":"Kartács utca","station_name_en":null,"city":"Debrecen","country":"Hungary","lines":["2"],"wikipedia":null,"is_terminus":false,"routes":[{"ref":"2","name":"Tram 2","route_color":"#e2e200"}],"pass_count":1,"station_degree":2,"codes":null,"merged_from":null,"merged_names":null,"is_interchange":false,"station_role":"normal"},"geometry":{"type":"Point","coordinates":[21.6129565,47.5569835]},"__memberLines":{}},{"type":"Feature","properties":{"station_id":"n10033819727","station_name":"Csokonai Vitéz Mihály Gimnázium","station_name_local":"Csokonai Vitéz Mihály Gimnázium","station_name_en":null,"city":"Debrecen","country":"Hungary","lines":["2"],"wikipedia":null,"merged_from":2,"merged_names":null,"is_terminus":false,"routes":[{"ref":"2","name":"Tram 2","route_color":"#e2e200"}],"pass_count":1,"station_degree":2,"codes":null,"is_interchange":false,"station_role":"normal"},"geometry":{"type":"Point","coordinates":[21.61275165,47.553862300000006]},"__memberLines":{}},{"type":"Feature","properties":{"station_id":"n10033819733","station_name":"DAB-székház","station_name_local":"DAB-székház","station_name_en":null,"city":"Debrecen","country":"Hungary","lines":["2"],"wikipedia":null,"merged_from":2,"merged_names":null,"is_terminus":false,"routes":[{"ref":"2","name":"Tram 2","route_color":"#e2e200"}],"pass_count":1,"station_degree":2,"codes":null,"is_interchange":false,"station_role":"normal"},"geometry":{"type":"Point","coordinates":[21.6150393,47.54830495]},"__memberLines":{}},{"type":"Feature","properties":{"station_id":"n10033819736","station_name":"Szent László Görögkatolikus Gimnázium","station_name_local":"Szent László Görögkatolikus Gimnázium","station_name_en":null,"city":"Debrecen","country":"Hungary","lines":["2"],"wikipedia":null,"merged_from":2,"merged_names":null,"is_terminus":false,"routes":[{"ref":"2","name":"Tram 2","route_color":"#e2e200"}],"pass_count":1,"station_degree":2,"codes":null,"is_interchange":false,"station_role":"normal"},"geometry":{"type":"Point","coordinates":[21.6170798,47.5462601]},"__memberLines":{}},{"type":"Feature","properties":{"station_id":"n10033819738","station_name":"Nádor utca","station_name_local":"Nádor utca","station_name_en":null,"city":"Debrecen","country":"Hungary","lines":["2"],"wikipedia":null,"merged_from":2,"merged_names":null,"is_terminus":false,"routes":[{"ref":"2","name":"Tram 2","route_color":"#e2e200"}],"pass_count":1,"station_degree":2,"codes":null,"is_interchange":false,"station_role":"normal"},"geometry":{"type":"Point","coordinates":[21.6173308,47.54170095]},"__memberLines":{}},{"type":"Feature","properties":{"station_id":"n10033819742","station_name":"Dózsa György utca","station_name_local":"Dózsa György utca","station_name_en":null,"city":"Debrecen","country":"Hungary","lines":["2"],"wikipedia":null,"merged_from":2,"merged_names":null,"is_terminus":false,"routes":[{"ref":"2","name":"Tram 2","route_color":"#e2e200"}],"pass_count":1,"station_degree":2,"codes":null,"is_interchange":false,"station_role":"normal"},"geometry":{"type":"Point","coordinates":[21.617134749999998,47.5386005]},"__memberLines":{}},{"type":"Feature","properties":{"station_id":"n10033819747","station_name":"Csemete utca","station_name_local":"Csemete utca","station_name_en":null,"city":"Debrecen","country":"Hungary","lines":["2"],"wikipedia":null,"merged_from":2,"merged_names":null,"is_terminus":false,"routes":[{"ref":"2","name":"Tram 2","route_color":"#e2e200"}],"pass_count":1,"station_degree":2,"codes":null,"is_interchange":false,"station_role":"normal"},"geometry":{"type":"Point","coordinates":[21.6179947,47.53573265]},"__memberLines":{}},{"type":"Feature","properties":{"station_id":"n10033819751","station_name":"Kölcsey Központ (Hunyadi János utca)","station_name_local":"Kölcsey Központ (Hunyadi János utca)","station_name_en":null,"city":"Debrecen","country":"Hungary","lines":["2"],"wikipedia":null,"merged_from":2,"merged_names":null,"is_terminus":false,"routes":[{"ref":"2","name":"Tram 2","route_color":"#e2e200"}],"pass_count":1,"station_degree":2,"codes":null,"is_interchange":false,"station_role":"normal"},"geometry":{"type":"Point","coordinates":[21.62297745,47.5347781]},"__memberLines":{}}]}