{"type":"FeatureCollection","features":[{"type":"Feature","properties":{"route_ref":"M1","route_color":"#fff200"},"geometry":{"type":"LineString","coordinates":[[7.661303120446178,45.01696730933752],[7.676502515788531,45.05632685080909],[7.677638567403769,45.058866832697916],[7.679557711764703,45.061509635294115],[7.679761175319921,45.06194774351585],[7.679650916988752,45.06239036454583],[7.679080408075791,45.0627174326819],[7.665917073872321,45.06745143099075],[7.665490375495897,45.067639422510084],[7.665106350073765,45.0679522334024],[7.6646658596266075,45.06880766105241],[7.664664316469733,45.069605843245895],[7.666175553786272,45.07188998623348],[7.66742669144775,45.073054352790905],[7.668109121056814,45.07399719682659],[7.66817521154851,45.07472632663539],[7.667685176177217,45.07563510744897],[7.667085751907318,45.07599227846649],[7.666383539295297,45.07622064034299],[7.6655614001640915,45.0763575259027],[7.664391895241189,45.076376561582336],[7.602651628866012,45.07386081677243],[7.591300354679547,45.07597551678221],[7.60264653747476,45.07386059043288],[7.664385753617648,45.076376288618754],[7.66556231211172,45.07635733472691],[7.666382981757325,45.07621994167924],[7.66708828855508,45.07598970892519],[7.667694296851228,45.07562606288733],[7.668037820362911,45.07510603167385],[7.66820923405097,45.07450883458715],[7.667993125045293,45.07376341228665],[7.667430699525775,45.07305553367582],[7.6661754091848,45.07189322407755],[7.6646953979008785,45.06970561497917],[7.664665459782271,45.06880614730382],[7.665094407555672,45.067962455757986],[7.665484821381081,45.06764233215171],[7.665913175485611,45.067452663272],[7.6792784474781355,45.062636492752944],[7.67964760317775,45.06239329121705],[7.679760333946271,45.061948222664476],[7.679454225210982,45.06136882715148],[7.677631681982225,45.05886787817564],[7.676317536363641,45.05590869090909],[7.661302566511413,45.016966858191275]]}}]}