{"type":"FeatureCollection","features":[{"type":"Feature","properties":{"route_ref":"WEST","route_color":"#97c93d"},"geometry":{"type":"MultiLineString","coordinates":[[[174.7793017391849,-36.867960116188875],[174.77934015141983,-36.86744226234125],[174.77911677742085,-36.86705462739905],[174.77888892247026,-36.86686986506078],[174.77797090901186,-36.86645246796151],[174.77327043280854,-36.86532193783989],[174.7721815163812,-36.865149830095554],[174.77138716529473,-36.86519266258976],[174.77129795,-36.8652916],[174.76773078779974,-36.86620598141615],[174.76461190329783,-36.867136179270815],[174.76272132639247,-36.86809913892699],[174.76207220494786,-36.86832110844634],[174.76166043435882,-36.86838222937682],[174.76083982521976,-36.86833520863597],[174.76000351747112,-36.868145927790394],[174.75890557910708,-36.86804103234693],[174.7574903,-36.8680157],[174.75574745,-36.868639449999996],[174.75559780505884,-36.868618813422096],[174.75523136638265,-36.86882644036113],[174.75349833156554,-36.86929568913012],[174.75114689702497,-36.86963597427495],[174.75036723560436,-36.86983386062353],[174.74966301021922,-36.87022738505843],[174.74834104447666,-36.87145326649233],[174.74739198329527,-36.871938598874344],[174.74533442919295,-36.872237155623985],[174.74357281015443,-36.87283757785705],[174.7426358517826,-36.8733517224694],[174.7416925001801,-36.87369515988833],[174.7403638170239,-36.87394343289129],[174.73860265197303,-36.87399605835899],[174.73757865527023,-36.87413838526634],[174.73523355563418,-36.874985702237915],[174.7338786538325,-36.87559643789566],[174.7319355247023,-36.876167248700135],[174.7290020133708,-36.87663301949331],[174.72628444771496,-36.87661797918648],[174.72541724073935,-36.876695278984116],[174.72211083230312,-36.877300785758855],[174.72037442668812,-36.87772331712218],[174.71916879674427,-36.8782542966327],[174.71796171149043,-36.87926573836685],[174.71682972448988,-36.880519787482086],[174.71638227256955,-36.881164831368416],[174.7156867405602,-36.8829722703385],[174.71506692760383,-36.88390094510483],[174.7140543,-36.884927999999995],[174.71290440970347,-36.8858212459934],[174.71157867902028,-36.88704246973392],[174.70746112512538,-36.89099568974983],[174.7057048219042,-36.892341145441804],[174.70457465206323,-36.893069391412624],[174.70198918000003,-36.89415441999999],[174.70016841349687,-36.89474010593336],[174.6994262590719,-36.89529123826745],[174.69914117423312,-36.89588464484089],[174.6992110957867,-36.89862754763029],[174.69858600584095,-36.90037186847913],[174.69813118,-36.90247454],[174.69783839574066,-36.90335234534466],[174.69573656549372,-36.906778510130536],[174.69542124754142,-36.90713016743688],[174.69480487607964,-36.90752354637728],[174.6941871952701,-36.9077057382265],[174.6934577010522,-36.90775833448412],[174.69194257131323,-36.90765460836874],[174.69067659103783,-36.90766770876241],[174.6889024107216,-36.907923650362875],[174.6872181985533,-36.90836298567772],[174.68421921428572,-36.909409042857135],[174.68332513056654,-36.9096201237415],[174.68068298625144,-36.91050386451207],[174.67970900005756,-36.91066399700502],[174.67868038106946,-36.91066103125069],[174.67729195729817,-36.910813407237875],[174.67482699532937,-36.911393113194706],[174.66954642094694,-36.91139196231898],[174.66883534610946,-36.91125509803894],[174.66689559744555,-36.91064393710287],[174.66558340052762,-36.91050957554044],[174.6643975540641,-36.91076657373102],[174.66263647163305,-36.91149552922522],[174.66126750307035,-36.91163211441306],[174.65674224941085,-36.91130469694456],[174.65535296479482,-36.91104969245086],[174.64867564449074,-36.90871479706794],[174.64069285473911,-36.90612150109439],[174.63943972799606,-36.90545673540757],[174.63852720697588,-36.904840500117686],[174.63302570731608,-36.89990226216269],[174.63217197782544,-36.89868152672603],[174.63186396923078,-36.89692439230769],[174.63121847558995,-36.884697058436835],[174.63091466,-36.88224554],[174.6307921677579,-36.88030910934858],[174.63086017031918,-36.880223036875314],[174.6307139986168,-36.879456545835154],[174.6296500643535,-36.877745788481626],[174.62887712452527,-36.876801689914764],[174.62759355568792,-36.87591597704648],[174.62473880490586,-36.87482997865122],[174.61702525677765,-36.872221757996336],[174.61587030184327,-36.8715717872472],[174.61424329348424,-36.870144275321806],[174.61367212197874,-36.86977394445594],[174.61204227060452,-36.86921250910071],[174.59945622323545,-36.8674092337475],[174.59646138793704,-36.86733130159126],[174.59113324999998,-36.86777645],[174.58761616666666,-36.8677487],[174.58102676,-36.86697528],[174.5759803,-36.8661033]],[[174.768266,-36.8441758],[174.77000927923245,-36.84463908729581],[174.77119714804766,-36.84512767308397],[174.7773547424317,-36.84673519126322],[174.77802041440603,-36.847039413197045],[174.77833274339972,-36.84737936155937],[174.77838738092328,-36.84796448047082],[174.77807924645177,-36.84836887168501],[174.77770475773897,-36.84855046978001],[174.77634479027643,-36.84878615965464],[174.7757834750854,-36.84917155822151],[174.77547601076972,-36.849792790659954],[174.77560593237186,-36.8506927415492],[174.7765172669978,-36.85308797419821],[174.78192007988793,-36.86280341567493],[174.78214777298317,-36.86343073711873],[174.78215939202272,-36.86388044714058],[174.78196564987053,-36.86449418877068],[174.7801367631462,-36.86642754341062],[174.77942485767198,-36.86743515988084],[174.77903540000003,-36.86857526666667],[174.77892993666774,-36.86939575831089],[174.7786918,-36.869947]]]}},{"type":"Feature","properties":{"route_ref":"STH","route_color":"#97c93d"},"geometry":{"type":"LineString","coordinates":[[174.768266,-36.8441758],[174.77000927923245,-36.84463908729581],[174.77119714804766,-36.84512767308397],[174.7773547424317,-36.84673519126322],[174.77802041440603,-36.847039413197045],[174.77833274339972,-36.84737936155937],[174.77838738092328,-36.84796448047082],[174.7781508797402,-36.84831250664639],[174.77770475773897,-36.84855046978001],[174.7767570207001,-36.8486874858149],[174.7760159059917,-36.848950070200914],[174.77568006974568,-36.849303668447156],[174.7754702560873,-36.849986829934984],[174.77602441083533,-36.8519498754184],[174.7765172669978,-36.85308797419821],[174.78192007988793,-36.86280341567493],[174.78214777298317,-36.86343073711873],[174.78212137776046,-36.8641404840661],[174.78196564987053,-36.86449418877068],[174.78037606026152,-36.86615427399143],[174.7796385872588,-36.867155952534766],[174.77948503062296,-36.867774823051796],[174.77932611672063,-36.867914002459635],[174.77939434787638,-36.86811663412196],[174.7791216507966,-36.8691468637888],[174.77898593648803,-36.869206340150356],[174.77907757906425,-36.86930658867917],[174.77871184232518,-36.8706321817236],[174.7787817245826,-36.87203774049757],[174.7791007892772,-36.87346722509125],[174.77959748336107,-36.874672551025554],[174.7803668632314,-36.87591715848219],[174.78103409332843,-36.87677379995648],[174.78351328728493,-36.879447438762845],[174.78504436,-36.880865580000005],[174.7851982998852,-36.881113176135486],[174.78531990000002,-36.881140900000005],[174.78716117087794,-36.883032775708976],[174.78843399456676,-36.88420510600626],[174.7893882761944,-36.88493774267571],[174.79119361077358,-36.88617690213429],[174.79445500283364,-36.88787776984249],[174.79702865570357,-36.889342751431485],[174.79740688028323,-36.88969255861309],[174.7975772,-36.88965540000001],[174.79836425,-36.890122950000006],[174.79857112724267,-36.89033714377437],[174.79913955,-36.890592000000005],[174.80014612408164,-36.89128875036765],[174.80366925,-36.89339435000001],[174.8056334238426,-36.89480743560722],[174.8065420454581,-36.89566655226787],[174.8076420273432,-36.89728380862499],[174.80880876070762,-36.89953491213702],[174.8088131490067,-36.89979026295559],[174.8090011,-36.8999463],[174.80924013908123,-36.90062019995412],[174.81011032818955,-36.902349184005274],[174.81065001776813,-36.904443937391626],[174.81131012048272,-36.90577533214832],[174.81208333897607,-36.90664718338361],[174.81383363169724,-36.90789094070812],[174.81503778744778,-36.909043186829216],[174.81592737388425,-36.91029543486727],[174.81671557858587,-36.9117721841437],[174.82760973333333,-36.92569166666667],[174.829127675,-36.927931150000006],[174.83007439603185,-36.92975900073756],[174.83101384999998,-36.9328946875],[174.83288268771392,-36.944473725663784],[174.8331830333333,-36.94555856666667],[174.83447142628583,-36.95426476413985],[174.83483360654142,-36.95606719204509],[174.8352245198381,-36.95711381223407],[174.83649632435612,-36.959222818026916],[174.84378952868096,-36.97017356105416],[174.84859784,-36.9765248],[174.84878949621836,-36.97689780966891],[174.84934125818566,-36.97742157979219],[174.850680925,-36.97950968125],[174.85701126074557,-36.99147146732275],[174.8577614662606,-36.992633857198676],[174.8595729239076,-36.99497340938258],[174.86048957766295,-36.99686056467159],[174.86055192609064,-36.99720266773198],[174.86066231467515,-36.99726054586813],[174.86107481751338,-36.99852158197423],[174.86203619819406,-37.00077037907507],[174.86198620245963,-37.00087213445255],[174.86278397499999,-37.002493650000005],[174.86419565083594,-37.00600233161247],[174.86509277914993,-37.00747392451657],[174.86635366257764,-37.0086468065638],[174.87497848133572,-37.0136384211092],[174.87566280000001,-37.01395452500001],[174.8757084593261,-37.01405678728441],[174.88036751908825,-37.016317339245894],[174.88775272727273,-37.01934255454546],[174.89425697142858,-37.02223662321429],[174.89619212005533,-37.02325177875643],[174.90613684968298,-37.031107353351956],[174.90615059841778,-37.031209976673914],[174.9062804281315,-37.03122089382275],[174.90938975,-37.03359430000001],[174.91084183253238,-37.03488367357555],[174.91501704802815,-37.038182619657604],[174.92008381831945,-37.041478149433445],[174.92017300677378,-37.041639722556305],[174.9206130455519,-37.04182144597097],[174.93091327656907,-37.04850702087506],[174.93281564511668,-37.049858448337204],[174.93484504999998,-37.051537925000005],[174.93695832727272,-37.053585145454555],[174.94173542000001,-37.05887903],[174.9461816222222,-37.064129211111116],[174.94784082179547,-37.066688843010645],[174.9505751200513,-37.07048262026817],[174.95179550094716,-37.07166296444378],[174.95418382455742,-37.07329226148436],[174.95525988852148,-37.074249478573144],[174.95641529999997,-37.0757842888889],[174.95709137703463,-37.077220561547136],[174.95764567003107,-37.07917231951048],[174.9577154186056,-37.080722031178425],[174.95677115555557,-37.08420417777778],[174.95518371587144,-37.08937740163843],[174.95488325382757,-37.09072125823499],[174.9547086220438,-37.0921722861182],[174.95425068791042,-37.100265677810015],[174.95385868987375,-37.101663097440685],[174.9532961725049,-37.10285155813722],[174.95272530653267,-37.10376409749582],[174.95195005798678,-37.104683486634634],[174.95083436511902,-37.105786356457415],[174.94703004619205,-37.108885687836086],[174.9461309969848,-37.109782878052535],[174.94357151434636,-37.11408958093484],[174.9387258916326,-37.12056481568265],[174.93773394372843,-37.12156569426461],[174.9169184172338,-37.13592829277378],[174.91509601588345,-37.13731332623811],[174.91409216413447,-37.13828540345028],[174.91208701844064,-37.14131342999619],[174.91116162629731,-37.142263756314144],[174.91005402531746,-37.14300636240015],[174.90634877289637,-37.14494240368819],[174.90493590397637,-37.14607892739961],[174.90429723488685,-37.1469466440671],[174.90299109999998,-37.14941389999999],[174.89948481397363,-37.153500909533705],[174.89701634661176,-37.15765451617936],[174.89511525657286,-37.160085194864834],[174.89443014625567,-37.161134278860516],[174.89420159653017,-37.16167761342051],[174.89399164449947,-37.162413534641715],[174.89392137993698,-37.16332436387156],[174.89402348751537,-37.16419446957809],[174.89425000001765,-37.16494504736796],[174.8951351250693,-37.16639757582927],[174.89546818461537,-37.16666093846155],[174.90044758401478,-37.173074801910786],[174.90098243604646,-37.174290331374294],[174.9010186511329,-37.17635367565153],[174.9013088633449,-37.177374780991144],[174.9017952878641,-37.17806538647086],[174.90426850363698,-37.18077072025024],[174.9055119070831,-37.18262571473255],[174.90583522810064,-37.18360430820955],[174.90592782546932,-37.184771931182986],[174.9054563405134,-37.18742279251703],[174.90543256600898,-37.18854459729045],[174.90565407680157,-37.189977114497324],[174.90630404116666,-37.19246751829213],[174.90636399594996,-37.193354227638025],[174.90589049856496,-37.19679999389356],[174.9060081727426,-37.198057100717875],[174.90644171763049,-37.199229866015024],[174.90726537869244,-37.200373828430514],[174.90916775000002,-37.2021851],[174.9106226,-37.20340269999999]]}},{"type":"Feature","properties":{"route_ref":"EAST","route_color":"#97c93d"},"geometry":{"type":"LineString","coordinates":[[174.768266,-36.8441758],[174.77014782568185,-36.844684328685915],[174.77119714804766,-36.84512767308397],[174.77790367545902,-36.84686324229067],[174.77859126309085,-36.847191722480574],[174.77937888353145,-36.847765628223925],[174.78035970939283,-36.848054742238666],[174.7830876776481,-36.848339468566344],[174.78972199196463,-36.84805207078449],[174.79049346878932,-36.84811010813391],[174.79144707034948,-36.848362800503416],[174.79232322312288,-36.84875314425439],[174.793020425,-36.84926525],[174.8049351171754,-36.85979754469931],[174.80643543328915,-36.86084291090694],[174.8079983757995,-36.8617551295471],[174.8103228650023,-36.86274049003005],[174.81045697142858,-36.862713385714294],[174.81904568146086,-36.86593774007527],[174.8208576865983,-36.86632419673618],[174.82283052916878,-36.86632575176319],[174.82614510350467,-36.86562209804912],[174.82757674168266,-36.86547332521352],[174.8289161704809,-36.8654430658455],[174.8334596972219,-36.8657495910465],[174.83568594522936,-36.86617998240225],[174.83800409999998,-36.86699420000001],[174.8414834543111,-36.86863289668571],[174.8497982955933,-36.87180422847801],[174.8511377191826,-36.872563985515626],[174.85178839701217,-36.87310850486846],[174.8523892630582,-36.873790901384126],[174.85290156979082,-36.87458892849467],[174.853219275,-36.87540636250001],[174.85536004447218,-36.88274233032744],[174.8556148054221,-36.88478134914637],[174.85548481184864,-36.88633680767691],[174.8550563030426,-36.88795089750565],[174.8535207,-36.89236939999999],[174.85285825,-36.89376665],[174.8521156546467,-36.89501490808457],[174.85112511119615,-36.89632125760293],[174.85023588214008,-36.89727823050421],[174.844269123172,-36.902550617710524],[174.8435758691499,-36.903471786618546],[174.84323826689075,-36.90416694031181],[174.8416566731428,-36.90873908560886],[174.84150234465864,-36.909850858754574],[174.8416326374409,-36.911053505051115],[174.84322403816816,-36.91690005302736],[174.84325615888275,-36.91812570151269],[174.8431453558611,-36.918822159639404],[174.84288999849807,-36.91953664440025],[174.84194573747868,-36.92091821401713],[174.8406341809464,-36.921981180018136],[174.8336144410134,-36.92568345457225],[174.8316650333333,-36.926883866666664],[174.8315149529542,-36.92689607025983],[174.8306294192851,-36.92793768291287],[174.83025162088032,-36.9288355258204],[174.83017750581016,-36.92966636259406],[174.83033908,-36.9302729],[174.8302437968324,-36.93038272584862],[174.83038256,-36.9304573],[174.83044756666666,-36.93070183333333],[174.83035702651827,-36.93079986723817],[174.830496675,-36.93086275],[174.83040935519375,-36.930971272223324],[174.83054958250133,-36.931032672969785],[174.8308274858852,-36.9319608961601],[174.83129524,-36.93420792],[174.83221384893804,-36.93953466879055],[174.83216043417897,-36.93963520306931],[174.8322441907991,-36.93971925317626],[174.83220245473512,-36.939900402180584],[174.83228734,-36.93998097],[174.83228366562707,-36.94042442615441],[174.83241642,-36.9408657],[174.8323052717522,-36.940967779182444],[174.8324924,-36.9413885],[174.8326900909936,-36.94297963132858],[174.8333584034634,-36.94652669339597],[174.83470873753703,-36.95555401776671],[174.8350364168511,-36.956675632234],[174.83560280450638,-36.957858759280604],[174.84190827552393,-36.96736762990129],[174.8444096522157,-36.97105201664504],[174.84859784,-36.9765248],[174.84878949621836,-36.97689780966891],[174.84907751637164,-36.97708976808116],[174.84983673333332,-36.978155833333346],[174.85136503157892,-36.98073894210527],[174.85701126074557,-36.99147146732275],[174.8577614662606,-36.992633857198676],[174.85938176440897,-36.99465666495707],[174.86019323161347,-36.99619771881613],[174.86077932825808,-36.99688438768702],[174.86141722469557,-36.997218581627706],[174.86269023752897,-36.99733427515037],[174.86474033251997,-36.997273319177125],[174.86950961253936,-36.99675797139199],[174.87084291668393,-36.99649274853922],[174.87161743621337,-36.99624324607896],[174.8741386418789,-36.995054509790286],[174.8771693938491,-36.99403483076682],[174.87413956957525,-36.99505283183649],[174.87166686724146,-36.99622524086241],[174.87083595992823,-36.99649681726385],[174.86950865,-36.99676045],[174.86610353333333,-36.99714876666666],[174.8635257858712,-36.997342008949936],[174.86162194790285,-36.99729539555356],[174.8612981250808,-36.99721479474327],[174.86069766703218,-36.9968273942905],[174.8601987054387,-36.99620679405361],[174.8593821987732,-36.994657444971956],[174.8577585,-36.99263376666666],[174.85676715000002,-36.99108166249999],[174.85582009425917,-36.98920152879434],[174.85570256621673,-36.989138190560205],[174.85493185533122,-36.98742862275617],[174.8505317797797,-36.979273557382875],[174.84852304330084,-36.976456313842135],[174.8443444,-36.97096466666666],[174.84215808571432,-36.96774351428571],[174.8355948786587,-36.95786348863583],[174.83499241628425,-36.95668714072733],[174.83498647333852,-36.95641080918339],[174.8346756278153,-36.95556284183397],[174.83372771433176,-36.94918397784421],[174.83335754578138,-36.94788962096809],[174.83352374357233,-36.947767364218386],[174.83332819931908,-36.9464711719441],[174.83308980000004,-36.94624333333333],[174.83303173839997,-36.945735538384405],[174.83310185952797,-36.94562369303754],[174.83299197500003,-36.9453515],[174.83291669377292,-36.94432001058409],[174.83205,-36.9393986],[174.83215404846337,-36.939218891918294],[174.83200390000002,-36.93914195],[174.83130666666665,-36.93562826666667],[174.83102006414774,-36.93302512155987],[174.830139998274,-36.929904604833915],[174.83017058291082,-36.928946546810884],[174.83058471308206,-36.92791034828398],[174.83144951372378,-36.92694450273933],[174.83277931249998,-36.92609836250001],[174.83317653751297,-36.92596094803093],[174.83339948,-36.92575428],[174.8406855378811,-36.92194531191245],[174.84198908684803,-36.920877800435036],[174.84289269696447,-36.91952835424721],[174.84323276369645,-36.918289679010506],[174.8432433153471,-36.91703677258423],[174.84162883333335,-36.9110497],[174.84150282444335,-36.90978690566345],[174.84162312178884,-36.908837191222716],[174.8432591465205,-36.90411722266951],[174.8435952540213,-36.90343713167536],[174.8443448060155,-36.9024636356842],[174.85024351810432,-36.89727084486976],[174.8512780060019,-36.896127286195515],[174.85209974691847,-36.89500428286322],[174.85306076892178,-36.89337061732026],[174.85357672682687,-36.89220204405015],[174.85518607790058,-36.887484912869134],[174.85549701961563,-36.88623339061142],[174.85560530361337,-36.884421744800996],[174.855317798333,-36.88257545861767],[174.85473947327523,-36.88059047607059],[174.85408474834907,-36.87887823035013],[174.85323285327004,-36.8754556643166],[174.85288795031286,-36.874563182787014],[174.85233484827543,-36.873713532014584],[174.85200455554101,-36.87332269147984],[174.85097860165862,-36.87244992212008],[174.85004859917933,-36.87191963783272],[174.84179043,-36.86875850999999],[174.83799391711483,-36.866989986127095],[174.83580605180188,-36.86621475036197],[174.83417663120758,-36.86583721596222],[174.83339281155227,-36.865744846759924],[174.82860985453283,-36.86544132758291],[174.82622289069394,-36.865609449150305],[174.8226648709321,-36.8663665231969],[174.8219555712484,-36.86641637421781],[174.82063333586987,-36.86633258343798],[174.81892495,-36.86590199999999],[174.8116546424535,-36.86315466548269],[174.81031523333334,-36.8627559],[174.80822308,-36.86189851999999],[174.80638952500001,-36.86081532499999],[174.80460752516757,-36.859536384014135],[174.79294571720988,-36.8492070759671],[174.792236081994,-36.848701917474685],[174.79137582297042,-36.8483386118678],[174.79036804340376,-36.848088853668024],[174.78986281549692,-36.84805624304271],[174.78309334703056,-36.84834074663798],[174.78022774160274,-36.84803954378201],[174.77943428950067,-36.847795985979225],[174.77859350871736,-36.84719312023942],[174.7778169131132,-36.84683791217578],[174.77109824183762,-36.845081357450916],[174.77010422944204,-36.84493370437463],[174.76816895025024,-36.844419083203505]]}},{"type":"Feature","properties":{"route_ref":"ONE","route_color":"#97c93d"},"geometry":{"type":"MultiLineString","coordinates":[[[174.7860675,-36.92621849999999],[174.78694120788165,-36.92528313101674],[174.78747053052848,-36.925069317842016],[174.79495906666668,-36.9244048],[174.79579817700665,-36.92424526103656],[174.79663015024602,-36.923925147606234],[174.79740026168628,-36.923415019766324],[174.80024021261255,-36.92090276104714],[174.80130275,-36.9201593],[174.8101718674645,-36.914201781700825],[174.8146708009722,-36.91217710098463],[174.8150797829694,-36.91176103272477],[174.8153665674842,-36.91124939897023],[174.8155383503323,-36.91071574103116],[174.81549534999996,-36.91019465],[174.81528493333332,-36.909657966666664],[174.81488274,-36.90903708],[174.81413344999999,-36.908157249999995],[174.81210240000001,-36.90666749999999],[174.81121050706366,-36.905635079780595],[174.81064821781365,-36.90445174504112],[174.81045790376893,-36.903428089027955],[174.81010778569478,-36.90234765117107],[174.80782751149948,-36.89774453106672],[174.80690184168898,-36.89611625344642],[174.80594159116535,-36.89506959846386],[174.80422652352453,-36.89375930026007],[174.80077532774635,-36.89169011863376],[174.80437293892584,-36.89385806798314],[174.80584936176808,-36.89498857231748],[174.80666523891233,-36.89580689420133],[174.8078391801684,-36.89763597547979],[174.80887788732485,-36.899685568770245],[174.8088131490067,-36.89979026295559],[174.8090011,-36.8999463],[174.80924013908123,-36.90062019995412],[174.80986239427443,-36.90177776114574],[174.81048383486575,-36.903545287767756],[174.81065001776813,-36.904443937391626],[174.8112071958702,-36.90562807819648],[174.81208333897607,-36.90664718338361],[174.8134723,-36.9076788]],[[174.77931375385256,-36.86795669228326],[174.778666133532,-36.87061321924599],[174.77894814040786,-36.87292917653722],[174.7793062746895,-36.874069195389716],[174.77972350000002,-36.874930799999994],[174.7803072,-36.8758777],[174.7812267857143,-36.87698814285714],[174.78550037895073,-36.88152867743009],[174.7858569,-36.8818446],[174.78609590662262,-36.88192954571032],[174.78819240751122,-36.8840000203022],[174.7898287553138,-36.885282272431745],[174.79173352223066,-36.88649498415873],[174.79461200756725,-36.88796883447667],[174.79738944152618,-36.88968628856578],[174.799347427533,-36.89075439694163],[174.8007747,-36.8916897],[174.7975772,-36.88965540000001],[174.79740688028323,-36.88969255861309],[174.79702865570357,-36.889342751431485],[174.79445500283364,-36.88787776984249],[174.79119361077358,-36.88617690213429],[174.7896780985775,-36.885150442516824],[174.7882065298372,-36.88400811740269],[174.78351328728493,-36.879447438762845],[174.7808462881313,-36.8765572332173],[174.7799858877651,-36.87537360902415],[174.77939708067598,-36.874277997674284],[174.77895144231843,-36.87293580559899],[174.7787645,-36.8718984]]]}}]}