{"type":"FeatureCollection","metro_system":{"continent":"north-america","country":"United States","city":"Atlanta","official_website":null,"official_map":"https://en.wikipedia.org/wiki/MARTA_rail","wikipedia":"en:MARTA rail","wiki":true,"wikipedia_zh":"zh:亚特兰大地铁","line_count":4,"segment_count":7,"station_count":38,"modes":["metro"],"audit":{"strategies_tried":[],"passed":true,"checks":[{"id":"system_exists","ok":true,"detail":"matched OSM system metro-maps/americas/united-states/am-usa-atlanta/am-usa-atlanta.geojson","level":"error"},{"id":"has_lines","ok":true,"detail":"4 lines","level":"error"},{"id":"has_stations","ok":true,"detail":"38 stations","level":"error"},{"id":"station_count_info","ok":true,"detail":"OSM 38 站（wiki List 記 38，計法含轉乘重複，僅參考）","level":"warn"},{"id":"stations_have_lines","ok":true,"detail":"38/38 站皆有所屬路線","level":"error"},{"id":"line_geometry_stations","ok":true,"detail":"44 個折點/端點皆為車站","level":"error"},{"id":"route_stations_match_geometry","ok":true,"detail":"各線車站列表與圖面一致","level":"error"},{"id":"interchange_rule","ok":true,"detail":"所有車站紅/藍點符合骨架＋路線色規則（藍＝端點、紅＝交叉）","level":"error"},{"id":"stations_named","ok":true,"detail":"38/38 站皆有名稱","level":"error"},{"id":"station_order","ok":true,"detail":"所有線路站序合理","level":"warn"},{"id":"station_span","ok":true,"detail":"各線相鄰站距與系統站群跨度正常","level":"error"},{"id":"line_wiki_stations","ok":true,"detail":"各線站數與 wiki 線路條目相符（營運中站數）","level":"error"},{"id":"line_wiki_coverage","ok":false,"detail":"2 條線無 wiki 站數對照：MARTA Red Line、MARTA Gold Line","level":"warn"}],"reasons":[],"warnings":["2 條線無 wiki 站數對照：MARTA Red Line、MARTA Gold Line"],"audited_at":"2026-07-27T05:42:49.408Z"}},"features":[{"type":"Feature","properties":{"seg_id":"atlanta-0","routes":[{"route_id":"rm4439536","route_name":"MARTA Blue Line","route_name_local":"MARTA Blue Line","route_name_en":null,"route_ref":"Blue","route_color":"#0274ba","wikipedia":"en:Blue Line (MARTA)","osm_route_ids":[239510,4439527],"status":null,"order_suspect":0,"span_suspect":0,"stations":[{"station_id":"n3259302173","station_name":"Hamilton E. Holmes"},{"station_id":"n69287347","station_name":"West Lake"},{"station_id":"n922683901","station_name":"Ashby"},{"station_id":"n6594828120","station_name":"Vine City"},{"station_id":"n6594785781","station_name":"SEC District"},{"station_id":"n5348300430","station_name":"Five Points"},{"station_id":"n318458532","station_name":"Georgia State"},{"station_id":"n493182803","station_name":"King Memorial"},{"station_id":"n69496991","station_name":"Inman Park/Reynoldstown"},{"station_id":"n68341708","station_name":"Edgewood/Candler Park"},{"station_id":"n3010378954","station_name":"East Lake"},{"station_id":"n318460531","station_name":"Decatur"},{"station_id":"n3259302269","station_name":"Avondale"},{"station_id":"n3259302264","station_name":"Kensington"},{"station_id":"n68229505","station_name":"Indian Creek"}]}],"route_count":1,"route_refs":["Blue"],"route_colors":["#0274ba"],"city":"Atlanta","country":"United States"},"geometry":{"type":"MultiLineString","coordinates":[[[-84.46999963333333,33.75449776666667],[-84.44532410000001,33.753309200000004],[-84.41736676666666,33.756473]]]}},{"type":"Feature","properties":{"seg_id":"atlanta-1","routes":[{"route_id":"rm4439536","route_name":"MARTA Blue Line","route_name_local":"MARTA Blue Line","route_name_en":null,"route_ref":"Blue","route_color":"#0274ba","wikipedia":"en:Blue Line (MARTA)","osm_route_ids":[239510,4439527],"status":null,"order_suspect":0,"span_suspect":0,"stations":[{"station_id":"n3259302173","station_name":"Hamilton E. Holmes"},{"station_id":"n69287347","station_name":"West Lake"},{"station_id":"n922683901","station_name":"Ashby"},{"station_id":"n6594828120","station_name":"Vine City"},{"station_id":"n6594785781","station_name":"SEC District"},{"station_id":"n5348300430","station_name":"Five Points"},{"station_id":"n318458532","station_name":"Georgia State"},{"station_id":"n493182803","station_name":"King Memorial"},{"station_id":"n69496991","station_name":"Inman Park/Reynoldstown"},{"station_id":"n68341708","station_name":"Edgewood/Candler Park"},{"station_id":"n3010378954","station_name":"East Lake"},{"station_id":"n318460531","station_name":"Decatur"},{"station_id":"n3259302269","station_name":"Avondale"},{"station_id":"n3259302264","station_name":"Kensington"},{"station_id":"n68229505","station_name":"Indian Creek"}]}],"route_count":1,"route_refs":["Blue"],"route_colors":["#0274ba"],"city":"Atlanta","country":"United States"},"geometry":{"type":"MultiLineString","coordinates":[[[-84.28222776,33.775158899999994],[-84.2518872,33.772650199999994],[-84.2296286,33.769824125]]]}},{"type":"Feature","properties":{"seg_id":"atlanta-2","routes":[{"route_id":"rm4439536","route_name":"MARTA Blue Line","route_name_local":"MARTA Blue Line","route_name_en":null,"route_ref":"Blue","route_color":"#0274ba","wikipedia":"en:Blue Line (MARTA)","osm_route_ids":[239510,4439527],"status":null,"order_suspect":0,"span_suspect":0,"stations":[{"station_id":"n3259302173","station_name":"Hamilton E. Holmes"},{"station_id":"n69287347","station_name":"West Lake"},{"station_id":"n922683901","station_name":"Ashby"},{"station_id":"n6594828120","station_name":"Vine City"},{"station_id":"n6594785781","station_name":"SEC District"},{"station_id":"n5348300430","station_name":"Five Points"},{"station_id":"n318458532","station_name":"Georgia State"},{"station_id":"n493182803","station_name":"King Memorial"},{"station_id":"n69496991","station_name":"Inman Park/Reynoldstown"},{"station_id":"n68341708","station_name":"Edgewood/Candler Park"},{"station_id":"n3010378954","station_name":"East Lake"},{"station_id":"n318460531","station_name":"Decatur"},{"station_id":"n3259302269","station_name":"Avondale"},{"station_id":"n3259302264","station_name":"Kensington"},{"station_id":"n68229505","station_name":"Indian Creek"}]},{"route_id":"rm4439535","route_name":"MARTA Green Line","route_name_local":"MARTA Green Line","route_name_en":null,"route_ref":"Green","route_color":"#009544","wikipedia":"en:Green Line (MARTA)","osm_route_ids":[304604,4439530,12300720,12300721,12300722,12300723,12300724,12300725],"status":null,"order_suspect":0,"span_suspect":0,"stations":[{"station_id":"n3259302260","station_name":"Bankhead"},{"station_id":"n922683901","station_name":"Ashby"},{"station_id":"n6594828120","station_name":"Vine City"},{"station_id":"n6594785781","station_name":"SEC District"},{"station_id":"n5348300430","station_name":"Five Points"},{"station_id":"n318458532","station_name":"Georgia State"},{"station_id":"n493182803","station_name":"King Memorial"},{"station_id":"n69496991","station_name":"Inman Park/Reynoldstown"},{"station_id":"n68341708","station_name":"Edgewood/Candler Park"},{"station_id":"n3010378954","station_name":"East Lake","pass":true},{"station_id":"n318460531","station_name":"Decatur","pass":true},{"station_id":"n3259302269","station_name":"Avondale"}]}],"route_count":2,"route_refs":["Blue","Green"],"route_colors":["#0274ba","#009544"],"city":"Atlanta","country":"United States"},"geometry":{"type":"MultiLineString","coordinates":[[[-84.41736676666666,33.756473],[-84.40399516666666,33.75655576666666],[-84.39759026666665,33.75619269999999],[-84.391613,33.75387374],[-84.38597276666667,33.75017996666667],[-84.37545596666668,33.750005933333334],[-84.35233756666668,33.75783606666666],[-84.33986416666667,33.76190643333333],[-84.3128836,33.765192299999995],[-84.2960501,33.774610333333335],[-84.28222776,33.775158899999994]]]}},{"type":"Feature","properties":{"seg_id":"atlanta-3","routes":[{"route_id":"rm4439535","route_name":"MARTA Green Line","route_name_local":"MARTA Green Line","route_name_en":null,"route_ref":"Green","route_color":"#009544","wikipedia":"en:Green Line (MARTA)","osm_route_ids":[304604,4439530,12300720,12300721,12300722,12300723,12300724,12300725],"status":null,"order_suspect":0,"span_suspect":0,"stations":[{"station_id":"n3259302260","station_name":"Bankhead"},{"station_id":"n922683901","station_name":"Ashby"},{"station_id":"n6594828120","station_name":"Vine City"},{"station_id":"n6594785781","station_name":"SEC District"},{"station_id":"n5348300430","station_name":"Five Points"},{"station_id":"n318458532","station_name":"Georgia State"},{"station_id":"n493182803","station_name":"King Memorial"},{"station_id":"n69496991","station_name":"Inman Park/Reynoldstown"},{"station_id":"n68341708","station_name":"Edgewood/Candler Park"},{"station_id":"n3010378954","station_name":"East Lake","pass":true},{"station_id":"n318460531","station_name":"Decatur","pass":true},{"station_id":"n3259302269","station_name":"Avondale"}]}],"route_count":1,"route_refs":["Green"],"route_colors":["#009544"],"city":"Atlanta","country":"United States"},"geometry":{"type":"MultiLineString","coordinates":[[[-84.42893736666667,33.77224056666666],[-84.41736676666666,33.756473]]]}},{"type":"Feature","properties":{"seg_id":"atlanta-4","routes":[{"route_id":"rm4439533","route_name":"MARTA Red Line","route_name_local":"MARTA Red Line","route_name_en":null,"route_ref":"Red","route_color":"#cc0000","wikipedia":"en:Red Line","osm_route_ids":[304619,4439531,12300718,12300719],"status":null,"order_suspect":0,"span_suspect":0,"stations":[{"station_id":"n3259302392","station_name":"North Springs"},{"station_id":"n3259302386","station_name":"Sandy Springs"},{"station_id":"n3259302381","station_name":"Dunwoody"},{"station_id":"n3259302377","station_name":"Medical Center"},{"station_id":"n3259302345","station_name":"Buckhead"},{"station_id":"n3259302311","station_name":"Lindbergh Center"},{"station_id":"n69286839","station_name":"Arts Center"},{"station_id":"n69286872","station_name":"Midtown"},{"station_id":"n69286902","station_name":"North Avenue"},{"station_id":"n6593257612","station_name":"Civic Center"},{"station_id":"n69287001","station_name":"Peachtree Center"},{"station_id":"n5348300430","station_name":"Five Points"},{"station_id":"n2759660329","station_name":"Garnett"},{"station_id":"n69288615","station_name":"West End"},{"station_id":"n69288703","station_name":"Oakland City"},{"station_id":"n320911548","station_name":"Lakewood/Fort McPherson"},{"station_id":"n69287649","station_name":"East Point"},{"station_id":"n3259301570","station_name":"College Park"},{"station_id":"n67405732","station_name":"Airport"}]}],"route_count":1,"route_refs":["Red"],"route_colors":["#cc0000"],"city":"Atlanta","country":"United States"},"geometry":{"type":"MultiLineString","coordinates":[[[-84.35719713333333,33.94511956666667],[-84.35203616666666,33.932200566666666],[-84.34433907500001,33.92120812500001],[-84.35151080000001,33.9107641],[-84.36840163333333,33.84897946666667],[-84.36954506666666,33.82272713333334]]]}},{"type":"Feature","properties":{"seg_id":"atlanta-5","routes":[{"route_id":"rm4439533","route_name":"MARTA Red Line","route_name_local":"MARTA Red Line","route_name_en":null,"route_ref":"Red","route_color":"#cc0000","wikipedia":"en:Red Line","osm_route_ids":[304619,4439531,12300718,12300719],"status":null,"order_suspect":0,"span_suspect":0,"stations":[{"station_id":"n3259302392","station_name":"North Springs"},{"station_id":"n3259302386","station_name":"Sandy Springs"},{"station_id":"n3259302381","station_name":"Dunwoody"},{"station_id":"n3259302377","station_name":"Medical Center"},{"station_id":"n3259302345","station_name":"Buckhead"},{"station_id":"n3259302311","station_name":"Lindbergh Center"},{"station_id":"n69286839","station_name":"Arts Center"},{"station_id":"n69286872","station_name":"Midtown"},{"station_id":"n69286902","station_name":"North Avenue"},{"station_id":"n6593257612","station_name":"Civic Center"},{"station_id":"n69287001","station_name":"Peachtree Center"},{"station_id":"n5348300430","station_name":"Five Points"},{"station_id":"n2759660329","station_name":"Garnett"},{"station_id":"n69288615","station_name":"West End"},{"station_id":"n69288703","station_name":"Oakland City"},{"station_id":"n320911548","station_name":"Lakewood/Fort McPherson"},{"station_id":"n69287649","station_name":"East Point"},{"station_id":"n3259301570","station_name":"College Park"},{"station_id":"n67405732","station_name":"Airport"}]},{"route_id":"rm4439534","route_name":"MARTA Gold Line","route_name_local":"MARTA Gold Line","route_name_en":null,"route_ref":"Gold","route_color":"#f67705","wikipedia":"en:Gold Line","osm_route_ids":[304620,4439528],"status":null,"order_suspect":0,"span_suspect":0,"stations":[{"station_id":"n3259302374","station_name":"Doraville"},{"station_id":"n3259302360","station_name":"Chamblee"},{"station_id":"n3259302350","station_name":"Brookhaven"},{"station_id":"n3259302333","station_name":"Lenox"},{"station_id":"n3259302311","station_name":"Lindbergh Center"},{"station_id":"n69286839","station_name":"Arts Center"},{"station_id":"n69286872","station_name":"Midtown"},{"station_id":"n69286902","station_name":"North Avenue"},{"station_id":"n6593257612","station_name":"Civic Center"},{"station_id":"n69287001","station_name":"Peachtree Center"},{"station_id":"n5348300430","station_name":"Five Points"},{"station_id":"n2759660329","station_name":"Garnett"},{"station_id":"n69288615","station_name":"West End"},{"station_id":"n69288703","station_name":"Oakland City"},{"station_id":"n320911548","station_name":"Lakewood/Fort McPherson"},{"station_id":"n69287649","station_name":"East Point"},{"station_id":"n3259301570","station_name":"College Park"},{"station_id":"n67405732","station_name":"Airport"}]}],"route_count":2,"route_refs":["Red","Gold"],"route_colors":["#cc0000","#f67705"],"city":"Atlanta","country":"United States"},"geometry":{"type":"MultiLineString","coordinates":[[[-84.36954506666666,33.82272713333334],[-84.3873243,33.78912643333334],[-84.38631565,33.7811095],[-84.38692023333333,33.77226543333334],[-84.38750586666667,33.76650899999999],[-84.38760316666668,33.7590581],[-84.391613,33.75387374],[-84.39626993333333,33.74803816666667],[-84.41366656666666,33.736035199999996],[-84.42519773333333,33.71681566666666],[-84.42889503333333,33.70016150000001],[-84.44068976666667,33.67703613333333],[-84.44879196666666,33.65166276666667],[-84.44621993333334,33.640715400000005]]]}},{"type":"Feature","properties":{"seg_id":"atlanta-6","routes":[{"route_id":"rm4439534","route_name":"MARTA Gold Line","route_name_local":"MARTA Gold Line","route_name_en":null,"route_ref":"Gold","route_color":"#f67705","wikipedia":"en:Gold Line","osm_route_ids":[304620,4439528],"status":null,"order_suspect":0,"span_suspect":0,"stations":[{"station_id":"n3259302374","station_name":"Doraville"},{"station_id":"n3259302360","station_name":"Chamblee"},{"station_id":"n3259302350","station_name":"Brookhaven"},{"station_id":"n3259302333","station_name":"Lenox"},{"station_id":"n3259302311","station_name":"Lindbergh Center"},{"station_id":"n69286839","station_name":"Arts Center"},{"station_id":"n69286872","station_name":"Midtown"},{"station_id":"n69286902","station_name":"North Avenue"},{"station_id":"n6593257612","station_name":"Civic Center"},{"station_id":"n69287001","station_name":"Peachtree Center"},{"station_id":"n5348300430","station_name":"Five Points"},{"station_id":"n2759660329","station_name":"Garnett"},{"station_id":"n69288615","station_name":"West End"},{"station_id":"n69288703","station_name":"Oakland City"},{"station_id":"n320911548","station_name":"Lakewood/Fort McPherson"},{"station_id":"n69287649","station_name":"East Point"},{"station_id":"n3259301570","station_name":"College Park"},{"station_id":"n67405732","station_name":"Airport"}]}],"route_count":1,"route_refs":["Gold"],"route_colors":["#f67705"],"city":"Atlanta","country":"United States"},"geometry":{"type":"MultiLineString","coordinates":[[[-84.28019676666668,33.90303016666667],[-84.3063667,33.887467166666674],[-84.3392617,33.860216199999996],[-84.35774456666667,33.845597500000004],[-84.36954506666666,33.82272713333334]]]}},{"type":"Feature","properties":{"station_id":"n67405732","station_name":"Airport","station_name_local":"Airport","station_name_en":null,"city":"Atlanta","country":"United States","lines":["Gold","Red"],"wikipedia":null,"merged_from":3,"merged_names":null,"is_terminus":true,"routes":[{"ref":"Gold","name":"MARTA Gold Line","route_color":"#f67705"},{"ref":"Red","name":"MARTA Red Line","route_color":"#cc0000"}],"pass_count":2,"station_degree":1,"codes":null,"is_interchange":false,"station_role":"terminus"},"geometry":{"type":"Point","coordinates":[-84.44621993333334,33.640715400000005]},"__memberLines":{}},{"type":"Feature","properties":{"station_id":"n68229505","station_name":"Indian Creek","station_name_local":"Indian Creek","station_name_en":null,"city":"Atlanta","country":"United States","lines":["Blue"],"wikipedia":null,"merged_from":4,"merged_names":null,"is_terminus":true,"routes":[{"ref":"Blue","name":"MARTA Blue Line","route_color":"#0274ba"}],"pass_count":1,"station_degree":1,"codes":null,"is_interchange":false,"station_role":"terminus"},"geometry":{"type":"Point","coordinates":[-84.2296286,33.769824125]},"__memberLines":{}},{"type":"Feature","properties":{"station_id":"n68341708","station_name":"Edgewood/Candler Park","station_name_local":"Edgewood/Candler Park","station_name_en":null,"city":"Atlanta","country":"United States","lines":["Blue","Green"],"wikipedia":null,"merged_from":3,"merged_names":null,"is_terminus":false,"routes":[{"ref":"Blue","name":"MARTA Blue Line","route_color":"#0274ba"},{"ref":"Green","name":"MARTA Green Line","route_color":"#009544"}],"pass_count":2,"station_degree":2,"codes":null,"is_interchange":false,"station_role":"normal"},"geometry":{"type":"Point","coordinates":[-84.33986416666667,33.76190643333333]},"__memberLines":{}},{"type":"Feature","properties":{"station_id":"n69286839","station_name":"Arts Center","station_name_local":"Arts Center","station_name_en":null,"city":"Atlanta","country":"United States","lines":["Gold","Red"],"wikipedia":null,"merged_from":3,"merged_names":null,"is_terminus":false,"routes":[{"ref":"Gold","name":"MARTA Gold Line","route_color":"#f67705"},{"ref":"Red","name":"MARTA Red Line","route_color":"#cc0000"}],"pass_count":2,"station_degree":2,"codes":null,"is_interchange":false,"station_role":"normal"},"geometry":{"type":"Point","coordinates":[-84.3873243,33.78912643333334]},"__memberLines":{}},{"type":"Feature","properties":{"station_id":"n69286872","station_name":"Midtown","station_name_local":"Midtown","station_name_en":null,"city":"Atlanta","country":"United States","lines":["Gold","Red"],"wikipedia":null,"merged_from":2,"merged_names":null,"is_terminus":false,"routes":[{"ref":"Gold","name":"MARTA Gold Line","route_color":"#f67705"},{"ref":"Red","name":"MARTA Red Line","route_color":"#cc0000"}],"pass_count":2,"station_degree":2,"codes":null,"is_interchange":false,"station_role":"normal"},"geometry":{"type":"Point","coordinates":[-84.38631565,33.7811095]},"__memberLines":{}},{"type":"Feature","properties":{"station_id":"n69286902","station_name":"North Avenue","station_name_local":"North Avenue","station_name_en":null,"city":"Atlanta","country":"United States","lines":["Gold","Red"],"wikipedia":null,"merged_from":3,"merged_names":null,"is_terminus":false,"routes":[{"ref":"Gold","name":"MARTA Gold Line","route_color":"#f67705"},{"ref":"Red","name":"MARTA Red Line","route_color":"#cc0000"}],"pass_count":2,"station_degree":2,"codes":null,"is_interchange":false,"station_role":"normal"},"geometry":{"type":"Point","coordinates":[-84.38692023333333,33.77226543333334]},"__memberLines":{}},{"type":"Feature","properties":{"station_id":"n69287001","station_name":"Peachtree Center","station_name_local":"Peachtree Center","station_name_en":null,"city":"Atlanta","country":"United States","lines":["Gold","Red"],"wikipedia":null,"merged_from":3,"merged_names":null,"is_terminus":false,"routes":[{"ref":"Gold","name":"MARTA Gold Line","route_color":"#f67705"},{"ref":"Red","name":"MARTA Red Line","route_color":"#cc0000"}],"pass_count":2,"station_degree":2,"codes":null,"is_interchange":false,"station_role":"normal"},"geometry":{"type":"Point","coordinates":[-84.38760316666668,33.7590581]},"__memberLines":{}},{"type":"Feature","properties":{"station_id":"n69287347","station_name":"West Lake","station_name_local":"West Lake","station_name_en":null,"city":"Atlanta","country":"United States","lines":["Blue"],"wikipedia":null,"merged_from":3,"merged_names":null,"is_terminus":false,"routes":[{"ref":"Blue","name":"MARTA Blue Line","route_color":"#0274ba"}],"pass_count":1,"station_degree":2,"codes":null,"is_interchange":false,"station_role":"normal"},"geometry":{"type":"Point","coordinates":[-84.44532410000001,33.753309200000004]},"__memberLines":{}},{"type":"Feature","properties":{"station_id":"n69287649","station_name":"East Point","station_name_local":"East Point","station_name_en":null,"city":"Atlanta","country":"United States","lines":["Gold","Red"],"wikipedia":null,"merged_from":3,"merged_names":null,"is_terminus":false,"routes":[{"ref":"Gold","name":"MARTA Gold Line","route_color":"#f67705"},{"ref":"Red","name":"MARTA Red Line","route_color":"#cc0000"}],"pass_count":2,"station_degree":2,"codes":null,"is_interchange":false,"station_role":"normal"},"geometry":{"type":"Point","coordinates":[-84.44068976666667,33.67703613333333]},"__memberLines":{}},{"type":"Feature","properties":{"station_id":"n69288615","station_name":"West End","station_name_local":"West End","station_name_en":null,"city":"Atlanta","country":"United States","lines":["Gold","Red"],"wikipedia":null,"merged_from":3,"merged_names":null,"is_terminus":false,"routes":[{"ref":"Gold","name":"MARTA Gold Line","route_color":"#f67705"},{"ref":"Red","name":"MARTA Red Line","route_color":"#cc0000"}],"pass_count":2,"station_degree":2,"codes":null,"is_interchange":false,"station_role":"normal"},"geometry":{"type":"Point","coordinates":[-84.41366656666666,33.736035199999996]},"__memberLines":{}},{"type":"Feature","properties":{"station_id":"n69288703","station_name":"Oakland City","station_name_local":"Oakland City","station_name_en":null,"city":"Atlanta","country":"United States","lines":["Gold","Red"],"wikipedia":null,"merged_from":3,"merged_names":null,"is_terminus":false,"routes":[{"ref":"Gold","name":"MARTA Gold Line","route_color":"#f67705"},{"ref":"Red","name":"MARTA Red Line","route_color":"#cc0000"}],"pass_count":2,"station_degree":2,"codes":null,"is_interchange":false,"station_role":"normal"},"geometry":{"type":"Point","coordinates":[-84.42519773333333,33.71681566666666]},"__memberLines":{}},{"type":"Feature","properties":{"station_id":"n69496991","station_name":"Inman Park/Reynoldstown","station_name_local":"Inman Park/Reynoldstown","station_name_en":null,"city":"Atlanta","country":"United States","lines":["Blue","Green"],"wikipedia":null,"merged_from":3,"merged_names":null,"is_terminus":false,"routes":[{"ref":"Blue","name":"MARTA Blue Line","route_color":"#0274ba"},{"ref":"Green","name":"MARTA Green Line","route_color":"#009544"}],"pass_count":2,"station_degree":2,"codes":null,"is_interchange":false,"station_role":"normal"},"geometry":{"type":"Point","coordinates":[-84.35233756666668,33.75783606666666]},"__memberLines":{}},{"type":"Feature","properties":{"station_id":"n318458532","station_name":"Georgia State","station_name_local":"Georgia State","station_name_en":null,"city":"Atlanta","country":"United States","lines":["Blue","Green"],"wikipedia":null,"merged_from":3,"merged_names":null,"is_terminus":false,"routes":[{"ref":"Blue","name":"MARTA Blue Line","route_color":"#0274ba"},{"ref":"Green","name":"MARTA Green Line","route_color":"#009544"}],"pass_count":2,"station_degree":2,"codes":null,"is_interchange":false,"station_role":"normal"},"geometry":{"type":"Point","coordinates":[-84.38597276666667,33.75017996666667]},"__memberLines":{}},{"type":"Feature","properties":{"station_id":"n318460531","station_name":"Decatur","station_name_local":"Decatur","station_name_en":null,"city":"Atlanta","country":"United States","lines":["Blue"],"wikipedia":null,"merged_from":3,"merged_names":null,"is_terminus":false,"routes":[{"ref":"Blue","name":"MARTA Blue Line","route_color":"#0274ba"},{"ref":"Green","name":"MARTA Green Line","route_color":"#009544","pass":true}],"pass_count":2,"station_degree":2,"codes":null,"is_interchange":false,"station_role":"normal"},"geometry":{"type":"Point","coordinates":[-84.2960501,33.774610333333335]},"__memberLines":{}},{"type":"Feature","properties":{"station_id":"n320911548","station_name":"Lakewood/Fort McPherson","station_name_local":"Lakewood/Fort McPherson","station_name_en":null,"city":"Atlanta","country":"United States","lines":["Gold","Red"],"wikipedia":null,"merged_from":3,"merged_names":null,"is_terminus":false,"routes":[{"ref":"Gold","name":"MARTA Gold Line","route_color":"#f67705"},{"ref":"Red","name":"MARTA Red Line","route_color":"#cc0000"}],"pass_count":2,"station_degree":2,"codes":null,"is_interchange":false,"station_role":"normal"},"geometry":{"type":"Point","coordinates":[-84.42889503333333,33.70016150000001]},"__memberLines":{}},{"type":"Feature","properties":{"station_id":"n493182803","station_name":"King Memorial","station_name_local":"King Memorial","station_name_en":null,"city":"Atlanta","country":"United States","lines":["Blue","Green"],"wikipedia":null,"merged_from":3,"merged_names":null,"is_terminus":false,"routes":[{"ref":"Blue","name":"MARTA Blue Line","route_color":"#0274ba"},{"ref":"Green","name":"MARTA Green Line","route_color":"#009544"}],"pass_count":2,"station_degree":2,"codes":null,"is_interchange":false,"station_role":"normal"},"geometry":{"type":"Point","coordinates":[-84.37545596666668,33.750005933333334]},"__memberLines":{}},{"type":"Feature","properties":{"station_id":"n922683901","station_name":"Ashby","station_name_local":"Ashby","station_name_en":null,"city":"Atlanta","country":"United States","lines":["Blue","Green"],"wikipedia":null,"merged_from":3,"merged_names":null,"is_terminus":false,"routes":[{"ref":"Blue","name":"MARTA Blue Line","route_color":"#0274ba"},{"ref":"Green","name":"MARTA Green Line","route_color":"#009544"}],"pass_count":2,"station_degree":3,"codes":null,"is_interchange":true,"station_role":"interchange"},"geometry":{"type":"Point","coordinates":[-84.41736676666666,33.756473]},"__memberLines":{}},{"type":"Feature","properties":{"station_id":"n2759660329","station_name":"Garnett","station_name_local":"Garnett","station_name_en":null,"city":"Atlanta","country":"United States","lines":["Gold","Red"],"wikipedia":null,"merged_from":3,"merged_names":null,"is_terminus":false,"routes":[{"ref":"Gold","name":"MARTA Gold Line","route_color":"#f67705"},{"ref":"Red","name":"MARTA Red Line","route_color":"#cc0000"}],"pass_count":2,"station_degree":2,"codes":null,"is_interchange":false,"station_role":"normal"},"geometry":{"type":"Point","coordinates":[-84.39626993333333,33.74803816666667]},"__memberLines":{}},{"type":"Feature","properties":{"station_id":"n3010378954","station_name":"East Lake","station_name_local":"East Lake","station_name_en":null,"city":"Atlanta","country":"United States","lines":["Blue"],"wikipedia":null,"merged_from":3,"merged_names":null,"is_terminus":false,"routes":[{"ref":"Blue","name":"MARTA Blue Line","route_color":"#0274ba"},{"ref":"Green","name":"MARTA Green Line","route_color":"#009544","pass":true}],"pass_count":2,"station_degree":2,"codes":null,"is_interchange":false,"station_role":"normal"},"geometry":{"type":"Point","coordinates":[-84.3128836,33.765192299999995]},"__memberLines":{}},{"type":"Feature","properties":{"station_id":"n3259301570","station_name":"College Park","station_name_local":"College Park","station_name_en":null,"city":"Atlanta","country":"United States","lines":["Gold","Red"],"wikipedia":null,"merged_from":3,"merged_names":null,"is_terminus":false,"routes":[{"ref":"Gold","name":"MARTA Gold Line","route_color":"#f67705"},{"ref":"Red","name":"MARTA Red Line","route_color":"#cc0000"}],"pass_count":2,"station_degree":2,"codes":null,"is_interchange":false,"station_role":"normal"},"geometry":{"type":"Point","coordinates":[-84.44879196666666,33.65166276666667]},"__memberLines":{}},{"type":"Feature","properties":{"station_id":"n3259302173","station_name":"Hamilton E. Holmes","station_name_local":"Hamilton E. Holmes","station_name_en":null,"city":"Atlanta","country":"United States","lines":["Blue"],"wikipedia":null,"merged_from":3,"merged_names":null,"is_terminus":true,"routes":[{"ref":"Blue","name":"MARTA Blue Line","route_color":"#0274ba"}],"pass_count":1,"station_degree":1,"codes":null,"is_interchange":false,"station_role":"terminus"},"geometry":{"type":"Point","coordinates":[-84.46999963333333,33.75449776666667]},"__memberLines":{}},{"type":"Feature","properties":{"station_id":"n3259302260","station_name":"Bankhead","station_name_local":"Bankhead","station_name_en":null,"city":"Atlanta","country":"United States","lines":["Green"],"wikipedia":null,"merged_from":3,"merged_names":null,"is_terminus":true,"routes":[{"ref":"Green","name":"MARTA Green Line","route_color":"#009544"}],"pass_count":1,"station_degree":1,"codes":null,"is_interchange":false,"station_role":"terminus"},"geometry":{"type":"Point","coordinates":[-84.42893736666667,33.77224056666666]},"__memberLines":{}},{"type":"Feature","properties":{"station_id":"n3259302264","station_name":"Kensington","station_name_local":"Kensington","station_name_en":null,"city":"Atlanta","country":"United States","lines":["Blue"],"wikipedia":null,"merged_from":3,"merged_names":null,"is_terminus":false,"routes":[{"ref":"Blue","name":"MARTA Blue Line","route_color":"#0274ba"}],"pass_count":1,"station_degree":2,"codes":null,"is_interchange":false,"station_role":"normal"},"geometry":{"type":"Point","coordinates":[-84.2518872,33.772650199999994]},"__memberLines":{}},{"type":"Feature","properties":{"station_id":"n3259302269","station_name":"Avondale","station_name_local":"Avondale","station_name_en":null,"city":"Atlanta","country":"United States","lines":["Blue","Green"],"wikipedia":null,"merged_from":5,"merged_names":null,"is_terminus":false,"routes":[{"ref":"Blue","name":"MARTA Blue Line","route_color":"#0274ba"},{"ref":"Green","name":"MARTA Green Line","route_color":"#009544"}],"pass_count":2,"station_degree":2,"codes":null,"is_interchange":true,"station_role":"interchange"},"geometry":{"type":"Point","coordinates":[-84.28222776,33.775158899999994]},"__memberLines":{}},{"type":"Feature","properties":{"station_id":"n3259302311","station_name":"Lindbergh Center","station_name_local":"Lindbergh Center","station_name_en":null,"city":"Atlanta","country":"United States","lines":["Gold","Red"],"wikipedia":null,"merged_from":3,"merged_names":null,"is_terminus":false,"routes":[{"ref":"Gold","name":"MARTA Gold Line","route_color":"#f67705"},{"ref":"Red","name":"MARTA Red Line","route_color":"#cc0000"}],"pass_count":2,"station_degree":3,"codes":null,"is_interchange":true,"station_role":"interchange"},"geometry":{"type":"Point","coordinates":[-84.36954506666666,33.82272713333334]},"__memberLines":{}},{"type":"Feature","properties":{"station_id":"n3259302333","station_name":"Lenox","station_name_local":"Lenox","station_name_en":null,"city":"Atlanta","country":"United States","lines":["Gold"],"wikipedia":null,"merged_from":3,"merged_names":null,"is_terminus":false,"routes":[{"ref":"Gold","name":"MARTA Gold Line","route_color":"#f67705"}],"pass_count":1,"station_degree":2,"codes":null,"is_interchange":false,"station_role":"normal"},"geometry":{"type":"Point","coordinates":[-84.35774456666667,33.845597500000004]},"__memberLines":{}},{"type":"Feature","properties":{"station_id":"n3259302345","station_name":"Buckhead","station_name_local":"Buckhead","station_name_en":null,"city":"Atlanta","country":"United States","lines":["Red"],"wikipedia":null,"merged_from":3,"merged_names":null,"is_terminus":false,"routes":[{"ref":"Red","name":"MARTA Red Line","route_color":"#cc0000"}],"pass_count":1,"station_degree":2,"codes":null,"is_interchange":false,"station_role":"normal"},"geometry":{"type":"Point","coordinates":[-84.36840163333333,33.84897946666667]},"__memberLines":{}},{"type":"Feature","properties":{"station_id":"n3259302350","station_name":"Brookhaven","station_name_local":"Brookhaven","station_name_en":null,"city":"Atlanta","country":"United States","lines":["Gold"],"wikipedia":null,"merged_from":3,"merged_names":null,"is_terminus":false,"routes":[{"ref":"Gold","name":"MARTA Gold Line","route_color":"#f67705"}],"pass_count":1,"station_degree":2,"codes":null,"is_interchange":false,"station_role":"normal"},"geometry":{"type":"Point","coordinates":[-84.3392617,33.860216199999996]},"__memberLines":{}},{"type":"Feature","properties":{"station_id":"n3259302360","station_name":"Chamblee","station_name_local":"Chamblee","station_name_en":null,"city":"Atlanta","country":"United States","lines":["Gold"],"wikipedia":null,"merged_from":3,"merged_names":null,"is_terminus":false,"routes":[{"ref":"Gold","name":"MARTA Gold Line","route_color":"#f67705"}],"pass_count":1,"station_degree":2,"codes":null,"is_interchange":false,"station_role":"normal"},"geometry":{"type":"Point","coordinates":[-84.3063667,33.887467166666674]},"__memberLines":{}},{"type":"Feature","properties":{"station_id":"n3259302374","station_name":"Doraville","station_name_local":"Doraville","station_name_en":null,"city":"Atlanta","country":"United States","lines":["Gold"],"wikipedia":null,"merged_from":3,"merged_names":null,"is_terminus":true,"routes":[{"ref":"Gold","name":"MARTA Gold Line","route_color":"#f67705"}],"pass_count":1,"station_degree":1,"codes":null,"is_interchange":false,"station_role":"terminus"},"geometry":{"type":"Point","coordinates":[-84.28019676666668,33.90303016666667]},"__memberLines":{}},{"type":"Feature","properties":{"station_id":"n3259302377","station_name":"Medical Center","station_name_local":"Medical Center","station_name_en":null,"city":"Atlanta","country":"United States","lines":["Red"],"wikipedia":null,"merged_from":3,"merged_names":null,"is_terminus":false,"routes":[{"ref":"Red","name":"MARTA Red Line","route_color":"#cc0000"}],"pass_count":1,"station_degree":2,"codes":null,"is_interchange":false,"station_role":"normal"},"geometry":{"type":"Point","coordinates":[-84.35151080000001,33.9107641]},"__memberLines":{}},{"type":"Feature","properties":{"station_id":"n3259302381","station_name":"Dunwoody","station_name_local":"Dunwoody","station_name_en":null,"city":"Atlanta","country":"United States","lines":["Red"],"wikipedia":null,"merged_from":4,"merged_names":null,"is_terminus":false,"routes":[{"ref":"Red","name":"MARTA Red Line","route_color":"#cc0000"}],"pass_count":1,"station_degree":2,"codes":null,"is_interchange":false,"station_role":"normal"},"geometry":{"type":"Point","coordinates":[-84.34433907500001,33.92120812500001]},"__memberLines":{}},{"type":"Feature","properties":{"station_id":"n3259302386","station_name":"Sandy Springs","station_name_local":"Sandy Springs","station_name_en":null,"city":"Atlanta","country":"United States","lines":["Red"],"wikipedia":null,"merged_from":3,"merged_names":null,"is_terminus":false,"routes":[{"ref":"Red","name":"MARTA Red Line","route_color":"#cc0000"}],"pass_count":1,"station_degree":2,"codes":null,"is_interchange":false,"station_role":"normal"},"geometry":{"type":"Point","coordinates":[-84.35203616666666,33.932200566666666]},"__memberLines":{}},{"type":"Feature","properties":{"station_id":"n3259302392","station_name":"North Springs","station_name_local":"North Springs","station_name_en":null,"city":"Atlanta","country":"United States","lines":["Red"],"wikipedia":null,"merged_from":3,"merged_names":null,"is_terminus":true,"routes":[{"ref":"Red","name":"MARTA Red Line","route_color":"#cc0000"}],"pass_count":1,"station_degree":1,"codes":null,"is_interchange":false,"station_role":"terminus"},"geometry":{"type":"Point","coordinates":[-84.35719713333333,33.94511956666667]},"__memberLines":{}},{"type":"Feature","properties":{"station_id":"n5348300430","station_name":"Five Points","station_name_local":"Five Points","station_name_en":null,"city":"Atlanta","country":"United States","lines":["Blue","Gold","Green","Red"],"wikipedia":null,"merged_from":5,"merged_names":null,"is_terminus":false,"routes":[{"ref":"Blue","name":"MARTA Blue Line","route_color":"#0274ba"},{"ref":"Gold","name":"MARTA Gold Line","route_color":"#f67705"},{"ref":"Green","name":"MARTA Green Line","route_color":"#009544"},{"ref":"Red","name":"MARTA Red Line","route_color":"#cc0000"}],"pass_count":4,"station_degree":4,"codes":null,"is_interchange":true,"station_role":"interchange"},"geometry":{"type":"Point","coordinates":[-84.391613,33.75387374]},"__memberLines":{}},{"type":"Feature","properties":{"station_id":"n6593257612","station_name":"Civic Center","station_name_local":"Civic Center","station_name_en":null,"city":"Atlanta","country":"United States","lines":["Gold","Red"],"wikipedia":null,"merged_from":3,"merged_names":null,"is_terminus":false,"routes":[{"ref":"Gold","name":"MARTA Gold Line","route_color":"#f67705"},{"ref":"Red","name":"MARTA Red Line","route_color":"#cc0000"}],"pass_count":2,"station_degree":2,"codes":null,"is_interchange":false,"station_role":"normal"},"geometry":{"type":"Point","coordinates":[-84.38750586666667,33.76650899999999]},"__memberLines":{}},{"type":"Feature","properties":{"station_id":"n6594785781","station_name":"SEC District","station_name_local":"SEC District","station_name_en":null,"city":"Atlanta","country":"United States","lines":["Blue","Green"],"wikipedia":null,"merged_from":3,"merged_names":null,"is_terminus":false,"routes":[{"ref":"Blue","name":"MARTA Blue Line","route_color":"#0274ba"},{"ref":"Green","name":"MARTA Green Line","route_color":"#009544"}],"pass_count":2,"station_degree":2,"codes":null,"is_interchange":false,"station_role":"normal"},"geometry":{"type":"Point","coordinates":[-84.39759026666665,33.75619269999999]},"__memberLines":{}},{"type":"Feature","properties":{"station_id":"n6594828120","station_name":"Vine City","station_name_local":"Vine City","station_name_en":null,"city":"Atlanta","country":"United States","lines":["Blue","Green"],"wikipedia":null,"merged_from":3,"merged_names":null,"is_terminus":false,"routes":[{"ref":"Blue","name":"MARTA Blue Line","route_color":"#0274ba"},{"ref":"Green","name":"MARTA Green Line","route_color":"#009544"}],"pass_count":2,"station_degree":2,"codes":null,"is_interchange":false,"station_role":"normal"},"geometry":{"type":"Point","coordinates":[-84.40399516666666,33.75655576666666]},"__memberLines":{}}]}