{"type":"FeatureCollection","features":[{"type":"Feature","properties":{"way_id":1229579746,"route_colors":["#00cc00"],"route_refs":["Verde"]},"geometry":{"type":"LineString","coordinates":[[-66.3317622,-17.4729602],[-66.3317892,-17.4729654],[-66.3316935,-17.4734265],[-66.3316905,-17.473441],[-66.3316647,-17.4734361],[-66.3317622,-17.4729602]]}},{"type":"Feature","properties":{"way_id":1229001287,"route_colors":["#00cc00"],"route_refs":["Verde"]},"geometry":{"type":"LineString","coordinates":[[-66.3313595,-17.464245],[-66.331379,-17.4646106],[-66.3313416,-17.4646124],[-66.3313222,-17.4642468],[-66.3313595,-17.464245]]}},{"type":"Feature","properties":{"way_id":1229001279,"route_colors":["#00cc00"],"route_refs":["Verde"]},"geometry":{"type":"LineString","coordinates":[[-66.3299954,-17.4533925],[-66.3301499,-17.453728],[-66.3301123,-17.4537437],[-66.3299577,-17.4534082],[-66.3299954,-17.4533925]]}},{"type":"Feature","properties":{"way_id":1229001250,"route_colors":["#00cc00"],"route_refs":["Verde"]},"geometry":{"type":"LineString","coordinates":[[-66.3283799,-17.4403547],[-66.3283036,-17.4407072],[-66.328258,-17.4406982],[-66.3283343,-17.4403458],[-66.3283799,-17.4403547]]}},{"type":"Feature","properties":{"way_id":849965410,"route_colors":["#00cc00"],"route_refs":["Verde"]},"geometry":{"type":"LineString","coordinates":[[-66.3275574,-17.431098],[-66.3276301,-17.431455],[-66.327587,-17.431463],[-66.3275143,-17.431106],[-66.3275574,-17.431098]]}},{"type":"Feature","properties":{"way_id":1225840164,"route_colors":["#00cc00"],"route_refs":["Verde"]},"geometry":{"type":"LineString","coordinates":[[-66.3261603,-17.4145854],[-66.3261272,-17.4145795],[-66.326057,-17.4149361],[-66.3260901,-17.414942],[-66.3261603,-17.4145854]]}},{"type":"Feature","properties":{"way_id":1138563762,"route_colors":["#00cc00"],"route_refs":["Verde"]},"geometry":{"type":"LineString","coordinates":[[-66.3233338,-17.4031506],[-66.3233033,-17.4031643],[-66.3234649,-17.4034927],[-66.3234953,-17.403479],[-66.3233338,-17.4031506]]}},{"type":"Feature","properties":{"way_id":1126404183,"route_colors":["#00cc00"],"route_refs":["Verde"]},"geometry":{"type":"LineString","coordinates":[[-66.3166347,-17.3990803],[-66.3161758,-17.3991066],[-66.3161776,-17.3991356],[-66.3161783,-17.3991459],[-66.3162126,-17.3991439],[-66.3162259,-17.3991431],[-66.3164593,-17.3991298],[-66.3165344,-17.3991255],[-66.3165588,-17.3991241],[-66.3165832,-17.3991227],[-66.3166139,-17.399121],[-66.3166371,-17.3991196],[-66.3166364,-17.3991078],[-66.3166347,-17.3990803]]}},{"type":"Feature","properties":{"way_id":1125310144,"route_colors":["#00cc00"],"route_refs":["Verde"]},"geometry":{"type":"LineString","coordinates":[[-66.3024488,-17.4016169],[-66.3024498,-17.4016543],[-66.3019717,-17.4016661],[-66.3019707,-17.4016287],[-66.3024488,-17.4016169]]}},{"type":"Feature","properties":{"way_id":1124563939,"route_colors":["#00cc00"],"route_refs":["Verde"]},"geometry":{"type":"LineString","coordinates":[[-66.292851,-17.4018348],[-66.2923726,-17.4018435],[-66.2923735,-17.4018842],[-66.2928518,-17.4018754],[-66.292851,-17.4018348]]}},{"type":"Feature","properties":{"way_id":1010098350,"route_colors":["#00cc00"],"route_refs":["Verde"]},"geometry":{"type":"LineString","coordinates":[[-66.2819648,-17.4021559],[-66.2816355,-17.4021607],[-66.2816357,-17.4021695],[-66.2816358,-17.4021775],[-66.2816359,-17.4021861],[-66.2816361,-17.4021971],[-66.2819654,-17.4021924],[-66.2819648,-17.4021559]]}},{"type":"Feature","properties":{"way_id":1123778017,"route_colors":["#00cc00"],"route_refs":["Verde"]},"geometry":{"type":"LineString","coordinates":[[-66.2744194,-17.4009452],[-66.2739682,-17.4008295],[-66.2739596,-17.40086],[-66.2744108,-17.4009758],[-66.2744194,-17.4009452]]}},{"type":"Feature","properties":{"way_id":1104336143,"route_colors":["#00cc00"],"route_refs":["Verde"]},"geometry":{"type":"LineString","coordinates":[[-66.2657666,-17.3987692],[-66.2653032,-17.3986518],[-66.2652929,-17.3986889],[-66.2657562,-17.3988065],[-66.2657666,-17.3987692]]}},{"type":"Feature","properties":{"way_id":1103032164,"route_colors":["#00cc00"],"route_refs":["Verde"]},"geometry":{"type":"LineString","coordinates":[[-66.2526893,-17.3986247],[-66.2526904,-17.3986587],[-66.2522043,-17.3986726],[-66.2522032,-17.3986387],[-66.2526893,-17.3986247]]}},{"type":"Feature","properties":{"way_id":1102756114,"route_colors":["#00cc00"],"route_refs":["Verde"]},"geometry":{"type":"LineString","coordinates":[[-66.2433861,-17.3988582],[-66.242929,-17.3988686],[-66.2429298,-17.3988998],[-66.2433868,-17.3988893],[-66.2433861,-17.3988582]]}},{"type":"Feature","properties":{"way_id":1101840270,"route_colors":["#00cc00"],"route_refs":["Verde"]},"geometry":{"type":"LineString","coordinates":[[-66.2297259,-17.3992927],[-66.2292392,-17.3992831],[-66.2292384,-17.3993214],[-66.229725,-17.3993309],[-66.2297259,-17.3992927]]}},{"type":"Feature","properties":{"way_id":1099772962,"route_colors":["#00cc00"],"route_refs":["Verde"]},"geometry":{"type":"LineString","coordinates":[[-66.2201587,-17.3995458],[-66.2201598,-17.3995808],[-66.219679,-17.3995942],[-66.219678,-17.3995591],[-66.2201587,-17.3995458]]}},{"type":"Feature","properties":{"way_id":1098753863,"route_colors":["#00cc00"],"route_refs":["Verde"]},"geometry":{"type":"LineString","coordinates":[[-66.208619,-17.3998811],[-66.2086198,-17.3999149],[-66.2081411,-17.3999252],[-66.2081403,-17.3998915],[-66.208619,-17.3998811]]}},{"type":"Feature","properties":{"way_id":1098172816,"route_colors":["#00cc00"],"route_refs":["Verde"]},"geometry":{"type":"LineString","coordinates":[[-66.1959056,-17.4002589],[-66.1959065,-17.4002932],[-66.1954325,-17.4003039],[-66.1954316,-17.4002698],[-66.1959056,-17.4002589]]}},{"type":"Feature","properties":{"way_id":1097857021,"route_colors":["#00cc00"],"route_refs":["Verde"]},"geometry":{"type":"LineString","coordinates":[[-66.1878142,-17.4004798],[-66.1873363,-17.4004909],[-66.1873373,-17.4005273],[-66.1878151,-17.4005161],[-66.1878142,-17.4004798]]}},{"type":"Feature","properties":{"way_id":1097331686,"route_colors":["#00cc00","#ffe119","#ffc300"],"route_refs":["Verde","A","Amarilla"]},"geometry":{"type":"LineString","coordinates":[[-66.1688862,-17.4073765],[-66.1684363,-17.4076062],[-66.1684194,-17.4075761],[-66.1688693,-17.4073463],[-66.1688862,-17.4073765]]}},{"type":"Feature","properties":{"way_id":1097168619,"route_colors":["#00cc00","#ffe119","#ffc300"],"route_refs":["Verde","A","Amarilla"]},"geometry":{"type":"LineString","coordinates":[[-66.1611607,-17.4110771],[-66.1607296,-17.4112749],[-66.1607444,-17.4113042],[-66.1611754,-17.4111063],[-66.1611607,-17.4110771]]}},{"type":"Feature","properties":{"way_id":1100723805,"route_colors":["#00cc00","#ffe119","#ffc300"],"route_refs":["Verde","A","Amarilla"]},"geometry":{"type":"LineString","coordinates":[[-66.1545309,-17.4116143],[-66.1545564,-17.4119647],[-66.1545901,-17.4119625],[-66.1545644,-17.4116117],[-66.1545309,-17.4116143]]}},{"type":"Feature","properties":{"way_id":379285047,"route_colors":["#00cc00"],"route_refs":["Verde"]},"geometry":{"type":"LineString","coordinates":[[-66.3317639,-17.4706553],[-66.3318062,-17.4718643],[-66.3318529,-17.4725166],[-66.3318556,-17.4725662],[-66.3318569,-17.4725881],[-66.3318582,-17.4726331],[-66.3318539,-17.472689],[-66.3318308,-17.4728184],[-66.3317435,-17.4732557]]}},{"type":"Feature","properties":{"way_id":304817400,"route_colors":["#00cc00"],"route_refs":["Verde"]},"geometry":{"type":"LineString","coordinates":[[-66.3317613,-17.4705318],[-66.3317639,-17.4706553]]}},{"type":"Feature","properties":{"way_id":191624954,"route_colors":["#00cc00"],"route_refs":["Verde"]},"geometry":{"type":"LineString","coordinates":[[-66.3275882,-17.4442054],[-66.3273856,-17.4450939],[-66.3272638,-17.4457814],[-66.3272238,-17.4462123],[-66.3272227,-17.4465961],[-66.3272439,-17.4468963],[-66.3273227,-17.4473139],[-66.3274058,-17.4476281],[-66.3275362,-17.4479558],[-66.3277733,-17.4484843],[-66.328323,-17.4496783],[-66.3298425,-17.4529878],[-66.3300823,-17.453562],[-66.3303036,-17.4540541],[-66.3305612,-17.4546471],[-66.3306468,-17.4548762],[-66.3307632,-17.4552627],[-66.3308087,-17.4555005],[-66.3308435,-17.455769],[-66.330864,-17.4560203],[-66.3308627,-17.4565697],[-66.3310276,-17.4585144],[-66.3310747,-17.4594101],[-66.3313575,-17.463974],[-66.3313671,-17.4641294],[-66.3313685,-17.4641533],[-66.3313831,-17.464418],[-66.3313974,-17.4646784],[-66.3314937,-17.4664343],[-66.3316649,-17.4695113],[-66.3317222,-17.4702321],[-66.3317613,-17.4705318]]}},{"type":"Feature","properties":{"way_id":1198057499,"route_colors":["#00cc00"],"route_refs":["Verde"]},"geometry":{"type":"LineString","coordinates":[[-66.3276046,-17.4441359],[-66.3275882,-17.4442054]]}},{"type":"Feature","properties":{"way_id":191624955,"route_colors":["#00cc00"],"route_refs":["Verde"]},"geometry":{"type":"LineString","coordinates":[[-66.3276467,-17.4438799],[-66.3276046,-17.4441359]]}},{"type":"Feature","properties":{"way_id":304817401,"route_colors":["#00cc00"],"route_refs":["Verde"]},"geometry":{"type":"LineString","coordinates":[[-66.3286903,-17.4370802],[-66.3287464,-17.4374338],[-66.3287867,-17.4376513],[-66.328806,-17.4379786],[-66.3287981,-17.438242],[-66.3287389,-17.4386991],[-66.3287216,-17.4388092],[-66.3283607,-17.4405186],[-66.3282694,-17.4409509],[-66.3279443,-17.4424154],[-66.3277955,-17.4430603],[-66.3276467,-17.4438799]]}},{"type":"Feature","properties":{"way_id":1229001198,"route_colors":["#00cc00"],"route_refs":["Verde"]},"geometry":{"type":"LineString","coordinates":[[-66.328566,-17.4364014],[-66.3285761,-17.4364568],[-66.3286903,-17.4370802]]}},{"type":"Feature","properties":{"way_id":304817399,"route_colors":["#00cc00"],"route_refs":["Verde"]},"geometry":{"type":"LineString","coordinates":[[-66.3282808,-17.4350009],[-66.328566,-17.4364014]]}},{"type":"Feature","properties":{"way_id":1225840185,"route_colors":["#00cc00"],"route_refs":["Verde"]},"geometry":{"type":"LineString","coordinates":[[-66.3276797,-17.4319949],[-66.3277959,-17.4325552],[-66.3282808,-17.4350009]]}},{"type":"Feature","properties":{"way_id":973874240,"route_colors":["#00cc00"],"route_refs":["Verde"]},"geometry":{"type":"LineString","coordinates":[[-66.3273999,-17.4305864],[-66.3275224,-17.4308997],[-66.3275526,-17.4309758],[-66.3275777,-17.4311089],[-66.3276071,-17.4312649],[-66.3276398,-17.4314384],[-66.3276691,-17.4315945],[-66.3276797,-17.4319949]]}},{"type":"Feature","properties":{"way_id":701004818,"route_colors":["#00cc00"],"route_refs":["Verde"]},"geometry":{"type":"LineString","coordinates":[[-66.3265466,-17.4106448],[-66.3265697,-17.410768],[-66.3265892,-17.4111676],[-66.3265932,-17.4114596],[-66.3265926,-17.4116711],[-66.3265816,-17.4119518],[-66.3265126,-17.4125],[-66.3264912,-17.4127008],[-66.326417,-17.413065],[-66.3262126,-17.4141007],[-66.3261422,-17.4144408],[-66.3261284,-17.4145073],[-66.326078,-17.4147507],[-66.3260253,-17.4150052],[-66.3259835,-17.415207],[-66.3259684,-17.41528],[-66.3258791,-17.415708],[-66.325702,-17.4165903],[-66.3255057,-17.4174833],[-66.3253677,-17.4182773],[-66.3253222,-17.4185966],[-66.3252957,-17.4192122],[-66.3253149,-17.4197109],[-66.3253414,-17.4200494],[-66.3254164,-17.4204752],[-66.3254925,-17.4208943],[-66.3258728,-17.4228271],[-66.3263089,-17.4249299],[-66.3265288,-17.4261803],[-66.326785,-17.4274748],[-66.3273999,-17.4305864]]}},{"type":"Feature","properties":{"way_id":701004819,"route_colors":["#00cc00"],"route_refs":["Verde"]},"geometry":{"type":"LineString","coordinates":[[-66.3265233,-17.410495],[-66.3265466,-17.4106448]]}},{"type":"Feature","properties":{"way_id":379239924,"route_colors":["#00cc00"],"route_refs":["Verde"]},"geometry":{"type":"LineString","coordinates":[[-66.3237818,-17.4040581],[-66.3240806,-17.4046986],[-66.3242862,-17.4051426],[-66.3249581,-17.4065703],[-66.3250727,-17.406818],[-66.3251555,-17.4069971],[-66.3253701,-17.4074406],[-66.3257576,-17.4082863],[-66.3261901,-17.4091849],[-66.3263058,-17.4095105],[-66.3263895,-17.4098041],[-66.326459,-17.4100991],[-66.3265233,-17.410495]]}},{"type":"Feature","properties":{"way_id":1030827993,"route_colors":["#00cc00"],"route_refs":["Verde"]},"geometry":{"type":"LineString","coordinates":[[-66.3237372,-17.4039622],[-66.3237818,-17.4040581]]}},{"type":"Feature","properties":{"way_id":1225840124,"route_colors":["#00cc00"],"route_refs":["Verde"]},"geometry":{"type":"LineString","coordinates":[[-66.323591,-17.4036588],[-66.3237372,-17.4039622]]}},{"type":"Feature","properties":{"way_id":1030827992,"route_colors":["#00cc00"],"route_refs":["Verde"]},"geometry":{"type":"LineString","coordinates":[[-66.3232357,-17.402919],[-66.3232797,-17.4030107],[-66.3233235,-17.4031019],[-66.3234278,-17.4033189],[-66.323537,-17.4035465],[-66.323591,-17.4036588]]}},{"type":"Feature","properties":{"way_id":379239925,"route_colors":["#00cc00"],"route_refs":["Verde"]},"geometry":{"type":"LineString","coordinates":[[-66.3231092,-17.4026571],[-66.3232357,-17.402919]]}},{"type":"Feature","properties":{"way_id":973874247,"route_colors":["#00cc00"],"route_refs":["Verde"]},"geometry":{"type":"LineString","coordinates":[[-66.3228688,-17.4021619],[-66.3228953,-17.402218],[-66.3231092,-17.4026571]]}},{"type":"Feature","properties":{"way_id":652015400,"route_colors":["#00cc00"],"route_refs":["Verde"]},"geometry":{"type":"LineString","coordinates":[[-66.3171416,-17.399037],[-66.3176933,-17.3990043],[-66.3188608,-17.398946],[-66.3190694,-17.398943],[-66.3193463,-17.3989523],[-66.3195331,-17.3989669],[-66.3197772,-17.3990096],[-66.3199961,-17.3990598],[-66.3202143,-17.3991205],[-66.320566,-17.3992661],[-66.3208044,-17.3993911],[-66.3210081,-17.3995176],[-66.3211721,-17.3996299],[-66.3214552,-17.3998657],[-66.3217665,-17.4001419],[-66.3219154,-17.4003055],[-66.3220243,-17.4004366],[-66.3221046,-17.4005629],[-66.3221978,-17.4007558],[-66.3228688,-17.4021619]]}},{"type":"Feature","properties":{"way_id":1207354679,"route_colors":["#00cc00"],"route_refs":["Verde"]},"geometry":{"type":"LineString","coordinates":[[-66.3164347,-17.3990804],[-66.3166822,-17.3990655],[-66.3171416,-17.399037]]}},{"type":"Feature","properties":{"way_id":1126404218,"route_colors":["#00cc00"],"route_refs":["Verde"]},"geometry":{"type":"LineString","coordinates":[[-66.3156114,-17.399123],[-66.3159715,-17.3991035],[-66.3160522,-17.3991001],[-66.3160698,-17.3990994],[-66.3161753,-17.3990938],[-66.3164347,-17.3990804]]}},{"type":"Feature","properties":{"way_id":1126404203,"route_colors":["#00cc00"],"route_refs":["Verde"]},"geometry":{"type":"LineString","coordinates":[[-66.314796,-17.3991685],[-66.3152089,-17.3991361],[-66.3156114,-17.399123]]}},{"type":"Feature","properties":{"way_id":1126404187,"route_colors":["#00cc00"],"route_refs":["Verde"]},"geometry":{"type":"LineString","coordinates":[[-66.3125394,-17.3993272],[-66.3127374,-17.3993142],[-66.3143517,-17.3992085],[-66.3147254,-17.3991752],[-66.314796,-17.3991685]]}},{"type":"Feature","properties":{"way_id":652015399,"route_colors":["#00cc00"],"route_refs":["Verde"]},"geometry":{"type":"LineString","coordinates":[[-66.312403,-17.3993362],[-66.3125394,-17.3993272]]}},{"type":"Feature","properties":{"way_id":828615288,"route_colors":["#00cc00"],"route_refs":["Verde"]},"geometry":{"type":"LineString","coordinates":[[-66.3043632,-17.4016123],[-66.3049462,-17.4016001],[-66.3061659,-17.401583],[-66.3063876,-17.4015821],[-66.3065358,-17.4015665],[-66.3067047,-17.4015256],[-66.3068581,-17.4014654],[-66.3069693,-17.4014017],[-66.3070854,-17.4013181],[-66.3071982,-17.4012131],[-66.3072883,-17.4010969],[-66.3073743,-17.4009711],[-66.3079924,-17.3999464],[-66.3080942,-17.3997974],[-66.3081774,-17.3997187],[-66.3082648,-17.3996601],[-66.3083699,-17.3996015],[-66.3084589,-17.3995671],[-66.3085754,-17.3995356],[-66.3087187,-17.3995159],[-66.3092468,-17.3995009],[-66.3105224,-17.399428],[-66.3114489,-17.3993813],[-66.3123262,-17.3993337],[-66.312403,-17.3993362]]}},{"type":"Feature","properties":{"way_id":828615287,"route_colors":["#00cc00"],"route_refs":["Verde"]},"geometry":{"type":"LineString","coordinates":[[-66.3042675,-17.4016167],[-66.3043632,-17.4016123]]}},{"type":"Feature","properties":{"way_id":1125310153,"route_colors":["#00cc00"],"route_refs":["Verde"]},"geometry":{"type":"LineString","coordinates":[[-66.3029052,-17.4016614],[-66.3037696,-17.4016353],[-66.3042675,-17.4016167]]}},{"type":"Feature","properties":{"way_id":849965460,"route_colors":["#00cc00"],"route_refs":["Verde"]},"geometry":{"type":"LineString","coordinates":[[-66.3015007,-17.4016922],[-66.3019168,-17.401616],[-66.3022217,-17.4016093],[-66.3024798,-17.4016036],[-66.3025674,-17.4016017],[-66.3029052,-17.4016614]]}},{"type":"Feature","properties":{"way_id":461966446,"route_colors":["#00cc00"],"route_refs":["Verde"]},"geometry":{"type":"LineString","coordinates":[[-66.2955462,-17.4018186],[-66.2972294,-17.4017816],[-66.3014004,-17.4016957],[-66.3015007,-17.4016922]]}},{"type":"Feature","properties":{"way_id":461966445,"route_colors":["#00cc00"],"route_refs":["Verde"]},"geometry":{"type":"LineString","coordinates":[[-66.2954125,-17.4018216],[-66.2955462,-17.4018186]]}},{"type":"Feature","properties":{"way_id":1125310151,"route_colors":["#00cc00"],"route_refs":["Verde"]},"geometry":{"type":"LineString","coordinates":[[-66.2932961,-17.4018696],[-66.2942327,-17.4018459],[-66.2954125,-17.4018216]]}},{"type":"Feature","properties":{"way_id":849965466,"route_colors":["#00cc00"],"route_refs":["Verde"]},"geometry":{"type":"LineString","coordinates":[[-66.2919173,-17.4019085],[-66.2923171,-17.4018333],[-66.2926354,-17.4018238],[-66.292937,-17.4018158],[-66.2932961,-17.4018696]]}},{"type":"Feature","properties":{"way_id":1145560747,"route_colors":["#00cc00"],"route_refs":["Verde"]},"geometry":{"type":"LineString","coordinates":[[-66.2825033,-17.4021312],[-66.2834817,-17.4020887],[-66.2842513,-17.402048],[-66.2862459,-17.4020114],[-66.2863194,-17.4020046],[-66.2899737,-17.4019402],[-66.2916271,-17.4019164],[-66.2917454,-17.4019123],[-66.2919173,-17.4019085]]}},{"type":"Feature","properties":{"way_id":1145560748,"route_colors":["#00cc00"],"route_refs":["Verde"]},"geometry":{"type":"LineString","coordinates":[[-66.2817533,-17.402104],[-66.2822401,-17.4020981],[-66.2825033,-17.4021312]]}},{"type":"Feature","properties":{"way_id":1146414104,"route_colors":["#00cc00"],"route_refs":["Verde"]},"geometry":{"type":"LineString","coordinates":[[-66.2814105,-17.402108],[-66.2817533,-17.402104]]}},{"type":"Feature","properties":{"way_id":1160606285,"route_colors":["#00cc00"],"route_refs":["Verde"]},"geometry":{"type":"LineString","coordinates":[[-66.281225,-17.4021102],[-66.2814105,-17.402108]]}},{"type":"Feature","properties":{"way_id":621390023,"route_colors":["#00cc00"],"route_refs":["Verde"]},"geometry":{"type":"LineString","coordinates":[[-66.2685018,-17.3995192],[-66.2686433,-17.3995661],[-66.273062,-17.40065],[-66.2737635,-17.4008275],[-66.27385,-17.4008498],[-66.2739711,-17.4008797],[-66.2741922,-17.4009344],[-66.2743928,-17.4009856],[-66.2764096,-17.401503],[-66.2764713,-17.4015171],[-66.2781517,-17.401936],[-66.2784097,-17.4020005],[-66.2786056,-17.4020389],[-66.2788802,-17.4020811],[-66.2791354,-17.4021104],[-66.2792923,-17.4021203],[-66.2794159,-17.4021263],[-66.2799979,-17.402129],[-66.2806573,-17.4021183],[-66.281225,-17.4021102]]}},{"type":"Feature","properties":{"way_id":621390022,"route_colors":["#00cc00"],"route_refs":["Verde"]},"geometry":{"type":"LineString","coordinates":[[-66.2683513,-17.399468],[-66.2685018,-17.3995192]]}},{"type":"Feature","properties":{"way_id":1094327584,"route_colors":["#00cc00"],"route_refs":["Verde"]},"geometry":{"type":"LineString","coordinates":[[-66.2662071,-17.3989264],[-66.2665233,-17.3990056],[-66.2667422,-17.3990586],[-66.2671934,-17.3991829],[-66.2678901,-17.3993454],[-66.2683513,-17.399468]]}},{"type":"Feature","properties":{"way_id":849983180,"route_colors":["#00cc00"],"route_refs":["Verde"]},"geometry":{"type":"LineString","coordinates":[[-66.2648197,-17.3985833],[-66.2649256,-17.3985816],[-66.2649676,-17.3985866],[-66.2652104,-17.398615],[-66.2653167,-17.3986414],[-66.2655667,-17.3987036],[-66.2657635,-17.3987532],[-66.2658223,-17.398768],[-66.2662071,-17.3989264]]}},{"type":"Feature","properties":{"way_id":849426769,"route_colors":["#00cc00"],"route_refs":["Verde"]},"geometry":{"type":"LineString","coordinates":[[-66.2531333,-17.3986574],[-66.2553378,-17.3985951],[-66.2571356,-17.3985445],[-66.259708,-17.398462],[-66.2620829,-17.3984018],[-66.2629303,-17.3983691],[-66.2634882,-17.3983818],[-66.2638544,-17.3984119],[-66.2641988,-17.3984597],[-66.2648197,-17.3985833]]}},{"type":"Feature","properties":{"way_id":864931591,"route_colors":["#00cc00"],"route_refs":["Verde"]},"geometry":{"type":"LineString","coordinates":[[-66.2517541,-17.3986997],[-66.2521376,-17.3986248],[-66.2522098,-17.3986224],[-66.2524629,-17.3986139],[-66.2526825,-17.3986069],[-66.2527674,-17.3986043],[-66.2528113,-17.3986107],[-66.2531333,-17.3986574]]}},{"type":"Feature","properties":{"way_id":1094327582,"route_colors":["#00cc00"],"route_refs":["Verde"]},"geometry":{"type":"LineString","coordinates":[[-66.2473818,-17.3988225],[-66.2488283,-17.3987833],[-66.2499602,-17.3987458],[-66.2517541,-17.3986997]]}},{"type":"Feature","properties":{"way_id":849426773,"route_colors":["#00cc00"],"route_refs":["Verde"]},"geometry":{"type":"LineString","coordinates":[[-66.2472544,-17.3988279],[-66.2473818,-17.3988225]]}},{"type":"Feature","properties":{"way_id":1094327580,"route_colors":["#00cc00"],"route_refs":["Verde"]},"geometry":{"type":"LineString","coordinates":[[-66.243781,-17.3989358],[-66.2455405,-17.3988751],[-66.2471959,-17.3988293],[-66.2472544,-17.3988279]]}},{"type":"Feature","properties":{"way_id":1102756104,"route_colors":["#00cc00"],"route_refs":["Verde"]},"geometry":{"type":"LineString","coordinates":[[-66.2436945,-17.398937],[-66.243781,-17.3989358]]}},{"type":"Feature","properties":{"way_id":1102756103,"route_colors":["#00cc00"],"route_refs":["Verde"]},"geometry":{"type":"LineString","coordinates":[[-66.2425607,-17.3989615],[-66.2428084,-17.3989149],[-66.2428697,-17.3989136],[-66.243155,-17.3989075],[-66.2434497,-17.3989011],[-66.2436945,-17.398937]]}},{"type":"Feature","properties":{"way_id":526903523,"route_colors":["#00cc00"],"route_refs":["Verde"]},"geometry":{"type":"LineString","coordinates":[[-66.2367674,-17.3991322],[-66.2381762,-17.3990858],[-66.2396054,-17.399046],[-66.2405235,-17.3990218],[-66.2415009,-17.39899],[-66.2425607,-17.3989615]]}},{"type":"Feature","properties":{"way_id":849983196,"route_colors":["#00cc00"],"route_refs":["Verde"]},"geometry":{"type":"LineString","coordinates":[[-66.2367055,-17.3991322],[-66.2367674,-17.3991322]]}},{"type":"Feature","properties":{"way_id":1178263100,"route_colors":["#00cc00"],"route_refs":["Verde"]},"geometry":{"type":"LineString","coordinates":[[-66.2301386,-17.3993081],[-66.23027,-17.3993054],[-66.2303482,-17.3993039],[-66.2327801,-17.3992313],[-66.2357552,-17.399158],[-66.2367055,-17.3991322]]}},{"type":"Feature","properties":{"way_id":864931605,"route_colors":["#00cc00"],"route_refs":["Verde"]},"geometry":{"type":"LineString","coordinates":[[-66.228726,-17.3993534],[-66.2291213,-17.3992678],[-66.2292911,-17.3992709],[-66.2294844,-17.3992744],[-66.2296662,-17.3992775],[-66.22974,-17.3992788],[-66.2299614,-17.3992951],[-66.2301386,-17.3993081]]}},{"type":"Feature","properties":{"way_id":1178263099,"route_colors":["#00cc00"],"route_refs":["Verde"]},"geometry":{"type":"LineString","coordinates":[[-66.2263621,-17.3994128],[-66.2264061,-17.3994128],[-66.2275589,-17.399378],[-66.228726,-17.3993534]]}},{"type":"Feature","properties":{"way_id":1100970881,"route_colors":["#00cc00"],"route_refs":["Verde"]},"geometry":{"type":"LineString","coordinates":[[-66.2263105,-17.3994141],[-66.2263621,-17.3994128]]}},{"type":"Feature","properties":{"way_id":1100970880,"route_colors":["#00cc00"],"route_refs":["Verde"]},"geometry":{"type":"LineString","coordinates":[[-66.2206527,-17.3995757],[-66.2213383,-17.3995531],[-66.2214431,-17.3995498],[-66.222692,-17.3995113],[-66.2242497,-17.3994647],[-66.2262553,-17.399415],[-66.2263105,-17.3994141]]}},{"type":"Feature","properties":{"way_id":864931609,"route_colors":["#00cc00"],"route_refs":["Verde"]},"geometry":{"type":"LineString","coordinates":[[-66.2192245,-17.3996151],[-66.2196289,-17.3995481],[-66.2196859,-17.3995464],[-66.2199305,-17.3995393],[-66.220152,-17.3995327],[-66.2202371,-17.3995302],[-66.2206527,-17.3995757]]}},{"type":"Feature","properties":{"way_id":1094327578,"route_colors":["#00cc00"],"route_refs":["Verde"]},"geometry":{"type":"LineString","coordinates":[[-66.2144704,-17.3997596],[-66.2154848,-17.3997292],[-66.2163252,-17.3997035],[-66.2173131,-17.399671],[-66.2192245,-17.3996151]]}},{"type":"Feature","properties":{"way_id":1094327576,"route_colors":["#00cc00"],"route_refs":["Verde"]},"geometry":{"type":"LineString","coordinates":[[-66.209085,-17.3999176],[-66.2092029,-17.3999148],[-66.2118142,-17.3998348],[-66.2126083,-17.3998105],[-66.2132212,-17.3997938],[-66.2141533,-17.3997685],[-66.2144704,-17.3997596]]}},{"type":"Feature","properties":{"way_id":849426782,"route_colors":["#00cc00"],"route_refs":["Verde"]},"geometry":{"type":"LineString","coordinates":[[-66.2076634,-17.3999542],[-66.2080569,-17.3998802],[-66.2081912,-17.3998766],[-66.2083835,-17.3998714],[-66.2085654,-17.399868],[-66.2086831,-17.3998658],[-66.209085,-17.3999176]]}},{"type":"Feature","properties":{"way_id":1094327574,"route_colors":["#00cc00"],"route_refs":["Verde"]},"geometry":{"type":"LineString","coordinates":[[-66.1883209,-17.4005131],[-66.189366,-17.4004764],[-66.1920891,-17.4004098],[-66.195072,-17.4003304],[-66.1954829,-17.4003187],[-66.1956948,-17.4003127],[-66.195858,-17.4003079],[-66.1982289,-17.4002375],[-66.1983339,-17.4002314],[-66.2019382,-17.4001119],[-66.205861,-17.4000024],[-66.2076634,-17.3999542]]}},{"type":"Feature","properties":{"way_id":881794187,"route_colors":["#00cc00"],"route_refs":["Verde"]},"geometry":{"type":"LineString","coordinates":[[-66.1868112,-17.4005477],[-66.1872727,-17.4004761],[-66.1875797,-17.4004688],[-66.1877381,-17.4004651],[-66.1878716,-17.4004619],[-66.1883209,-17.4005131]]}},{"type":"Feature","properties":{"way_id":973347395,"route_colors":["#00cc00"],"route_refs":["Verde"]},"geometry":{"type":"LineString","coordinates":[[-66.1793512,-17.4020345],[-66.1794592,-17.4019708],[-66.1795497,-17.4019232],[-66.1798568,-17.4017715],[-66.1801366,-17.4016507],[-66.1803853,-17.4015447],[-66.1805695,-17.4014673],[-66.180909,-17.4013369],[-66.1811703,-17.4012452],[-66.1814601,-17.4011467],[-66.1817719,-17.4010534],[-66.1821519,-17.4009513],[-66.1827563,-17.4008151],[-66.1829054,-17.4007871],[-66.1830619,-17.4007578],[-66.1832455,-17.4007328],[-66.1837561,-17.4006653],[-66.1844024,-17.4006224],[-66.1864572,-17.4005559],[-66.1867426,-17.4005476],[-66.1868112,-17.4005477]]}},{"type":"Feature","properties":{"way_id":1094327571,"route_colors":["#00cc00"],"route_refs":["Verde"]},"geometry":{"type":"LineString","coordinates":[[-66.178082,-17.402692],[-66.1784926,-17.4024803],[-66.1787381,-17.4023494],[-66.1789489,-17.4022371],[-66.1793512,-17.4020345]]}},{"type":"Feature","properties":{"way_id":1094327572,"route_colors":["#00cc00"],"route_refs":["Verde"]},"geometry":{"type":"LineString","coordinates":[[-66.1717451,-17.4059233],[-66.1734535,-17.4050962],[-66.1747871,-17.4043903],[-66.1749343,-17.4043154],[-66.176049,-17.4037453],[-66.1767828,-17.4033557],[-66.1778779,-17.4027963],[-66.1780282,-17.4027172],[-66.178082,-17.402692]]}},{"type":"Feature","properties":{"way_id":1097406808,"route_colors":["#00cc00"],"route_refs":["Verde"]},"geometry":{"type":"LineString","coordinates":[[-66.1715496,-17.4060242],[-66.1716119,-17.4059934],[-66.1717451,-17.4059233]]}},{"type":"Feature","properties":{"way_id":28574614,"route_colors":["#00cc00"],"route_refs":["Verde"]},"geometry":{"type":"LineString","coordinates":[[-66.1711548,-17.4062242],[-66.1715496,-17.4060242]]}},{"type":"Feature","properties":{"way_id":1413583884,"route_colors":["#00cc00"],"route_refs":["Verde"]},"geometry":{"type":"LineString","coordinates":[[-66.1709692,-17.406308],[-66.1710257,-17.406284],[-66.1711073,-17.4062482],[-66.1711464,-17.4062284],[-66.1711548,-17.4062242]]}},{"type":"Feature","properties":{"way_id":271677721,"route_colors":["#00cc00"],"route_refs":["Verde"]},"geometry":{"type":"LineString","coordinates":[[-66.1706617,-17.4064436],[-66.1709692,-17.406308]]}},{"type":"Feature","properties":{"way_id":1010068138,"route_colors":["#00cc00"],"route_refs":["Verde"]},"geometry":{"type":"LineString","coordinates":[[-66.1693426,-17.4070494],[-66.1697183,-17.4068516],[-66.1699571,-17.4067367],[-66.1700879,-17.4066789],[-66.1701786,-17.4066421],[-66.1706617,-17.4064436]]}},{"type":"Feature","properties":{"way_id":1010068139,"route_colors":["#00cc00"],"route_refs":["Verde"]},"geometry":{"type":"LineString","coordinates":[[-66.167936,-17.4077671],[-66.1686467,-17.4074045],[-66.169093,-17.4071768],[-66.1693426,-17.4070494]]}},{"type":"Feature","properties":{"way_id":851986137,"route_colors":["#00cc00"],"route_refs":["Verde"]},"geometry":{"type":"LineString","coordinates":[[-66.1644649,-17.4094745],[-66.1650268,-17.4091969],[-66.1660451,-17.4087145],[-66.1666544,-17.4083992],[-66.1673478,-17.408054],[-66.1677681,-17.407849],[-66.167936,-17.4077671]]}},{"type":"Feature","properties":{"way_id":1068376384,"route_colors":["#00cc00"],"route_refs":["Verde"]},"geometry":{"type":"LineString","coordinates":[[-66.1642698,-17.409566],[-66.1643253,-17.40954],[-66.1644154,-17.4094978],[-66.1644649,-17.4094745]]}},{"type":"Feature","properties":{"way_id":973347398,"route_colors":["#00cc00"],"route_refs":["Verde"]},"geometry":{"type":"LineString","coordinates":[[-66.1570174,-17.4109426],[-66.1570341,-17.4109511],[-66.1571267,-17.411004],[-66.157198,-17.4110552],[-66.1574061,-17.4112404],[-66.1575695,-17.4113697],[-66.1576933,-17.4114644],[-66.1578441,-17.4115585],[-66.1580109,-17.4116383],[-66.1581631,-17.4117011],[-66.1583113,-17.4117433],[-66.158474,-17.4117842],[-66.158623,-17.4118112],[-66.1586481,-17.4118158],[-66.1588284,-17.411829],[-66.1590008,-17.4118285],[-66.1591775,-17.4118146],[-66.1593615,-17.411787],[-66.1594864,-17.4117566],[-66.1595304,-17.4117459],[-66.1596769,-17.4116975],[-66.1597996,-17.4116475],[-66.1603059,-17.4114082],[-66.1609291,-17.4111137],[-66.1611683,-17.4110051],[-66.1617862,-17.4107248],[-66.1623789,-17.4104356],[-66.1625157,-17.4103689],[-66.1628794,-17.4102016],[-66.1635013,-17.4099156],[-66.1638359,-17.4097618],[-66.1642698,-17.409566]]}},{"type":"Feature","properties":{"way_id":1097168615,"route_colors":["#00cc00"],"route_refs":["Verde"]},"geometry":{"type":"LineString","coordinates":[[-66.1569326,-17.41091],[-66.1570174,-17.4109426]]}},{"type":"Feature","properties":{"way_id":990604882,"route_colors":["#00cc00"],"route_refs":["Verde"]},"geometry":{"type":"LineString","coordinates":[[-66.1561941,-17.4107655],[-66.1567278,-17.4108535],[-66.1568217,-17.41087],[-66.1569326,-17.41091]]}},{"type":"Feature","properties":{"way_id":846866927,"route_colors":["#00cc00"],"route_refs":["Verde"]},"geometry":{"type":"LineString","coordinates":[[-66.1558128,-17.4107137],[-66.1561941,-17.4107655]]}},{"type":"Feature","properties":{"way_id":251454435,"route_colors":["#00cc00"],"route_refs":["Verde"]},"geometry":{"type":"LineString","coordinates":[[-66.1544054,-17.411013],[-66.1544252,-17.4108873],[-66.1544546,-17.4108119],[-66.1544835,-17.4107658],[-66.1545251,-17.4107145],[-66.1545718,-17.4106759],[-66.1546473,-17.4106312],[-66.1547242,-17.4105978],[-66.154817,-17.4105828],[-66.154927,-17.4105831],[-66.1551024,-17.4106123],[-66.1551289,-17.4106168],[-66.155239,-17.410634],[-66.1555539,-17.4106768],[-66.1557931,-17.4107109],[-66.1558128,-17.4107137]]}},{"type":"Feature","properties":{"way_id":1207352552,"route_colors":["#00cc00","#ffe119","#ffc300"],"route_refs":["Verde","A","Amarilla"]},"geometry":{"type":"LineString","coordinates":[[-66.1544448,-17.4113365],[-66.1544054,-17.411013]]}},{"type":"Feature","properties":{"way_id":987877383,"route_colors":["#00cc00","#ffe119","#ffc300"],"route_refs":["Verde","A","Amarilla"]},"geometry":{"type":"LineString","coordinates":[[-66.1545147,-17.4116156],[-66.1544448,-17.4113365]]}},{"type":"Feature","properties":{"way_id":1238455177,"route_colors":["#00cc00","#ffe119","#ffc300"],"route_refs":["Verde","A","Amarilla"]},"geometry":{"type":"LineString","coordinates":[[-66.1545296,-17.4117992],[-66.1545147,-17.4116156]]}},{"type":"Feature","properties":{"way_id":1102756115,"route_colors":["#00cc00"],"route_refs":["Verde"]},"geometry":{"type":"LineString","coordinates":[[-66.243384,-17.3989598],[-66.2428812,-17.3989682],[-66.2428815,-17.3989829],[-66.2428819,-17.399007],[-66.2429382,-17.399006],[-66.243365,-17.398999],[-66.2433847,-17.3989986],[-66.2433843,-17.3989754],[-66.243384,-17.3989598]]}},{"type":"Feature","properties":{"way_id":1120036072,"route_colors":["#00cc00"],"route_refs":["Verde"]},"geometry":{"type":"LineString","coordinates":[[-66.2819671,-17.4020622],[-66.2818244,-17.4020637],[-66.2815557,-17.402065],[-66.2815252,-17.4020653],[-66.2815253,-17.4020801],[-66.2815254,-17.4020907],[-66.2819673,-17.4020876],[-66.2819671,-17.4020622]]}},{"type":"Feature","properties":{"way_id":1126404184,"route_colors":["#00cc00"],"route_refs":["Verde"]},"geometry":{"type":"LineString","coordinates":[[-66.3166221,-17.3989784],[-66.3161685,-17.3990065],[-66.3161692,-17.3990157],[-66.3161699,-17.3990247],[-66.3161705,-17.3990326],[-66.3161715,-17.3990453],[-66.3166247,-17.3990171],[-66.3166233,-17.3989958],[-66.3166221,-17.3989784]]}},{"type":"Feature","properties":{"way_id":991385706,"route_colors":["#00cc00"],"route_refs":["Verde"]},"geometry":{"type":"LineString","coordinates":[[-66.167936,-17.4077671],[-66.1682543,-17.4075321],[-66.1686162,-17.4073478],[-66.1689641,-17.4071706],[-66.1690721,-17.407136],[-66.1693426,-17.4070494]]}},{"type":"Feature","properties":{"way_id":970763706,"route_colors":["#00cc00"],"route_refs":["Verde"]},"geometry":{"type":"LineString","coordinates":[[-66.178082,-17.402692],[-66.1784197,-17.4024378],[-66.1784573,-17.4024184],[-66.1787061,-17.4022896],[-66.1789167,-17.4021806],[-66.1789786,-17.4021486],[-66.1793512,-17.4020345]]}},{"type":"Feature","properties":{"way_id":1094327573,"route_colors":["#00cc00"],"route_refs":["Verde"]},"geometry":{"type":"LineString","coordinates":[[-66.1868112,-17.4005477],[-66.187581,-17.4005283],[-66.1877801,-17.4005242],[-66.1883209,-17.4005131]]}},{"type":"Feature","properties":{"way_id":1094327575,"route_colors":["#00cc00"],"route_refs":["Verde"]},"geometry":{"type":"LineString","coordinates":[[-66.2076634,-17.3999542],[-66.2081924,-17.3999406],[-66.208389,-17.3999355],[-66.2085675,-17.3999309],[-66.209085,-17.3999176]]}},{"type":"Feature","properties":{"way_id":1094327577,"route_colors":["#00cc00"],"route_refs":["Verde"]},"geometry":{"type":"LineString","coordinates":[[-66.2192245,-17.3996151],[-66.2196869,-17.3996101],[-66.2199334,-17.3996013],[-66.220154,-17.3995935],[-66.2206527,-17.3995757]]}},{"type":"Feature","properties":{"way_id":454435281,"route_colors":["#00cc00"],"route_refs":["Verde"]},"geometry":{"type":"LineString","coordinates":[[-66.228726,-17.3993534],[-66.2292524,-17.3993378],[-66.2292862,-17.3993383],[-66.2294829,-17.399341],[-66.2296645,-17.399342],[-66.2301386,-17.3993081]]}},{"type":"Feature","properties":{"way_id":1094327579,"route_colors":["#00cc00"],"route_refs":["Verde"]},"geometry":{"type":"LineString","coordinates":[[-66.2425607,-17.3989615],[-66.2428703,-17.3989541],[-66.2431554,-17.3989471],[-66.2434503,-17.3989399],[-66.2436945,-17.398937]]}},{"type":"Feature","properties":{"way_id":1094327581,"route_colors":["#00cc00"],"route_refs":["Verde"]},"geometry":{"type":"LineString","coordinates":[[-66.2517541,-17.3986997],[-66.2522113,-17.3986856],[-66.252464,-17.3986779],[-66.2526847,-17.3986711],[-66.2528373,-17.3986664],[-66.2531333,-17.3986574]]}},{"type":"Feature","properties":{"way_id":1094327583,"route_colors":["#00cc00"],"route_refs":["Verde"]},"geometry":{"type":"LineString","coordinates":[[-66.2648197,-17.3985833],[-66.2649469,-17.3986107],[-66.2649736,-17.3986174],[-66.2652987,-17.3987037],[-66.2655483,-17.3987699],[-66.265746,-17.3988169],[-66.2662071,-17.3989264]]}},{"type":"Feature","properties":{"way_id":1125310152,"route_colors":["#00cc00"],"route_refs":["Verde"]},"geometry":{"type":"LineString","coordinates":[[-66.2919173,-17.4019085],[-66.2923862,-17.4019028],[-66.2926386,-17.4018997],[-66.2928424,-17.4018899],[-66.2932961,-17.4018696]]}},{"type":"Feature","properties":{"way_id":1125310154,"route_colors":["#00cc00"],"route_refs":["Verde"]},"geometry":{"type":"LineString","coordinates":[[-66.3015007,-17.4016922],[-66.3019169,-17.4016813],[-66.3022224,-17.4016751],[-66.3024821,-17.4016699],[-66.3029052,-17.4016614]]}},{"type":"Feature","properties":{"way_id":849965453,"route_colors":["#00cc00"],"route_refs":["Verde"]},"geometry":{"type":"LineString","coordinates":[[-66.3156114,-17.399123],[-66.3158824,-17.3990728],[-66.3159745,-17.3990718],[-66.316055,-17.3990676],[-66.3160728,-17.3990667],[-66.3161727,-17.3990606],[-66.3164316,-17.3990447]]}},{"type":"Feature","properties":{"way_id":1209843340,"route_colors":["#00cc00"],"route_refs":["Verde"]},"geometry":{"type":"LineString","coordinates":[[-66.3164316,-17.3990447],[-66.3166804,-17.3990295],[-66.3168978,-17.3990162],[-66.3171416,-17.399037]]}},{"type":"Feature","properties":{"way_id":1225840186,"route_colors":["#00cc00"],"route_refs":["Verde"]},"geometry":{"type":"LineString","coordinates":[[-66.3273999,-17.4305864],[-66.3274664,-17.4309209],[-66.3275063,-17.431122],[-66.3275382,-17.4312826],[-66.3275717,-17.4314511],[-66.3276797,-17.4319949]]}},{"type":"Feature","properties":{"way_id":1097901816,"route_colors":["#ff0000"],"route_refs":["Roja"]},"geometry":{"type":"LineString","coordinates":[[-66.1544373,-17.4119736],[-66.1544078,-17.4116238],[-66.1543728,-17.4116265],[-66.1542773,-17.4116343],[-66.1542926,-17.4118132],[-66.1543158,-17.4118114],[-66.1543252,-17.4118107],[-66.1543461,-17.411809],[-66.1543608,-17.4119795],[-66.1544373,-17.4119736]]}},{"type":"Feature","properties":{"way_id":1096437688,"route_colors":["#ff0000"],"route_refs":["Roja"]},"geometry":{"type":"LineString","coordinates":[[-66.1542195,-17.4232986],[-66.1541979,-17.42384],[-66.1541569,-17.4238385],[-66.1541786,-17.4232972],[-66.1542195,-17.4232986]]}},{"type":"Feature","properties":{"way_id":1096170062,"route_colors":["#ff0000"],"route_refs":["Roja"]},"geometry":{"type":"LineString","coordinates":[[-66.1523773,-17.4285831],[-66.1519957,-17.4289479],[-66.1520182,-17.4289694],[-66.1523999,-17.4286046],[-66.1523773,-17.4285831]]}},{"type":"Feature","properties":{"way_id":1095787705,"route_colors":["#ff0000"],"route_refs":["Roja"]},"geometry":{"type":"LineString","coordinates":[[-66.1483565,-17.4342821],[-66.148746,-17.4339094],[-66.1487691,-17.4339314],[-66.1483796,-17.4343041],[-66.1483565,-17.4342821]]}},{"type":"Feature","properties":{"way_id":1095302005,"route_colors":["#ff0000"],"route_refs":["Roja"]},"geometry":{"type":"LineString","coordinates":[[-66.1445203,-17.4400066],[-66.1442715,-17.4404316],[-66.1442419,-17.4404158],[-66.1444907,-17.4399909],[-66.1445203,-17.4400066]]}},{"type":"Feature","properties":{"way_id":1095052760,"route_colors":["#ff0000"],"route_refs":["Roja"]},"geometry":{"type":"LineString","coordinates":[[-66.1397319,-17.4445741],[-66.1392613,-17.4448497],[-66.139243,-17.4448212],[-66.1397135,-17.4445456],[-66.1397319,-17.4445741]]}},{"type":"Feature","properties":{"way_id":1095052743,"route_colors":["#ff0000"],"route_refs":["Roja"]},"geometry":{"type":"LineString","coordinates":[[-66.1353805,-17.447091],[-66.134979,-17.4473238],[-66.1349608,-17.4472953],[-66.1353624,-17.4470625],[-66.1353805,-17.447091]]}},{"type":"Feature","properties":{"way_id":1034319570,"route_colors":["#ff0000"],"route_refs":["Roja"]},"geometry":{"type":"LineString","coordinates":[[-66.1300899,-17.4510814],[-66.1297647,-17.4514421],[-66.1297512,-17.4514571],[-66.1297583,-17.4514629],[-66.1297705,-17.451473],[-66.1301092,-17.4510972],[-66.1300899,-17.4510814]]}},{"type":"Feature","properties":{"way_id":1278394490,"route_colors":["#ff0000"],"route_refs":["Roja"]},"geometry":{"type":"LineString","coordinates":[[-66.1239142,-17.4595276],[-66.1238164,-17.4597027],[-66.1236999,-17.4599162]]}},{"type":"Feature","properties":{"way_id":1363390622,"route_colors":["#ff0000"],"route_refs":["Roja"]},"geometry":{"type":"LineString","coordinates":[[-66.118493,-17.4664132],[-66.1182965,-17.4664726],[-66.1181117,-17.4665285]]}},{"type":"Feature","properties":{"way_id":1161249614,"route_colors":["#ff0000"],"route_refs":["Roja"]},"geometry":{"type":"LineString","coordinates":[[-66.1539059,-17.4039404],[-66.1539559,-17.4050429],[-66.1539677,-17.405116],[-66.1541309,-17.4056388]]}},{"type":"Feature","properties":{"way_id":1229203827,"route_colors":["#ff0000","#ffe119","#ffc300"],"route_refs":["Roja","A","Amarilla"]},"geometry":{"type":"LineString","coordinates":[[-66.1541309,-17.4056388],[-66.1543485,-17.4062918],[-66.1543787,-17.4064054],[-66.1543901,-17.4065168],[-66.1543972,-17.4066281],[-66.1544139,-17.4070951],[-66.1544144,-17.4071115]]}},{"type":"Feature","properties":{"way_id":885727349,"route_colors":["#ff0000","#ffe119","#ffc300"],"route_refs":["Roja","A","Amarilla"]},"geometry":{"type":"LineString","coordinates":[[-66.1543541,-17.4091327],[-66.1544431,-17.4089184],[-66.1544621,-17.4088171],[-66.1544144,-17.4071115]]}},{"type":"Feature","properties":{"way_id":1198204296,"route_colors":["#ff0000","#ffe119","#ffc300"],"route_refs":["Roja","A","Amarilla"]},"geometry":{"type":"LineString","coordinates":[[-66.1542773,-17.4093634],[-66.1542944,-17.4092718],[-66.1543157,-17.409214],[-66.1543541,-17.4091327]]}},{"type":"Feature","properties":{"way_id":1207352551,"route_colors":["#ff0000","#ffe119","#ffc300"],"route_refs":["Roja","A","Amarilla"]},"geometry":{"type":"LineString","coordinates":[[-66.1542763,-17.4094193],[-66.1542773,-17.4093634]]}},{"type":"Feature","properties":{"way_id":915865998,"route_colors":["#ff0000"],"route_refs":["Roja"]},"geometry":{"type":"LineString","coordinates":[[-66.1542763,-17.4094193],[-66.1542703,-17.4095265],[-66.1542608,-17.4096435]]}},{"type":"Feature","properties":{"way_id":885727346,"route_colors":["#ff0000"],"route_refs":["Roja"]},"geometry":{"type":"LineString","coordinates":[[-66.1542608,-17.4096435],[-66.1542922,-17.4100228],[-66.1542959,-17.4100765],[-66.1543025,-17.4101708]]}},{"type":"Feature","properties":{"way_id":987877330,"route_colors":["#ff0000"],"route_refs":["Roja"]},"geometry":{"type":"LineString","coordinates":[[-66.1543025,-17.4101708],[-66.1544276,-17.4116223]]}},{"type":"Feature","properties":{"way_id":1096459868,"route_colors":["#ff0000"],"route_refs":["Roja"]},"geometry":{"type":"LineString","coordinates":[[-66.1544276,-17.4116223],[-66.1544443,-17.4118046]]}},{"type":"Feature","properties":{"way_id":1222767959,"route_colors":["#ff0000"],"route_refs":["Roja"]},"geometry":{"type":"LineString","coordinates":[[-66.1544443,-17.4118046],[-66.1544955,-17.4123655]]}},{"type":"Feature","properties":{"way_id":1096866062,"route_colors":["#ff0000"],"route_refs":["Roja"]},"geometry":{"type":"LineString","coordinates":[[-66.1544955,-17.4123655],[-66.1545502,-17.4128746]]}},{"type":"Feature","properties":{"way_id":690330242,"route_colors":["#ff0000"],"route_refs":["Roja"]},"geometry":{"type":"LineString","coordinates":[[-66.1545502,-17.4128746],[-66.1545599,-17.4130929],[-66.1545669,-17.4133634],[-66.154566,-17.4136002],[-66.154566,-17.4137943],[-66.1545366,-17.4144747]]}},{"type":"Feature","properties":{"way_id":1094327588,"route_colors":["#ff0000"],"route_refs":["Roja"]},"geometry":{"type":"LineString","coordinates":[[-66.1545366,-17.4144747],[-66.1545211,-17.4148376],[-66.1545169,-17.4154283],[-66.1545326,-17.4156913],[-66.1544678,-17.4173887],[-66.1544118,-17.4185804],[-66.1542912,-17.4216363],[-66.1542025,-17.4224745],[-66.1541877,-17.4228684],[-66.1541859,-17.422917]]}},{"type":"Feature","properties":{"way_id":1094327587,"route_colors":["#ff0000"],"route_refs":["Roja"]},"geometry":{"type":"LineString","coordinates":[[-66.1541859,-17.422917],[-66.1541688,-17.4233065],[-66.154158,-17.4235534],[-66.1541459,-17.4238276],[-66.1541281,-17.4242332]]}},{"type":"Feature","properties":{"way_id":1094327593,"route_colors":["#ff0000"],"route_refs":["Roja"]},"geometry":{"type":"LineString","coordinates":[[-66.1541281,-17.4242332],[-66.1541134,-17.424567],[-66.1541113,-17.4246142],[-66.1541083,-17.4246553],[-66.1541026,-17.4247596],[-66.1540836,-17.4250258],[-66.1540363,-17.4253129],[-66.1540153,-17.4254281],[-66.153996,-17.4255342],[-66.1539182,-17.4258186],[-66.1538246,-17.4261238],[-66.1536709,-17.4265346],[-66.1535238,-17.4269583],[-66.1534183,-17.4272072],[-66.1532873,-17.4274772],[-66.1531061,-17.4277874],[-66.1530111,-17.4279233],[-66.1528534,-17.4280971],[-66.1526255,-17.4283245]]}},{"type":"Feature","properties":{"way_id":1094327589,"route_colors":["#ff0000"],"route_refs":["Roja"]},"geometry":{"type":"LineString","coordinates":[[-66.1526255,-17.4283245],[-66.1521995,-17.4287307],[-66.1517086,-17.4291989]]}},{"type":"Feature","properties":{"way_id":1094327590,"route_colors":["#ff0000"],"route_refs":["Roja"]},"geometry":{"type":"LineString","coordinates":[[-66.1517086,-17.4291989],[-66.1516269,-17.4292884],[-66.1515162,-17.4294191],[-66.1514478,-17.4295244],[-66.1513841,-17.4296623],[-66.1513093,-17.4298443],[-66.1512978,-17.4298834],[-66.1512355,-17.4300356],[-66.1511628,-17.4301965],[-66.151031,-17.4304645],[-66.1508618,-17.430759],[-66.1507989,-17.4308624],[-66.1504411,-17.4314315],[-66.1502342,-17.4317789],[-66.1501275,-17.4319675],[-66.1499941,-17.4322163],[-66.1497272,-17.4327765],[-66.1496593,-17.4329171],[-66.1495977,-17.4330172],[-66.1495228,-17.433112],[-66.1494374,-17.4332179],[-66.1491196,-17.4335386],[-66.1489638,-17.4336785]]}},{"type":"Feature","properties":{"way_id":1094327591,"route_colors":["#ff0000"],"route_refs":["Roja"]},"geometry":{"type":"LineString","coordinates":[[-66.1489638,-17.4336785],[-66.1487282,-17.4339048],[-66.1485658,-17.4340579],[-66.1483466,-17.4342709],[-66.1482931,-17.4343265],[-66.1481107,-17.4346056]]}},{"type":"Feature","properties":{"way_id":1094327592,"route_colors":["#ff0000"],"route_refs":["Roja"]},"geometry":{"type":"LineString","coordinates":[[-66.1481107,-17.4346056],[-66.1479625,-17.4348077],[-66.1467167,-17.4365955],[-66.1462994,-17.4371992],[-66.1458471,-17.437847],[-66.1458044,-17.4379085],[-66.1457472,-17.437988],[-66.145696,-17.4380649],[-66.1452709,-17.4386973],[-66.1450117,-17.4390648],[-66.1448383,-17.4393681],[-66.1446361,-17.4397033]]}},{"type":"Feature","properties":{"way_id":272984693,"route_colors":["#ff0000"],"route_refs":["Roja"]},"geometry":{"type":"LineString","coordinates":[[-66.1446361,-17.4397033],[-66.1445908,-17.4397803],[-66.1445193,-17.4399017],[-66.1444701,-17.4399874],[-66.1443655,-17.4401694],[-66.1441944,-17.4404569],[-66.1440647,-17.4406676]]}},{"type":"Feature","properties":{"way_id":1094327594,"route_colors":["#ff0000"],"route_refs":["Roja"]},"geometry":{"type":"LineString","coordinates":[[-66.1440647,-17.4406676],[-66.1438103,-17.4410309],[-66.1436527,-17.4412331],[-66.1435152,-17.4413897],[-66.1433913,-17.4415128],[-66.1430182,-17.4418421],[-66.1424465,-17.4423702],[-66.1419845,-17.4427708],[-66.1415545,-17.4431673],[-66.1409582,-17.4436987],[-66.140904,-17.4437507],[-66.1407596,-17.4438762],[-66.1406506,-17.4439629],[-66.1405074,-17.4440641],[-66.1403471,-17.4441609],[-66.1400296,-17.4443456]]}},{"type":"Feature","properties":{"way_id":1094327595,"route_colors":["#ff0000"],"route_refs":["Roja"]},"geometry":{"type":"LineString","coordinates":[[-66.1400296,-17.4443456],[-66.1396856,-17.4445471],[-66.1394847,-17.4446653],[-66.1392538,-17.4448009],[-66.1389166,-17.4449998]]}},{"type":"Feature","properties":{"way_id":1094327596,"route_colors":["#ff0000"],"route_refs":["Roja"]},"geometry":{"type":"LineString","coordinates":[[-66.1389166,-17.4449998],[-66.1381021,-17.4454642],[-66.1363136,-17.4464907],[-66.1358603,-17.446764],[-66.1353685,-17.44704],[-66.1351444,-17.4471657],[-66.1349388,-17.447291],[-66.1347245,-17.4474216],[-66.1344778,-17.4475686],[-66.134409,-17.4476066],[-66.133976,-17.4478469],[-66.1331072,-17.4483545],[-66.1327806,-17.448576],[-66.132491,-17.4487894],[-66.1322863,-17.4489582],[-66.1320862,-17.4491488],[-66.1314543,-17.4497368],[-66.1311017,-17.4500404],[-66.1305546,-17.4504969],[-66.1302749,-17.4507822],[-66.1301873,-17.4508845]]}},{"type":"Feature","properties":{"way_id":1217190418,"route_colors":["#ff0000"],"route_refs":["Roja"]},"geometry":{"type":"LineString","coordinates":[[-66.1301873,-17.4508845],[-66.1300964,-17.4510406],[-66.1299806,-17.4511739],[-66.1298995,-17.4512671]]}},{"type":"Feature","properties":{"way_id":1237186576,"route_colors":["#ff0000"],"route_refs":["Roja"]},"geometry":{"type":"LineString","coordinates":[[-66.1298995,-17.4512671],[-66.1297626,-17.4514246],[-66.1296508,-17.4515442]]}},{"type":"Feature","properties":{"way_id":1278394489,"route_colors":["#ff0000"],"route_refs":["Roja"]},"geometry":{"type":"LineString","coordinates":[[-66.1296508,-17.4515442],[-66.1295501,-17.451637]]}},{"type":"Feature","properties":{"way_id":1274365696,"route_colors":["#ff0000"],"route_refs":["Roja"]},"geometry":{"type":"LineString","coordinates":[[-66.1295501,-17.451637],[-66.1292446,-17.45196]]}},{"type":"Feature","properties":{"way_id":1274365697,"route_colors":["#ff0000"],"route_refs":["Roja"]},"geometry":{"type":"LineString","coordinates":[[-66.1292446,-17.45196],[-66.1290727,-17.4521514]]}},{"type":"Feature","properties":{"way_id":550315608,"route_colors":["#ff0000"],"route_refs":["Roja"]},"geometry":{"type":"LineString","coordinates":[[-66.1290727,-17.4521514],[-66.1286616,-17.4526166]]}},{"type":"Feature","properties":{"way_id":1278394491,"route_colors":["#ff0000"],"route_refs":["Roja"]},"geometry":{"type":"LineString","coordinates":[[-66.1286616,-17.4526166],[-66.1282598,-17.4530618],[-66.1269244,-17.4545599],[-66.1265081,-17.4550686],[-66.1263296,-17.45533],[-66.1259574,-17.4558958],[-66.1258088,-17.4561232],[-66.1256629,-17.4563686],[-66.1245317,-17.4584527],[-66.1241677,-17.4591353]]}},{"type":"Feature","properties":{"way_id":1387751276,"route_colors":["#ff0000"],"route_refs":["Roja"]},"geometry":{"type":"LineString","coordinates":[[-66.1241677,-17.4591353],[-66.1239742,-17.4594979],[-66.1237682,-17.459874]]}},{"type":"Feature","properties":{"way_id":1387751277,"route_colors":["#ff0000"],"route_refs":["Roja"]},"geometry":{"type":"LineString","coordinates":[[-66.1237682,-17.459874],[-66.1236769,-17.4600372],[-66.1235218,-17.4603142]]}},{"type":"Feature","properties":{"way_id":653184898,"route_colors":["#ff0000"],"route_refs":["Roja"]},"geometry":{"type":"LineString","coordinates":[[-66.1235218,-17.4603142],[-66.1231663,-17.4609534],[-66.1230341,-17.4611879],[-66.1226993,-17.4616801],[-66.1222831,-17.4622791],[-66.1221908,-17.4624249],[-66.1215322,-17.4633923],[-66.1214413,-17.4635032],[-66.1210614,-17.4639943],[-66.1206655,-17.4645369],[-66.1202611,-17.465058],[-66.1198882,-17.4654883],[-66.1196539,-17.4656901],[-66.1193858,-17.4658919],[-66.1191465,-17.4660437],[-66.1189266,-17.4661722],[-66.118704,-17.4662917],[-66.118613,-17.4663415],[-66.1185014,-17.4663876],[-66.1182778,-17.4664549]]}},{"type":"Feature","properties":{"way_id":1387751275,"route_colors":["#ff0000"],"route_refs":["Roja"]},"geometry":{"type":"LineString","coordinates":[[-66.1235218,-17.4603142],[-66.1235577,-17.4602179],[-66.1235854,-17.4601146],[-66.1236135,-17.4600148],[-66.1236598,-17.4599144],[-66.1236684,-17.4598993],[-66.1238542,-17.4595695],[-66.1239134,-17.4594645],[-66.123924,-17.4594462],[-66.1241677,-17.4591353]]}},{"type":"Feature","properties":{"way_id":847045375,"route_colors":["#ff0000"],"route_refs":["Roja"]},"geometry":{"type":"LineString","coordinates":[[-66.1400296,-17.4443456],[-66.1397284,-17.4445869],[-66.1395141,-17.4447103],[-66.1393296,-17.4448204],[-66.1392675,-17.4448574],[-66.1389166,-17.4449998]]}},{"type":"Feature","properties":{"way_id":847045377,"route_colors":["#ff0000"],"route_refs":["Roja"]},"geometry":{"type":"LineString","coordinates":[[-66.1446361,-17.4397033],[-66.1446088,-17.4397896],[-66.1445434,-17.4399958],[-66.1445307,-17.4400183],[-66.1444271,-17.440201],[-66.1443015,-17.4404138],[-66.1440647,-17.4406676]]}},{"type":"Feature","properties":{"way_id":914897183,"route_colors":["#ff0000"],"route_refs":["Roja"]},"geometry":{"type":"LineString","coordinates":[[-66.1489638,-17.4336785],[-66.1487703,-17.433944],[-66.1486122,-17.4340962],[-66.148432,-17.4342695],[-66.1483749,-17.4343245],[-66.1482632,-17.4344322],[-66.1481107,-17.4346056]]}},{"type":"Feature","properties":{"way_id":914514184,"route_colors":["#ff0000"],"route_refs":["Roja"]},"geometry":{"type":"LineString","coordinates":[[-66.1526255,-17.4283245],[-66.1524025,-17.4286176],[-66.1522416,-17.428772],[-66.1520469,-17.4289646],[-66.1517086,-17.4291989]]}},{"type":"Feature","properties":{"way_id":914514182,"route_colors":["#ff0000"],"route_refs":["Roja"]},"geometry":{"type":"LineString","coordinates":[[-66.1541859,-17.422917],[-66.1542332,-17.4232634],[-66.1542235,-17.4235534],[-66.1542113,-17.4238609],[-66.1541281,-17.4242332]]}},{"type":"Feature","properties":{"way_id":1362651131,"route_colors":["#ffe119","#ffc300"],"route_refs":["A","Amarilla"]},"geometry":{"type":"LineString","coordinates":[[-66.1801901,-17.4123134],[-66.1801787,-17.4123454],[-66.1801442,-17.4123335],[-66.1801098,-17.4123216],[-66.1800854,-17.4123132],[-66.1800021,-17.412286],[-66.1799186,-17.4122584],[-66.1799004,-17.4122532],[-66.17987,-17.4122444],[-66.1798254,-17.4122315],[-66.1798368,-17.4121995],[-66.1799259,-17.4122252],[-66.180015,-17.412253],[-66.180103,-17.4122832],[-66.1801901,-17.4123134]]}},{"type":"Feature","properties":{"way_id":1238455176,"route_colors":["#ffe119","#ffc300"],"route_refs":["A","Amarilla"]},"geometry":{"type":"LineString","coordinates":[[-66.1540586,-17.4039412],[-66.1540972,-17.4053322],[-66.1541052,-17.4054508],[-66.1541309,-17.4056388]]}},{"type":"Feature","properties":{"way_id":885727343,"route_colors":["#ffe119","#ffc300"],"route_refs":["A","Amarilla"]},"geometry":{"type":"LineString","coordinates":[[-66.1544054,-17.411013],[-66.1543423,-17.4101581],[-66.1543341,-17.4100743],[-66.1543307,-17.4100395],[-66.1543289,-17.4100211],[-66.1542993,-17.4096422],[-66.1542763,-17.4094193]]}},{"type":"Feature","properties":{"way_id":1127658593,"route_colors":["#ffe119","#ffc300"],"route_refs":["A","Amarilla"]},"geometry":{"type":"LineString","coordinates":[[-66.1545147,-17.4116156],[-66.1544687,-17.4111753]]}},{"type":"Feature","properties":{"way_id":885727342,"route_colors":["#ffe119","#ffc300"],"route_refs":["A","Amarilla"]},"geometry":{"type":"LineString","coordinates":[[-66.1544687,-17.4111753],[-66.1544627,-17.4111216],[-66.154459,-17.4110313],[-66.1544624,-17.4109654],[-66.1544773,-17.4108998],[-66.1545084,-17.4108348],[-66.1545412,-17.4107802],[-66.1545851,-17.4107297],[-66.1546552,-17.4106786],[-66.154741,-17.4106451],[-66.1548417,-17.410627],[-66.1549313,-17.4106266],[-66.1550292,-17.4106327],[-66.1550968,-17.4106431],[-66.1552337,-17.4106653],[-66.15568,-17.4107288],[-66.155788,-17.410745],[-66.1558075,-17.4107479]]}},{"type":"Feature","properties":{"way_id":28574602,"route_colors":["#ffe119","#ffc300"],"route_refs":["A","Amarilla"]},"geometry":{"type":"LineString","coordinates":[[-66.1558075,-17.4107479],[-66.1561889,-17.4107993]]}},{"type":"Feature","properties":{"way_id":990604881,"route_colors":["#ffe119","#ffc300"],"route_refs":["A","Amarilla"]},"geometry":{"type":"LineString","coordinates":[[-66.1561889,-17.4107993],[-66.1567342,-17.4108899],[-66.1568014,-17.4109055],[-66.1569386,-17.4109476]]}},{"type":"Feature","properties":{"way_id":1097168614,"route_colors":["#ffe119","#ffc300"],"route_refs":["A","Amarilla"]},"geometry":{"type":"LineString","coordinates":[[-66.1569386,-17.4109476],[-66.1570176,-17.4109873]]}},{"type":"Feature","properties":{"way_id":150877246,"route_colors":["#ffe119","#ffc300"],"route_refs":["A","Amarilla"]},"geometry":{"type":"LineString","coordinates":[[-66.1570176,-17.4109873],[-66.1570438,-17.4110005],[-66.15711,-17.4110455],[-66.1572083,-17.4111276],[-66.157528,-17.4113984],[-66.1576639,-17.4115],[-66.1577924,-17.4115793],[-66.1579875,-17.4116779],[-66.1581616,-17.4117493],[-66.1583256,-17.4117949],[-66.1585157,-17.4118412],[-66.1586162,-17.4118552],[-66.1587203,-17.4118697],[-66.1589268,-17.4118772],[-66.1591433,-17.4118645],[-66.1593692,-17.4118301],[-66.1594988,-17.4118025],[-66.1595265,-17.4117966],[-66.1596953,-17.4117429],[-66.1598588,-17.4116688],[-66.1603272,-17.4114497],[-66.1609465,-17.4111601],[-66.1611884,-17.4110456],[-66.1619293,-17.4106948],[-66.1623997,-17.4104745],[-66.1627175,-17.4103257],[-66.1628993,-17.4102423],[-66.1635207,-17.4099571],[-66.1642775,-17.4096098]]}},{"type":"Feature","properties":{"way_id":1068376385,"route_colors":["#ffe119","#ffc300"],"route_refs":["A","Amarilla"]},"geometry":{"type":"LineString","coordinates":[[-66.1642775,-17.4096098],[-66.1643338,-17.4095825],[-66.1644232,-17.4095392],[-66.1644747,-17.4095143]]}},{"type":"Feature","properties":{"way_id":990604873,"route_colors":["#ffe119","#ffc300"],"route_refs":["A","Amarilla"]},"geometry":{"type":"LineString","coordinates":[[-66.1644747,-17.4095143],[-66.1651298,-17.4091933],[-66.1660365,-17.4087705],[-66.1666516,-17.4084454],[-66.167382,-17.4080849],[-66.1677856,-17.4078833],[-66.1679539,-17.4078005]]}},{"type":"Feature","properties":{"way_id":1094327569,"route_colors":["#ffe119","#ffc300"],"route_refs":["A","Amarilla"]},"geometry":{"type":"LineString","coordinates":[[-66.1679539,-17.4078005],[-66.1686642,-17.4074371],[-66.1691096,-17.4072092],[-66.1693607,-17.4070807]]}},{"type":"Feature","properties":{"way_id":1429660480,"route_colors":["#ffe119","#ffc300"],"route_refs":["A","Amarilla"]},"geometry":{"type":"LineString","coordinates":[[-66.1693607,-17.4070807],[-66.1697253,-17.4068944],[-66.1700131,-17.4067527],[-66.170106,-17.4067108]]}},{"type":"Feature","properties":{"way_id":1094327570,"route_colors":["#ffe119","#ffc300"],"route_refs":["A","Amarilla"]},"geometry":{"type":"LineString","coordinates":[[-66.170106,-17.4067108],[-66.1701901,-17.4066752],[-66.170676,-17.406475],[-66.1709903,-17.4063347],[-66.1710469,-17.4063095],[-66.1711286,-17.406275],[-66.1711789,-17.4062598]]}},{"type":"Feature","properties":{"way_id":1335866495,"route_colors":["#ffe119","#ffc300"],"route_refs":["A","Amarilla"]},"geometry":{"type":"LineString","coordinates":[[-66.1711789,-17.4062598],[-66.1712623,-17.4062383],[-66.171351,-17.4062284],[-66.1714458,-17.4062286],[-66.1715434,-17.4062374],[-66.1716276,-17.4062549],[-66.1717124,-17.4062852],[-66.1717874,-17.4063271]]}},{"type":"Feature","properties":{"way_id":1341114707,"route_colors":["#ffe119","#ffc300"],"route_refs":["A","Amarilla"]},"geometry":{"type":"LineString","coordinates":[[-66.1717874,-17.4063271],[-66.171847,-17.406374],[-66.1722554,-17.4068418]]}},{"type":"Feature","properties":{"way_id":1341114710,"route_colors":["#ffe119","#ffc300"],"route_refs":["A","Amarilla"]},"geometry":{"type":"LineString","coordinates":[[-66.1722554,-17.4068418],[-66.172278,-17.4068683],[-66.1723031,-17.4068966],[-66.1724001,-17.4070053],[-66.1724227,-17.4070308],[-66.1724401,-17.4070505]]}},{"type":"Feature","properties":{"way_id":1329667787,"route_colors":["#ffe119","#ffc300"],"route_refs":["A","Amarilla"]},"geometry":{"type":"LineString","coordinates":[[-66.1724401,-17.4070505],[-66.1730061,-17.4076722],[-66.173358,-17.4080577],[-66.1735994,-17.4083288],[-66.1739538,-17.4086258],[-66.1744286,-17.409034]]}},{"type":"Feature","properties":{"way_id":1354878190,"route_colors":["#ffe119","#ffc300"],"route_refs":["A","Amarilla"]},"geometry":{"type":"LineString","coordinates":[[-66.1744286,-17.409034],[-66.1744436,-17.4090461],[-66.1744685,-17.4090662],[-66.1745276,-17.4091138],[-66.1745538,-17.4091349],[-66.1745812,-17.409157]]}},{"type":"Feature","properties":{"way_id":1354878191,"route_colors":["#ffe119","#ffc300"],"route_refs":["A","Amarilla"]},"geometry":{"type":"LineString","coordinates":[[-66.1745812,-17.409157],[-66.174675,-17.4092326],[-66.1747009,-17.409295]]}},{"type":"Feature","properties":{"way_id":1335866497,"route_colors":["#ffe119","#ffc300"],"route_refs":["A","Amarilla"]},"geometry":{"type":"LineString","coordinates":[[-66.1747009,-17.409295],[-66.1747098,-17.4093492],[-66.1747129,-17.4094091],[-66.1747132,-17.4094444],[-66.1747147,-17.409604],[-66.1747161,-17.4097505],[-66.174717,-17.4098463],[-66.1747313,-17.4099206],[-66.1747473,-17.4099662]]}},{"type":"Feature","properties":{"way_id":1272999317,"route_colors":["#ffe119","#ffc300"],"route_refs":["A","Amarilla"]},"geometry":{"type":"LineString","coordinates":[[-66.1747473,-17.4099662],[-66.1747591,-17.4099964],[-66.1747897,-17.4100554],[-66.1748297,-17.4101054],[-66.1748839,-17.4101583],[-66.1752945,-17.4104641],[-66.1753446,-17.4105133],[-66.1754042,-17.4105796],[-66.1754499,-17.4106419],[-66.1755055,-17.4107321],[-66.1756703,-17.4110396],[-66.1757581,-17.4111778],[-66.1758371,-17.4112643],[-66.1759221,-17.4113282],[-66.1760077,-17.4113859],[-66.1761347,-17.4114406],[-66.1765052,-17.411596],[-66.1767147,-17.4116682],[-66.1769525,-17.411737],[-66.1772403,-17.4117942],[-66.1777914,-17.4118687],[-66.1785585,-17.4119751],[-66.179276,-17.4120745],[-66.1794696,-17.4121071],[-66.1796587,-17.412143],[-66.1798426,-17.4121941],[-66.1800434,-17.4122548]]}}]}