{"type":"FeatureCollection","features":[{"type":"Feature","properties":{"route_ref":"102","route_color":"#64748b"},"geometry":{"type":"LineString","coordinates":[[6.906821320987629,51.461542338972784],[6.9065297761977344,51.461872649757645],[6.906097336191426,51.46194400809133],[6.905574927389401,51.46173145687965],[6.903891033333333,51.4606152],[6.903424054402665,51.46043384092715],[6.901330193057723,51.460194047008095],[6.899217174705003,51.45979146065582],[6.896275710217054,51.4594802070486],[6.8931998120759825,51.45902252590214],[6.8918757562282575,51.45915297146548],[6.891052450000006,51.45940245],[6.890048460524128,51.45990536408695],[6.8895908746933765,51.45998592849126],[6.889287100055134,51.459930054378454],[6.888959944824506,51.45967729695267],[6.8885660488806,51.45870108941652],[6.884516081345353,51.45349063519417],[6.883299183313785,51.449294075396864],[6.88383461991372,51.44658797976319],[6.884248534941828,51.44538974889719],[6.884701168229841,51.44458423273553],[6.88597320389451,51.44283141153009],[6.8870406999999965,51.44161495555556],[6.887763920311737,51.440466543343994],[6.887988278932294,51.43978757002288],[6.888033352621312,51.437964239942616],[6.888856149999998,51.43533395],[6.88877130262781,51.435227467393005],[6.889428563838563,51.434048373611404],[6.890549695201557,51.432895069823545],[6.890818834415483,51.43239983357879],[6.890776257689395,51.43158376772778],[6.890287944115938,51.43097098869363],[6.889553164458187,51.43058398662014],[6.888381755705973,51.43034962117222],[6.8848889736431325,51.430485689525746],[6.883323949999998,51.4302786],[6.882510900000004,51.43003765],[6.881786550000003,51.429655375],[6.8813147,51.429255833333336],[6.880639782004619,51.428363507102276],[6.880040399999998,51.42717523333333],[6.8795809664101135,51.42664991325055],[6.87862396666666,51.42604480000001],[6.877513199999999,51.42572750000001],[6.876859819999999,51.425666220000004],[6.87581576923063,51.425715374825835],[6.873255316241717,51.426366552133956],[6.8694269371809105,51.42704160028685],[6.868405303232677,51.426946949005256],[6.866382065286425,51.426436252285384],[6.865367041365069,51.42641909776291],[6.863863562899366,51.42660643116089],[6.8633734885606295,51.42654229561314],[6.862478912771166,51.424855808757094],[6.861716923484179,51.42395573473307],[6.861312238917324,51.42319043893323],[6.860438507443891,51.422293297569716],[6.859624555789715,51.4209045512359],[6.859421141462341,51.42004238823174],[6.859278456557178,51.4179985379113],[6.858664182438985,51.41680161610532],[6.858575506864469,51.41394020094482],[6.858106452605092,51.41300682368382],[6.85709167121986,51.412118143976556],[6.856605926027077,51.41180883544117],[6.855543331194087,51.41141838951541],[6.85352962337539,51.409673110691564],[6.852716523955476,51.409370538350856],[6.848929270844867,51.40934593186647],[6.8466644682743985,51.40960244159162],[6.840982935886223,51.40954120708039]]}},{"type":"Feature","properties":{"route_ref":"104","route_color":"#64748b"},"geometry":{"type":"LineString","coordinates":[[6.93367460888712,51.462538219392144],[6.9321751827031255,51.46283969109131],[6.931508052425131,51.46256173247213],[6.928499796193764,51.460271006311395],[6.92602042879416,51.458148221341226],[6.920865584333778,51.45420845064913],[6.916570725564572,51.45034846551236],[6.91541946325472,51.44963434085991],[6.909552189816375,51.44695990784955],[6.908165650085619,51.44604613096657],[6.904037013312534,51.44385515029839],[6.897151236490278,51.44174920089462],[6.896424570153491,51.4414335349931],[6.8903374232311485,51.438110994039896],[6.887723491053552,51.43728590262612],[6.885454499999996,51.43640140000001],[6.879420159864519,51.43428838237607],[6.8773593,51.4332267],[6.877161095200364,51.432919805775306],[6.877219865754974,51.43232776064954],[6.877544668998299,51.43147027654003],[6.879352919027238,51.428228403373716],[6.880085293848783,51.427260947973934],[6.88058708487617,51.426989377744924],[6.880892876092952,51.42697546607013],[6.88405023211627,51.427915207445906]]}},{"type":"Feature","properties":{"route_ref":"112","route_color":"#64748b"},"geometry":{"type":"LineString","coordinates":[[6.843265949104809,51.51640951856695],[6.842754186744166,51.516325914528046],[6.842493730530286,51.516160548870566],[6.842531876120555,51.51565345257088],[6.843610873152191,51.51292765796784],[6.84418645278023,51.512006880121405],[6.845222524023225,51.50853519093024],[6.845797372324718,51.50800732379062],[6.8462403106079135,51.507844656327535],[6.8470656,51.5077269],[6.851167565489229,51.50794646718196],[6.852777718098163,51.507787146392275],[6.861388957279534,51.505837491527906],[6.864702918486382,51.50498320853406],[6.8669231,51.5041771],[6.866530424063061,51.50434137002867],[6.868061225024205,51.50352610310101],[6.8688585207127435,51.502727424066975],[6.8701134076923065,51.500537530769236],[6.8702135116418654,51.50011667149619],[6.870344666111686,51.50005506483086],[6.870294500867298,51.499963548860215],[6.8737671666666635,51.49277740000001],[6.874138773849174,51.491772004957106],[6.874175652209224,51.490998697401146],[6.873817541059509,51.48905654787822],[6.873806040977585,51.48915363010565],[6.87394309866079,51.48913249496947],[6.873815961751364,51.48915970818592],[6.873906570508572,51.48957560975904],[6.8740480376141395,51.48957154363246],[6.873882591451263,51.489579273911936],[6.8733032344656175,51.4865940806938],[6.872797640113465,51.4851268428172],[6.872637900859741,51.483905274253075],[6.872384094459586,51.48314120424649],[6.871630168226588,51.482194058910046],[6.870403114420424,51.48151996057991],[6.868753925001809,51.48114324781245],[6.8654698487070105,51.480826934546556],[6.862068462906716,51.48083037560594],[6.860324643972231,51.4804665945016],[6.858978702736945,51.479915276077755],[6.856425762161877,51.47849602920568],[6.855008895795889,51.4772549808088],[6.854274221703236,51.4764569892744],[6.8540212673208565,51.47601509417127],[6.853766390455644,51.47512915946639],[6.85402625861771,51.474709771305626],[6.856441176898636,51.47356278808023],[6.857364118882636,51.47291755707635],[6.863416342695118,51.47059703945396],[6.863851536512051,51.47031263704653],[6.863959543107735,51.47000864166782],[6.864187437499999,51.466914275],[6.864158931412921,51.465191836830655],[6.863231242692409,51.46314926513501],[6.862857434488787,51.46082588633523],[6.862398092135535,51.45925059796561],[6.861930148513882,51.45881865847412],[6.859933722497537,51.45752900141815],[6.859544700219048,51.45702860256299],[6.859218864137614,51.45431131613562],[6.85937326453029,51.45390925310672],[6.860124425634395,51.453186961000085],[6.860263046896553,51.45285955017221],[6.860106092010838,51.45240274615558],[6.859094281834128,51.45085924812347],[6.859045250000001,51.45051265],[6.859170206821198,51.45022416493188],[6.8598099,51.4495729],[6.862055817241115,51.448686197810545],[6.863383890358082,51.44784283863588],[6.865022450954457,51.44657210223644],[6.8659502327085935,51.4451915826954],[6.868195189450306,51.44390487429925],[6.868192795223391,51.44369420398882],[6.86729723121437,51.443139470830275],[6.867238751937367,51.44291446899969],[6.867993465292371,51.442083439725444],[6.869036602028785,51.44062788693914],[6.870765787709952,51.4390455065725],[6.872116128492668,51.438389290558305],[6.8727851714285695,51.43782362857143],[6.876133279548096,51.433940877721895],[6.877096925629693,51.433165562127435],[6.877219865754974,51.43232776064954],[6.877544668998299,51.43147027654003],[6.879352919027238,51.428228403373716],[6.880085293848783,51.427260947973934],[6.88058708487617,51.426989377744924],[6.880892876092952,51.42697546607013],[6.883917611454048,51.427904967365414],[6.884460096038902,51.42802302476643],[6.8849566677635154,51.427971103432746],[6.8877066337841555,51.426420794031166],[6.889317563356513,51.42539373217453],[6.891343421993379,51.42293076632563],[6.892285150060404,51.42152564977647],[6.893442040263747,51.420681733538096],[6.894045535763091,51.42036829888051],[6.895634753635454,51.41976741819639],[6.898776068366137,51.41883181671421],[6.902755357466169,51.41726115383976],[6.90378848729386,51.41694341510811],[6.9053119257459965,51.416662449577274],[6.907096166621065,51.4155662979455],[6.9123626354668595,51.41484228414073],[6.913841411126919,51.414864668218925]]}}]}