{"type":"FeatureCollection","metro_system":{"continent":"asia","country":"India","city":"Nagpur","official_website":null,"official_map":"https://en.wikipedia.org/wiki/Nagpur_Metro","wikipedia":"en:Nagpur Metro","wiki":true,"wikipedia_zh":"zh:那格浦爾地鐵","line_count":2,"segment_count":2,"station_count":36,"modes":["metro"],"audit":{"strategies_tried":[],"passed":true,"checks":[{"id":"system_exists","ok":true,"detail":"matched OSM system metro-maps/asia/india/as-ind-nagpur/as-ind-nagpur.geojson","level":"error"},{"id":"has_lines","ok":true,"detail":"2 lines","level":"error"},{"id":"has_stations","ok":true,"detail":"36 stations","level":"error"},{"id":"station_count_info","ok":true,"detail":"OSM 36 站（wiki List 記 37，計法含轉乘重複，僅參考）","level":"warn"},{"id":"stations_have_lines","ok":true,"detail":"36/36 站皆有所屬路線","level":"error"},{"id":"line_geometry_stations","ok":true,"detail":"37 個折點/端點皆為車站","level":"error"},{"id":"route_stations_match_geometry","ok":true,"detail":"各線車站列表與圖面一致","level":"error"},{"id":"interchange_rule","ok":true,"detail":"所有車站紅/藍點符合骨架＋路線色規則（藍＝端點、紅＝交叉）","level":"error"},{"id":"stations_named","ok":true,"detail":"36/36 站皆有名稱","level":"error"},{"id":"station_order","ok":true,"detail":"所有線路站序合理","level":"warn"},{"id":"line_wiki_stations","ok":true,"detail":"各線站數與 wiki 線路條目相符（營運中站數）","level":"error"},{"id":"line_wiki_planned","ok":false,"detail":"1 條線少於 wiki 全線總數（可能含未通車段，待人工確認）：Aqua Line (East-West Corridor) 19/20","level":"warn"}],"reasons":[],"warnings":["1 條線少於 wiki 全線總數（可能含未通車段，待人工確認）：Aqua Line (East-West Corridor) 19/20"],"audited_at":"2026-07-27T02:38:22.590Z"}},"features":[{"type":"Feature","properties":{"seg_id":"nagpur-0","routes":[{"route_id":"rm9571557","route_name":"Orange Line (North-South Corridor)","route_name_local":"Orange Line (North-South Corridor)","route_name_en":null,"route_ref":"Orange Line","route_color":"#f58231","wikipedia":"en:Orange Line (Nagpur Metro)","osm_route_ids":[9565725,9571556],"status":null,"order_suspect":0,"span_suspect":0,"stations":[{"station_id":"n11368300696","station_name":"Khapri"},{"station_id":"n6458275659","station_name":"New Airport"},{"station_id":"n11368300695","station_name":"Airport South"},{"station_id":"n11368300694","station_name":"Airport"},{"station_id":"n11368300692","station_name":"Ujjwal Nagar"},{"station_id":"n11368300693","station_name":"Jaiprakash Nagar"},{"station_id":"n11368300690","station_name":"Chhatrapati Square"},{"station_id":"n11368300691","station_name":"Ajni Square"},{"station_id":"n6458275665","station_name":"Rahate Colony"},{"station_id":"n6453679896","station_name":"Congress Nagar"},{"station_id":"n11368300689","station_name":"Sitabuldi"},{"station_id":"n11368300688","station_name":"Zero Mile"},{"station_id":"n11368300687","station_name":"Kasturchand Park"},{"station_id":"n7944687024","station_name":"Gaddi Godam Square"},{"station_id":"n7944686237","station_name":"Kadvi Square"},{"station_id":"n7944686882","station_name":"Indora Square"},{"station_id":"n7944685685","station_name":"Nari Road"},{"station_id":"n7944685834","station_name":"Automotive Square"}]}],"route_count":1,"route_refs":["Orange Line"],"route_colors":["#f58231"],"city":"Nagpur","country":"India"},"geometry":{"type":"MultiLineString","coordinates":[[[79.0478446,21.0493478],[79.05583116666666,21.066038699999996],[79.0605257,21.0790559],[79.0637884,21.0862162],[79.0663192,21.0963504],[79.068179,21.1036395],[79.0696114,21.109139],[79.0721071,21.1182122],[79.0755898,21.1275723],[79.08255343333333,21.128198633333337],[79.0824843,21.1414478],[79.0806347,21.1466946],[79.081477,21.1543646],[79.083725,21.1616305],[79.0924243,21.1686674],[79.1007283,21.1736873],[79.1097781,21.1795001],[79.1195065,21.1857923]]]}},{"type":"Feature","properties":{"seg_id":"nagpur-1","routes":[{"route_id":"rm10659365","route_name":"Aqua Line (East-West Corridor)","route_name_local":"Aqua Line (East-West Corridor)","route_name_en":null,"route_ref":"Aqua Line","route_color":"#42d4f4","wikipedia":"en:Aqua Line (Nagpur Metro)","osm_route_ids":[10659361,10659362],"status":null,"order_suspect":0,"span_suspect":0,"stations":[{"station_id":"n7944687085","station_name":"Prajapati Nagar"},{"station_id":"n7944686439","station_name":"Vaishnodevi Square"},{"station_id":"n7944686097","station_name":"Ambedkar Square"},{"station_id":"n7944686824","station_name":"Telephone Exchange"},{"station_id":"n7944685774","station_name":"Chitaroli Square"},{"station_id":"n7944686038","station_name":"Agrasen Square"},{"station_id":"n7944686405","station_name":"Dosar Vaisya Square"},{"station_id":"n7944687375","station_name":"Cotton Market"},{"station_id":"n11368300689","station_name":"Sitabuldi"},{"station_id":"n11369581742","station_name":"Jhasi Rani Square"},{"station_id":"n11369581741","station_name":"Institute of Engineers"},{"station_id":"n11371112352","station_name":"Shankar Nagar Square"},{"station_id":"n11371112353","station_name":"LAD College"},{"station_id":"n11371112354","station_name":"Ambazari Lake"},{"station_id":"n11371112355","station_name":"Subhash Nagar"},{"station_id":"n11369581743","station_name":"Rachna Ring Road"},{"station_id":"n11369581744","station_name":"Vasudev Nagar"},{"station_id":"n11369581745","station_name":"Bansi Nagar"},{"station_id":"n11369581746","station_name":"Lokmanya Nagar"}]}],"route_count":1,"route_refs":["Aqua Line"],"route_colors":["#42d4f4"],"city":"Nagpur","country":"India"},"geometry":{"type":"MultiLineString","coordinates":[[[79.148823,21.1501485],[79.1364057,21.1480272],[79.1294936,21.148325],[79.1182431,21.148814],[79.110395,21.1496469],[79.1029132,21.1510532],[79.094916,21.1529727],[79.0897729,21.1459896],[79.0824843,21.1414478],[79.0778268,21.1407181],[79.0700943,21.1383147],[79.0616442,21.1362125],[79.054798,21.1329162],[79.0457448,21.1286919],[79.0420532,21.1233162],[79.0294117,21.121523],[79.0194659,21.1187853],[79.0126033,21.1161997],[79.001754,21.1108046]]]}},{"type":"Feature","properties":{"station_id":"n6453679896","station_name":"Congress Nagar","station_name_local":"Congress Nagar","station_name_en":null,"city":"Nagpur","country":"India","lines":["Orange Line"],"wikipedia":null,"merged_from":3,"merged_names":null,"is_terminus":false,"routes":[{"ref":"Orange Line","name":"Orange Line (North-South Corridor)","route_color":"#f58231"}],"pass_count":1,"station_degree":2,"codes":null,"is_interchange":false,"station_role":"normal"},"geometry":{"type":"Point","coordinates":[79.08255343333333,21.128198633333337]},"__memberLines":{}},{"type":"Feature","properties":{"station_id":"n6458275659","station_name":"New Airport","station_name_local":"New Airport","station_name_en":null,"city":"Nagpur","country":"India","lines":["Orange Line"],"wikipedia":null,"merged_from":3,"merged_names":null,"is_terminus":false,"routes":[{"ref":"Orange Line","name":"Orange Line (North-South Corridor)","route_color":"#f58231"}],"pass_count":1,"station_degree":2,"codes":null,"is_interchange":false,"station_role":"normal"},"geometry":{"type":"Point","coordinates":[79.05583116666666,21.066038699999996]},"__memberLines":{}},{"type":"Feature","properties":{"station_id":"n6458275665","station_name":"Rahate Colony","station_name_local":"Rahate Colony","station_name_en":null,"city":"Nagpur","country":"India","lines":["Orange Line"],"wikipedia":null,"merged_from":3,"merged_names":null,"is_terminus":false,"routes":[{"ref":"Orange Line","name":"Orange Line (North-South Corridor)","route_color":"#f58231"}],"pass_count":1,"station_degree":2,"codes":null,"is_interchange":false,"station_role":"normal"},"geometry":{"type":"Point","coordinates":[79.0755898,21.1275723]},"__memberLines":{}},{"type":"Feature","properties":{"station_id":"n7944685685","station_name":"Nari Road","station_name_local":"Nari Road","station_name_en":null,"city":"Nagpur","country":"India","lines":["Orange Line"],"wikipedia":null,"is_terminus":false,"routes":[{"ref":"Orange Line","name":"Orange Line (North-South Corridor)","route_color":"#f58231"}],"pass_count":1,"station_degree":2,"codes":null,"merged_from":null,"merged_names":null,"is_interchange":false,"station_role":"normal"},"geometry":{"type":"Point","coordinates":[79.1097781,21.1795001]}},{"type":"Feature","properties":{"station_id":"n7944685774","station_name":"Chitaroli Square","station_name_local":"Chitaroli Square","station_name_en":null,"city":"Nagpur","country":"India","lines":["Aqua Line"],"wikipedia":null,"is_terminus":false,"routes":[{"ref":"Aqua Line","name":"Aqua Line (East-West Corridor)","route_color":"#42d4f4"}],"pass_count":1,"station_degree":2,"codes":null,"merged_from":null,"merged_names":null,"is_interchange":false,"station_role":"normal"},"geometry":{"type":"Point","coordinates":[79.110395,21.1496469]}},{"type":"Feature","properties":{"station_id":"n7944685834","station_name":"Automotive Square","station_name_local":"Automotive Square","station_name_en":null,"city":"Nagpur","country":"India","lines":["Orange Line"],"wikipedia":null,"is_terminus":true,"routes":[{"ref":"Orange Line","name":"Orange Line (North-South Corridor)","route_color":"#f58231"}],"pass_count":1,"station_degree":1,"codes":null,"merged_from":null,"merged_names":null,"is_interchange":false,"station_role":"terminus"},"geometry":{"type":"Point","coordinates":[79.1195065,21.1857923]}},{"type":"Feature","properties":{"station_id":"n7944686038","station_name":"Agrasen Square","station_name_local":"Agrasen Square","station_name_en":null,"city":"Nagpur","country":"India","lines":["Aqua Line"],"wikipedia":null,"is_terminus":false,"routes":[{"ref":"Aqua Line","name":"Aqua Line (East-West Corridor)","route_color":"#42d4f4"}],"pass_count":1,"station_degree":2,"codes":null,"merged_from":null,"merged_names":null,"is_interchange":false,"station_role":"normal"},"geometry":{"type":"Point","coordinates":[79.1029132,21.1510532]}},{"type":"Feature","properties":{"station_id":"n7944686097","station_name":"Ambedkar Square","station_name_local":"Ambedkar Square","station_name_en":null,"city":"Nagpur","country":"India","lines":["Aqua Line"],"wikipedia":null,"is_terminus":false,"routes":[{"ref":"Aqua Line","name":"Aqua Line (East-West Corridor)","route_color":"#42d4f4"}],"pass_count":1,"station_degree":2,"codes":null,"merged_from":null,"merged_names":null,"is_interchange":false,"station_role":"normal"},"geometry":{"type":"Point","coordinates":[79.1294936,21.148325]}},{"type":"Feature","properties":{"station_id":"n7944686237","station_name":"Kadvi Square","station_name_local":"Kadvi Square","station_name_en":null,"city":"Nagpur","country":"India","lines":["Orange Line"],"wikipedia":null,"is_terminus":false,"routes":[{"ref":"Orange Line","name":"Orange Line (North-South Corridor)","route_color":"#f58231"}],"pass_count":1,"station_degree":2,"codes":null,"merged_from":null,"merged_names":null,"is_interchange":false,"station_role":"normal"},"geometry":{"type":"Point","coordinates":[79.0924243,21.1686674]}},{"type":"Feature","properties":{"station_id":"n7944686405","station_name":"Dosar Vaisya Square","station_name_local":"Dosar Vaisya Square","station_name_en":null,"city":"Nagpur","country":"India","lines":["Aqua Line"],"wikipedia":null,"is_terminus":false,"routes":[{"ref":"Aqua Line","name":"Aqua Line (East-West Corridor)","route_color":"#42d4f4"}],"pass_count":1,"station_degree":2,"codes":null,"merged_from":null,"merged_names":null,"is_interchange":false,"station_role":"normal"},"geometry":{"type":"Point","coordinates":[79.094916,21.1529727]}},{"type":"Feature","properties":{"station_id":"n7944686439","station_name":"Vaishnodevi Square","station_name_local":"Vaishnodevi Square","station_name_en":null,"city":"Nagpur","country":"India","lines":["Aqua Line"],"wikipedia":null,"is_terminus":false,"routes":[{"ref":"Aqua Line","name":"Aqua Line (East-West Corridor)","route_color":"#42d4f4"}],"pass_count":1,"station_degree":2,"codes":null,"merged_from":null,"merged_names":null,"is_interchange":false,"station_role":"normal"},"geometry":{"type":"Point","coordinates":[79.1364057,21.1480272]}},{"type":"Feature","properties":{"station_id":"n7944686824","station_name":"Telephone Exchange","station_name_local":"Telephone Exchange","station_name_en":null,"city":"Nagpur","country":"India","lines":["Aqua Line"],"wikipedia":null,"is_terminus":false,"routes":[{"ref":"Aqua Line","name":"Aqua Line (East-West Corridor)","route_color":"#42d4f4"}],"pass_count":1,"station_degree":2,"codes":null,"merged_from":null,"merged_names":null,"is_interchange":false,"station_role":"normal"},"geometry":{"type":"Point","coordinates":[79.1182431,21.148814]}},{"type":"Feature","properties":{"station_id":"n7944686882","station_name":"Indora Square","station_name_local":"Indora Square","station_name_en":null,"city":"Nagpur","country":"India","lines":["Orange Line"],"wikipedia":null,"is_terminus":false,"routes":[{"ref":"Orange Line","name":"Orange Line (North-South Corridor)","route_color":"#f58231"}],"pass_count":1,"station_degree":2,"codes":null,"merged_from":null,"merged_names":null,"is_interchange":false,"station_role":"normal"},"geometry":{"type":"Point","coordinates":[79.1007283,21.1736873]}},{"type":"Feature","properties":{"station_id":"n7944687024","station_name":"Gaddi Godam Square","station_name_local":"Gaddi Godam Square","station_name_en":null,"city":"Nagpur","country":"India","lines":["Orange Line"],"wikipedia":null,"is_terminus":false,"routes":[{"ref":"Orange Line","name":"Orange Line (North-South Corridor)","route_color":"#f58231"}],"pass_count":1,"station_degree":2,"codes":null,"merged_from":null,"merged_names":null,"is_interchange":false,"station_role":"normal"},"geometry":{"type":"Point","coordinates":[79.083725,21.1616305]}},{"type":"Feature","properties":{"station_id":"n7944687085","station_name":"Prajapati Nagar","station_name_local":"Prajapati Nagar","station_name_en":null,"city":"Nagpur","country":"India","lines":["Aqua Line"],"wikipedia":null,"is_terminus":true,"routes":[{"ref":"Aqua Line","name":"Aqua Line (East-West Corridor)","route_color":"#42d4f4"}],"pass_count":1,"station_degree":1,"codes":null,"merged_from":null,"merged_names":null,"is_interchange":false,"station_role":"terminus"},"geometry":{"type":"Point","coordinates":[79.148823,21.1501485]}},{"type":"Feature","properties":{"station_id":"n7944687375","station_name":"Cotton Market","station_name_local":"Cotton Market","station_name_en":null,"city":"Nagpur","country":"India","lines":["Aqua Line"],"wikipedia":null,"is_terminus":false,"routes":[{"ref":"Aqua Line","name":"Aqua Line (East-West Corridor)","route_color":"#42d4f4"}],"pass_count":1,"station_degree":2,"codes":null,"merged_from":null,"merged_names":null,"is_interchange":false,"station_role":"normal"},"geometry":{"type":"Point","coordinates":[79.0897729,21.1459896]},"__memberLines":{}},{"type":"Feature","properties":{"station_id":"n11368300687","station_name":"Kasturchand Park","station_name_local":"Kasturchand Park","station_name_en":null,"city":"Nagpur","country":"India","lines":["Orange Line"],"wikipedia":null,"is_terminus":false,"routes":[{"ref":"Orange Line","name":"Orange Line (North-South Corridor)","route_color":"#f58231"}],"pass_count":1,"station_degree":2,"codes":null,"merged_from":null,"merged_names":null,"is_interchange":false,"station_role":"normal"},"geometry":{"type":"Point","coordinates":[79.081477,21.1543646]}},{"type":"Feature","properties":{"station_id":"n11368300688","station_name":"Zero Mile","station_name_local":"Zero Mile","station_name_en":null,"city":"Nagpur","country":"India","lines":["Orange Line"],"wikipedia":null,"is_terminus":false,"routes":[{"ref":"Orange Line","name":"Orange Line (North-South Corridor)","route_color":"#f58231"}],"pass_count":1,"station_degree":2,"codes":null,"merged_from":null,"merged_names":null,"is_interchange":false,"station_role":"normal"},"geometry":{"type":"Point","coordinates":[79.0806347,21.1466946]}},{"type":"Feature","properties":{"station_id":"n11368300689","station_name":"Sitabuldi","station_name_local":"Sitabuldi","station_name_en":null,"city":"Nagpur","country":"India","lines":["Aqua Line","Orange Line"],"wikipedia":null,"is_terminus":false,"routes":[{"ref":"Aqua Line","name":"Aqua Line (East-West Corridor)","route_color":"#42d4f4"},{"ref":"Orange Line","name":"Orange Line (North-South Corridor)","route_color":"#f58231"}],"pass_count":2,"station_degree":4,"codes":null,"merged_from":null,"merged_names":null,"is_interchange":true,"station_role":"interchange"},"geometry":{"type":"Point","coordinates":[79.0824843,21.1414478]}},{"type":"Feature","properties":{"station_id":"n11368300690","station_name":"Chhatrapati Square","station_name_local":"Chhatrapati Square","station_name_en":null,"city":"Nagpur","country":"India","lines":["Orange Line"],"wikipedia":null,"is_terminus":false,"routes":[{"ref":"Orange Line","name":"Orange Line (North-South Corridor)","route_color":"#f58231"}],"pass_count":1,"station_degree":2,"codes":null,"merged_from":null,"merged_names":null,"is_interchange":false,"station_role":"normal"},"geometry":{"type":"Point","coordinates":[79.0696114,21.109139]}},{"type":"Feature","properties":{"station_id":"n11368300691","station_name":"Ajni Square","station_name_local":"Ajni Square","station_name_en":null,"city":"Nagpur","country":"India","lines":["Orange Line"],"wikipedia":null,"is_terminus":false,"routes":[{"ref":"Orange Line","name":"Orange Line (North-South Corridor)","route_color":"#f58231"}],"pass_count":1,"station_degree":2,"codes":null,"merged_from":null,"merged_names":null,"is_interchange":false,"station_role":"normal"},"geometry":{"type":"Point","coordinates":[79.0721071,21.1182122]}},{"type":"Feature","properties":{"station_id":"n11368300692","station_name":"Ujjwal Nagar","station_name_local":"Ujjwal Nagar","station_name_en":null,"city":"Nagpur","country":"India","lines":["Orange Line"],"wikipedia":null,"is_terminus":false,"routes":[{"ref":"Orange Line","name":"Orange Line (North-South Corridor)","route_color":"#f58231"}],"pass_count":1,"station_degree":2,"codes":null,"merged_from":null,"merged_names":null,"is_interchange":false,"station_role":"normal"},"geometry":{"type":"Point","coordinates":[79.0663192,21.0963504]}},{"type":"Feature","properties":{"station_id":"n11368300693","station_name":"Jaiprakash Nagar","station_name_local":"Jaiprakash Nagar","station_name_en":null,"city":"Nagpur","country":"India","lines":["Orange Line"],"wikipedia":null,"is_terminus":false,"routes":[{"ref":"Orange Line","name":"Orange Line (North-South Corridor)","route_color":"#f58231"}],"pass_count":1,"station_degree":2,"codes":null,"merged_from":null,"merged_names":null,"is_interchange":false,"station_role":"normal"},"geometry":{"type":"Point","coordinates":[79.068179,21.1036395]}},{"type":"Feature","properties":{"station_id":"n11368300694","station_name":"Airport","station_name_local":"Airport","station_name_en":null,"city":"Nagpur","country":"India","lines":["Orange Line"],"wikipedia":null,"is_terminus":false,"routes":[{"ref":"Orange Line","name":"Orange Line (North-South Corridor)","route_color":"#f58231"}],"pass_count":1,"station_degree":2,"codes":null,"merged_from":null,"merged_names":null,"is_interchange":false,"station_role":"normal"},"geometry":{"type":"Point","coordinates":[79.0637884,21.0862162]}},{"type":"Feature","properties":{"station_id":"n11368300695","station_name":"Airport South","station_name_local":"Airport South","station_name_en":null,"city":"Nagpur","country":"India","lines":["Orange Line"],"wikipedia":null,"is_terminus":false,"routes":[{"ref":"Orange Line","name":"Orange Line (North-South Corridor)","route_color":"#f58231"}],"pass_count":1,"station_degree":2,"codes":null,"merged_from":null,"merged_names":null,"is_interchange":false,"station_role":"normal"},"geometry":{"type":"Point","coordinates":[79.0605257,21.0790559]}},{"type":"Feature","properties":{"station_id":"n11368300696","station_name":"Khapri","station_name_local":"Khapri","station_name_en":null,"city":"Nagpur","country":"India","lines":["Orange Line"],"wikipedia":null,"is_terminus":true,"routes":[{"ref":"Orange Line","name":"Orange Line (North-South Corridor)","route_color":"#f58231"}],"pass_count":1,"station_degree":1,"codes":null,"merged_from":null,"merged_names":null,"is_interchange":false,"station_role":"terminus"},"geometry":{"type":"Point","coordinates":[79.0478446,21.0493478]}},{"type":"Feature","properties":{"station_id":"n11369581741","station_name":"Institute of Engineers","station_name_local":"Institute of Engineers","station_name_en":null,"city":"Nagpur","country":"India","lines":["Aqua Line"],"wikipedia":null,"is_terminus":false,"routes":[{"ref":"Aqua Line","name":"Aqua Line (East-West Corridor)","route_color":"#42d4f4"}],"pass_count":1,"station_degree":2,"codes":null,"merged_from":null,"merged_names":null,"is_interchange":false,"station_role":"normal"},"geometry":{"type":"Point","coordinates":[79.0700943,21.1383147]}},{"type":"Feature","properties":{"station_id":"n11369581742","station_name":"Jhasi Rani Square","station_name_local":"Jhasi Rani Square","station_name_en":null,"city":"Nagpur","country":"India","lines":["Aqua Line"],"wikipedia":null,"is_terminus":false,"routes":[{"ref":"Aqua Line","name":"Aqua Line (East-West Corridor)","route_color":"#42d4f4"}],"pass_count":1,"station_degree":2,"codes":null,"merged_from":null,"merged_names":null,"is_interchange":false,"station_role":"normal"},"geometry":{"type":"Point","coordinates":[79.0778268,21.1407181]}},{"type":"Feature","properties":{"station_id":"n11369581743","station_name":"Rachna Ring Road","station_name_local":"Rachna Ring Road","station_name_en":null,"city":"Nagpur","country":"India","lines":["Aqua Line"],"wikipedia":null,"is_terminus":false,"routes":[{"ref":"Aqua Line","name":"Aqua Line (East-West Corridor)","route_color":"#42d4f4"}],"pass_count":1,"station_degree":2,"codes":null,"merged_from":null,"merged_names":null,"is_interchange":false,"station_role":"normal"},"geometry":{"type":"Point","coordinates":[79.0294117,21.121523]}},{"type":"Feature","properties":{"station_id":"n11369581744","station_name":"Vasudev Nagar","station_name_local":"Vasudev Nagar","station_name_en":null,"city":"Nagpur","country":"India","lines":["Aqua Line"],"wikipedia":null,"is_terminus":false,"routes":[{"ref":"Aqua Line","name":"Aqua Line (East-West Corridor)","route_color":"#42d4f4"}],"pass_count":1,"station_degree":2,"codes":null,"merged_from":null,"merged_names":null,"is_interchange":false,"station_role":"normal"},"geometry":{"type":"Point","coordinates":[79.0194659,21.1187853]}},{"type":"Feature","properties":{"station_id":"n11369581745","station_name":"Bansi Nagar","station_name_local":"Bansi Nagar","station_name_en":null,"city":"Nagpur","country":"India","lines":["Aqua Line"],"wikipedia":null,"is_terminus":false,"routes":[{"ref":"Aqua Line","name":"Aqua Line (East-West Corridor)","route_color":"#42d4f4"}],"pass_count":1,"station_degree":2,"codes":null,"merged_from":null,"merged_names":null,"is_interchange":false,"station_role":"normal"},"geometry":{"type":"Point","coordinates":[79.0126033,21.1161997]}},{"type":"Feature","properties":{"station_id":"n11369581746","station_name":"Lokmanya Nagar","station_name_local":"Lokmanya Nagar","station_name_en":null,"city":"Nagpur","country":"India","lines":["Aqua Line"],"wikipedia":null,"is_terminus":true,"routes":[{"ref":"Aqua Line","name":"Aqua Line (East-West Corridor)","route_color":"#42d4f4"}],"pass_count":1,"station_degree":1,"codes":null,"merged_from":null,"merged_names":null,"is_interchange":false,"station_role":"terminus"},"geometry":{"type":"Point","coordinates":[79.001754,21.1108046]}},{"type":"Feature","properties":{"station_id":"n11371112352","station_name":"Shankar Nagar Square","station_name_local":"Shankar Nagar Square","station_name_en":null,"city":"Nagpur","country":"India","lines":["Aqua Line"],"wikipedia":"en:Nagpur Metro","is_terminus":false,"routes":[{"ref":"Aqua Line","name":"Aqua Line (East-West Corridor)","route_color":"#42d4f4"}],"pass_count":1,"station_degree":2,"codes":null,"merged_from":null,"merged_names":null,"is_interchange":false,"station_role":"normal"},"geometry":{"type":"Point","coordinates":[79.0616442,21.1362125]}},{"type":"Feature","properties":{"station_id":"n11371112353","station_name":"LAD College","station_name_local":"LAD College","station_name_en":null,"city":"Nagpur","country":"India","lines":["Aqua Line"],"wikipedia":"en:Nagpur Metro","is_terminus":false,"routes":[{"ref":"Aqua Line","name":"Aqua Line (East-West Corridor)","route_color":"#42d4f4"}],"pass_count":1,"station_degree":2,"codes":null,"merged_from":null,"merged_names":null,"is_interchange":false,"station_role":"normal"},"geometry":{"type":"Point","coordinates":[79.054798,21.1329162]}},{"type":"Feature","properties":{"station_id":"n11371112354","station_name":"Ambazari Lake","station_name_local":"Ambazari Lake","station_name_en":null,"city":"Nagpur","country":"India","lines":["Aqua Line"],"wikipedia":"en:Nagpur Metro","is_terminus":false,"routes":[{"ref":"Aqua Line","name":"Aqua Line (East-West Corridor)","route_color":"#42d4f4"}],"pass_count":1,"station_degree":2,"codes":null,"merged_from":null,"merged_names":null,"is_interchange":false,"station_role":"normal"},"geometry":{"type":"Point","coordinates":[79.0457448,21.1286919]}},{"type":"Feature","properties":{"station_id":"n11371112355","station_name":"Subhash Nagar","station_name_local":"Subhash Nagar","station_name_en":null,"city":"Nagpur","country":"India","lines":["Aqua Line"],"wikipedia":"en:Nagpur Metro","is_terminus":false,"routes":[{"ref":"Aqua Line","name":"Aqua Line (East-West Corridor)","route_color":"#42d4f4"}],"pass_count":1,"station_degree":2,"codes":null,"merged_from":null,"merged_names":null,"is_interchange":false,"station_role":"normal"},"geometry":{"type":"Point","coordinates":[79.0420532,21.1233162]}}]}