{"type":"FeatureCollection","metro_system":{"continent":"europe","country":"Germany","city":"Gera","official_website":"http://www.gvbgera.de","official_map":"https://de.wikipedia.org/wiki/Verkehrsverbund_Mittelthüringen","wikipedia":"de:Verkehrsverbund Mittelthüringen","line_count":3,"segment_count":4,"station_count":40,"modes":["tram"],"audit":{"strategies_tried":[],"passed":true,"checks":[{"id":"has_lines","ok":true,"detail":"3 lines","level":"error"},{"id":"has_stations","ok":true,"detail":"40 stations","level":"error"},{"id":"stations_have_lines","ok":true,"detail":"40/40 站皆有所屬路線","level":"error"},{"id":"line_geometry_stations","ok":true,"detail":"43 個折點/端點皆為車站","level":"error"},{"id":"route_stations_match_geometry","ok":true,"detail":"各線車站列表與圖面一致","level":"error"},{"id":"interchange_rule","ok":true,"detail":"所有車站紅/藍點符合骨架＋路線色規則（藍＝端點、紅＝交叉）","level":"error"},{"id":"stations_named","ok":true,"detail":"40/40 站皆有名稱","level":"error"},{"id":"station_order","ok":true,"detail":"所有線路站序合理","level":"warn"},{"id":"station_span","ok":true,"detail":"各線相鄰站距與系統站群跨度正常","level":"error"},{"id":"line_wiki_stations","ok":true,"detail":"各線站數與 wiki 線路條目相符（營運中站數）","level":"error"},{"id":"line_wiki_coverage","ok":false,"detail":"3 條線無 wiki 站數對照：Tram 1 Straßenbahn Gera、Tram 2 Straßenbahn Gera、Tram 3 Straßenbahn Gera","level":"warn"}],"reasons":[],"warnings":["3 條線無 wiki 站數對照：Tram 1 Straßenbahn Gera、Tram 2 Straßenbahn Gera、Tram 3 Straßenbahn Gera"],"audited_at":"2026-07-27T05:42:56.925Z"}},"features":[{"type":"Feature","properties":{"seg_id":"gera-0","routes":[{"route_id":"rm61460","route_name":"Tram 1 Straßenbahn Gera","route_name_local":"Tram 1 Straßenbahn Gera","route_name_en":null,"route_ref":"1","route_color":"#f78a21","wikipedia":"de:Verkehrsverbund Mittelthüringen","osm_route_ids":[4673902,4673903],"status":null,"order_suspect":0,"span_suspect":0,"stations":[{"station_id":"n1118471410","station_name":"Untermhaus"},{"station_id":"n1127945650","station_name":"Ernststraße"},{"station_id":"n311007556","station_name":"Friedrich-Naumann-Platz"},{"station_id":"n306652937","station_name":"Otto Dix"},{"station_id":"n5316212146","station_name":"Hauptbahnhof/Theater"},{"station_id":"n3285695665","station_name":"Puschkinplatz/Bibliothek"},{"station_id":"n2273730257","station_name":"Heinrichstraße"},{"station_id":"n314735329","station_name":"Schmelzhüttenstraße"},{"station_id":"n3399986347","station_name":"Erfurtstraße"},{"station_id":"n3285846884","station_name":"Wintergarten"},{"station_id":"n314734281","station_name":"Pforten"},{"station_id":"n314733914","station_name":"Lasurstraße"},{"station_id":"n429533635","station_name":"Zwötzen"}]}],"route_count":1,"route_refs":["1"],"route_colors":["#f78a21"],"city":"Gera","country":"Germany"},"geometry":{"type":"MultiLineString","coordinates":[[[12.0691313,50.89060335],[12.06938725,50.88804925],[12.0690004,50.884364500000004],[12.071483149999999,50.8825331],[12.076727250000001,50.8824359],[12.0786819,50.8789794],[12.0791783,50.87576315],[12.08244705,50.87266005],[12.083892800000001,50.8696609],[12.085060649999999,50.863279],[12.0892937,50.857830050000004],[12.08933935,50.8521882],[12.087103,50.8484839]]]}},{"type":"Feature","properties":{"seg_id":"gera-1","routes":[{"route_id":"rm2344988","route_name":"Tram 2 Straßenbahn Gera","route_name_local":"Tram 2 Straßenbahn Gera","route_name_en":null,"route_ref":"2","route_color":"#fbba00","wikipedia":"de:Verkehrsverbund Mittelthüringen","osm_route_ids":[4715493,4715494],"status":null,"order_suspect":0,"span_suspect":0,"stations":[{"station_id":"n322037043","station_name":"Bahnhof Zwötzen"},{"station_id":"n21991162","station_name":"Betriebshof GVB"},{"station_id":"n21991043","station_name":"Gleisdreieck Lusan"},{"station_id":"n21991111","station_name":"Fußgängerbrücke"},{"station_id":"n21991161","station_name":"Lusan/Laune"},{"station_id":"n321630836","station_name":"Zeulenrodaer Straße"},{"station_id":"n290609832","station_name":"Brüte"},{"station_id":"n488288309","station_name":"Bruno-Brause-Straße"},{"station_id":"n321632777","station_name":"Lusan/Zeulsdorf"}]}],"route_count":1,"route_refs":["2"],"route_colors":["#fbba00"],"city":"Gera","country":"Germany"},"geometry":{"type":"MultiLineString","coordinates":[[[12.0822711,50.8504412],[12.07878885,50.8493275],[12.073834666666668,50.849447999999995],[12.071806800000001,50.8492629]]]}},{"type":"Feature","properties":{"seg_id":"gera-2","routes":[{"route_id":"rm2344988","route_name":"Tram 2 Straßenbahn Gera","route_name_local":"Tram 2 Straßenbahn Gera","route_name_en":null,"route_ref":"2","route_color":"#fbba00","wikipedia":"de:Verkehrsverbund Mittelthüringen","osm_route_ids":[4715493,4715494],"status":null,"order_suspect":0,"span_suspect":0,"stations":[{"station_id":"n322037043","station_name":"Bahnhof Zwötzen"},{"station_id":"n21991162","station_name":"Betriebshof GVB"},{"station_id":"n21991043","station_name":"Gleisdreieck Lusan"},{"station_id":"n21991111","station_name":"Fußgängerbrücke"},{"station_id":"n21991161","station_name":"Lusan/Laune"},{"station_id":"n321630836","station_name":"Zeulenrodaer Straße"},{"station_id":"n290609832","station_name":"Brüte"},{"station_id":"n488288309","station_name":"Bruno-Brause-Straße"},{"station_id":"n321632777","station_name":"Lusan/Zeulsdorf"}]},{"route_id":"rm78206","route_name":"Tram 3 Straßenbahn Gera","route_name_local":"Tram 3 Straßenbahn Gera","route_name_en":null,"route_ref":"3","route_color":"#ef1c29","wikipedia":"de:Verkehrsverbund Mittelthüringen","osm_route_ids":[4715526],"status":null,"order_suspect":0,"span_suspect":0,"stations":[{"station_id":"n413371620","station_name":"Bieblach-Ost"},{"station_id":"n408185869","station_name":"Ernst-Abbe-Straße"},{"station_id":"n367753008","station_name":"Hilde-Coppi-Straße"},{"station_id":"n413371619","station_name":"Heidecksburgstraße"},{"station_id":"n397458696","station_name":"Duale Hochschule"},{"station_id":"n413348867","station_name":"Tinz"},{"station_id":"n255152715","station_name":"Grüner Weg"},{"station_id":"n254992343","station_name":"Straße des Bergmanns"},{"station_id":"n3284700732","station_name":"Herderstraße/Stadtarchiv"},{"station_id":"n2273730239","station_name":"Friedrich-Engels-Straße"},{"station_id":"n255856498","station_name":"Leipziger Straße/Metropol"},{"station_id":"n413333365","station_name":"Sorge/Markt"},{"station_id":"n2273730257","station_name":"Heinrichstraße"},{"station_id":"junc:12.07814:50.87515","station_name":""},{"station_id":"n509658869","station_name":"Südbahnhof"},{"station_id":"n2273730279","station_name":"An der Spielwiese"},{"station_id":"n2332744440","station_name":"Oststraße"},{"station_id":"n323106572","station_name":"Südfriedhof"},{"station_id":"n4791475807","station_name":"Schenkendorfstraße"},{"station_id":"n21991067","station_name":"Keplerstraße"},{"station_id":"n21991111","station_name":"Fußgängerbrücke"},{"station_id":"n21991161","station_name":"Lusan/Laune"},{"station_id":"n321630836","station_name":"Zeulenrodaer Straße"},{"station_id":"n290609832","station_name":"Brüte"},{"station_id":"n488288309","station_name":"Bruno-Brause-Straße"},{"station_id":"n321632777","station_name":"Lusan/Zeulsdorf"}]}],"route_count":2,"route_refs":["2","3"],"route_colors":["#fbba00","#ef1c29"],"city":"Gera","country":"Germany"},"geometry":{"type":"MultiLineString","coordinates":[[[12.071806800000001,50.8492629],[12.06373855,50.84619695],[12.062463399999999,50.843395400000006],[12.06368115,50.8402816],[12.05809155,50.839327749999995],[12.0510754,50.8395388]]]}},{"type":"Feature","properties":{"seg_id":"gera-3","routes":[{"route_id":"rm78206","route_name":"Tram 3 Straßenbahn Gera","route_name_local":"Tram 3 Straßenbahn Gera","route_name_en":null,"route_ref":"3","route_color":"#ef1c29","wikipedia":"de:Verkehrsverbund Mittelthüringen","osm_route_ids":[4715526],"status":null,"order_suspect":0,"span_suspect":0,"stations":[{"station_id":"n413371620","station_name":"Bieblach-Ost"},{"station_id":"n408185869","station_name":"Ernst-Abbe-Straße"},{"station_id":"n367753008","station_name":"Hilde-Coppi-Straße"},{"station_id":"n413371619","station_name":"Heidecksburgstraße"},{"station_id":"n397458696","station_name":"Duale Hochschule"},{"station_id":"n413348867","station_name":"Tinz"},{"station_id":"n255152715","station_name":"Grüner Weg"},{"station_id":"n254992343","station_name":"Straße des Bergmanns"},{"station_id":"n3284700732","station_name":"Herderstraße/Stadtarchiv"},{"station_id":"n2273730239","station_name":"Friedrich-Engels-Straße"},{"station_id":"n255856498","station_name":"Leipziger Straße/Metropol"},{"station_id":"n413333365","station_name":"Sorge/Markt"},{"station_id":"n2273730257","station_name":"Heinrichstraße"},{"station_id":"junc:12.07814:50.87515","station_name":""},{"station_id":"n509658869","station_name":"Südbahnhof"},{"station_id":"n2273730279","station_name":"An der Spielwiese"},{"station_id":"n2332744440","station_name":"Oststraße"},{"station_id":"n323106572","station_name":"Südfriedhof"},{"station_id":"n4791475807","station_name":"Schenkendorfstraße"},{"station_id":"n21991067","station_name":"Keplerstraße"},{"station_id":"n21991111","station_name":"Fußgängerbrücke"},{"station_id":"n21991161","station_name":"Lusan/Laune"},{"station_id":"n321630836","station_name":"Zeulenrodaer Straße"},{"station_id":"n290609832","station_name":"Brüte"},{"station_id":"n488288309","station_name":"Bruno-Brause-Straße"},{"station_id":"n321632777","station_name":"Lusan/Zeulsdorf"}]}],"route_count":1,"route_refs":["3"],"route_colors":["#ef1c29"],"city":"Gera","country":"Germany"},"geometry":{"type":"MultiLineString","coordinates":[[[12.0998245,50.900544],[12.095424300000001,50.9007534],[12.091774749999999,50.90237895],[12.0863285,50.90431635],[12.0722913,50.904051849999995],[12.073288250000001,50.8998704],[12.07687615,50.89669395],[12.080286749999999,50.893546900000004],[12.082106750000001,50.88713],[12.0830787,50.88372345],[12.08444175,50.87989055],[12.0829853,50.87736285],[12.0791783,50.87576315],[12.0781369,50.8751519],[12.07597105,50.872457600000004],[12.07248295,50.8702383],[12.0728186,50.8655408],[12.07288145,50.8616907],[12.0728159,50.85809005],[12.0727557,50.85411775],[12.071806800000001,50.8492629]]]}},{"type":"Feature","properties":{"station_id":"n21991043","station_name":"Gleisdreieck Lusan","station_name_local":"Gleisdreieck Lusan","station_name_en":null,"city":"Gera","country":"Germany","lines":["2"],"wikipedia":null,"merged_from":3,"merged_names":null,"is_terminus":false,"routes":[{"ref":"2","name":"Tram 2 Straßenbahn Gera","route_color":"#fbba00"}],"pass_count":1,"station_degree":2,"codes":null,"is_interchange":false,"station_role":"normal"},"geometry":{"type":"Point","coordinates":[12.073834666666668,50.849447999999995]},"__memberLines":{}},{"type":"Feature","properties":{"station_id":"n21991067","station_name":"Keplerstraße","station_name_local":"Keplerstraße","station_name_en":null,"city":"Gera","country":"Germany","lines":["3"],"wikipedia":null,"merged_from":2,"merged_names":null,"is_terminus":false,"routes":[{"ref":"3","name":"Tram 3 Straßenbahn Gera","route_color":"#ef1c29"}],"pass_count":1,"station_degree":2,"codes":null,"is_interchange":false,"station_role":"normal"},"geometry":{"type":"Point","coordinates":[12.0727557,50.85411775]},"__memberLines":{}},{"type":"Feature","properties":{"station_id":"n21991111","station_name":"Fußgängerbrücke","station_name_local":"Fußgängerbrücke","station_name_en":null,"city":"Gera","country":"Germany","lines":["2","3"],"wikipedia":null,"merged_from":2,"merged_names":null,"is_terminus":false,"routes":[{"ref":"2","name":"Tram 2 Straßenbahn Gera","route_color":"#fbba00"},{"ref":"3","name":"Tram 3 Straßenbahn Gera","route_color":"#ef1c29"}],"pass_count":2,"station_degree":3,"codes":null,"is_interchange":true,"station_role":"interchange"},"geometry":{"type":"Point","coordinates":[12.071806800000001,50.8492629]},"__memberLines":{}},{"type":"Feature","properties":{"station_id":"n21991161","station_name":"Lusan/Laune","station_name_local":"Lusan/Laune","station_name_en":null,"city":"Gera","country":"Germany","lines":["2","3"],"wikipedia":null,"merged_from":2,"merged_names":null,"is_terminus":false,"routes":[{"ref":"2","name":"Tram 2 Straßenbahn Gera","route_color":"#fbba00"},{"ref":"3","name":"Tram 3 Straßenbahn Gera","route_color":"#ef1c29"}],"pass_count":2,"station_degree":2,"codes":null,"is_interchange":false,"station_role":"normal"},"geometry":{"type":"Point","coordinates":[12.06373855,50.84619695]},"__memberLines":{}},{"type":"Feature","properties":{"station_id":"n21991162","station_name":"Betriebshof GVB","station_name_local":"Betriebshof GVB","station_name_en":null,"city":"Gera","country":"Germany","lines":["2"],"wikipedia":null,"merged_from":2,"merged_names":null,"is_terminus":false,"routes":[{"ref":"2","name":"Tram 2 Straßenbahn Gera","route_color":"#fbba00"}],"pass_count":1,"station_degree":2,"codes":null,"is_interchange":false,"station_role":"normal"},"geometry":{"type":"Point","coordinates":[12.07878885,50.8493275]},"__memberLines":{}},{"type":"Feature","properties":{"station_id":"n254992343","station_name":"Straße des Bergmanns","station_name_local":"Straße des Bergmanns","station_name_en":null,"city":"Gera","country":"Germany","lines":["3"],"wikipedia":null,"merged_from":2,"merged_names":null,"is_terminus":false,"routes":[{"ref":"3","name":"Tram 3 Straßenbahn Gera","route_color":"#ef1c29"}],"pass_count":1,"station_degree":2,"codes":null,"is_interchange":false,"station_role":"normal"},"geometry":{"type":"Point","coordinates":[12.080286749999999,50.893546900000004]},"__memberLines":{}},{"type":"Feature","properties":{"station_id":"n255152715","station_name":"Grüner Weg","station_name_local":"Grüner Weg","station_name_en":null,"city":"Gera","country":"Germany","lines":["3"],"wikipedia":null,"merged_from":2,"merged_names":null,"is_terminus":false,"routes":[{"ref":"3","name":"Tram 3 Straßenbahn Gera","route_color":"#ef1c29"}],"pass_count":1,"station_degree":2,"codes":null,"is_interchange":false,"station_role":"normal"},"geometry":{"type":"Point","coordinates":[12.07687615,50.89669395]},"__memberLines":{}},{"type":"Feature","properties":{"station_id":"n255856498","station_name":"Leipziger Straße/Metropol","station_name_local":"Leipziger Straße/Metropol","station_name_en":null,"city":"Gera","country":"Germany","lines":["3"],"wikipedia":null,"merged_from":2,"merged_names":null,"is_terminus":false,"routes":[{"ref":"3","name":"Tram 3 Straßenbahn Gera","route_color":"#ef1c29"}],"pass_count":1,"station_degree":2,"codes":null,"is_interchange":false,"station_role":"normal"},"geometry":{"type":"Point","coordinates":[12.08444175,50.87989055]},"__memberLines":{}},{"type":"Feature","properties":{"station_id":"n290609832","station_name":"Brüte","station_name_local":"Brüte","station_name_en":null,"city":"Gera","country":"Germany","lines":["2","3"],"wikipedia":null,"merged_from":2,"merged_names":null,"is_terminus":false,"routes":[{"ref":"2","name":"Tram 2 Straßenbahn Gera","route_color":"#fbba00"},{"ref":"3","name":"Tram 3 Straßenbahn Gera","route_color":"#ef1c29"}],"pass_count":2,"station_degree":2,"codes":null,"is_interchange":false,"station_role":"normal"},"geometry":{"type":"Point","coordinates":[12.06368115,50.8402816]},"__memberLines":{}},{"type":"Feature","properties":{"station_id":"n306652937","station_name":"Otto Dix","station_name_local":"Otto Dix","station_name_en":null,"city":"Gera","country":"Germany","lines":["1"],"wikipedia":null,"merged_from":2,"merged_names":null,"is_terminus":false,"routes":[{"ref":"1","name":"Tram 1 Straßenbahn Gera","route_color":"#f78a21"}],"pass_count":1,"station_degree":2,"codes":null,"is_interchange":false,"station_role":"normal"},"geometry":{"type":"Point","coordinates":[12.071483149999999,50.8825331]},"__memberLines":{}},{"type":"Feature","properties":{"station_id":"n311007556","station_name":"Friedrich-Naumann-Platz","station_name_local":"Friedrich-Naumann-Platz","station_name_en":null,"city":"Gera","country":"Germany","lines":["1"],"wikipedia":null,"merged_from":2,"merged_names":null,"is_terminus":false,"routes":[{"ref":"1","name":"Tram 1 Straßenbahn Gera","route_color":"#f78a21"}],"pass_count":1,"station_degree":2,"codes":null,"is_interchange":false,"station_role":"normal"},"geometry":{"type":"Point","coordinates":[12.0690004,50.884364500000004]},"__memberLines":{}},{"type":"Feature","properties":{"station_id":"n314733914","station_name":"Lasurstraße","station_name_local":"Lasurstraße","station_name_en":null,"city":"Gera","country":"Germany","lines":["1"],"wikipedia":null,"merged_from":2,"merged_names":null,"is_terminus":false,"routes":[{"ref":"1","name":"Tram 1 Straßenbahn Gera","route_color":"#f78a21"}],"pass_count":1,"station_degree":2,"codes":null,"is_interchange":false,"station_role":"normal"},"geometry":{"type":"Point","coordinates":[12.08933935,50.8521882]},"__memberLines":{}},{"type":"Feature","properties":{"station_id":"n314734281","station_name":"Pforten","station_name_local":"Pforten","station_name_en":null,"city":"Gera","country":"Germany","lines":["1"],"wikipedia":null,"merged_from":2,"merged_names":null,"is_terminus":false,"routes":[{"ref":"1","name":"Tram 1 Straßenbahn Gera","route_color":"#f78a21"}],"pass_count":1,"station_degree":2,"codes":null,"is_interchange":false,"station_role":"normal"},"geometry":{"type":"Point","coordinates":[12.0892937,50.857830050000004]},"__memberLines":{}},{"type":"Feature","properties":{"station_id":"n314735329","station_name":"Schmelzhüttenstraße","station_name_local":"Schmelzhüttenstraße","station_name_en":null,"city":"Gera","country":"Germany","lines":["1"],"wikipedia":null,"merged_from":2,"merged_names":null,"is_terminus":false,"routes":[{"ref":"1","name":"Tram 1 Straßenbahn Gera","route_color":"#f78a21"}],"pass_count":1,"station_degree":2,"codes":null,"is_interchange":false,"station_role":"normal"},"geometry":{"type":"Point","coordinates":[12.08244705,50.87266005]},"__memberLines":{}},{"type":"Feature","properties":{"station_id":"n321630836","station_name":"Zeulenrodaer Straße","station_name_local":"Zeulenrodaer Straße","station_name_en":null,"city":"Gera","country":"Germany","lines":["2","3"],"wikipedia":null,"merged_from":2,"merged_names":null,"is_terminus":false,"routes":[{"ref":"2","name":"Tram 2 Straßenbahn Gera","route_color":"#fbba00"},{"ref":"3","name":"Tram 3 Straßenbahn Gera","route_color":"#ef1c29"}],"pass_count":2,"station_degree":2,"codes":null,"is_interchange":false,"station_role":"normal"},"geometry":{"type":"Point","coordinates":[12.062463399999999,50.843395400000006]},"__memberLines":{}},{"type":"Feature","properties":{"station_id":"n321632777","station_name":"Lusan/Zeulsdorf","station_name_local":"Lusan/Zeulsdorf","station_name_en":null,"city":"Gera","country":"Germany","lines":["2","3"],"wikipedia":null,"merged_from":2,"merged_names":null,"is_terminus":true,"routes":[{"ref":"2","name":"Tram 2 Straßenbahn Gera","route_color":"#fbba00"},{"ref":"3","name":"Tram 3 Straßenbahn Gera","route_color":"#ef1c29"}],"pass_count":2,"station_degree":1,"codes":null,"is_interchange":false,"station_role":"terminus"},"geometry":{"type":"Point","coordinates":[12.0510754,50.8395388]},"__memberLines":{}},{"type":"Feature","properties":{"station_id":"n322037043","station_name":"Bahnhof Zwötzen","station_name_local":"Bahnhof Zwötzen","station_name_en":null,"city":"Gera","country":"Germany","lines":["2"],"wikipedia":null,"is_terminus":true,"routes":[{"ref":"2","name":"Tram 2 Straßenbahn Gera","route_color":"#fbba00"}],"pass_count":1,"station_degree":1,"codes":null,"merged_from":null,"merged_names":null,"is_interchange":false,"station_role":"terminus"},"geometry":{"type":"Point","coordinates":[12.0822711,50.8504412]},"__memberLines":{}},{"type":"Feature","properties":{"station_id":"n323106572","station_name":"Südfriedhof","station_name_local":"Südfriedhof","station_name_en":null,"city":"Gera","country":"Germany","lines":["3"],"wikipedia":null,"merged_from":2,"merged_names":null,"is_terminus":false,"routes":[{"ref":"3","name":"Tram 3 Straßenbahn Gera","route_color":"#ef1c29"}],"pass_count":1,"station_degree":2,"codes":null,"is_interchange":false,"station_role":"normal"},"geometry":{"type":"Point","coordinates":[12.07288145,50.8616907]},"__memberLines":{}},{"type":"Feature","properties":{"station_id":"n367753008","station_name":"Hilde-Coppi-Straße","station_name_local":"Hilde-Coppi-Straße","station_name_en":null,"city":"Gera","country":"Germany","lines":["3"],"wikipedia":null,"merged_from":2,"merged_names":null,"is_terminus":false,"routes":[{"ref":"3","name":"Tram 3 Straßenbahn Gera","route_color":"#ef1c29"}],"pass_count":1,"station_degree":2,"codes":null,"is_interchange":false,"station_role":"normal"},"geometry":{"type":"Point","coordinates":[12.091774749999999,50.90237895]},"__memberLines":{}},{"type":"Feature","properties":{"station_id":"n397458696","station_name":"Duale Hochschule","station_name_local":"Duale Hochschule","station_name_en":null,"city":"Gera","country":"Germany","lines":["3"],"wikipedia":null,"merged_from":4,"merged_names":null,"is_terminus":false,"routes":[{"ref":"3","name":"Tram 3 Straßenbahn Gera","route_color":"#ef1c29"}],"pass_count":1,"station_degree":2,"codes":null,"is_interchange":false,"station_role":"normal"},"geometry":{"type":"Point","coordinates":[12.0722913,50.904051849999995]},"__memberLines":{}},{"type":"Feature","properties":{"station_id":"n408185869","station_name":"Ernst-Abbe-Straße","station_name_local":"Ernst-Abbe-Straße","station_name_en":null,"city":"Gera","country":"Germany","lines":["3"],"wikipedia":null,"merged_from":2,"merged_names":null,"is_terminus":false,"routes":[{"ref":"3","name":"Tram 3 Straßenbahn Gera","route_color":"#ef1c29"}],"pass_count":1,"station_degree":2,"codes":null,"is_interchange":false,"station_role":"normal"},"geometry":{"type":"Point","coordinates":[12.095424300000001,50.9007534]},"__memberLines":{}},{"type":"Feature","properties":{"station_id":"n413333365","station_name":"Sorge/Markt","station_name_local":"Sorge/Markt","station_name_en":null,"city":"Gera","country":"Germany","lines":["3"],"wikipedia":null,"merged_from":2,"merged_names":null,"is_terminus":false,"routes":[{"ref":"3","name":"Tram 3 Straßenbahn Gera","route_color":"#ef1c29"}],"pass_count":1,"station_degree":2,"codes":null,"is_interchange":false,"station_role":"normal"},"geometry":{"type":"Point","coordinates":[12.0829853,50.87736285]},"__memberLines":{}},{"type":"Feature","properties":{"station_id":"n413348867","station_name":"Tinz","station_name_local":"Tinz","station_name_en":null,"city":"Gera","country":"Germany","lines":["3"],"wikipedia":null,"merged_from":2,"merged_names":null,"is_terminus":false,"routes":[{"ref":"3","name":"Tram 3 Straßenbahn Gera","route_color":"#ef1c29"}],"pass_count":1,"station_degree":2,"codes":null,"is_interchange":false,"station_role":"normal"},"geometry":{"type":"Point","coordinates":[12.073288250000001,50.8998704]},"__memberLines":{}},{"type":"Feature","properties":{"station_id":"n413371619","station_name":"Heidecksburgstraße","station_name_local":"Heidecksburgstraße","station_name_en":null,"city":"Gera","country":"Germany","lines":["3"],"wikipedia":null,"merged_from":2,"merged_names":null,"is_terminus":false,"routes":[{"ref":"3","name":"Tram 3 Straßenbahn Gera","route_color":"#ef1c29"}],"pass_count":1,"station_degree":2,"codes":null,"is_interchange":false,"station_role":"normal"},"geometry":{"type":"Point","coordinates":[12.0863285,50.90431635]},"__memberLines":{}},{"type":"Feature","properties":{"station_id":"n413371620","station_name":"Bieblach-Ost","station_name_local":"Bieblach-Ost","station_name_en":null,"city":"Gera","country":"Germany","lines":["3"],"wikipedia":null,"merged_from":2,"merged_names":null,"is_terminus":true,"routes":[{"ref":"3","name":"Tram 3 Straßenbahn Gera","route_color":"#ef1c29"}],"pass_count":1,"station_degree":1,"codes":null,"is_interchange":false,"station_role":"terminus"},"geometry":{"type":"Point","coordinates":[12.0998245,50.900544]},"__memberLines":{}},{"type":"Feature","properties":{"station_id":"n429533635","station_name":"Zwötzen","station_name_local":"Zwötzen","station_name_en":null,"city":"Gera","country":"Germany","lines":["1"],"wikipedia":null,"is_terminus":true,"routes":[{"ref":"1","name":"Tram 1 Straßenbahn Gera","route_color":"#f78a21"}],"pass_count":1,"station_degree":1,"codes":null,"merged_from":null,"merged_names":null,"is_interchange":false,"station_role":"terminus"},"geometry":{"type":"Point","coordinates":[12.087103,50.8484839]},"__memberLines":{}},{"type":"Feature","properties":{"station_id":"n488288309","station_name":"Bruno-Brause-Straße","station_name_local":"Bruno-Brause-Straße","station_name_en":null,"city":"Gera","country":"Germany","lines":["2","3"],"wikipedia":null,"merged_from":2,"merged_names":null,"is_terminus":false,"routes":[{"ref":"2","name":"Tram 2 Straßenbahn Gera","route_color":"#fbba00"},{"ref":"3","name":"Tram 3 Straßenbahn Gera","route_color":"#ef1c29"}],"pass_count":2,"station_degree":2,"codes":null,"is_interchange":false,"station_role":"normal"},"geometry":{"type":"Point","coordinates":[12.05809155,50.839327749999995]},"__memberLines":{}},{"type":"Feature","properties":{"station_id":"n509658869","station_name":"Südbahnhof","station_name_local":"Südbahnhof","station_name_en":null,"city":"Gera","country":"Germany","lines":["3"],"wikipedia":null,"merged_from":2,"merged_names":null,"is_terminus":false,"routes":[{"ref":"3","name":"Tram 3 Straßenbahn Gera","route_color":"#ef1c29"}],"pass_count":1,"station_degree":2,"codes":null,"is_interchange":false,"station_role":"normal"},"geometry":{"type":"Point","coordinates":[12.07597105,50.872457600000004]},"__memberLines":{}},{"type":"Feature","properties":{"station_id":"n1118471410","station_name":"Untermhaus","station_name_local":"Untermhaus","station_name_en":null,"city":"Gera","country":"Germany","lines":["1"],"wikipedia":null,"merged_from":2,"merged_names":null,"is_terminus":true,"routes":[{"ref":"1","name":"Tram 1 Straßenbahn Gera","route_color":"#f78a21"}],"pass_count":1,"station_degree":1,"codes":null,"is_interchange":false,"station_role":"terminus"},"geometry":{"type":"Point","coordinates":[12.0691313,50.89060335]},"__memberLines":{}},{"type":"Feature","properties":{"station_id":"n1127945650","station_name":"Ernststraße","station_name_local":"Ernststraße","station_name_en":null,"city":"Gera","country":"Germany","lines":["1"],"wikipedia":null,"merged_from":2,"merged_names":null,"is_terminus":false,"routes":[{"ref":"1","name":"Tram 1 Straßenbahn Gera","route_color":"#f78a21"}],"pass_count":1,"station_degree":2,"codes":null,"is_interchange":false,"station_role":"normal"},"geometry":{"type":"Point","coordinates":[12.06938725,50.88804925]},"__memberLines":{}},{"type":"Feature","properties":{"station_id":"n2273730239","station_name":"Friedrich-Engels-Straße","station_name_local":"Friedrich-Engels-Straße","station_name_en":null,"city":"Gera","country":"Germany","lines":["3"],"wikipedia":null,"merged_from":2,"merged_names":null,"is_terminus":false,"routes":[{"ref":"3","name":"Tram 3 Straßenbahn Gera","route_color":"#ef1c29"}],"pass_count":1,"station_degree":2,"codes":null,"is_interchange":false,"station_role":"normal"},"geometry":{"type":"Point","coordinates":[12.0830787,50.88372345]},"__memberLines":{}},{"type":"Feature","properties":{"station_id":"n2273730257","station_name":"Heinrichstraße","station_name_local":"Heinrichstraße","station_name_en":null,"city":"Gera","country":"Germany","lines":["1","3"],"wikipedia":null,"merged_from":2,"merged_names":null,"is_terminus":false,"routes":[{"ref":"1","name":"Tram 1 Straßenbahn Gera","route_color":"#f78a21"},{"ref":"3","name":"Tram 3 Straßenbahn Gera","route_color":"#ef1c29"}],"pass_count":2,"station_degree":4,"codes":null,"is_interchange":true,"station_role":"interchange"},"geometry":{"type":"Point","coordinates":[12.0791783,50.87576315]},"__memberLines":{}},{"type":"Feature","properties":{"station_id":"n2273730279","station_name":"An der Spielwiese","station_name_local":"An der Spielwiese","station_name_en":null,"city":"Gera","country":"Germany","lines":["3"],"wikipedia":null,"merged_from":2,"merged_names":null,"is_terminus":false,"routes":[{"ref":"3","name":"Tram 3 Straßenbahn Gera","route_color":"#ef1c29"}],"pass_count":1,"station_degree":2,"codes":null,"is_interchange":false,"station_role":"normal"},"geometry":{"type":"Point","coordinates":[12.07248295,50.8702383]},"__memberLines":{}},{"type":"Feature","properties":{"station_id":"n2332744440","station_name":"Oststraße","station_name_local":"Oststraße","station_name_en":null,"city":"Gera","country":"Germany","lines":["3"],"wikipedia":null,"merged_from":2,"merged_names":null,"is_terminus":false,"routes":[{"ref":"3","name":"Tram 3 Straßenbahn Gera","route_color":"#ef1c29"}],"pass_count":1,"station_degree":2,"codes":null,"is_interchange":false,"station_role":"normal"},"geometry":{"type":"Point","coordinates":[12.0728186,50.8655408]},"__memberLines":{}},{"type":"Feature","properties":{"station_id":"n3284700732","station_name":"Herderstraße/Stadtarchiv","station_name_local":"Herderstraße/Stadtarchiv","station_name_en":null,"city":"Gera","country":"Germany","lines":["3"],"wikipedia":null,"merged_from":2,"merged_names":null,"is_terminus":false,"routes":[{"ref":"3","name":"Tram 3 Straßenbahn Gera","route_color":"#ef1c29"}],"pass_count":1,"station_degree":2,"codes":null,"is_interchange":false,"station_role":"normal"},"geometry":{"type":"Point","coordinates":[12.082106750000001,50.88713]},"__memberLines":{}},{"type":"Feature","properties":{"station_id":"n3285695665","station_name":"Puschkinplatz/Bibliothek","station_name_local":"Puschkinplatz/Bibliothek","station_name_en":null,"city":"Gera","country":"Germany","lines":["1"],"wikipedia":null,"merged_from":2,"merged_names":null,"is_terminus":false,"routes":[{"ref":"1","name":"Tram 1 Straßenbahn Gera","route_color":"#f78a21"}],"pass_count":1,"station_degree":2,"codes":null,"is_interchange":false,"station_role":"normal"},"geometry":{"type":"Point","coordinates":[12.0786819,50.8789794]},"__memberLines":{}},{"type":"Feature","properties":{"station_id":"n3285846884","station_name":"Wintergarten","station_name_local":"Wintergarten","station_name_en":null,"city":"Gera","country":"Germany","lines":["1"],"wikipedia":null,"merged_from":2,"merged_names":null,"is_terminus":false,"routes":[{"ref":"1","name":"Tram 1 Straßenbahn Gera","route_color":"#f78a21"}],"pass_count":1,"station_degree":2,"codes":null,"is_interchange":false,"station_role":"normal"},"geometry":{"type":"Point","coordinates":[12.085060649999999,50.863279]},"__memberLines":{}},{"type":"Feature","properties":{"station_id":"n3399986347","station_name":"Erfurtstraße","station_name_local":"Erfurtstraße","station_name_en":null,"city":"Gera","country":"Germany","lines":["1"],"wikipedia":null,"merged_from":2,"merged_names":null,"is_terminus":false,"routes":[{"ref":"1","name":"Tram 1 Straßenbahn Gera","route_color":"#f78a21"}],"pass_count":1,"station_degree":2,"codes":null,"is_interchange":false,"station_role":"normal"},"geometry":{"type":"Point","coordinates":[12.083892800000001,50.8696609]},"__memberLines":{}},{"type":"Feature","properties":{"station_id":"n4791475807","station_name":"Schenkendorfstraße","station_name_local":"Schenkendorfstraße","station_name_en":null,"city":"Gera","country":"Germany","lines":["3"],"wikipedia":null,"merged_from":2,"merged_names":null,"is_terminus":false,"routes":[{"ref":"3","name":"Tram 3 Straßenbahn Gera","route_color":"#ef1c29"}],"pass_count":1,"station_degree":2,"codes":null,"is_interchange":false,"station_role":"normal"},"geometry":{"type":"Point","coordinates":[12.0728159,50.85809005]},"__memberLines":{}},{"type":"Feature","properties":{"station_id":"n5316212146","station_name":"Hauptbahnhof/Theater","station_name_local":"Hauptbahnhof/Theater","station_name_en":null,"city":"Gera","country":"Germany","lines":["1"],"wikipedia":null,"merged_from":2,"merged_names":null,"is_terminus":false,"routes":[{"ref":"1","name":"Tram 1 Straßenbahn Gera","route_color":"#f78a21"}],"pass_count":1,"station_degree":2,"codes":null,"is_interchange":false,"station_role":"normal"},"geometry":{"type":"Point","coordinates":[12.076727250000001,50.8824359]},"__memberLines":{}},{"type":"Feature","properties":{"station_id":"junc:12.07814:50.87515","station_name":"","station_name_local":null,"station_name_en":null,"city":"Gera","country":"Germany","lines":null,"station_role":"junction","is_junction":true,"is_interchange":false,"is_terminus":false,"merged_from":null,"merged_names":null,"codes":null},"geometry":{"type":"Point","coordinates":[12.0781369,50.8751519]}}]}