{"type":"FeatureCollection","features":[{"type":"Feature","properties":{"route_ref":"A","route_color":"#e30613"},"geometry":{"type":"LineString","coordinates":[[-0.5554596568547061,47.46470083952577],[-0.5547439500000007,47.4614033],[-0.554621402904504,47.46022936828621],[-0.5536293090909109,47.45509106363637],[-0.5536545412082803,47.45461227901131],[-0.5544988815345121,47.45396356361753],[-0.5579112229530406,47.45076037410698],[-0.5583645062765962,47.450517186071586],[-0.5589674700586887,47.45037529853209],[-0.5601678771262706,47.45049400189524],[-0.5606997670762874,47.45038186339516],[-0.5620273239927299,47.44937667354251],[-0.5628274354870719,47.44864477863897],[-0.5631279278947959,47.44822672223054],[-0.5629672297808375,47.44799914351053],[-0.5614903121799254,47.447230700997984],[-0.561297812465296,47.446985952831746],[-0.5613506203419701,47.44678869156853],[-0.5619315158274063,47.44615252378384],[-0.562220695674026,47.44531164776682],[-0.5625732411865139,47.44382587783897],[-0.5623484429219143,47.44350060566007],[-0.5617787982584734,47.44334230948375],[-0.5607041738344929,47.44323285291722],[-0.5594998583709182,47.44326906588636],[-0.5553485831935111,47.44380638165201],[-0.5540537490760536,47.44389751019905],[-0.5594976564554244,47.44326894027737],[-0.5613043635647483,47.44327319684273],[-0.5623355498950194,47.44349363294019],[-0.5625751364620777,47.44380421529393],[-0.5619510188718619,47.44611451811714],[-0.5613543861188688,47.44678439811131],[-0.5613164432785398,47.44704350084483],[-0.5616568346125008,47.44733107661807],[-0.5630100050627598,47.44802254975947],[-0.5630950597299117,47.44835189435883],[-0.5615573979688986,47.44979434805098],[-0.5607034833287097,47.45038068963648],[-0.5601376596672247,47.45049404836963],[-0.558968320404347,47.450375234133574],[-0.5583655631511651,47.45051675773265],[-0.5580234283765085,47.45069362726638],[-0.5536297622761797,47.45467670323632],[-0.5547303371384664,47.46121628008073],[-0.5554534952235262,47.46464050568928],[-0.5554289436882426,47.4649973295707],[-0.5552579286292033,47.465124035375474],[-0.5546203473623545,47.465266543569626],[-0.5541789353064297,47.46552414250874],[-0.5478579014400751,47.470326070921296],[-0.5459727428007053,47.47263719728294],[-0.545448999936858,47.47355259235879],[-0.5454817361324213,47.47379693694093],[-0.5457984022716724,47.47404558898868],[-0.5508428499999982,47.476231],[-0.551241145786808,47.47650187893476],[-0.5512088605845918,47.47680731271229],[-0.5506013149387725,47.477309651462704],[-0.5492085835038659,47.4787948773125],[-0.5490230461528641,47.47909161394417],[-0.5491327859449462,47.47925790025713],[-0.5507016651911566,47.4799572716171],[-0.5538332204162871,47.48076186245142],[-0.5542208810456722,47.48106164248803],[-0.553639027602042,47.48207294743762],[-0.5535495608677576,47.482937926175026],[-0.5533302548430418,47.48344268291474],[-0.5543613043474158,47.485164816262106],[-0.5552341773840255,47.486205491609994],[-0.5553723512623111,47.486526280780176],[-0.5540034639020823,47.48822812608237],[-0.5524902087717868,47.48976659834464],[-0.5520650706829129,47.49054839975667],[-0.5519961387276698,47.49102007685527],[-0.5521783573573869,47.49118335670482],[-0.5526830828001086,47.49136029703909],[-0.555959353836679,47.492163281225736],[-0.5582862072229126,47.492101075235034],[-0.5610673841068092,47.49224173336002],[-0.5635918157964618,47.4922625310622],[-0.5699075162139177,47.4926598671293],[-0.5704383493782761,47.49293758595101],[-0.5719633374449201,47.49484084829298],[-0.5721892155645021,47.49506448240899],[-0.5725052766442711,47.49516268071904],[-0.5731228520840622,47.494971483751165],[-0.5770222395699077,47.493133991164896],[-0.577439085172366,47.49307034264171],[-0.5778088041454904,47.49315341462437],[-0.5782443295343273,47.49352074820711],[-0.5789635571428556,47.494401714285715],[-0.5871737048593311,47.50473303345208],[-0.589427849999999,47.5064942],[-0.5909463616771422,47.50828229257828],[-0.5912894843168743,47.508557592467575],[-0.5960005544102132,47.51152987025481],[-0.5913087503562309,47.50856767398673],[-0.5908225357007297,47.50814443525315],[-0.5895202138532902,47.506582827466744],[-0.5871706695408115,47.50473020593729],[-0.5782442034150611,47.49352061195133],[-0.5778703845659995,47.49318588979487],[-0.5774896900559955,47.49307511193466],[-0.5770608,47.4931204],[-0.573167127272724,47.49496919090909],[-0.572514317864706,47.49516415495578],[-0.5721391609045977,47.49502453993461],[-0.5704010600610104,47.49290181232408],[-0.5699153497185262,47.49266099175964],[-0.5635890941623193,47.49226254365005],[-0.5610655463744268,47.49224168711747],[-0.5584321489493866,47.492102683987746],[-0.5560679608461456,47.492173284521336],[-0.5527546538461554,47.4913793],[-0.5520267167540572,47.491070833712335],[-0.5520649000000033,47.4905487],[-0.55246168159334,47.48980538277025],[-0.5541210199298061,47.488097470089805],[-0.5553709557588621,47.486536252387225],[-0.5552995157489804,47.48630006979756],[-0.5543322385596757,47.48512129007839],[-0.5533385330451186,47.48349868901487],[-0.5535431525102925,47.482970988363135],[-0.5536274034453094,47.48210600255577],[-0.5542029787385174,47.48116113039682],[-0.5541880401984425,47.481026159252814],[-0.5537517269554513,47.480738348224115],[-0.5534808644782867,47.48072638530152],[-0.5533925020825934,47.480640609421776],[-0.5505208459718246,47.479898821924166],[-0.5491196992095748,47.47925143576704],[-0.5490253707791511,47.479060383499075],[-0.549209676614688,47.47879234189176],[-0.5506716934076006,47.477235588327986],[-0.5512112261453135,47.47680217431788],[-0.5512512608226569,47.47652005824052],[-0.55009860014311,47.47590775215492],[-0.5460103752974024,47.474162173614786],[-0.5455520118300807,47.47388449617087],[-0.5454384924764207,47.47361157771947],[-0.546303307303657,47.472178325255435],[-0.5478588438793921,47.47032535506849],[-0.5541477,47.4655474],[-0.5546201973627602,47.46526438308678],[-0.5553624398697671,47.46507093627416],[-0.5554589114036338,47.46470385091595],[-0.5553872196864363,47.46435333310553]]}},{"type":"Feature","properties":{"route_ref":"B","route_color":"#e30613"},"geometry":{"type":"MultiLineString","coordinates":[[[-0.5270245999999994,47.489935],[-0.5267590901147319,47.488044013817614],[-0.5268000033348882,47.487760276477616],[-0.527131250317206,47.48741517700584],[-0.5271720199999997,47.48706178],[-0.5266993,47.482692],[-0.5282362585320066,47.4791444190437],[-0.5281887780077488,47.4772776856196],[-0.5283280071987716,47.476204833751126],[-0.5310011173754604,47.471591654603635],[-0.5317654960826567,47.46937137565412],[-0.5319626251727178,47.469129671528805],[-0.5323398629013881,47.469082619416874],[-0.5390605540785429,47.471753811876475],[-0.5427463251121668,47.47262139659531],[-0.5456752,47.4740174],[-0.5426372826000142,47.472576045616016],[-0.5390526748449582,47.471750605516846],[-0.5326653206632453,47.469180768749865],[-0.5322272834082772,47.46907489970371],[-0.5319168700989672,47.469158132755396],[-0.5310319464701005,47.471493511348406],[-0.528356756043802,47.47610226121642],[-0.5281823857142867,47.47737424285714],[-0.5282393947556582,47.479086023349865],[-0.5267063615416987,47.482663117263776],[-0.5271775005041293,47.48712878328822],[-0.5271176517032518,47.48745105751305],[-0.5268062490462834,47.48773450915753],[-0.5267237579516388,47.48812407396999],[-0.5269869071785708,47.48993441300717]],[[-0.6032213276511973,47.477971640238394],[-0.5997466449144049,47.47717537671648],[-0.5991760428714549,47.476956163279276],[-0.599658384340642,47.47488596957853],[-0.5997928339987142,47.473681496902465],[-0.5997210504150021,47.47337256091842],[-0.5994317340299613,47.47319620790801],[-0.5802059136812535,47.47376667599291],[-0.5779779050713393,47.47369916110391],[-0.5777026624777574,47.47361615270866],[-0.5769413688994325,47.47292453206546],[-0.5765097560298674,47.47267062479561],[-0.5737438873093534,47.4714572409679],[-0.5717043915879088,47.47082050854758],[-0.5693944932071537,47.47031191051515],[-0.5690039863095725,47.47037955747635],[-0.5687540368423833,47.470534752979695],[-0.5660744305881008,47.47255195882132],[-0.5658124200894504,47.47255685870545],[-0.5655367499950295,47.47242193355702],[-0.5645563033517821,47.47173300715488],[-0.5641821524139425,47.47172088169605],[-0.5625636700994858,47.47274720993896],[-0.5611183844500172,47.47388081269322],[-0.5595042642310056,47.474847217579395],[-0.5591598367627097,47.474841992176046],[-0.5584279,47.4744287],[-0.5573614618657237,47.47408092745829],[-0.5562852620207082,47.47379986964885],[-0.5559333035323897,47.473830343745945],[-0.5538394,47.4752344],[-0.5516532404520376,47.47648205223681],[-0.5510364093160585,47.47633358375165],[-0.5457039,47.47399310000001],[-0.5505873696825597,47.47615572944573],[-0.551535501312618,47.476488507221],[-0.55202165692066,47.47633216078941],[-0.5550822465461491,47.47445596967313],[-0.555966610149072,47.47381561235226],[-0.5566125314528416,47.47387722717761],[-0.5583071492819262,47.47437434961714],[-0.5593075680476377,47.474873320657146],[-0.5599441566578549,47.474619272833756],[-0.5609068188208729,47.47399850245265]]]}},{"type":"Feature","properties":{"route_ref":"C","route_color":"#e30613"},"geometry":{"type":"MultiLineString","coordinates":[[[-0.555400116507813,47.4643542855405],[-0.5553624398697671,47.46507093627416],[-0.5543751508030659,47.465390950060474],[-0.5491946076985882,47.469311168000935],[-0.5541789353064297,47.46552414250874],[-0.5546203473623545,47.465266543569626],[-0.5553165805579379,47.46510175906614],[-0.5554361295934184,47.464982155510725],[-0.5536297622761797,47.45467670323632],[-0.5580234283765085,47.45069362726638],[-0.5583655631511651,47.45051675773265],[-0.558968320404347,47.450375234133574],[-0.5601376596672247,47.45049404836963],[-0.5607034833287097,47.45038068963648],[-0.5615573979688986,47.44979434805098],[-0.5630950597299117,47.44835189435883],[-0.5630100050627598,47.44802254975947],[-0.5616568346125008,47.44733107661807],[-0.5613164432785398,47.44704350084483],[-0.5613543861188688,47.44678439811131],[-0.5619510188718619,47.44611451811714],[-0.5625751364620777,47.44380421529393],[-0.5623355498950194,47.44349363294019],[-0.5613043635647483,47.44327319684273],[-0.5594976564554244,47.44326894027737],[-0.5550811665233314,47.44382426105543],[-0.5540493573896289,47.443866768394074],[-0.5553485831935111,47.44380638165201],[-0.5594998583709182,47.44326906588636],[-0.5607041738344929,47.44323285291722],[-0.5617787982584734,47.44334230948375],[-0.5623484429219143,47.44350060566007],[-0.5625732411865139,47.44382587783897],[-0.562220695674026,47.44531164776682],[-0.5619315158274063,47.44615252378384],[-0.5613506203419701,47.44678869156853],[-0.561297812465296,47.446985952831746],[-0.5614903121799254,47.447230700997984],[-0.5629672297808375,47.44799914351053],[-0.5631279278947959,47.44822672223054],[-0.5628274354870719,47.44864477863897],[-0.5620273239927299,47.44937667354251],[-0.5606997670762874,47.45038186339516],[-0.5601678771262706,47.45049400189524],[-0.5589674700586887,47.45037529853209],[-0.5583645062765962,47.450517186071586],[-0.5579112229530406,47.45076037410698],[-0.5544988815345121,47.45396356361753],[-0.5536545412082803,47.45461227901131],[-0.5536293090909109,47.45509106363637],[-0.554621402904504,47.46022936828621],[-0.5547439500000007,47.4614033],[-0.5554424667286182,47.464709703574854]],[[-0.6032145869227422,47.47798505470227],[-0.5997466449144049,47.47717537671648],[-0.5991760428714549,47.476956163279276],[-0.599658384340642,47.47488596957853],[-0.5997928339987142,47.473681496902465],[-0.5997210504150021,47.47337256091842],[-0.5994317340299613,47.47319620790801],[-0.5802059136812535,47.47376667599291],[-0.5779779050713393,47.47369916110391],[-0.5777026624777574,47.47361615270866],[-0.5769413688994325,47.47292453206546],[-0.5765097560298674,47.47267062479561],[-0.5737438873093534,47.4714572409679],[-0.5717043915879088,47.47082050854758],[-0.5693179785979018,47.47030943790289],[-0.5687540368423833,47.470534752979695],[-0.5661750049465605,47.472511153323694]]]}}]}