{"type":"FeatureCollection","features":[{"type":"Feature","properties":{"route_ref":"1","route_color":"#da0873"},"geometry":{"type":"MultiLineString","coordinates":[[[11.406521699999994,53.65273850000001],[11.40573157690072,53.652414001178286],[11.405435573343658,53.652188787403716],[11.405390575747619,53.65173863040087],[11.406857044628323,53.64793326921297],[11.407657284914432,53.646284164705726],[11.408294620000001,53.64419432],[11.40929220441356,53.637860424078],[11.409182167930119,53.63359480715413],[11.40998891202343,53.630673893197624],[11.410791263341721,53.6291705282787],[11.410937465463947,53.62849389583521],[11.41068761067437,53.627508270937675],[11.409896297100607,53.62635680058206],[11.409410766011936,53.62530056880192],[11.408891860996045,53.62105615784458],[11.408497551621805,53.620558758198435],[11.407736771676959,53.619957957765386],[11.407663920501495,53.61943167995845],[11.410163016589634,53.61635520469519],[11.411277155357086,53.61538356320084],[11.412939344061325,53.61455976171205],[11.41720943333333,53.613333833333336],[11.418776399999997,53.61275535],[11.420351105489484,53.61198208354956],[11.423917119784333,53.60988630370717],[11.424425823318016,53.60931993091718],[11.424718339208761,53.608691080393676],[11.425129807669775,53.605165997252456],[11.425479744306204,53.60393180074509],[11.425982042580639,53.60355645740906],[11.42659874859538,53.60338562072251],[11.428631518581733,53.60345225850852]],[[11.455676244810215,53.5973752334324],[11.456758917082137,53.597067216001854],[11.45141475,53.59863105],[11.445630519721131,53.600670100979805],[11.43843851203612,53.60291250730056],[11.436887216135156,53.60312828511954],[11.430009132122068,53.603497794845104],[11.42693397763832,53.603362341515016],[11.425885152293997,53.60359798373046],[11.425462569608952,53.603965368806996],[11.425121900000002,53.6049839],[11.424757660329421,53.60851405977804],[11.424226825355092,53.60956648656555],[11.423805327127052,53.60996660862938],[11.42294098271359,53.61047831399788],[11.420327731000073,53.61197655438493],[11.418577290783855,53.612834292508346],[11.416363422574003,53.61359632204635],[11.412939561585587,53.614558289210336],[11.412069299441828,53.614933288888],[11.410942991384694,53.615611587974534],[11.409604976470591,53.616977629411764],[11.407660288347188,53.61943260266051],[11.40772733148154,53.61995292975247],[11.40873900331984,53.62079455830914],[11.408883,53.621305500000005]]]}},{"type":"Feature","properties":{"route_ref":"4","route_color":"#da0873"},"geometry":{"type":"MultiLineString","coordinates":[[[11.408883,53.621305500000005],[11.40873900331984,53.62079455830914],[11.40772733148154,53.61995292975247],[11.407660288347188,53.61943260266051],[11.409604976470591,53.616977629411764],[11.410942991384694,53.615611587974534],[11.412069299441828,53.614933288888],[11.412939561585587,53.614558289210336],[11.416363422574003,53.61359632204635],[11.418577290783855,53.612834292508346],[11.420327731000073,53.61197655438493],[11.42294098271359,53.61047831399788],[11.423805327127052,53.60996660862938],[11.424226825355092,53.60956648656555],[11.424757660329421,53.60851405977804],[11.425081610666178,53.60525296490842],[11.4253877,53.60402599999999],[11.424909288745788,53.60667158130999],[11.42476015,53.608517750000004],[11.424542263156019,53.60912544592166],[11.424014899499221,53.609806248337385],[11.421009823999997,53.611612652],[11.418776399999997,53.61275535],[11.41720943333333,53.613333833333336],[11.412939344061325,53.61455976171205],[11.411277155357086,53.61538356320084],[11.410163016589634,53.61635520469519],[11.407663920501495,53.61943167995845],[11.407736771676959,53.619957957765386],[11.408497551621805,53.620558758198435],[11.408891860996045,53.62105615784458],[11.409410766011936,53.62530056880192],[11.409896297100607,53.62635680058206],[11.41068761067437,53.627508270937675],[11.410937465463947,53.62849389583521],[11.410791263341721,53.6291705282787],[11.40998891202343,53.630673893197624],[11.409182167930119,53.63359480715413],[11.40929220441356,53.637860424078],[11.408294620000001,53.64419432],[11.407657284914432,53.646284164705726],[11.406857044628323,53.64793326921297],[11.405390575747619,53.65173863040087],[11.405435573343658,53.652188787403716],[11.406521699999994,53.65273850000001]],[[11.415495168195852,53.59367559903117],[11.419293247381876,53.59410609517467],[11.420707999999996,53.59439745],[11.42668397664427,53.59587231857007],[11.427547756311094,53.596393870327894],[11.4278229487972,53.59687443590436],[11.427789198393075,53.597429816858366],[11.42540819798773,53.60404744603763],[11.427790575959104,53.59742755507692],[11.42782336879482,53.59687534579845],[11.427550022636437,53.59639756741883],[11.426997115378601,53.59601554183744],[11.425742928249573,53.595609459645374],[11.42001055459639,53.594256077209735],[11.41840788813723,53.59398870516274],[11.412929657729226,53.59341601149892],[11.409990538719088,53.5928506187124],[11.407595019452417,53.591950638321194],[11.405484581818184,53.59072033636363],[11.403017137500012,53.58885442499999],[11.401987714641635,53.58781770878718],[11.401391008111709,53.58689244027698],[11.401009354043794,53.58600463559894],[11.399531998531868,53.58108958211802],[11.397242169630605,53.57547240696932],[11.396568372459523,53.574409011121666],[11.395901201217354,53.5738841373152],[11.395174745391106,53.57349157101613],[11.387308655285171,53.570365140975596],[11.386348485132915,53.56994974962105],[11.385551626602686,53.569466745643396],[11.384940050000003,53.56882399999999],[11.3826419,53.5651373]]]}},{"type":"Feature","properties":{"route_ref":"2","route_color":"#da0873"},"geometry":{"type":"MultiLineString","coordinates":[[[11.40895135475916,53.621563353157036],[11.408930818599131,53.621312778330164],[11.4089499,53.6223305],[11.409360934137018,53.62513969976813],[11.40976108559129,53.62610976170459],[11.410832192260122,53.62791589656592],[11.41089,53.6282948],[11.410687530991693,53.628686862511216],[11.41018840240421,53.62891423088444],[11.409181337406308,53.628908952339216],[11.407531400443869,53.62875340432715],[11.40601559549054,53.62890642035163],[11.40403762300903,53.62895616153672],[11.403841370089689,53.62902661178771],[11.40373185083167,53.629328397784185],[11.404259669999998,53.63163145],[11.4040792,53.63188718333333],[11.402373475000003,53.63305475],[11.402257155333126,53.633260049866244],[11.40227534001567,53.63393301907044],[11.40184547262014,53.63428218221331],[11.402520228614275,53.63375673926752],[11.402370056035533,53.63391881210922],[11.390194903706488,53.64140041790342],[11.384358078176056,53.64473282536115],[11.381603092782406,53.64537398555975],[11.379156948620302,53.64633434742909],[11.377283693537594,53.64682610960472],[11.376834914591504,53.64717972742459],[11.37632032170604,53.647845348901654],[11.374424985606927,53.649461219966604],[11.373825108802738,53.64990022980491],[11.373053099088613,53.65020418296333],[11.372367752661887,53.650345416511286],[11.369865422836911,53.65053417193222],[11.36429533206086,53.650793464773976],[11.3634995,53.6506039],[11.362861652528496,53.65022510662363],[11.362536175892894,53.64952661979876],[11.362631276886583,53.649062303098205]],[[11.455676244810215,53.5973752334324],[11.456758917082137,53.597067216001854],[11.45141475,53.59863105],[11.445630519721131,53.600670100979805],[11.43843851203612,53.60291250730056],[11.436887216135156,53.60312828511954],[11.430009132122068,53.603497794845104],[11.42693397763832,53.603362341515016],[11.425885152293997,53.60359798373046],[11.425462569608952,53.603965368806996],[11.425121900000002,53.6049839],[11.424757660329421,53.60851405977804],[11.424226825355092,53.60956648656555],[11.423805327127052,53.60996660862938],[11.42294098271359,53.61047831399788],[11.420327731000073,53.61197655438493],[11.418577290783855,53.612834292508346],[11.416363422574003,53.61359632204635],[11.412939561585587,53.614558289210336],[11.412069299441828,53.614933288888],[11.410942991384694,53.615611587974534],[11.409604976470591,53.616977629411764],[11.407660288347188,53.61943260266051],[11.40772733148154,53.61995292975247],[11.40873900331984,53.62079455830914],[11.408883,53.621305500000005]]]}},{"type":"Feature","properties":{"route_ref":"3","route_color":"#da0873"},"geometry":{"type":"MultiLineString","coordinates":[[[11.415495168195852,53.59367559903117],[11.419293247381876,53.59410609517467],[11.420707999999996,53.59439745],[11.425755999999996,53.59561205000001],[11.42668397664427,53.59587231857007],[11.427382459456338,53.59625121270481],[11.427753750678555,53.59668209792318],[11.427810875280546,53.59733537247957],[11.426062654220903,53.60226492003817],[11.426187178858605,53.60272824435839],[11.426434258587257,53.60299728734538],[11.426994424891468,53.60327454760004],[11.427557624206178,53.60337785048075],[11.426986892578597,53.603276130074555],[11.42643476375129,53.602998468508545],[11.426149184195568,53.6026690092353],[11.426067574514493,53.60226833858336],[11.427811507490837,53.5973325938138],[11.427754115824273,53.596690592146224],[11.42738959493584,53.59625932595986],[11.42689103106074,53.5959702933865],[11.425742928249573,53.595609459645374],[11.42001055459639,53.594256077209735],[11.41840788813723,53.59398870516274],[11.412929657729226,53.59341601149892],[11.409990538719088,53.5928506187124],[11.407595019452417,53.591950638321194],[11.405484581818184,53.59072033636363],[11.403017137500012,53.58885442499999],[11.401987714641635,53.58781770878718],[11.401391008111709,53.58689244027698],[11.401009354043794,53.58600463559894],[11.399531998531868,53.58108958211802],[11.397242169630605,53.57547240696932],[11.396568372459523,53.574409011121666],[11.395901201217354,53.5738841373152],[11.395174745391106,53.57349157101613],[11.387308655285171,53.570365140975596],[11.386348485132915,53.56994974962105],[11.385551626602686,53.569466745643396],[11.384940050000003,53.56882399999999],[11.3826419,53.5651373]],[[11.455676244810215,53.5973752334324],[11.456758917082137,53.597067216001854],[11.45141475,53.59863105],[11.445630519721131,53.600670100979805],[11.43843851203612,53.60291250730056],[11.436887216135156,53.60312828511954],[11.430549806460796,53.60347522164048],[11.4275335,53.603374099999996],[11.429690795714986,53.603495654970764]]]}}]}