{"type":"FeatureCollection","features":[{"type":"Feature","properties":{"way_id":1292699808,"route_colors":[],"route_refs":["1"]},"geometry":{"type":"LineString","coordinates":[[20.5024813,53.7366626],[20.5026179,53.7366767],[20.5026424,53.7366793],[20.5026928,53.7366844],[20.5031797,53.7367334]]}},{"type":"Feature","properties":{"way_id":1292699737,"route_colors":[],"route_refs":["1"]},"geometry":{"type":"LineString","coordinates":[[20.5021066,53.7366596],[20.5021379,53.7366607],[20.5021718,53.7366607],[20.5024276,53.7366618],[20.5024485,53.7366621],[20.5024813,53.7366626]]}},{"type":"Feature","properties":{"way_id":1292699735,"route_colors":[],"route_refs":["1"]},"geometry":{"type":"LineString","coordinates":[[20.5021066,53.7366596],[20.5026076,53.7367112],[20.502631,53.7367137],[20.5026827,53.7367189],[20.503173,53.7367683]]}},{"type":"Feature","properties":{"way_id":1085551615,"route_colors":[],"route_refs":["1"]},"geometry":{"type":"LineString","coordinates":[[20.4780556,53.7777112],[20.4780744,53.7776772],[20.4780925,53.7776476],[20.4781107,53.7776223],[20.4781342,53.7775985],[20.4781612,53.7775718],[20.4783384,53.777411],[20.4783748,53.7773798],[20.4786096,53.7771695]]}},{"type":"Feature","properties":{"way_id":1085551614,"route_colors":[],"route_refs":["1","5"]},"geometry":{"type":"LineString","coordinates":[[20.4782615,53.7780559],[20.4781994,53.7780376],[20.4781573,53.7780203],[20.4781263,53.7780037],[20.4780945,53.7779845],[20.478063,53.7779557],[20.4780384,53.7779269],[20.4780257,53.7779022],[20.4780169,53.7778774],[20.478013,53.7778534],[20.4780141,53.777822],[20.4780219,53.7777888],[20.4780328,53.7777607],[20.4780556,53.7777112]]}},{"type":"Feature","properties":{"way_id":1427297395,"route_colors":[],"route_refs":["1","5"]},"geometry":{"type":"LineString","coordinates":[[20.4789643,53.7781984],[20.4783181,53.7780691],[20.4782665,53.7780571],[20.4782615,53.7780559]]}},{"type":"Feature","properties":{"way_id":1080540694,"route_colors":[],"route_refs":["1","5"]},"geometry":{"type":"LineString","coordinates":[[20.4802982,53.7783651],[20.4802682,53.7783674],[20.4801876,53.7783723],[20.4801389,53.7783729],[20.480049,53.7783732],[20.4799707,53.7783709],[20.479891,53.778366],[20.4797999,53.7783567],[20.4797117,53.7783449],[20.4795679,53.7783191],[20.4789643,53.7781984]]}},{"type":"Feature","properties":{"way_id":1427297392,"route_colors":[],"route_refs":["1","5"]},"geometry":{"type":"LineString","coordinates":[[20.4807384,53.7782885],[20.4806461,53.7783114],[20.4805784,53.7783264],[20.4805157,53.7783379],[20.4804575,53.7783473],[20.480404,53.7783544],[20.4803381,53.778362],[20.4802982,53.7783651]]}},{"type":"Feature","properties":{"way_id":367874307,"route_colors":[],"route_refs":["1","5"]},"geometry":{"type":"LineString","coordinates":[[20.4872945,53.7765842],[20.4871941,53.7766104],[20.4871844,53.7766129],[20.4861297,53.776893],[20.485585,53.7770376],[20.4854142,53.7770831],[20.4852315,53.7771318],[20.4828876,53.7777553],[20.4824586,53.7778702],[20.48219,53.7779421],[20.4821174,53.7779615],[20.4819767,53.7779992],[20.481826,53.7780396],[20.4811592,53.778215],[20.48109,53.7782316],[20.4810367,53.7782418],[20.4809801,53.7782498],[20.4809243,53.7782551],[20.480877,53.7782607],[20.4808269,53.7782685],[20.4807813,53.7782779],[20.4807384,53.7782885]]}},{"type":"Feature","properties":{"way_id":1085551607,"route_colors":[],"route_refs":["1"]},"geometry":{"type":"LineString","coordinates":[[20.4875729,53.77622],[20.4876047,53.776265],[20.4876099,53.7762731],[20.4876276,53.7763056],[20.487631,53.7763207],[20.4876327,53.7763283],[20.4876309,53.7763606],[20.4876265,53.7763811],[20.4876182,53.7764048],[20.4876096,53.7764215],[20.4875959,53.7764415],[20.487578,53.7764611],[20.487563,53.7764751],[20.4875317,53.7764976],[20.4875057,53.7765127],[20.4874604,53.7765332],[20.4873653,53.7765625],[20.4872945,53.7765842]]}},{"type":"Feature","properties":{"way_id":1292681911,"route_colors":[],"route_refs":["1","2","3"]},"geometry":{"type":"LineString","coordinates":[[20.4864631,53.7749707],[20.4867543,53.7752997],[20.4868536,53.7754135],[20.4873742,53.7759968],[20.4875291,53.7761702],[20.4875729,53.77622]]}},{"type":"Feature","properties":{"way_id":1326259923,"route_colors":[],"route_refs":["1","2","3"]},"geometry":{"type":"LineString","coordinates":[[20.4869877,53.7735316],[20.4869526,53.7735752],[20.4869173,53.7736231],[20.4869114,53.7736312],[20.4863183,53.7744606],[20.4863049,53.7744827],[20.4862843,53.774515],[20.4862797,53.7745317],[20.4862681,53.7745647],[20.4862614,53.7745967],[20.4862586,53.7746392],[20.4862603,53.7746613],[20.4862681,53.7747064],[20.4862815,53.7747413],[20.4862993,53.7747762],[20.4863238,53.7748125],[20.48635,53.7748467],[20.4864008,53.7749034],[20.4864631,53.7749707]]}},{"type":"Feature","properties":{"way_id":610008549,"route_colors":[],"route_refs":["1","2","3"]},"geometry":{"type":"LineString","coordinates":[[20.4892804,53.7718738],[20.4890874,53.7720081],[20.4879367,53.7728128],[20.4878815,53.7728517],[20.4874905,53.7731273],[20.4871589,53.7733624],[20.4870175,53.7734998],[20.4869877,53.7735316]]}},{"type":"Feature","properties":{"way_id":1292681917,"route_colors":[],"route_refs":["1","2","3"]},"geometry":{"type":"LineString","coordinates":[[20.4891162,53.7711305],[20.4891286,53.771151],[20.4893109,53.771453],[20.4893798,53.771564],[20.4893992,53.7715992],[20.4894127,53.7716232],[20.4894207,53.7716536],[20.4894219,53.7716684],[20.4894219,53.7716872],[20.4894202,53.7717076],[20.4894151,53.7717247],[20.4894068,53.7717432],[20.4893996,53.7717593],[20.4893906,53.7717751],[20.4893762,53.7717936],[20.4893617,53.7718077],[20.4893371,53.7718285],[20.4892982,53.7718615],[20.4892804,53.7718738]]}},{"type":"Feature","properties":{"way_id":1298489894,"route_colors":[],"route_refs":["1","2","3"]},"geometry":{"type":"LineString","coordinates":[[20.4861104,53.7561303],[20.486125,53.7562485],[20.4861287,53.7562777],[20.4861513,53.7564601],[20.4862038,53.7568031],[20.4862108,53.7568473],[20.4862581,53.7571155],[20.4863225,53.7574981],[20.4863252,53.7575141],[20.4863281,53.757531],[20.4863427,53.7576179],[20.4863451,53.7576321],[20.4863553,53.7577105],[20.4863702,53.757824],[20.4863842,53.7579486],[20.4863929,53.7580228],[20.4864011,53.7581125],[20.4864232,53.7583334],[20.4864262,53.7583876],[20.4864404,53.7586186],[20.4864431,53.7586933],[20.4864514,53.7589771],[20.4864523,53.759048],[20.4864524,53.7590743],[20.4864525,53.7591065],[20.4864528,53.7592289],[20.4864529,53.759247],[20.4864584,53.7595585],[20.4864654,53.7597386],[20.4864676,53.7597818],[20.486472,53.7598465],[20.4865019,53.7601731],[20.4865177,53.7603026],[20.486533,53.7604237],[20.4865543,53.7605954],[20.486575,53.76076],[20.486581,53.7608183],[20.4865869,53.7608844],[20.4866208,53.7613392],[20.4866267,53.7614187],[20.4866446,53.761657],[20.4866462,53.7616793],[20.4866574,53.7618285],[20.4866589,53.7618481],[20.48666,53.7618913],[20.4866589,53.7619393],[20.4866572,53.7619737],[20.4866545,53.7620224],[20.4866493,53.7620582],[20.4866387,53.7621135],[20.4866256,53.7621715],[20.4866121,53.7622119],[20.4866098,53.7622185],[20.4866046,53.7622369],[20.486594,53.7622739],[20.486582,53.7623087],[20.4865668,53.7623483],[20.4865521,53.7623853],[20.4864062,53.7627524],[20.4862837,53.7630607],[20.4861563,53.7633839],[20.4860816,53.7635722],[20.4859092,53.7640148],[20.4858958,53.7640505],[20.4858834,53.7640862],[20.4858737,53.7641167],[20.4858672,53.7641418],[20.4858566,53.7641805],[20.485846,53.7642353],[20.4858386,53.7642704],[20.4858349,53.7642939],[20.4858311,53.7643209],[20.4858291,53.7645298],[20.485838,53.7645764],[20.4858493,53.764672],[20.4858866,53.7647822],[20.4858944,53.7648054],[20.4859129,53.7648523],[20.4859433,53.7649141],[20.4859644,53.7649571],[20.4859801,53.7649877],[20.4859961,53.7650191],[20.486017,53.7650546],[20.4860338,53.7650803],[20.4860659,53.7651287],[20.4860904,53.7651669],[20.4861145,53.7651998],[20.4861474,53.765244],[20.4861755,53.7652776],[20.4862024,53.7653118],[20.4862353,53.7653521],[20.4862706,53.7653951],[20.4863007,53.7654302],[20.4863349,53.7654667],[20.4863662,53.7655011],[20.4864605,53.7655955],[20.4865428,53.7656734],[20.4866019,53.7657272],[20.4866577,53.7657767],[20.4867742,53.7658672],[20.4868743,53.7659455],[20.4869433,53.7659941],[20.4872337,53.766185],[20.4872764,53.7662131],[20.4873949,53.7662875],[20.4874967,53.7663548],[20.4876559,53.7664577],[20.4879205,53.7666288],[20.4883021,53.7668757],[20.4884045,53.7669419],[20.4884334,53.7669605],[20.4886454,53.7670954],[20.4888191,53.7672128],[20.4888415,53.7672285],[20.4888841,53.7672595],[20.4889133,53.7672831],[20.4889397,53.7673033],[20.4889626,53.7673242],[20.4889999,53.7673581],[20.4890268,53.7673831],[20.4890483,53.767403],[20.4890707,53.7674274],[20.4890905,53.7674478],[20.4891129,53.7674748],[20.4891349,53.7675011],[20.4891524,53.767522],[20.4891699,53.7675448],[20.4891905,53.7675732],[20.4892085,53.7675992],[20.4892201,53.7676167],[20.4892336,53.7676374],[20.4892466,53.7676596],[20.4892619,53.7676893],[20.489278,53.7677204],[20.4892946,53.7677551],[20.4893049,53.7677814],[20.489313,53.7678057],[20.4893314,53.7678625],[20.4893404,53.767889],[20.4893471,53.7679166],[20.4893543,53.7679548],[20.4893579,53.7679765],[20.4893619,53.768003],[20.4893641,53.7680335],[20.4893646,53.7680696],[20.4893646,53.7680929],[20.4893646,53.7681179],[20.4893646,53.7681452],[20.4893628,53.7681693],[20.4893592,53.7681982],[20.4893565,53.7682221],[20.4893484,53.7682637],[20.4893426,53.7682886],[20.4893332,53.7683279],[20.4893251,53.7683544],[20.4893152,53.7683873],[20.4893009,53.7684278],[20.489287,53.768465],[20.4892121,53.7686386],[20.4890088,53.7691135],[20.4888958,53.7693843],[20.4888774,53.7694315],[20.4888666,53.769463],[20.4888527,53.7695094],[20.488833,53.7695816],[20.4888096,53.769664],[20.4888016,53.7697003],[20.4887962,53.7697324],[20.4887868,53.7697881],[20.4887814,53.7698247],[20.4887751,53.7698801],[20.4887711,53.7699273],[20.4887693,53.7699711],[20.4887675,53.77001],[20.4887675,53.7700583],[20.4887684,53.7700957],[20.4887684,53.7701304],[20.4887706,53.7701638],[20.4887746,53.7702105],[20.4887778,53.7702474],[20.4887832,53.7702885],[20.488789,53.770325],[20.4887971,53.7703656],[20.4888011,53.7703908],[20.4888078,53.770421],[20.4888191,53.7704701],[20.4888262,53.7704969],[20.4888361,53.7705327],[20.4888491,53.7705785],[20.4888612,53.7706135],[20.4888765,53.7706565],[20.4888899,53.7706947],[20.4889106,53.7707488],[20.4889263,53.7707838],[20.4889478,53.7708286],[20.4889671,53.7708675],[20.4890183,53.7709611],[20.4890389,53.7709988],[20.4891162,53.7711305]]}},{"type":"Feature","properties":{"way_id":1298351729,"route_colors":[],"route_refs":["1","2"]},"geometry":{"type":"LineString","coordinates":[[20.4860511,53.7556773],[20.4860644,53.7557831],[20.4860749,53.7558666],[20.4861104,53.7561303]]}},{"type":"Feature","properties":{"way_id":1298037625,"route_colors":[],"route_refs":["1","2"]},"geometry":{"type":"LineString","coordinates":[[20.4865655,53.745944],[20.4865771,53.7460173],[20.4866297,53.7463059],[20.4866481,53.7464027],[20.486762,53.7469489],[20.4867686,53.7469802],[20.4867957,53.7471103],[20.4868291,53.7472701],[20.4868484,53.747375],[20.4868588,53.74744],[20.4868656,53.7475104],[20.4868718,53.7475699],[20.486875,53.7476411],[20.486877,53.7476803],[20.486875,53.747762],[20.4868739,53.7478187],[20.4868708,53.7478758],[20.4868661,53.7479424],[20.4868593,53.7480028],[20.486851,53.7480596],[20.48684,53.7481126],[20.4868249,53.7481878],[20.4868082,53.7482634],[20.4867905,53.7483349],[20.4867654,53.7484111],[20.4867453,53.7484776],[20.4867283,53.7485213],[20.4867067,53.7485709],[20.4866786,53.7486329],[20.4866588,53.7486754],[20.4866246,53.7487466],[20.4865965,53.7487994],[20.4865689,53.7488529],[20.4865462,53.7488968],[20.4865138,53.7489524],[20.4863593,53.7492382],[20.4863419,53.7492722],[20.486315,53.7493293],[20.4862838,53.7493991],[20.4862509,53.7494777],[20.4862035,53.7495992],[20.4861796,53.749664],[20.486158,53.7497256],[20.4861516,53.7497456],[20.4861389,53.7497848],[20.4861304,53.7498137],[20.4861197,53.7498503],[20.4861083,53.7498925],[20.4860861,53.749975],[20.4860769,53.7500184],[20.4860704,53.7500488],[20.4860533,53.7501286],[20.4860408,53.7501916],[20.4860288,53.7502756],[20.4860192,53.7503422],[20.4860102,53.750413],[20.4860066,53.7504537],[20.485997,53.7505795],[20.4859946,53.7506507],[20.4859934,53.7507059],[20.4859853,53.7511107],[20.4859845,53.7511529],[20.4859821,53.7514547],[20.4859817,53.7515048],[20.485981,53.7515948],[20.4859793,53.7516657],[20.4859748,53.7518078],[20.4859727,53.7518907],[20.4859642,53.7520295],[20.4859546,53.7521148],[20.4859421,53.7522363],[20.4859295,53.7523579],[20.485926,53.7523906],[20.4859146,53.7525131],[20.485913,53.7525435],[20.4859109,53.7525805],[20.4859081,53.7527263],[20.4859061,53.7528317],[20.4859025,53.7530188],[20.4859018,53.7530507],[20.4859009,53.7531015],[20.4858918,53.7537316],[20.4858908,53.754005],[20.4859034,53.7543831],[20.4859084,53.7544939],[20.4859144,53.7546039],[20.4859275,53.7547415],[20.4859679,53.7550475],[20.4860134,53.7553921],[20.4860192,53.7554358],[20.4860236,53.755469],[20.48605,53.7556687],[20.4860511,53.7556773]]}},{"type":"Feature","properties":{"way_id":1297651152,"route_colors":[],"route_refs":["1","2"]},"geometry":{"type":"LineString","coordinates":[[20.4902135,53.7336656],[20.4901759,53.7336463],[20.4901139,53.7336212],[20.490052,53.7335966],[20.4900201,53.7335848],[20.4899817,53.7335717],[20.4899641,53.7335657],[20.4899392,53.7335579],[20.4899051,53.7335471],[20.4898702,53.7335377],[20.4898273,53.733527],[20.4897892,53.7335189],[20.4897476,53.733511],[20.4897351,53.733509],[20.4897153,53.7335058],[20.4896808,53.7335011],[20.4896397,53.7334972],[20.4896056,53.7334945],[20.489576,53.7334932],[20.4895379,53.733493],[20.489503,53.7334932],[20.4894689,53.7334948],[20.4894282,53.7334974],[20.4893884,53.7335013],[20.4893526,53.7335066],[20.4893176,53.7335121],[20.4892787,53.7335197],[20.4892415,53.7335278],[20.489207,53.7335367],[20.4891681,53.7335484],[20.4891429,53.7335571],[20.4891123,53.7335691],[20.489077,53.7335846],[20.4890531,53.7335958],[20.4890292,53.7336084],[20.4887642,53.7337675],[20.4887009,53.7338067],[20.4886009,53.7338661],[20.4885447,53.7338981],[20.4884956,53.7339253],[20.4884487,53.7339509],[20.4883943,53.7339802],[20.4883293,53.7340143],[20.4882364,53.7340629],[20.4881864,53.7340875],[20.4880851,53.7341362],[20.4879599,53.7341954],[20.4879095,53.7342189],[20.4878343,53.7342514],[20.487759,53.7342843],[20.4876914,53.7343131],[20.4876272,53.7343411],[20.4875533,53.734373],[20.4874971,53.7343971],[20.4869837,53.7346071],[20.4867673,53.734693],[20.4866555,53.7347373],[20.486578,53.734768],[20.4865369,53.7347845],[20.4864873,53.7348049],[20.4864258,53.7348308],[20.4863812,53.7348505],[20.4863281,53.7348743],[20.4862706,53.7349012],[20.4861998,53.7349379],[20.4861462,53.7349656],[20.486098,53.7349907],[20.4860321,53.7350279],[20.4859657,53.7350666],[20.4859246,53.7350915],[20.4858507,53.7351381],[20.4858091,53.7351658],[20.4857229,53.735226],[20.485691,53.735249],[20.485641,53.7352872],[20.4855972,53.7353218],[20.4855578,53.7353527],[20.4855251,53.7353796],[20.4854906,53.73541],[20.4854583,53.7354367],[20.4854052,53.7354832],[20.4853663,53.7355183],[20.4853389,53.7355453],[20.485311,53.7355743],[20.4852809,53.7356047],[20.4852521,53.735635],[20.4852216,53.7356682],[20.4851752,53.7357232],[20.4851287,53.7357789],[20.4850942,53.7358229],[20.4850699,53.7358535],[20.4850447,53.7358883],[20.4850252,53.7359158],[20.4849973,53.7359569],[20.4849584,53.7360199],[20.4849327,53.7360631],[20.4849155,53.7360943],[20.4849,53.7361262],[20.4848841,53.7361581],[20.484869,53.7361898],[20.4848571,53.7362162],[20.4848412,53.7362557],[20.4848301,53.7362866],[20.4848182,53.736319],[20.4848044,53.7363586],[20.4847943,53.7363902],[20.4847854,53.7364266],[20.4847744,53.7364706],[20.484766,53.7365077],[20.4847575,53.7365493],[20.4847518,53.7365831],[20.4847481,53.7366157],[20.4847441,53.7366532],[20.4847411,53.7366904],[20.4847391,53.7367156],[20.4847376,53.7367471],[20.4847376,53.7367833],[20.4847403,53.7368348],[20.4847415,53.7368635],[20.4847438,53.7368867],[20.4847476,53.7369141],[20.4847507,53.73694],[20.4847545,53.736971],[20.4847576,53.7369965],[20.484763,53.7370241],[20.4847703,53.7370562],[20.4847765,53.7370865],[20.4847823,53.7371138],[20.4847934,53.737153],[20.4848073,53.7371927],[20.48482,53.7372309],[20.4848289,53.7372585],[20.4848435,53.7372959],[20.4848551,53.7373257],[20.4848682,53.7373553],[20.484882,53.7373852],[20.4848974,53.7374173],[20.4849205,53.7374592],[20.4849359,53.7374858],[20.4849513,53.7375116],[20.4849714,53.7375476],[20.4849922,53.7375799],[20.4850091,53.7376054],[20.4850257,53.7376284],[20.4850426,53.7376524],[20.4850665,53.7376833],[20.4850831,53.7377054],[20.4851085,53.7377369],[20.4851335,53.7377672],[20.4851605,53.7377977],[20.4852217,53.7378683],[20.4853796,53.7380383],[20.4854797,53.7381483],[20.4858857,53.7385893],[20.4858972,53.7386027],[20.4859196,53.7386317],[20.4859442,53.738664],[20.4859619,53.7386875],[20.4859816,53.7387162],[20.4859981,53.738743],[20.4860132,53.7387674],[20.4860274,53.7387925],[20.4860417,53.7388219],[20.4860574,53.7388508],[20.4860744,53.7388886],[20.486084,53.7389132],[20.4860975,53.7389508],[20.4861044,53.7389695],[20.4861129,53.7389968],[20.486121,53.7390264],[20.4861264,53.7390549],[20.4861302,53.7390784],[20.4861349,53.7391077],[20.4861372,53.7391358],[20.4861388,53.7391619],[20.4861394,53.7391922],[20.4861399,53.7392188],[20.4861399,53.7392405],[20.4861394,53.7392578],[20.4861356,53.7393742],[20.4861259,53.7396784],[20.4861193,53.7398837],[20.4861185,53.7399093],[20.4861144,53.7400377],[20.4861109,53.7401452],[20.4861062,53.7402913],[20.4861052,53.7403239],[20.4861003,53.7404776],[20.4860807,53.741122],[20.4860714,53.741633],[20.4860697,53.7418212],[20.4860743,53.7419969],[20.486079,53.7421961],[20.4861051,53.7427262],[20.4861094,53.7428117],[20.4861254,53.7430593],[20.486131,53.7431478],[20.4861534,53.7435019],[20.4861614,53.7436293],[20.4861639,53.7436687],[20.4861714,53.7437381],[20.4861771,53.7437773],[20.4861833,53.7438109],[20.4861913,53.7438558],[20.4861975,53.7438837],[20.4862066,53.7439179],[20.4862269,53.7439912],[20.4862826,53.7441768],[20.4862922,53.744212],[20.4863336,53.7443784],[20.4863416,53.7444096],[20.4863478,53.7444377],[20.4863722,53.7445665],[20.4863779,53.7445974],[20.4864278,53.7449312],[20.4865457,53.7458242],[20.4865519,53.7458655],[20.4865655,53.745944]]}},{"type":"Feature","properties":{"way_id":1292699739,"route_colors":[],"route_refs":["1","2"]},"geometry":{"type":"LineString","coordinates":[[20.5015409,53.7366013],[20.5011224,53.7365584],[20.4997738,53.7364192],[20.4989093,53.7363299],[20.4977998,53.7362164],[20.4975883,53.7361904],[20.4973878,53.7361645],[20.4972725,53.7361482],[20.4967088,53.7360623],[20.4966444,53.7360532],[20.4965294,53.7360377],[20.496377,53.7360205],[20.4960107,53.7359829],[20.495535,53.735934],[20.4953295,53.7359129],[20.4952672,53.7359061],[20.4952392,53.7359028],[20.4952165,53.7359001],[20.4950033,53.7358706],[20.494899,53.7358561],[20.4948205,53.7358453],[20.4947738,53.7358376],[20.4946372,53.7358154],[20.4945872,53.7358072],[20.4945567,53.7358022],[20.4941169,53.7357179],[20.4937205,53.7356382],[20.4935858,53.7356077],[20.4935121,53.7355893],[20.4933774,53.7355554],[20.4933233,53.7355401],[20.493187,53.7355011],[20.493085,53.7354677],[20.4930232,53.7354473],[20.4929126,53.7354093],[20.4928364,53.7353819],[20.4927467,53.7353468],[20.49261,53.7352906],[20.4925387,53.7352589],[20.4924621,53.7352238],[20.4923704,53.7351807],[20.4922996,53.7351453],[20.492234,53.7351107],[20.4921689,53.7350755],[20.4921096,53.7350414],[20.4920494,53.7350053],[20.4919752,53.7349588],[20.4919351,53.7349331],[20.49156,53.7346906],[20.4914449,53.7346148],[20.4914122,53.7345923],[20.4913597,53.734555],[20.4912983,53.7345123],[20.491214,53.7344467],[20.4909865,53.7342691],[20.4909109,53.73421],[20.4908946,53.734195],[20.490881,53.7341839],[20.490874,53.7341772],[20.4908626,53.7341662],[20.4907766,53.734072],[20.4907606,53.7340567],[20.4907451,53.7340426],[20.4904216,53.7337927],[20.4903835,53.7337655],[20.4903622,53.7337512],[20.4903343,53.7337328],[20.4903069,53.7337166],[20.4902713,53.7336965],[20.4902467,53.7336827],[20.4902135,53.7336656]]}},{"type":"Feature","properties":{"way_id":1292699740,"route_colors":[],"route_refs":["1","2"]},"geometry":{"type":"LineString","coordinates":[[20.5015409,53.7366013],[20.501623,53.7366097]]}},{"type":"Feature","properties":{"way_id":1292699807,"route_colors":[],"route_refs":["1"]},"geometry":{"type":"LineString","coordinates":[[20.501623,53.7366097],[20.5021066,53.7366596]]}},{"type":"Feature","properties":{"way_id":367874306,"route_colors":[],"route_refs":["1","5"]},"geometry":{"type":"LineString","coordinates":[[20.4807384,53.7782885],[20.4811239,53.7781839],[20.4812736,53.7781466],[20.481644,53.7780472],[20.4819498,53.7779652],[20.4824365,53.7778372],[20.4826837,53.7777722],[20.4828657,53.7777243],[20.4852119,53.777106],[20.4853944,53.7770573],[20.4855655,53.7770116],[20.4861122,53.776867],[20.4866222,53.776732],[20.4868885,53.7766616],[20.4869369,53.7766483],[20.486983,53.7766337],[20.4870319,53.7766184],[20.4870795,53.7766048],[20.4870989,53.7765996],[20.4871876,53.7765756]]}},{"type":"Feature","properties":{"way_id":1235545454,"route_colors":[],"route_refs":["1"]},"geometry":{"type":"LineString","coordinates":[[20.4871876,53.7765756],[20.4873421,53.776532],[20.4873931,53.776514],[20.4874303,53.7764947],[20.4874678,53.776471],[20.4874952,53.776449],[20.487517,53.7764271],[20.4875348,53.7763994],[20.4875385,53.7763899],[20.487549,53.7763581],[20.4875532,53.7763262],[20.4875445,53.7762848],[20.4875302,53.7762568],[20.4875032,53.7762167]]}},{"type":"Feature","properties":{"way_id":379806945,"route_colors":[],"route_refs":["1","2","3"]},"geometry":{"type":"LineString","coordinates":[[20.4875032,53.7762167],[20.4874769,53.7761866],[20.4871449,53.7758155],[20.4869285,53.7755728],[20.486801,53.7754298],[20.4866988,53.7753154],[20.4864049,53.7749834]]}},{"type":"Feature","properties":{"way_id":1292681916,"route_colors":[],"route_refs":["1","2","3"]},"geometry":{"type":"LineString","coordinates":[[20.4864049,53.7749834],[20.4862848,53.7748503],[20.4862612,53.7748149],[20.4862335,53.7747782],[20.4862168,53.7747416],[20.4862073,53.7747176],[20.4862018,53.7746853],[20.4862001,53.7746563],[20.4861976,53.7746216],[20.486204,53.774596],[20.4862118,53.7745657],[20.4862218,53.7745364],[20.4862308,53.7745202],[20.4862368,53.7745055],[20.4862603,53.7744699],[20.4866962,53.7738552],[20.4868708,53.77361],[20.4869036,53.773564],[20.4869306,53.7735327],[20.4869431,53.7735187],[20.486956,53.7735043],[20.4869738,53.7734863],[20.4870028,53.7734559],[20.4870362,53.7734233],[20.4870697,53.7733933],[20.4870998,53.773368],[20.4871617,53.7733182],[20.487859,53.7728237],[20.4884053,53.77244],[20.4891489,53.7719185],[20.4892481,53.7718506],[20.4892831,53.7718226],[20.4893026,53.7718058],[20.4893238,53.7717863],[20.4893335,53.7717746],[20.48935,53.7717468],[20.4893578,53.7717221],[20.4893605,53.7716967],[20.4893594,53.7716793],[20.4893563,53.7716561],[20.4893475,53.7716321],[20.4893353,53.7716079],[20.4893174,53.771579],[20.489128,53.7712648],[20.4890671,53.7711642],[20.4890595,53.7711515]]}},{"type":"Feature","properties":{"way_id":1298489893,"route_colors":[],"route_refs":["1","2","3"]},"geometry":{"type":"LineString","coordinates":[[20.4890595,53.7711515],[20.4890001,53.7710557],[20.488975,53.771012],[20.4889503,53.7709672],[20.4889252,53.7709218],[20.4889041,53.770881],[20.4888812,53.7708373],[20.4888668,53.7708086],[20.4888453,53.7707606],[20.4888269,53.7707121],[20.4888081,53.7706641],[20.4887933,53.770619],[20.4887812,53.7705803],[20.4887699,53.7705424],[20.4887632,53.7705164],[20.4887538,53.7704774],[20.4887439,53.7704345],[20.4887345,53.7703899],[20.4887273,53.7703531],[20.4887201,53.7703091],[20.4887152,53.7702696],[20.4887098,53.7702216],[20.4887049,53.770176],[20.4887022,53.7701449],[20.4887013,53.7701094],[20.4887009,53.7700818],[20.4887,53.7700423],[20.4887,53.7700095],[20.4887009,53.7699652],[20.4887035,53.7699278],[20.488708,53.7698782],[20.4887121,53.7698387],[20.4887166,53.7697981],[20.4887215,53.7697583],[20.4887264,53.7697284],[20.4887345,53.7696968],[20.488743,53.7696579],[20.4887502,53.7696276],[20.4887605,53.7695881],[20.4887726,53.7695444],[20.4887847,53.7695075],[20.4887928,53.7694794],[20.4888054,53.7694463],[20.4888153,53.7694216],[20.4889472,53.7691116],[20.4890974,53.76876],[20.489232,53.7684378],[20.4892401,53.7684161],[20.4892522,53.7683787],[20.4892621,53.768345],[20.4892738,53.768301],[20.4892841,53.7682522],[20.4892926,53.7682106],[20.4892971,53.7681692],[20.4892993,53.7681366],[20.4892998,53.7680958],[20.4892998,53.7680608],[20.4892966,53.768025],[20.4892935,53.7679974],[20.4892904,53.7679714],[20.489285,53.7679409],[20.4892787,53.767911],[20.4892711,53.7678802],[20.489263,53.7678558],[20.4892554,53.7678303],[20.4892464,53.7678033],[20.4892307,53.7677643],[20.4892159,53.7677346],[20.4891979,53.7676983],[20.4891827,53.7676702],[20.4891607,53.7676339],[20.489141,53.7676031],[20.4891226,53.7675768],[20.4891015,53.7675471],[20.4890862,53.767527],[20.4890616,53.7674976],[20.4890261,53.7674575],[20.4890041,53.7674352],[20.488975,53.7674055],[20.488931,53.767365],[20.4889041,53.7673411],[20.4888758,53.7673167],[20.4888367,53.767287],[20.4887982,53.7672573],[20.4887455,53.7672181],[20.488707,53.7671922],[20.4886751,53.7671708],[20.4883908,53.7669865],[20.4883595,53.7669665],[20.4880005,53.7667335],[20.4878771,53.7666531],[20.4876018,53.7664744],[20.4874423,53.7663704],[20.4873523,53.7663107],[20.4872291,53.7662328],[20.4869065,53.7660226],[20.4867905,53.7659403],[20.4867319,53.7658959],[20.4866701,53.7658464],[20.4866203,53.7658059],[20.4865142,53.7657169],[20.4864155,53.7656242],[20.4863694,53.7655779],[20.4863256,53.7655335],[20.4862675,53.7654719],[20.4862514,53.765452],[20.4862182,53.7654117],[20.4861813,53.7653683],[20.4861357,53.765313],[20.486108,53.7652798],[20.4860628,53.7652201],[20.4860398,53.7651885],[20.4860199,53.7651593],[20.4859964,53.7651247],[20.4859784,53.7650977],[20.4859609,53.7650699],[20.485936,53.7650304],[20.4859231,53.7650062],[20.4859074,53.7649751],[20.4858834,53.7649227],[20.4858707,53.7648948],[20.4858574,53.7648632],[20.4858452,53.7648316],[20.4858288,53.7647865],[20.4857944,53.764643],[20.4857867,53.7645877],[20.485781,53.7645236],[20.4857808,53.7643188],[20.4857865,53.7642784],[20.4857944,53.7642402],[20.4858008,53.7642108],[20.485805,53.7641911],[20.4858114,53.7641667],[20.4858188,53.7641369],[20.4858315,53.7640987],[20.4858426,53.7640671],[20.4858569,53.7640277],[20.4859173,53.763873],[20.4859951,53.7636752],[20.4860638,53.7635031],[20.4862388,53.7630536],[20.4863606,53.7627448],[20.4863916,53.7626653],[20.4864818,53.7624398],[20.4865055,53.7623808],[20.4865226,53.7623383],[20.4865387,53.7622929],[20.4865548,53.7622469],[20.4865596,53.7622312],[20.4865633,53.7622189],[20.486567,53.7622055],[20.4865747,53.7621774],[20.4865828,53.7621384],[20.4865899,53.7620974],[20.4865956,53.7620585],[20.486596,53.7620536],[20.4866008,53.7620153],[20.4866018,53.7619822],[20.4866032,53.7619483],[20.4866037,53.761911],[20.4866022,53.7618782],[20.4865994,53.7618459],[20.4865982,53.7618301],[20.4865731,53.7614953],[20.4865686,53.7614351],[20.4865616,53.76134],[20.4865453,53.7611188],[20.4865169,53.7608103],[20.4864694,53.7604245],[20.4864604,53.7603496],[20.4864443,53.7602156],[20.4864362,53.7601469],[20.4864215,53.7599901],[20.4864158,53.7599385],[20.4864097,53.759832],[20.4864011,53.7597002],[20.4863931,53.7594565],[20.4863916,53.75942],[20.4863916,53.7592299],[20.4863916,53.7591069],[20.4863916,53.7590745],[20.4863916,53.7590437],[20.4863912,53.7590111],[20.4863836,53.7587439],[20.4863755,53.7585605],[20.4863689,53.7584635],[20.486359,53.7583385],[20.486334,53.7580492],[20.4863112,53.7578497],[20.486293,53.7577143],[20.4862913,53.7577023],[20.4862826,53.7576221],[20.4862762,53.7575778],[20.4862684,53.7575337],[20.4862627,53.7575011],[20.4862505,53.7574321],[20.4862295,53.7572958],[20.4861477,53.7568596],[20.4861413,53.7568147],[20.4861261,53.7567201],[20.4861034,53.7565534],[20.4860672,53.75628],[20.4860633,53.7562508],[20.4860521,53.7561664]]}},{"type":"Feature","properties":{"way_id":1298351728,"route_colors":[],"route_refs":["1","2"]},"geometry":{"type":"LineString","coordinates":[[20.4860521,53.7561664],[20.4860366,53.7560328],[20.4860122,53.7558483],[20.4860075,53.7558029],[20.4860043,53.7557825],[20.4859853,53.7556683]]}},{"type":"Feature","properties":{"way_id":1298037624,"route_colors":[],"route_refs":["1","2"]},"geometry":{"type":"LineString","coordinates":[[20.4859853,53.7556683],[20.4859601,53.7554717],[20.4859558,53.7554382],[20.4859513,53.7554025],[20.4859149,53.7551169],[20.4859063,53.7550498],[20.4858859,53.7548898],[20.4858718,53.7547567],[20.4858598,53.7546568],[20.4858532,53.7545891],[20.4858472,53.7545124],[20.4858397,53.754357],[20.4858387,53.7543177],[20.4858321,53.7537697],[20.4858377,53.7533848],[20.4858414,53.7530505],[20.4858418,53.7530186],[20.4858422,53.75298],[20.4858429,53.7528309],[20.4858432,53.7527539],[20.4858437,53.7527253],[20.4858447,53.7526647],[20.4858467,53.7526261],[20.4858521,53.7525431],[20.4858541,53.7525121],[20.4858593,53.7524329],[20.4858618,53.7523978],[20.4858814,53.7522186],[20.485898,53.7520744],[20.485905,53.7519832],[20.485909,53.7518982],[20.4859111,53.7518108],[20.4859181,53.7515942],[20.4859197,53.7515054],[20.4859253,53.751187],[20.4859259,53.751111],[20.4859287,53.750759],[20.4859315,53.7506821],[20.4859377,53.7505849],[20.4859418,53.7504978],[20.4859549,53.7503692],[20.4859631,53.7503029],[20.4859769,53.7502187],[20.4859845,53.750167],[20.4859982,53.7500934],[20.4860098,53.7500442],[20.4860169,53.7500139],[20.4860269,53.7499712],[20.4860434,53.7499045],[20.4860634,53.7498337],[20.4860706,53.7498087],[20.4860854,53.7497572],[20.4860906,53.7497426],[20.4861122,53.7496815],[20.4861391,53.7496058],[20.486168,53.7495322],[20.48619,53.7494736],[20.4862106,53.7494252],[20.4862512,53.7493357],[20.4862815,53.749271],[20.4863331,53.7491709],[20.48647,53.7489154],[20.4865209,53.7488206],[20.4865519,53.7487636],[20.4865843,53.7487005],[20.4866193,53.7486314],[20.4866462,53.7485711],[20.486671,53.748506],[20.4867055,53.7484049],[20.486729,53.7483262],[20.4867514,53.7482399],[20.4867712,53.748156],[20.4867864,53.7480866],[20.486802,53.7479775],[20.4868083,53.7479192],[20.4868124,53.7478628],[20.4868171,53.7477752],[20.4868171,53.7477459],[20.4868177,53.747683],[20.4868161,53.7476139],[20.4868135,53.7475689],[20.4868088,53.7475165],[20.4868057,53.7474844],[20.4867999,53.7474409],[20.4867916,53.7473919],[20.4867848,53.747353],[20.4867712,53.7472781],[20.4867426,53.7471467],[20.4867364,53.7471168],[20.486709,53.746985],[20.4867026,53.746954],[20.4865685,53.7463074],[20.4865497,53.7462167],[20.486533,53.7461207],[20.4865128,53.7460086],[20.4864836,53.7458108]]}},{"type":"Feature","properties":{"way_id":1297651151,"route_colors":[],"route_refs":["1","2"]},"geometry":{"type":"LineString","coordinates":[[20.4864836,53.7458108],[20.4863689,53.7449289],[20.4863592,53.7448543],[20.4863455,53.7447611],[20.4863359,53.7447024],[20.4863302,53.7446672],[20.4863138,53.7445769],[20.4863041,53.7445236],[20.4862968,53.7444887],[20.4862832,53.7444216],[20.4862735,53.744376],[20.4862639,53.7443341],[20.4862474,53.744271],[20.4862372,53.7442335],[20.4861736,53.7440177],[20.4861629,53.7439856],[20.4861533,53.7439504],[20.4861459,53.7439199],[20.4861374,53.7438826],[20.4861289,53.7438421],[20.4861187,53.7437958],[20.4861119,53.7437542],[20.4861079,53.743724],[20.486102,53.7436684],[20.4860995,53.7436305],[20.4860768,53.7432905],[20.4860673,53.7431489],[20.4860614,53.7430606],[20.4860458,53.742727],[20.4860127,53.7420228],[20.4860092,53.7416277],[20.4860101,53.7415638],[20.4860232,53.7411227],[20.4860395,53.7404752],[20.4860443,53.7403238],[20.4860454,53.7402909],[20.48605,53.7401446],[20.4860534,53.7400379],[20.4860575,53.7399088],[20.4860583,53.739883],[20.4860718,53.739458],[20.4860745,53.7393733],[20.4860757,53.7393355],[20.4860781,53.7392827],[20.4860781,53.7392592],[20.4860781,53.7392291],[20.4860775,53.7392067],[20.4860757,53.7391794],[20.4860752,53.7391653],[20.4860725,53.739138],[20.486069,53.7391087],[20.4860636,53.7390797],[20.4860586,53.7390512],[20.4860544,53.7390294],[20.486049,53.7390064],[20.4860401,53.738977],[20.4860301,53.7389469],[20.4860216,53.7389237],[20.4860124,53.7389018],[20.4860008,53.7388772],[20.4859885,53.7388528],[20.4859766,53.7388278],[20.4859662,53.7388068],[20.4859546,53.7387845],[20.4859365,53.7387538],[20.4859242,53.7387333],[20.4859049,53.7387034],[20.4858837,53.7386756],[20.4858703,53.7386579],[20.4858387,53.73862],[20.4858202,53.7385977],[20.4858013,53.7385756],[20.4857771,53.7385481],[20.485576,53.7383296],[20.4853265,53.7380606],[20.4852021,53.7379239],[20.4851158,53.737831],[20.4850592,53.7377649],[20.4850264,53.7377221],[20.4850049,53.7376943],[20.4849833,53.737664],[20.4849637,53.7376364],[20.4849413,53.7376048],[20.4849228,53.7375772],[20.4849047,53.7375473],[20.4848809,53.7375075],[20.4848658,53.7374797],[20.4848393,53.7374305],[20.4848243,53.7373997],[20.48481,53.7373706],[20.4847988,53.7373457],[20.4847877,53.7373211],[20.4847734,53.7372874],[20.4847638,53.7372619],[20.4847545,53.7372307],[20.4847276,53.7371466],[20.4847222,53.7371236],[20.4847068,53.7370542],[20.4846972,53.7370104],[20.4846933,53.7369797],[20.4846875,53.7369416],[20.4846829,53.7368983],[20.4846802,53.7368712],[20.4846787,53.7368391],[20.4846794,53.7368074],[20.4846779,53.7367428],[20.4846779,53.7367111],[20.4846794,53.7366842],[20.4846821,53.7366509],[20.4846867,53.7366106],[20.4846925,53.7365722],[20.4846978,53.736536],[20.484704,53.7364992],[20.4847102,53.7364672],[20.484719,53.7364348],[20.4847296,53.7363974],[20.4847389,53.7363665],[20.4847482,53.7363393],[20.4847584,53.7363081],[20.484769,53.7362786],[20.4847796,53.7362498],[20.4847907,53.736222],[20.4848057,53.736188],[20.4848208,53.7361577],[20.4848376,53.7361221],[20.4848579,53.7360841],[20.4848747,53.7360532],[20.4848911,53.736026],[20.4849137,53.7359891],[20.484926,53.73597],[20.4849557,53.7359232],[20.4849778,53.7358897],[20.4849995,53.7358591],[20.4850362,53.7358117],[20.4851605,53.7356584],[20.4851778,53.7356395],[20.485218,53.7355966],[20.485268,53.7355453],[20.4853437,53.7354726],[20.4854268,53.7353985],[20.4855135,53.7353242],[20.4855463,53.7352991],[20.4856091,53.7352504],[20.4856578,53.7352135],[20.4857025,53.7351808],[20.4857595,53.735141],[20.4858077,53.7351107],[20.4858427,53.7350895],[20.4858971,53.7350554],[20.4859356,53.7350322],[20.4859834,53.7350039],[20.4860272,53.7349788],[20.4860679,53.7349576],[20.48614,53.7349185],[20.4861782,53.7348993],[20.4862371,53.734871],[20.4862945,53.7348449],[20.4863418,53.7348229],[20.4863916,53.734801],[20.486446,53.7347769],[20.4864902,53.7347595],[20.4866165,53.7347089],[20.4867285,53.734664],[20.486947,53.7345764],[20.4873717,53.734406],[20.4874254,53.7343834],[20.4874965,53.7343537],[20.4875811,53.7343173],[20.4876767,53.7342756],[20.4877271,53.7342533],[20.4877833,53.7342284],[20.4878537,53.7341968],[20.4879258,53.7341643],[20.4880067,53.7341266],[20.4880625,53.7340992],[20.4881532,53.7340549],[20.4882036,53.7340301],[20.4882563,53.7340037],[20.4883332,53.7339626],[20.4883987,53.7339267],[20.4884545,53.7338961],[20.4885137,53.7338647],[20.488569,53.7338322],[20.4887349,53.7337338],[20.4889937,53.733575],[20.4890274,53.7335569],[20.4890747,53.7335344],[20.4891127,53.7335179],[20.489149,53.7335041],[20.4891871,53.733491],[20.4892348,53.7334787],[20.489284,53.7334677],[20.489331,53.7334596],[20.4893512,53.7334566],[20.4893785,53.733453],[20.4894036,53.733451],[20.4894286,53.7334489],[20.489447,53.7334478],[20.4894737,53.7334462],[20.4895237,53.7334447],[20.4895658,53.7334452],[20.4896016,53.7334473],[20.4896449,53.7334502],[20.489683,53.7334538],[20.4897157,53.733458],[20.4897542,53.733464],[20.4897896,53.7334714],[20.4898111,53.7334763],[20.4898303,53.7334808],[20.4898688,53.7334905],[20.4898998,53.7334996],[20.4899383,53.7335111],[20.4899754,53.7335229],[20.4900002,53.733531],[20.490024,53.7335397],[20.4900427,53.7335465],[20.4900767,53.7335593],[20.4901095,53.7335732],[20.4901502,53.7335907],[20.4901776,53.7336033],[20.4902081,53.7336179],[20.4902254,53.7336251],[20.490265,53.7336477]]}},{"type":"Feature","properties":{"way_id":1292699741,"route_colors":[],"route_refs":["1","2"]},"geometry":{"type":"LineString","coordinates":[[20.490265,53.7336477],[20.4902901,53.7336624],[20.4903258,53.7336836],[20.4903559,53.7337022],[20.4903983,53.7337302],[20.490481,53.7337938],[20.4907504,53.7340021],[20.4908353,53.7340665],[20.4909654,53.7341679],[20.4912012,53.734353],[20.4912799,53.7344132],[20.4914204,53.7345207],[20.4917813,53.7347869],[20.4918973,53.7348654],[20.4919606,53.7349055],[20.4920267,53.7349475],[20.4920833,53.7349833],[20.4921561,53.735026],[20.4922112,53.7350584],[20.4922819,53.7350973],[20.4923452,53.7351305],[20.4924456,53.7351792],[20.492504,53.7352073],[20.4925662,53.7352355],[20.492622,53.7352604],[20.4926963,53.7352915],[20.4927981,53.7353325],[20.4928621,53.7353562],[20.4929402,53.7353846],[20.493,53.7354051],[20.4930541,53.7354237],[20.493129,53.7354488],[20.4932238,53.7354791],[20.4932977,53.7355013],[20.4933889,53.7355264],[20.4934925,53.7355534],[20.4935568,53.7355697],[20.4936321,53.7355875],[20.4936872,53.7355998],[20.4937569,53.7356146],[20.4944428,53.7357418],[20.4945184,53.7357554],[20.4945845,53.7357671],[20.494599,53.7357697],[20.494648,53.7357787],[20.4946591,53.7357807],[20.4947549,53.7357968],[20.4949094,53.7358199],[20.4950054,53.7358346],[20.4952347,53.735865],[20.4952516,53.7358669],[20.4953387,53.7358767],[20.4959123,53.7359357],[20.496021,53.7359469],[20.4962985,53.7359754],[20.4964421,53.7359906],[20.4965501,53.7360027],[20.4966365,53.7360141],[20.49672,53.7360259],[20.496995,53.7360683],[20.4975017,53.7361425],[20.4975852,53.7361533],[20.4976681,53.7361633],[20.4986605,53.7362679],[20.4997839,53.7363837],[20.50113,53.7365223],[20.5011642,53.7365259]]}},{"type":"Feature","properties":{"way_id":1292699736,"route_colors":[],"route_refs":["1"]},"geometry":{"type":"LineString","coordinates":[[20.5011642,53.7365259],[20.5024813,53.7366626]]}},{"type":"Feature","properties":{"way_id":1292699738,"route_colors":[],"route_refs":["1","2"]},"geometry":{"type":"LineString","coordinates":[[20.5011642,53.7365259],[20.501201,53.7365319],[20.5012457,53.7365409],[20.5014849,53.7365914],[20.501512,53.7365962],[20.5015409,53.7366013]]}},{"type":"Feature","properties":{"way_id":395162995,"route_colors":[],"route_refs":["2","4"]},"geometry":{"type":"LineString","coordinates":[[20.4980511,53.7843096],[20.4980459,53.7843307],[20.498123,53.7843437],[20.4984841,53.784374],[20.4985511,53.7843801],[20.4986471,53.7843859],[20.4986526,53.7843617],[20.4980511,53.7843096]]}},{"type":"Feature","properties":{"way_id":1185310159,"route_colors":[],"route_refs":["2","4"]},"geometry":{"type":"LineString","coordinates":[[20.4945987,53.7830027],[20.4946282,53.7829814],[20.4949794,53.7831513],[20.4949499,53.7831726],[20.4945987,53.7830027]]}},{"type":"Feature","properties":{"way_id":1185310156,"route_colors":[],"route_refs":["2","4"]},"geometry":{"type":"LineString","coordinates":[[20.4905243,53.7799726],[20.4905546,53.779961],[20.4908251,53.7802074],[20.4907947,53.7802191],[20.4905243,53.7799726]]}},{"type":"Feature","properties":{"way_id":372235772,"route_colors":[],"route_refs":["2","3","4"]},"geometry":{"type":"LineString","coordinates":[[20.4981917,53.7843607],[20.4980153,53.7843461],[20.4978741,53.7843344],[20.49779,53.7843244],[20.4977653,53.7843215],[20.4976719,53.7843066],[20.4976204,53.7842972],[20.4975823,53.784289],[20.497551,53.7842823],[20.4975253,53.7842754],[20.4974853,53.7842659],[20.4974125,53.7842456],[20.4973456,53.7842246],[20.4972775,53.7842001],[20.497234,53.7841823],[20.4971795,53.7841589],[20.4970239,53.7840825],[20.4969111,53.7840247],[20.4967475,53.7839485],[20.4965092,53.7838326],[20.4964709,53.783814],[20.4963842,53.7837718],[20.4960828,53.7836249],[20.4957065,53.7834424],[20.4953416,53.7832654],[20.494966,53.7830812],[20.4948437,53.783021],[20.49464,53.7829235],[20.4945869,53.782898],[20.4944992,53.7828544],[20.4944246,53.782815],[20.4943042,53.7827514],[20.494232,53.7827105],[20.4941544,53.7826639],[20.494028,53.7825851],[20.493923,53.7825142],[20.4937833,53.7824086],[20.4934713,53.7821661],[20.4933269,53.7820546],[20.4925437,53.7814627],[20.492265,53.7812546],[20.4921119,53.78114],[20.4916897,53.7808214],[20.4915086,53.7806838],[20.4913785,53.7805853],[20.4912601,53.7804911],[20.4911172,53.7803743],[20.4909773,53.7802552],[20.4907364,53.7800352],[20.4906807,53.7799841],[20.4905711,53.7798838],[20.4904291,53.779754],[20.4902634,53.779599],[20.4901698,53.779507],[20.4900745,53.7794094],[20.4899305,53.7792561],[20.4898208,53.7791215],[20.4897383,53.7790196],[20.4896733,53.7789363],[20.4896353,53.7788876],[20.4893918,53.7785734],[20.4893611,53.7785338],[20.4892834,53.7784339],[20.4891964,53.7783256],[20.4881617,53.7769821],[20.488051,53.7768384],[20.4880217,53.7768013],[20.4879927,53.7767667],[20.4879736,53.7767458],[20.4879235,53.776691]]}},{"type":"Feature","properties":{"way_id":379998434,"route_colors":[],"route_refs":["2","3"]},"geometry":{"type":"LineString","coordinates":[[20.4879235,53.776691],[20.4878621,53.7766209],[20.4877766,53.7765241],[20.4877652,53.7765113],[20.4877161,53.7764572],[20.4877046,53.7764432],[20.4876939,53.7764307],[20.4876576,53.7763899],[20.4876309,53.7763606],[20.4875445,53.776265],[20.4875032,53.7762167]]}},{"type":"Feature","properties":{"way_id":1292699733,"route_colors":[],"route_refs":["2"]},"geometry":{"type":"LineString","coordinates":[[20.501623,53.7366097],[20.5016502,53.7366134],[20.5016864,53.7366198],[20.5019846,53.7366813],[20.5021961,53.7367248]]}},{"type":"Feature","properties":{"way_id":1292699734,"route_colors":[],"route_refs":["2"]},"geometry":{"type":"LineString","coordinates":[[20.5021961,53.7367248],[20.502237,53.7367297],[20.5022675,53.7367328],[20.5025912,53.7367658],[20.5026071,53.7367675],[20.5026667,53.7367735],[20.5031554,53.7368227]]}},{"type":"Feature","properties":{"way_id":1427297431,"route_colors":[],"route_refs":["2","4"]},"geometry":{"type":"LineString","coordinates":[[20.4910629,53.7801148],[20.4910156,53.7801337],[20.4907661,53.7799075],[20.4908138,53.779889],[20.4910629,53.7801148]]}},{"type":"Feature","properties":{"way_id":1427297432,"route_colors":[],"route_refs":["2","4"]},"geometry":{"type":"LineString","coordinates":[[20.4933054,53.7818668],[20.4932693,53.7818836],[20.493009,53.7816881],[20.493045,53.7816712],[20.4933054,53.7818668]]}},{"type":"Feature","properties":{"way_id":1427297433,"route_colors":[],"route_refs":["2","4"]},"geometry":{"type":"LineString","coordinates":[[20.4986526,53.7843617],[20.4986581,53.7843375],[20.4985593,53.7843237],[20.4985016,53.784317],[20.4981334,53.7842866],[20.4980562,53.7842885],[20.4980511,53.7843096],[20.4986526,53.7843617]]}},{"type":"Feature","properties":{"way_id":1326252049,"route_colors":[],"route_refs":["2"]},"geometry":{"type":"LineString","coordinates":[[20.5021961,53.7367248],[20.5024609,53.7367793],[20.5024909,53.7367852],[20.502529,53.7367914],[20.5025543,53.7367954],[20.5025814,53.7367984],[20.5026,53.7368004],[20.5026572,53.7368062],[20.5028683,53.7368275],[20.5031449,53.7368554]]}},{"type":"Feature","properties":{"way_id":1235545453,"route_colors":[],"route_refs":["2","3"]},"geometry":{"type":"LineString","coordinates":[[20.4875729,53.77622],[20.4876645,53.7763232],[20.4876844,53.7763453],[20.4877098,53.7763704],[20.4877311,53.7763897],[20.4877521,53.7764078],[20.487763,53.7764182],[20.4877804,53.7764341],[20.4878261,53.776483],[20.4878347,53.7764936],[20.4878598,53.7765247],[20.4879218,53.7766052],[20.4879568,53.7766507]]}},{"type":"Feature","properties":{"way_id":399013319,"route_colors":[],"route_refs":["2","3","4"]},"geometry":{"type":"LineString","coordinates":[[20.4879568,53.7766507],[20.4879911,53.7766951],[20.4880361,53.7767535],[20.4892169,53.7782841],[20.4892393,53.7783131],[20.4893246,53.7784231],[20.4894022,53.778523],[20.489673,53.778871],[20.489716,53.7789257],[20.4897734,53.7789986],[20.4898669,53.7791136],[20.4899467,53.7792046],[20.4899792,53.7792417],[20.4901227,53.7793961],[20.490305,53.7795717],[20.4904775,53.7797337],[20.4906231,53.7798673],[20.4907851,53.7800154],[20.4909086,53.7801275],[20.4910275,53.7802354],[20.4911689,53.7803599],[20.49131,53.7804793],[20.4914287,53.7805747],[20.4915447,53.7806655],[20.491735,53.7808103],[20.4921537,53.7811212],[20.4923038,53.7812364],[20.4924699,53.7813629],[20.4930594,53.7818056],[20.4933628,53.7820361],[20.4935131,53.7821524],[20.4936992,53.782295],[20.4938408,53.7824038],[20.4939709,53.7825018],[20.4940862,53.7825797],[20.4941892,53.7826448],[20.4942624,53.7826875],[20.4943329,53.7827268],[20.4944565,53.7827937],[20.4945773,53.7828542],[20.4946185,53.7828744],[20.4948747,53.7830001],[20.4957174,53.7834106],[20.4964164,53.7837495],[20.4965403,53.7838099],[20.4968776,53.7839735],[20.4971222,53.7840926],[20.4971945,53.7841262],[20.4972365,53.7841457],[20.4973118,53.784173],[20.4973857,53.7841936],[20.4974507,53.7842078],[20.497496,53.7842159],[20.4975453,53.7842235],[20.4976044,53.7842297],[20.4976993,53.7842378],[20.497856,53.7842494],[20.4978716,53.7842508],[20.4980459,53.7842668]]}},{"type":"Feature","properties":{"way_id":1312634956,"route_colors":[],"route_refs":["2","3","4"]},"geometry":{"type":"LineString","coordinates":[[20.4980459,53.7842668],[20.4984788,53.7843039]]}},{"type":"Feature","properties":{"way_id":1292570758,"route_colors":[],"route_refs":["3"]},"geometry":{"type":"LineString","coordinates":[[20.4620462,53.7582647],[20.4625187,53.7581976],[20.4625856,53.7581881],[20.46262,53.7581833],[20.4626505,53.7581778],[20.4626967,53.7581685],[20.4627292,53.758161],[20.4627572,53.7581532],[20.4627948,53.7581421],[20.4628309,53.7581298],[20.4628802,53.7581087],[20.4630362,53.7580363],[20.4630565,53.7580285],[20.4630812,53.7580196]]}},{"type":"Feature","properties":{"way_id":1293230792,"route_colors":[],"route_refs":["3"]},"geometry":{"type":"LineString","coordinates":[[20.4855661,53.7559275],[20.4856157,53.755928],[20.485656,53.7559288],[20.485691,53.7559311],[20.4857394,53.755936],[20.4857803,53.7559408],[20.4857961,53.7559429],[20.4858117,53.7559453],[20.4858533,53.7559526],[20.4858856,53.7559602],[20.4859197,53.7559701],[20.4859363,53.7559758],[20.4859511,53.7559821],[20.4859767,53.7559934],[20.4860002,53.7560059],[20.4860197,53.756019],[20.4860366,53.7560328],[20.4860559,53.7560504],[20.4860754,53.7560726],[20.4860909,53.7560912],[20.4861015,53.7561108],[20.4861104,53.7561303]]}},{"type":"Feature","properties":{"way_id":1293230783,"route_colors":[],"route_refs":["3"]},"geometry":{"type":"LineString","coordinates":[[20.4836005,53.7557479],[20.4839937,53.7558495],[20.484022,53.7558568],[20.4840757,53.7558685],[20.4841233,53.7558785],[20.4841705,53.7558873],[20.4842175,53.7558949],[20.4842852,53.7559039],[20.4843249,53.7559087],[20.4844005,53.7559154],[20.4844607,53.7559196],[20.4845659,53.7559233],[20.4847045,53.7559239],[20.4852282,53.7559261],[20.4853727,53.7559267],[20.4855661,53.7559275]]}},{"type":"Feature","properties":{"way_id":1293131527,"route_colors":[],"route_refs":["3"]},"geometry":{"type":"LineString","coordinates":[[20.4836005,53.7557479],[20.4831149,53.7556205],[20.4830317,53.7555982],[20.4829716,53.7555813],[20.4829088,53.7555613],[20.4828403,53.7555399],[20.4827694,53.7555166],[20.482709,53.7554939],[20.4826539,53.7554709],[20.4826023,53.7554486],[20.4825418,53.7554217],[20.4824964,53.7554001],[20.4824278,53.7553657],[20.4823161,53.7553108],[20.4821563,53.7552286],[20.4820627,53.7551833],[20.481973,53.7551423],[20.4818979,53.7551109],[20.4818053,53.755075],[20.4817621,53.7550586],[20.4817286,53.7550462],[20.4816952,53.7550338],[20.4816206,53.755009],[20.4816012,53.7550028],[20.4815857,53.7549979],[20.4815411,53.7549846],[20.4814949,53.7549719],[20.4814599,53.7549621],[20.4814221,53.7549513],[20.4813064,53.754922],[20.481224,53.7549022],[20.4811462,53.7548849],[20.4810922,53.7548744],[20.4810385,53.7548647],[20.4808508,53.7548316],[20.4807355,53.7548122],[20.4804112,53.7547602],[20.4800196,53.7547057],[20.4798426,53.7546851],[20.4797541,53.7546748],[20.479627,53.7546607],[20.4792998,53.7546312],[20.4791731,53.7546205],[20.4790792,53.7546137],[20.4789937,53.754608],[20.4788626,53.7546007],[20.4786961,53.7545916],[20.4786143,53.7545868],[20.4784486,53.7545802],[20.4783475,53.7545762],[20.4782398,53.7545729],[20.4781391,53.7545708],[20.478038,53.7545693],[20.4779282,53.7545687],[20.4769704,53.754568],[20.4767773,53.7545681],[20.476698,53.7545688],[20.4766657,53.7545698],[20.4766091,53.7545727],[20.4765956,53.7545734],[20.4765635,53.7545751],[20.4764914,53.75458],[20.4764615,53.7545826],[20.4764419,53.7545842],[20.4764007,53.7545881],[20.4763481,53.7545944],[20.4763105,53.7545997],[20.4762383,53.7546107],[20.4762131,53.7546146],[20.4761742,53.7546208],[20.4761269,53.7546292],[20.4760893,53.7546357],[20.4760406,53.7546454],[20.4759897,53.7546561],[20.4759305,53.7546703],[20.4758813,53.7546818],[20.475838,53.7546936],[20.4758004,53.7547043],[20.4757323,53.7547244],[20.4756879,53.7547379],[20.4754092,53.7548227],[20.475097,53.7549177],[20.4750651,53.7549274],[20.4746685,53.7550491],[20.4741361,53.7552097],[20.4735192,53.7553966],[20.4731709,53.7555027]]}},{"type":"Feature","properties":{"way_id":1293131523,"route_colors":[],"route_refs":["3"]},"geometry":{"type":"LineString","coordinates":[[20.4731709,53.7555027],[20.4729933,53.7555564],[20.4728606,53.7555966],[20.4727,53.7556457],[20.4726274,53.7556672],[20.4725774,53.7556808],[20.4725363,53.7556918],[20.4724775,53.7557064],[20.4724191,53.7557203],[20.4723598,53.7557328],[20.4722691,53.7557512],[20.4722103,53.7557621],[20.4721735,53.7557687],[20.472143,53.7557737],[20.4720833,53.7557828],[20.4718587,53.7558163]]}},{"type":"Feature","properties":{"way_id":374113897,"route_colors":[],"route_refs":["3"]},"geometry":{"type":"LineString","coordinates":[[20.4718587,53.7558163],[20.4715226,53.7558682]]}},{"type":"Feature","properties":{"way_id":1079845433,"route_colors":[],"route_refs":["3"]},"geometry":{"type":"LineString","coordinates":[[20.4698685,53.7560823],[20.4701841,53.7560431],[20.4704648,53.7560082],[20.4707715,53.7559715],[20.4709512,53.7559491],[20.4710029,53.7559424],[20.4710686,53.7559341],[20.4711866,53.7559184],[20.4712922,53.7559035],[20.4714022,53.7558871],[20.4715226,53.7558682]]}},{"type":"Feature","properties":{"way_id":333862613,"route_colors":[],"route_refs":["3"]},"geometry":{"type":"LineString","coordinates":[[20.4684671,53.7562691],[20.4698685,53.7560823]]}},{"type":"Feature","properties":{"way_id":179499529,"route_colors":[],"route_refs":["3"]},"geometry":{"type":"LineString","coordinates":[[20.4684671,53.7562691],[20.4684122,53.7562766],[20.4682546,53.7562982],[20.4681053,53.7563186],[20.46806,53.7563248],[20.468018,53.7563307],[20.4679278,53.7563461],[20.4678757,53.756355],[20.4678014,53.756368],[20.4677002,53.7563882],[20.4676322,53.7564022],[20.4675761,53.7564143],[20.4674958,53.7564327],[20.4674302,53.7564486],[20.4673996,53.7564561],[20.4673754,53.7564621],[20.4671023,53.7565328],[20.4668067,53.7566093],[20.466791,53.7566133],[20.4667534,53.756623],[20.4664975,53.7566902],[20.4664442,53.7567047],[20.4663689,53.7567258],[20.4662914,53.7567489],[20.4662312,53.7567684],[20.4661541,53.7567945],[20.4660871,53.7568188],[20.465999,53.7568511],[20.4659543,53.7568676],[20.4658996,53.7568892],[20.4658467,53.7569113],[20.4657672,53.7569447],[20.4647818,53.7573675],[20.4639464,53.7577277],[20.4637274,53.7578202],[20.4636588,53.7578476],[20.4635896,53.7578722],[20.463454,53.7579191],[20.4633345,53.7579524],[20.4632197,53.7579834],[20.4630812,53.7580196]]}},{"type":"Feature","properties":{"way_id":1292570757,"route_colors":[],"route_refs":["3"]},"geometry":{"type":"LineString","coordinates":[[20.4620228,53.7582112],[20.4625027,53.7581441],[20.4626093,53.7581292],[20.4626408,53.7581247],[20.4626896,53.7581175],[20.4627318,53.758109],[20.4627689,53.7581012],[20.4630812,53.7580196]]}},{"type":"Feature","properties":{"way_id":333862615,"route_colors":[],"route_refs":["3"]},"geometry":{"type":"LineString","coordinates":[[20.4698685,53.7560823],[20.4697922,53.7560961],[20.4697159,53.7561155],[20.4696034,53.7561439],[20.4695146,53.7561648],[20.4694163,53.7561807],[20.4689769,53.7562402],[20.4689076,53.7562474],[20.4688198,53.756252],[20.4687133,53.7562549],[20.4686098,53.7562576],[20.468539,53.7562615],[20.4684671,53.7562691]]}},{"type":"Feature","properties":{"way_id":1293230782,"route_colors":[],"route_refs":["3"]},"geometry":{"type":"LineString","coordinates":[[20.4855664,53.7559825],[20.4853718,53.7559818],[20.4848475,53.7559796],[20.4847866,53.7559794],[20.4847032,53.755979],[20.4845278,53.7559783],[20.4844865,53.7559781],[20.4844399,53.7559773],[20.4844087,53.7559765],[20.4843668,53.7559735],[20.4843092,53.7559686],[20.4842562,53.7559616],[20.4842062,53.7559539],[20.4841663,53.7559472],[20.4841237,53.755938],[20.4840875,53.7559295],[20.484052,53.7559208],[20.4840144,53.7559101],[20.4839722,53.7558966],[20.4839303,53.7558825],[20.4838783,53.7558627],[20.4838431,53.7558481],[20.483709,53.7557862],[20.4836876,53.7557767],[20.4836711,53.7557696],[20.483642,53.7557594],[20.4836005,53.7557479]]}},{"type":"Feature","properties":{"way_id":1293230793,"route_colors":[],"route_refs":["3"]},"geometry":{"type":"LineString","coordinates":[[20.4855664,53.7559825],[20.4856719,53.755984],[20.4857148,53.7559866],[20.4857378,53.7559886],[20.4857507,53.7559897],[20.4857951,53.7559968],[20.485821,53.756002],[20.4858442,53.7560088],[20.4858675,53.7560156],[20.4858971,53.7560277],[20.4859223,53.75604],[20.4859361,53.7560468],[20.4859475,53.7560536],[20.4859732,53.7560708],[20.4859962,53.7560894],[20.4860152,53.7561082],[20.4860294,53.756126],[20.4860404,53.7561435],[20.4860458,53.7561558],[20.4860521,53.7561664]]}},{"type":"Feature","properties":{"way_id":1233275018,"route_colors":[],"route_refs":["5"]},"geometry":{"type":"LineString","coordinates":[[20.4782849,53.7773216],[20.4787034,53.7769468],[20.4787288,53.7769567],[20.4787539,53.7769665],[20.4783354,53.7773413],[20.4783272,53.7773382],[20.4783102,53.7773315],[20.4782849,53.7773216]]}},{"type":"Feature","properties":{"way_id":392532480,"route_colors":[],"route_refs":["5"]},"geometry":{"type":"LineString","coordinates":[[20.4828083,53.7776926],[20.4819649,53.7779157],[20.4819799,53.7779355],[20.4819866,53.7779444],[20.48283,53.7777212],[20.4828229,53.7777119],[20.4828083,53.7776926]]}},{"type":"Feature","properties":{"way_id":1234077650,"route_colors":[],"route_refs":["5","4"]},"geometry":{"type":"LineString","coordinates":[[20.4893426,53.7759289],[20.4903043,53.7756607],[20.4903027,53.7756588],[20.4902914,53.7756448],[20.4902787,53.775629],[20.4902344,53.7756391],[20.4901729,53.7756542],[20.4901088,53.7756704],[20.489361,53.7758799],[20.4893366,53.7758885],[20.4893182,53.7758965],[20.4893305,53.7759128],[20.4893426,53.7759289]]}},{"type":"Feature","properties":{"way_id":1234077555,"route_colors":[],"route_refs":["5","4"]},"geometry":{"type":"LineString","coordinates":[[20.4988699,53.7733822],[20.4988672,53.7733788],[20.4988642,53.773375],[20.4988432,53.7733484],[20.498083,53.7735541],[20.49801,53.7735747],[20.4979482,53.7735924],[20.4978807,53.7736127],[20.4978993,53.7736363],[20.4979031,53.7736412],[20.4979044,53.7736428],[20.4988699,53.7733822]]}},{"type":"Feature","properties":{"way_id":1234020749,"route_colors":[],"route_refs":["5","4"]},"geometry":{"type":"LineString","coordinates":[[20.5036309,53.7719878],[20.504595,53.771727],[20.5046192,53.7717582],[20.5046229,53.771763],[20.5046243,53.7717649],[20.5036602,53.7720257],[20.5036586,53.7720237],[20.5036553,53.7720193],[20.5036309,53.7719878]]}},{"type":"Feature","properties":{"way_id":1234015097,"route_colors":[],"route_refs":["5","4"]},"geometry":{"type":"LineString","coordinates":[[20.5085188,53.7703917],[20.508201,53.7700166],[20.5081833,53.7699905],[20.5082056,53.7699842],[20.5082326,53.7699767],[20.5082375,53.7699753],[20.5085761,53.7703762],[20.5085677,53.7703785],[20.5085394,53.7703861],[20.5085188,53.7703917]]}},{"type":"Feature","properties":{"way_id":1233897925,"route_colors":[],"route_refs":["5"]},"geometry":{"type":"LineString","coordinates":[[20.503115,53.7656924],[20.5035436,53.7660071],[20.5035657,53.7659965],[20.5035855,53.765987],[20.5035923,53.7659837],[20.5032114,53.7657047],[20.5031587,53.7656717],[20.5031349,53.765683],[20.503115,53.7656924]]}},{"type":"Feature","properties":{"way_id":1233897901,"route_colors":[],"route_refs":["5","4"]},"geometry":{"type":"LineString","coordinates":[[20.5009631,53.7634076],[20.5012859,53.7637647],[20.5012588,53.7637733],[20.5012307,53.7637822],[20.5009079,53.763425],[20.5009345,53.7634166],[20.5009569,53.7634096],[20.5009631,53.7634076]]}},{"type":"Feature","properties":{"way_id":1233881787,"route_colors":[],"route_refs":["5","4"]},"geometry":{"type":"LineString","coordinates":[[20.5027511,53.756686],[20.5027414,53.7566738],[20.5027284,53.7566574],[20.5021404,53.7568248],[20.5021119,53.7568303],[20.5021255,53.7568468],[20.5021377,53.7568615],[20.502141,53.7568656],[20.5026514,53.7567191],[20.5027511,53.756686]]}},{"type":"Feature","properties":{"way_id":1233881767,"route_colors":[],"route_refs":["5","4"]},"geometry":{"type":"LineString","coordinates":[[20.5023292,53.7534211],[20.5023508,53.7534198],[20.5023723,53.7534185],[20.502371,53.7533739],[20.5022974,53.7529967],[20.5022879,53.7529974],[20.5022681,53.7529989],[20.5022441,53.7530008],[20.5023292,53.7534211]]}},{"type":"Feature","properties":{"way_id":1233564343,"route_colors":[],"route_refs":["5","4"]},"geometry":{"type":"LineString","coordinates":[[20.5045201,53.7496153],[20.5050991,53.749402],[20.5050961,53.7493992],[20.5050867,53.7493902],[20.5050742,53.7493784],[20.5044953,53.7495917],[20.5045077,53.7496035],[20.5045201,53.7496153]]}},{"type":"Feature","properties":{"way_id":1233564322,"route_colors":[],"route_refs":["5","4"]},"geometry":{"type":"LineString","coordinates":[[20.5076762,53.745674],[20.5077015,53.7456745],[20.5077207,53.7456749],[20.5077278,53.7456751],[20.5077509,53.7452704],[20.5077262,53.7452699],[20.5076993,53.7452694],[20.5076762,53.745674]]}},{"type":"Feature","properties":{"way_id":1233497203,"route_colors":[],"route_refs":["5","4"]},"geometry":{"type":"LineString","coordinates":[[20.5100558,53.7421055],[20.5100494,53.742121],[20.5100479,53.7421245],[20.5109919,53.7422412],[20.5109983,53.7422216],[20.5110047,53.7422019],[20.5103485,53.74212],[20.510237,53.7421066],[20.5101139,53.742094],[20.5100626,53.742089],[20.5100558,53.7421055]]}},{"type":"Feature","properties":{"way_id":1233497173,"route_colors":[],"route_refs":["5","4"]},"geometry":{"type":"LineString","coordinates":[[20.5156095,53.7405485],[20.514964,53.7408901],[20.5149475,53.7408796],[20.5149231,53.7408639],[20.5156008,53.7405053],[20.5156267,53.7405223],[20.5156377,53.7405296],[20.5156095,53.7405485]]}},{"type":"Feature","properties":{"way_id":1233493898,"route_colors":[],"route_refs":["5","4"]},"geometry":{"type":"LineString","coordinates":[[20.5186152,53.7401275],[20.5192965,53.7401456],[20.5192978,53.7401282],[20.5192991,53.7401109],[20.518689,53.7400946],[20.5186179,53.7400941],[20.5186165,53.7401108],[20.5186152,53.7401275]]}},{"type":"Feature","properties":{"way_id":1288770095,"route_colors":[],"route_refs":["5"]},"geometry":{"type":"LineString","coordinates":[[20.4780556,53.7777112],[20.4780595,53.7777033],[20.4780876,53.7776467],[20.4781154,53.777591],[20.4781348,53.777559],[20.4781534,53.7775341],[20.4781763,53.7775092],[20.4782129,53.7774732],[20.4783347,53.7773641],[20.4785658,53.7771556]]}},{"type":"Feature","properties":{"way_id":1085551602,"route_colors":[],"route_refs":["5"]},"geometry":{"type":"LineString","coordinates":[[20.4871876,53.7765756],[20.4873439,53.7765343],[20.4874945,53.7764945],[20.487563,53.7764751],[20.4876144,53.7764582],[20.4876939,53.7764307],[20.4877222,53.7764194],[20.4877521,53.7764078],[20.487821,53.7763797],[20.4879075,53.7763474],[20.4879852,53.7763234],[20.4880587,53.776303]]}},{"type":"Feature","properties":{"way_id":1427297430,"route_colors":[],"route_refs":["5","4"]},"geometry":{"type":"LineString","coordinates":[[20.4880587,53.776303],[20.488165,53.7762729],[20.4883697,53.7762156],[20.4886563,53.7761352],[20.4891442,53.7759985],[20.4893248,53.7759478],[20.4898713,53.7757944],[20.4901927,53.775705],[20.4903419,53.7756635],[20.4903877,53.7756505],[20.4904709,53.7756269],[20.4905381,53.7756089],[20.490612,53.7755909],[20.4906885,53.7755733],[20.490894,53.7755324],[20.491085,53.7754955],[20.4912621,53.7754587],[20.4914421,53.7754186],[20.4915882,53.7753835],[20.4917062,53.7753536],[20.4918439,53.7753175],[20.4920228,53.7752677],[20.4936084,53.774821],[20.4938864,53.7747423],[20.4941146,53.7746784],[20.4942583,53.7746393],[20.4943098,53.7746253],[20.4945049,53.7745721],[20.4946457,53.7745342],[20.4947679,53.7745011],[20.4948193,53.7744876],[20.4952593,53.7743688],[20.4958737,53.7742029],[20.4961055,53.7741431],[20.4963467,53.7740818],[20.4967106,53.7739911]]}},{"type":"Feature","properties":{"way_id":1427297428,"route_colors":[],"route_refs":["5","4"]},"geometry":{"type":"LineString","coordinates":[[20.4967106,53.7739911],[20.4967505,53.7739812],[20.4968912,53.7739455],[20.497058,53.7739012],[20.4972249,53.773854],[20.4973596,53.7738136],[20.4976805,53.7737181],[20.4977607,53.7736945],[20.497825,53.7736766],[20.4978838,53.7736607],[20.4983596,53.7735313],[20.4986787,53.773445],[20.4987362,53.7734294],[20.4989048,53.7733837],[20.4989636,53.7733679],[20.4991375,53.7733197],[20.4995021,53.7732188]]}},{"type":"Feature","properties":{"way_id":1427297426,"route_colors":[],"route_refs":["5","4"]},"geometry":{"type":"LineString","coordinates":[[20.4995021,53.7732188],[20.4997363,53.7731539],[20.4998359,53.7731264],[20.5003385,53.7729878],[20.5003971,53.7729715],[20.5004352,53.772961],[20.5006293,53.7729075],[20.5011076,53.7727751],[20.5012859,53.7727259],[20.5013269,53.7727145],[20.5013846,53.7726984],[20.5015969,53.7726396],[20.5017268,53.7726031]]}},{"type":"Feature","properties":{"way_id":1427297424,"route_colors":[],"route_refs":["5","4"]},"geometry":{"type":"LineString","coordinates":[[20.5017268,53.7726031],[20.5017468,53.7725975],[20.5018946,53.772552],[20.501995,53.7725216],[20.5026801,53.7723095],[20.5028575,53.7722559],[20.5030399,53.7722053],[20.5032979,53.772136],[20.5035811,53.772059],[20.5036391,53.772043],[20.5041322,53.7719103],[20.5044963,53.7718116],[20.5046601,53.7717672],[20.5047109,53.7717534],[20.5055023,53.7715401],[20.5056897,53.7714909],[20.5057049,53.7714869],[20.5059225,53.771431],[20.5061543,53.7713744],[20.506208,53.7713618],[20.5062397,53.7713545],[20.5063264,53.7713344],[20.5064168,53.7713141],[20.5065233,53.7712895],[20.5073532,53.771103],[20.5075018,53.7710683],[20.5076569,53.7710307],[20.5078131,53.7709898],[20.5079524,53.7709505],[20.5084358,53.7708134]]}},{"type":"Feature","properties":{"way_id":1427297423,"route_colors":[],"route_refs":["5","4"]},"geometry":{"type":"LineString","coordinates":[[20.5084358,53.7708134],[20.5084467,53.7708103],[20.5085093,53.7707913],[20.5085634,53.7707723],[20.5086146,53.7707474],[20.508646,53.7707269],[20.5086724,53.7707049],[20.5086923,53.7706823],[20.5087117,53.7706535],[20.5087213,53.7706291],[20.5087242,53.7706196],[20.5087291,53.7705919],[20.5087261,53.7705615],[20.5087153,53.7705283],[20.5086862,53.7704824],[20.5086501,53.7704388],[20.5086229,53.7704053],[20.5084237,53.7701696],[20.50831,53.7700344],[20.5082421,53.7699537],[20.5081956,53.7698988]]}},{"type":"Feature","properties":{"way_id":1427297421,"route_colors":[],"route_refs":["5","4"]},"geometry":{"type":"LineString","coordinates":[[20.5081956,53.7698988],[20.5077083,53.7693236],[20.5075717,53.7691627],[20.5074801,53.7690601],[20.5074195,53.7689932],[20.5074001,53.7689718],[20.5073177,53.7688872],[20.5072362,53.7688027],[20.5071531,53.7687208],[20.5070689,53.7686405],[20.5069591,53.7685389],[20.5068451,53.7684353],[20.5067029,53.7683138],[20.5065865,53.7682197],[20.5064953,53.7681462],[20.5064067,53.7680766],[20.5063114,53.7680031],[20.5051422,53.7671024],[20.5050272,53.7670143],[20.5049107,53.7669287],[20.5048082,53.7668537],[20.5041566,53.7663767],[20.5041227,53.7663523],[20.5040861,53.7663256],[20.503922,53.7662057],[20.503825,53.7661349],[20.5036664,53.7660188],[20.5036291,53.765992],[20.5033912,53.7658166],[20.5030821,53.7655913],[20.5030349,53.765556]]}},{"type":"Feature","properties":{"way_id":1427297418,"route_colors":[],"route_refs":["5","4"]},"geometry":{"type":"LineString","coordinates":[[20.5030349,53.765556],[20.5029867,53.76552],[20.5029312,53.7654741],[20.502876,53.765424],[20.5028141,53.765363],[20.5027431,53.7652834],[20.5026863,53.7652177]]}},{"type":"Feature","properties":{"way_id":1427297416,"route_colors":[],"route_refs":["5","4"]},"geometry":{"type":"LineString","coordinates":[[20.5026863,53.7652177],[20.5022635,53.7647292],[20.5021922,53.7646501],[20.5021361,53.7645918],[20.5020755,53.7645337],[20.5019916,53.7644598],[20.501872,53.7643558],[20.5018478,53.7643341],[20.5017884,53.7642817],[20.5017435,53.764238],[20.5016981,53.7641935],[20.501504,53.7639796]]}},{"type":"Feature","properties":{"way_id":1085551603,"route_colors":[],"route_refs":["5","4"]},"geometry":{"type":"LineString","coordinates":[[20.501504,53.7639796],[20.5013162,53.7637726],[20.5011439,53.7635825],[20.5010399,53.7634676],[20.5009665,53.7633865],[20.5009393,53.7633561],[20.5008514,53.763259],[20.5006417,53.7630272],[20.5005093,53.7628804],[20.5004787,53.762847],[20.5002828,53.7626294],[20.5002155,53.7625554],[20.5001419,53.7624709],[20.5000808,53.7623932],[20.5000246,53.7623174],[20.4999757,53.7622447],[20.4999334,53.7621774],[20.499888,53.7620975],[20.4998477,53.7620208],[20.4998166,53.761952],[20.4997864,53.7618785],[20.4997623,53.7618112],[20.4997381,53.7617335],[20.4997166,53.7616565],[20.4997028,53.7615872],[20.4996936,53.7615405],[20.499687,53.7614919],[20.4996821,53.7614559],[20.4996753,53.761365],[20.4996722,53.7612864],[20.4996749,53.7611856],[20.4996808,53.7611155],[20.4996909,53.7610389],[20.4997022,53.7609685],[20.4997437,53.7607903],[20.4997653,53.7607037],[20.4998222,53.7604762]]}},{"type":"Feature","properties":{"way_id":1427297414,"route_colors":[],"route_refs":["5","4"]},"geometry":{"type":"LineString","coordinates":[[20.4998222,53.7604762],[20.4998393,53.7604075],[20.4998605,53.7603186],[20.4998754,53.7602267],[20.4998802,53.7601383],[20.4998786,53.7600613],[20.4998712,53.7599891],[20.4998623,53.7599372],[20.4998488,53.7598759],[20.4998309,53.7598119],[20.4998122,53.7597508]]}},{"type":"Feature","properties":{"way_id":1427297412,"route_colors":[],"route_refs":["5","4"]},"geometry":{"type":"LineString","coordinates":[[20.4998122,53.7597508],[20.4997905,53.7596788],[20.4997629,53.7596052],[20.4997267,53.7595239],[20.4997169,53.7595044]]}},{"type":"Feature","properties":{"way_id":1164409827,"route_colors":[],"route_refs":["5","4"]},"geometry":{"type":"LineString","coordinates":[[20.4997169,53.7595044],[20.499691,53.7594526],[20.4996082,53.7592987],[20.4995835,53.759246],[20.4995647,53.7591941],[20.4995521,53.7591465],[20.499542,53.7590837],[20.4995394,53.7590122],[20.4995443,53.7589546],[20.4995564,53.7588927],[20.4995739,53.7588362],[20.499873,53.758026],[20.4999006,53.7579628],[20.4999426,53.7578905],[20.50001,53.7578028],[20.5000595,53.7577509],[20.5001167,53.7576993],[20.5001775,53.7576519],[20.5002553,53.7575994],[20.5003385,53.7575513],[20.5004188,53.7575112],[20.5005162,53.7574698]]}},{"type":"Feature","properties":{"way_id":1427297410,"route_colors":[],"route_refs":["5","4"]},"geometry":{"type":"LineString","coordinates":[[20.5005162,53.7574698],[20.5005274,53.7574651],[20.5007341,53.7573853]]}},{"type":"Feature","properties":{"way_id":1427297408,"route_colors":[],"route_refs":["5","4"]},"geometry":{"type":"LineString","coordinates":[[20.5007341,53.7573853],[20.5015608,53.7570662],[20.5016892,53.7570175],[20.5017892,53.7569831],[20.5018076,53.7569771],[20.5018909,53.7569499],[20.5019365,53.7569364],[20.5021216,53.7568841],[20.5024844,53.7567802],[20.5026271,53.7567392],[20.5027594,53.7567011],[20.5027908,53.7566921],[20.5028921,53.7566634],[20.5030038,53.75663],[20.5030917,53.7566016],[20.5031867,53.7565679],[20.5032814,53.7565305],[20.503369,53.7564914],[20.5034573,53.7564468],[20.5035443,53.7563974],[20.5036174,53.7563514],[20.5036876,53.7563013],[20.5037445,53.756258],[20.5038039,53.7562068],[20.5038687,53.7561439],[20.5039221,53.7560831],[20.5039669,53.7560246],[20.5040076,53.7559642],[20.504038,53.7559103],[20.5040667,53.7558475],[20.5040846,53.7558018],[20.5041036,53.7557435],[20.5041167,53.7556871],[20.5041234,53.7556339],[20.504128,53.7555709],[20.5041268,53.7555094],[20.5041192,53.7554348],[20.5041065,53.7553808],[20.5040883,53.7553213],[20.5040654,53.7552599],[20.5040363,53.7552012],[20.5040049,53.7551449],[20.5039653,53.7550869],[20.5039121,53.7550181],[20.5038503,53.7549519],[20.5037776,53.7548802],[20.5036775,53.7547879],[20.5035871,53.7547062]]}},{"type":"Feature","properties":{"way_id":1427297406,"route_colors":[],"route_refs":["5","4"]},"geometry":{"type":"LineString","coordinates":[[20.5035871,53.7547062],[20.5028982,53.7540829]]}},{"type":"Feature","properties":{"way_id":1427297405,"route_colors":[],"route_refs":["5","4"]},"geometry":{"type":"LineString","coordinates":[[20.5028982,53.7540829],[20.5026964,53.7539003],[20.5026556,53.7538634],[20.5026115,53.7538229],[20.5025692,53.7537823],[20.5025488,53.7537574],[20.5025379,53.7537477],[20.502506,53.7537065],[20.5024766,53.7536599],[20.5024734,53.7536548],[20.5024591,53.7536285],[20.5024439,53.7535951],[20.5024339,53.7535664]]}},{"type":"Feature","properties":{"way_id":1427297403,"route_colors":[],"route_refs":["5","4"]},"geometry":{"type":"LineString","coordinates":[[20.5024339,53.7535664],[20.5024296,53.7535542],[20.5024188,53.7535131],[20.5024086,53.7534651],[20.5024029,53.7534343],[20.5023542,53.7531842],[20.5023278,53.7530504],[20.5023136,53.7529787],[20.5023035,53.7529264],[20.5022916,53.7528667],[20.5022812,53.7528028],[20.5022701,53.752717],[20.5022627,53.7526439],[20.5022584,53.752572],[20.5022564,53.752469],[20.5022582,53.7523822],[20.5022632,53.7522971],[20.502271,53.7522161],[20.5022823,53.7521367],[20.502298,53.7520519],[20.5023134,53.7519805],[20.5023335,53.7518964],[20.5023601,53.7518079],[20.5023892,53.7517202],[20.502421,53.7516369],[20.5024545,53.7515573],[20.5024941,53.7514722],[20.5025291,53.7514031],[20.502575,53.7513188],[20.5026217,53.7512388],[20.5026663,53.7511681],[20.5027184,53.7510915],[20.5027571,53.7510371],[20.5027672,53.7510228],[20.5028159,53.7509593],[20.5028702,53.7508904],[20.5029308,53.7508192],[20.5029983,53.7507431],[20.5030028,53.750738],[20.5030723,53.7506653],[20.503114,53.7506222],[20.5031647,53.7505733],[20.5032465,53.7504961],[20.5033274,53.7504219],[20.5037648,53.7500255]]}},{"type":"Feature","properties":{"way_id":1427297402,"route_colors":[],"route_refs":["5","4"]},"geometry":{"type":"LineString","coordinates":[[20.5037648,53.7500255],[20.5038076,53.7499867],[20.5038558,53.7499434],[20.5038904,53.7499144],[20.5039256,53.749888],[20.5039618,53.749864],[20.5040055,53.7498376],[20.5040506,53.7498134],[20.5040916,53.7497927],[20.5041231,53.749779],[20.5041714,53.749759],[20.5042236,53.7497393],[20.5042496,53.749729],[20.5044182,53.7496668],[20.5045046,53.7496355],[20.5047125,53.7495583]]}},{"type":"Feature","properties":{"way_id":1233881764,"route_colors":[],"route_refs":["5","4"]},"geometry":{"type":"LineString","coordinates":[[20.5047125,53.7495583],[20.5048201,53.7495184],[20.5050162,53.7494461],[20.5051351,53.7494023],[20.5054737,53.7492775],[20.5059652,53.7490963],[20.5060997,53.7490455],[20.5061145,53.7490399],[20.5061863,53.7490128],[20.5062681,53.7489804],[20.506345,53.7489483],[20.5064457,53.7489026],[20.506546,53.7488546],[20.5066275,53.7488114],[20.506717,53.74876],[20.5067979,53.7487105],[20.5068797,53.7486566],[20.5069536,53.7486039],[20.5070233,53.7485505],[20.5071021,53.7484841],[20.5071612,53.7484295],[20.5072309,53.7483604],[20.5072938,53.7482923],[20.5073478,53.7482279],[20.5073958,53.7481616],[20.507438,53.7480994],[20.5074747,53.7480399],[20.50751,53.7479739],[20.5075445,53.7479014],[20.5075733,53.747829],[20.5075941,53.7477635],[20.5076121,53.7476971],[20.5076253,53.7476343],[20.5076387,53.7475415],[20.5076461,53.7474501],[20.5076526,53.7473649],[20.5077326,53.7459389],[20.5077382,53.7458396],[20.5077464,53.7456939],[20.5077588,53.7454729],[20.5077657,53.7453545],[20.5077679,53.7453159]]}},{"type":"Feature","properties":{"way_id":1427297400,"route_colors":[],"route_refs":["5","4"]},"geometry":{"type":"LineString","coordinates":[[20.5077679,53.7453159],[20.5077746,53.7452012],[20.5077765,53.745185],[20.5077787,53.745151],[20.5077865,53.7450935],[20.5078056,53.7450266],[20.5078287,53.7449733],[20.5078447,53.7449432],[20.5078822,53.7448893],[20.507921,53.7448439],[20.5079635,53.744802],[20.5080183,53.7447552],[20.5080884,53.7447008],[20.5081367,53.7446626],[20.508187,53.7446203],[20.5082257,53.7445809],[20.5082664,53.744535],[20.5083106,53.7444695],[20.5083367,53.744417],[20.5083585,53.7443666],[20.5084709,53.7441022],[20.5084852,53.744069],[20.5085118,53.7440064],[20.5086256,53.7437403],[20.508652,53.7436792],[20.5086846,53.7436088],[20.5087446,53.7434889],[20.508761,53.7434567],[20.5087942,53.7433915],[20.508914,53.7431564],[20.5091407,53.7427115],[20.5092708,53.7424563],[20.509287,53.7424237],[20.5093026,53.7423932]]}},{"type":"Feature","properties":{"way_id":1235545451,"route_colors":[],"route_refs":["5","4"]},"geometry":{"type":"LineString","coordinates":[[20.5093026,53.7423932],[20.5093529,53.7422951],[20.509358,53.7422847],[20.5093657,53.7422716],[20.5093715,53.7422616],[20.509385,53.7422405],[20.5093962,53.7422263],[20.5094185,53.7422037],[20.509446,53.7421817],[20.5094831,53.7421594],[20.5095209,53.7421413],[20.5095631,53.7421272],[20.5096147,53.742114],[20.5096653,53.7421052],[20.5096996,53.7421033],[20.5097249,53.7421027],[20.5097447,53.7421027],[20.5097876,53.7421054],[20.5098149,53.7421077],[20.5098408,53.7421104]]}},{"type":"Feature","properties":{"way_id":1235545452,"route_colors":[],"route_refs":["5","4"]},"geometry":{"type":"LineString","coordinates":[[20.5098408,53.7421104],[20.5099596,53.7421249],[20.5100167,53.742132],[20.5105297,53.7421958],[20.5109494,53.742248],[20.5110009,53.7422542],[20.5110209,53.7422566],[20.5110975,53.7422651],[20.5111925,53.7422743],[20.5112994,53.7422818],[20.5113865,53.742285],[20.5114788,53.7422859],[20.5115623,53.7422854],[20.5116478,53.7422826],[20.511691,53.7422804],[20.5117316,53.7422784],[20.5118243,53.7422714],[20.5118884,53.7422651],[20.5119995,53.742252],[20.5120966,53.7422381],[20.5121923,53.7422212],[20.5122791,53.7422029],[20.5123841,53.7421782],[20.5125017,53.7421463],[20.5126021,53.7421145],[20.5127032,53.7420789],[20.5127923,53.7420441],[20.5128685,53.7420112],[20.5129489,53.7419729],[20.5130083,53.7419433],[20.5131003,53.7418944],[20.5131434,53.7418708],[20.5132528,53.7418131],[20.5135369,53.741662],[20.5136898,53.7415821],[20.5146504,53.741073],[20.5146939,53.7410498],[20.5148096,53.7409883],[20.5149105,53.7409346],[20.5149536,53.7409118],[20.5152993,53.740729],[20.515637,53.7405503],[20.5156922,53.7405214],[20.5157495,53.7404917],[20.5158314,53.7404526],[20.515924,53.7404114],[20.5159938,53.7403827],[20.5160737,53.7403523],[20.5161379,53.7403291],[20.5161904,53.7403117],[20.51627,53.7402862],[20.5163354,53.7402672],[20.5164004,53.7402491],[20.5164742,53.7402308],[20.5165588,53.7402112],[20.5166526,53.7401914],[20.5167461,53.7401747],[20.5168725,53.7401549],[20.5169765,53.7401411],[20.5170502,53.7401332],[20.5170828,53.7401297],[20.5173475,53.7401125],[20.5174042,53.740111],[20.5175037,53.7401096],[20.5175891,53.7401104],[20.5176202,53.7401108],[20.5177285,53.7401135]]}},{"type":"Feature","properties":{"way_id":1235545444,"route_colors":[],"route_refs":["5","4"]},"geometry":{"type":"LineString","coordinates":[[20.5177285,53.7401135],[20.5181118,53.7401244],[20.5185567,53.7401373],[20.5189545,53.7401488]]}},{"type":"Feature","properties":{"way_id":1233493897,"route_colors":[],"route_refs":["5","4"]},"geometry":{"type":"LineString","coordinates":[[20.518609,53.7402209],[20.5186477,53.740224],[20.5186917,53.740226],[20.5192876,53.7402434],[20.5192887,53.7402258],[20.5192899,53.7402082],[20.5186108,53.7401891],[20.5186099,53.740205],[20.518609,53.7402209]]}},{"type":"Feature","properties":{"way_id":1233528445,"route_colors":[],"route_refs":["5","4"]},"geometry":{"type":"LineString","coordinates":[[20.5094074,53.7424927],[20.5090736,53.7431497],[20.5090359,53.7431427],[20.5090075,53.7431378],[20.509314,53.7425352],[20.5093437,53.742483],[20.5093754,53.7424874],[20.5094074,53.7424927]]}},{"type":"Feature","properties":{"way_id":1233564332,"route_colors":[],"route_refs":["5","4"]},"geometry":{"type":"LineString","coordinates":[[20.5079502,53.7452045],[20.5079396,53.7452278],[20.5079213,53.7452654],[20.5079129,53.7452905],[20.5079079,53.7453186],[20.5078875,53.7456772],[20.5078611,53.745677],[20.5078341,53.7456768],[20.507828,53.7456767],[20.5078505,53.7452728],[20.5078628,53.7452048],[20.5079072,53.7452047],[20.5079502,53.7452045]]}},{"type":"Feature","properties":{"way_id":1233564346,"route_colors":[],"route_refs":["5","4"]},"geometry":{"type":"LineString","coordinates":[[20.5045721,53.7496664],[20.5051511,53.7494521],[20.5051549,53.7494556],[20.5051804,53.7494463],[20.5052069,53.7494366],[20.5053156,53.7493969],[20.5053379,53.7494189],[20.5053433,53.7494242],[20.504776,53.7496328],[20.5047433,53.749646],[20.5047149,53.7496599],[20.5046165,53.7497073],[20.5045888,53.7496818],[20.5045757,53.7496697],[20.5045721,53.7496664]]}},{"type":"Feature","properties":{"way_id":1233881768,"route_colors":[],"route_refs":["5","4"]},"geometry":{"type":"LineString","coordinates":[[20.5025673,53.7532931],[20.5025869,53.7534023],[20.5025369,53.7534056],[20.5024869,53.7534089],[20.5024701,53.7533618],[20.5023972,53.7529914],[20.502403,53.752991],[20.5024269,53.7529896],[20.5024565,53.7529878],[20.5025673,53.7532931]]}},{"type":"Feature","properties":{"way_id":1233881788,"route_colors":[],"route_refs":["5","4"]},"geometry":{"type":"LineString","coordinates":[[20.5022209,53.7569638],[20.5028189,53.7567679],[20.5028115,53.756759],[20.5028023,53.7567474],[20.5026799,53.756777],[20.5021847,53.7569191],[20.5021876,53.7569227],[20.5021973,53.7569346],[20.5022209,53.7569638]]}},{"type":"Feature","properties":{"way_id":1233897902,"route_colors":[],"route_refs":["5","4"]},"geometry":{"type":"LineString","coordinates":[[20.5010525,53.7633804],[20.5013754,53.7637361],[20.5014093,53.7637258],[20.5014348,53.763718],[20.5011953,53.7634533],[20.5011658,53.763421],[20.5011362,53.7633917],[20.5011072,53.7633637],[20.5010824,53.7633712],[20.5010576,53.7633788],[20.5010525,53.7633804]]}},{"type":"Feature","properties":{"way_id":1233897926,"route_colors":[],"route_refs":["5","4"]},"geometry":{"type":"LineString","coordinates":[[20.504238,53.7663602],[20.504667,53.7666747],[20.5046712,53.7666727],[20.5047084,53.7666549],[20.5047136,53.7666524],[20.5042846,53.766338],[20.5042534,53.7663529],[20.5042439,53.7663574],[20.504238,53.7663602]]}},{"type":"Feature","properties":{"way_id":1234015098,"route_colors":[],"route_refs":["5","4"]},"geometry":{"type":"LineString","coordinates":[[20.5086667,53.7703516],[20.5086744,53.7703495],[20.5086986,53.7703429],[20.5087632,53.7703253],[20.5087429,53.7702999],[20.5086973,53.7702641],[20.5086054,53.7701833],[20.5085788,53.7701607],[20.5085557,53.7701394],[20.5084448,53.7700075],[20.5084291,53.769985],[20.5084152,53.7699602],[20.5084041,53.7699299],[20.5083574,53.7699427],[20.5083289,53.7699504],[20.5086667,53.7703516]]}},{"type":"Feature","properties":{"way_id":1234020751,"route_colors":[],"route_refs":["5","4"]},"geometry":{"type":"LineString","coordinates":[[20.5046912,53.7718513],[20.5046669,53.7718197],[20.5046632,53.7718151],[20.5046619,53.7718133],[20.5036964,53.7720738],[20.5036977,53.7720755],[20.5037022,53.7720814],[20.5037257,53.7721118],[20.5045269,53.7718956],[20.5046912,53.7718513]]}},{"type":"Feature","properties":{"way_id":1234077556,"route_colors":[],"route_refs":["5","4"]},"geometry":{"type":"LineString","coordinates":[[20.4989064,53.77343],[20.4989083,53.7734325],[20.4989118,53.7734373],[20.4989311,53.7734635],[20.4980423,53.7737052],[20.4979667,53.7737247],[20.4979463,53.7736988],[20.4979424,53.7736938],[20.4979407,53.7736916],[20.4989064,53.77343]]}},{"type":"Feature","properties":{"way_id":1234077652,"route_colors":[],"route_refs":["5","4"]},"geometry":{"type":"LineString","coordinates":[[20.4903433,53.7757112],[20.4903591,53.7757303],[20.4903758,53.7757504],[20.4903283,53.7757624],[20.4901943,53.7757973],[20.4900658,53.7758325],[20.4894122,53.7760147],[20.4893976,53.775997],[20.4893836,53.77598],[20.4903433,53.7757112]]}},{"type":"Feature","properties":{"way_id":392532481,"route_colors":[],"route_refs":["5"]},"geometry":{"type":"LineString","coordinates":[[20.4828911,53.7778024],[20.4820484,53.7780269],[20.4820326,53.7780061],[20.482026,53.7779975],[20.4828687,53.777773],[20.4828765,53.7777833],[20.4828911,53.7778024]]}},{"type":"Feature","properties":{"way_id":1235545443,"route_colors":[],"route_refs":["5","4"]},"geometry":{"type":"LineString","coordinates":[[20.5189508,53.7401874],[20.5185546,53.7401759],[20.5181094,53.7401631],[20.5177581,53.740153],[20.5177248,53.740152]]}},{"type":"Feature","properties":{"way_id":1235545450,"route_colors":[],"route_refs":["5","4"]},"geometry":{"type":"LineString","coordinates":[[20.5177248,53.740152],[20.5175878,53.740149],[20.5174804,53.7401481],[20.5174056,53.7401497],[20.5173486,53.7401515],[20.5172558,53.740156],[20.5171637,53.7401618],[20.5170594,53.7401702],[20.5169641,53.7401801],[20.5169257,53.7401854],[20.5168578,53.7401947],[20.5167588,53.7402099],[20.516674,53.7402254],[20.5165804,53.7402438],[20.5164942,53.7402634],[20.5164177,53.7402818],[20.5163585,53.740298],[20.5162832,53.7403196],[20.5162162,53.7403404],[20.516149,53.7403623],[20.5160793,53.7403869],[20.5160002,53.7404163],[20.5159498,53.7404367],[20.5158614,53.7404751],[20.5158102,53.7404989],[20.515745,53.7405304],[20.5156866,53.7405605],[20.5156315,53.7405894],[20.5149841,53.7409319],[20.5149411,53.7409546],[20.5148403,53.7410087],[20.5147242,53.7410699],[20.5146808,53.7410931],[20.5141272,53.7413859],[20.5137199,53.7416018],[20.5135678,53.7416818],[20.5132835,53.7418327],[20.5131738,53.7418913],[20.5131304,53.7419143],[20.5130145,53.7419753],[20.5129542,53.7420054],[20.5128954,53.7420338],[20.5128215,53.7420668],[20.5127297,53.7421044],[20.5126286,53.7421405],[20.5125233,53.7421741],[20.5123967,53.7422088],[20.5122935,53.7422343],[20.512201,53.7422533],[20.5121019,53.7422699],[20.5120097,53.7422845],[20.5118969,53.7422983],[20.5118258,53.7423045],[20.5117354,53.7423115],[20.5116953,53.7423135],[20.5116482,53.7423159],[20.5115737,53.7423188],[20.511484,53.742319],[20.5114008,53.7423179],[20.5113155,53.7423145],[20.5112065,53.7423073],[20.5111044,53.7422985],[20.5110275,53.7422899],[20.5109896,53.7422853],[20.5109554,53.7422812],[20.5106082,53.742238],[20.5100057,53.742163],[20.5099488,53.7421558],[20.5098955,53.7421491]]}},{"type":"Feature","properties":{"way_id":1235545449,"route_colors":[],"route_refs":["5","4"]},"geometry":{"type":"LineString","coordinates":[[20.5098955,53.7421491],[20.5098526,53.7421442],[20.5098146,53.7421416],[20.5097728,53.7421407],[20.5097252,53.7421428],[20.5097204,53.742144],[20.5096762,53.7421492],[20.5096347,53.7421571],[20.5095881,53.7421707],[20.5095521,53.7421853],[20.5095192,53.7422011],[20.5094902,53.7422194],[20.5094659,53.7422386],[20.5094463,53.7422565],[20.5094282,53.7422786],[20.5094165,53.7422981],[20.5094137,53.7423012],[20.5094016,53.7423225],[20.5093765,53.7423727]]}},{"type":"Feature","properties":{"way_id":1427297399,"route_colors":[],"route_refs":["5","4"]},"geometry":{"type":"LineString","coordinates":[[20.5093765,53.7423727],[20.509346,53.7424324],[20.5093296,53.7424651],[20.509142,53.7428336],[20.5090037,53.7430972],[20.5089696,53.7431657],[20.5088525,53.7434011],[20.5088199,53.7434666],[20.5088033,53.7434985],[20.5087448,53.7436148],[20.508709,53.7436929],[20.5086752,53.7437708],[20.5085767,53.744008],[20.5085464,53.7440782],[20.5085327,53.7441112],[20.5085003,53.7441891],[20.5084204,53.7443812],[20.5083986,53.7444314],[20.5083725,53.7444852],[20.5083384,53.7445386],[20.5082928,53.7445939],[20.5082479,53.7446383],[20.5081939,53.7446839],[20.5081405,53.7447256],[20.508067,53.7447824],[20.5080224,53.744822],[20.5079774,53.7448655],[20.5079395,53.7449108],[20.5079071,53.744958],[20.5078835,53.7450028],[20.5078621,53.7450546],[20.5078476,53.745106],[20.5078391,53.7451528],[20.507836,53.7451862],[20.5078345,53.7452207],[20.507826,53.7453722]]}},{"type":"Feature","properties":{"way_id":1233881765,"route_colors":[],"route_refs":["5","4"]},"geometry":{"type":"LineString","coordinates":[[20.507826,53.7453722],[20.5078203,53.7454737],[20.5078118,53.7456217],[20.5078076,53.7456947],[20.5077993,53.74584],[20.5077936,53.7459385],[20.5077111,53.7473768],[20.5077059,53.7474596],[20.5077031,53.747495],[20.5076982,53.7475561],[20.5076849,53.7476453],[20.5076725,53.7477068],[20.5076557,53.747774],[20.5076322,53.7478413],[20.5076071,53.7479067],[20.5075694,53.7479873],[20.5075345,53.7480525],[20.5074981,53.7481132],[20.5074547,53.7481773],[20.5074058,53.7482431],[20.5073523,53.7483086],[20.5072846,53.7483823],[20.5072231,53.7484427],[20.507159,53.7485025],[20.5070792,53.7485696],[20.5070042,53.7486266],[20.5069266,53.7486819],[20.5068473,53.7487338],[20.5067628,53.7487855],[20.5066721,53.748837],[20.5065832,53.748884],[20.5064863,53.748931],[20.5063902,53.748974],[20.5063144,53.7490053],[20.5062252,53.749041],[20.5061853,53.7490568],[20.5061182,53.7490822],[20.5060106,53.7491216],[20.5051674,53.7494337],[20.5048512,53.74955],[20.5047411,53.7495905]]}},{"type":"Feature","properties":{"way_id":1427297398,"route_colors":[],"route_refs":["5","4"]},"geometry":{"type":"LineString","coordinates":[[20.5047411,53.7495905],[20.5046699,53.7496167],[20.504536,53.749666],[20.5044715,53.74969],[20.5043451,53.7497359],[20.5042678,53.7497654],[20.5042176,53.7497857],[20.5041807,53.7498019],[20.5041319,53.7498236],[20.5040936,53.7498432],[20.5040546,53.7498655],[20.5040212,53.7498863],[20.5039792,53.7499128],[20.5039456,53.7499355],[20.5039079,53.7499637],[20.5038647,53.7500016],[20.503818,53.7500435],[20.5036058,53.7502363]]}},{"type":"Feature","properties":{"way_id":1427297401,"route_colors":[],"route_refs":["5","4"]},"geometry":{"type":"LineString","coordinates":[[20.5036058,53.7502363],[20.5033787,53.7504425],[20.5032952,53.7505184],[20.5032155,53.7505934],[20.5031706,53.7506369],[20.5031293,53.7506787],[20.5030594,53.7507532],[20.5030539,53.7507592],[20.5029824,53.7508373],[20.5029277,53.750903],[20.5028708,53.7509744],[20.5028215,53.7510392],[20.502814,53.7510497],[20.5027743,53.7511054],[20.5027241,53.7511794],[20.5026791,53.7512507],[20.5026317,53.7513293],[20.5025873,53.7514125],[20.5025522,53.7514822],[20.5025134,53.7515651],[20.5024787,53.7516471],[20.5024499,53.7517262],[20.5024199,53.751812],[20.5023924,53.7519035],[20.5023718,53.7519855],[20.5023568,53.7520587],[20.5023426,53.752139],[20.5023315,53.7522188],[20.502324,53.7522976],[20.5023185,53.7523837],[20.5023166,53.7524688],[20.5023181,53.7525721],[20.5023218,53.7526418],[20.502331,53.7527186],[20.5023421,53.7527992],[20.5023528,53.7528632],[20.5023632,53.7529205],[20.5023743,53.752975],[20.5024139,53.7531803],[20.5024437,53.7533321],[20.5024629,53.7534299],[20.5024791,53.7534995],[20.5024916,53.7535369],[20.5024999,53.7535567]]}},{"type":"Feature","properties":{"way_id":1427297404,"route_colors":[],"route_refs":["5","4"]},"geometry":{"type":"LineString","coordinates":[[20.5024999,53.7535567],[20.5025159,53.7535947],[20.5025334,53.753627],[20.5025403,53.7536429],[20.5025738,53.7536938],[20.5026031,53.7537331],[20.5026262,53.7537621],[20.5026666,53.7538046],[20.5027086,53.7538453],[20.5027486,53.7538819],[20.5029515,53.7540655]]}},{"type":"Feature","properties":{"way_id":1427297407,"route_colors":[],"route_refs":["5","4"]},"geometry":{"type":"LineString","coordinates":[[20.5029515,53.7540655],[20.5034161,53.7544859],[20.5036376,53.7546863],[20.5037471,53.7547854],[20.5038401,53.754871],[20.5039163,53.7549459],[20.5039819,53.7550164],[20.5040282,53.7550738],[20.5040691,53.7551336],[20.504104,53.755192],[20.5041333,53.7552507],[20.5041583,53.7553126],[20.5041774,53.7553733],[20.5041922,53.7554413],[20.5042012,53.7555104],[20.5042035,53.7555752],[20.5042,53.7556376],[20.5041918,53.7556933],[20.5041785,53.7557497],[20.5041593,53.7558107],[20.5041545,53.7558258],[20.5041301,53.7558853],[20.5040993,53.7559446],[20.5040638,53.7560032],[20.5040197,53.7560645],[20.5039702,53.7561254],[20.5039092,53.7561904],[20.5038376,53.7562554],[20.5037868,53.7562968],[20.5037258,53.7563427],[20.5036651,53.7563838],[20.5035905,53.7564301],[20.5034992,53.7564791],[20.5034065,53.7565246],[20.503315,53.7565632],[20.5032442,53.7565922],[20.5031419,53.7566276],[20.5030406,53.7566597],[20.5029135,53.7566976],[20.5028175,53.7567246],[20.5025099,53.7568124],[20.5022998,53.7568727],[20.5021477,53.7569163],[20.5020941,53.7569316]]}},{"type":"Feature","properties":{"way_id":1427297397,"route_colors":[],"route_refs":["5","4"]},"geometry":{"type":"LineString","coordinates":[[20.5020941,53.7569316],[20.5019644,53.7569686],[20.5018361,53.7570055],[20.501732,53.7570392],[20.5016328,53.7570745],[20.5011152,53.7572733]]}},{"type":"Feature","properties":{"way_id":1427297409,"route_colors":[],"route_refs":["5","4"]},"geometry":{"type":"LineString","coordinates":[[20.5011152,53.7572733],[20.5007599,53.7574097],[20.5005701,53.7574826],[20.5005437,53.7574936]]}},{"type":"Feature","properties":{"way_id":1164409828,"route_colors":[],"route_refs":["5","4"]},"geometry":{"type":"LineString","coordinates":[[20.5005437,53.7574936],[20.5004475,53.7575347],[20.5003735,53.7575722],[20.5002956,53.7576174],[20.5002186,53.7576694],[20.5001567,53.757718],[20.5000978,53.7577717],[20.5000548,53.757817],[20.5000223,53.757856],[20.4999852,53.7579078],[20.4999477,53.7579723],[20.4999165,53.7580442],[20.4996247,53.7588342],[20.499605,53.7588962],[20.499593,53.758958],[20.4995885,53.7590143],[20.4995903,53.7590736],[20.4996025,53.7591496],[20.4996141,53.7591919],[20.4996358,53.7592495],[20.4996587,53.7592966],[20.4997416,53.7594523],[20.4997631,53.759496]]}},{"type":"Feature","properties":{"way_id":1427297411,"route_colors":[],"route_refs":["5","4"]},"geometry":{"type":"LineString","coordinates":[[20.4997631,53.759496],[20.4997769,53.7595239],[20.4998119,53.7596021],[20.4998388,53.7596739],[20.4998622,53.7597459]]}},{"type":"Feature","properties":{"way_id":1427297413,"route_colors":[],"route_refs":["5","4"]},"geometry":{"type":"LineString","coordinates":[[20.4998622,53.7597459],[20.4998784,53.7598024],[20.4998954,53.7598645],[20.4999112,53.7599359],[20.4999208,53.7599886],[20.4999243,53.76003],[20.499926,53.7600499],[20.4999289,53.76013],[20.4999252,53.7602036],[20.4999148,53.7602861],[20.4998961,53.7603748],[20.4998722,53.76048]]}},{"type":"Feature","properties":{"way_id":1427297422,"route_colors":[],"route_refs":["5","4"]},"geometry":{"type":"LineString","coordinates":[[20.4998722,53.76048],[20.4998203,53.760709],[20.4997938,53.7608257],[20.499758,53.7610043],[20.4997471,53.7610732],[20.4997393,53.7611482],[20.4997363,53.7612247],[20.4997358,53.7613027],[20.4997384,53.761371],[20.4997458,53.761451],[20.4997578,53.7615362],[20.4997669,53.7615833],[20.4997807,53.7616472],[20.4997949,53.761706],[20.4998191,53.7617862],[20.499845,53.7618604],[20.4998749,53.7619329],[20.4999075,53.7620052],[20.4999443,53.7620794],[20.4999905,53.7621601],[20.500035,53.7622346],[20.5000808,53.762302],[20.5001388,53.7623804],[20.500205,53.7624646],[20.5002688,53.7625373],[20.5003449,53.7626229],[20.5005322,53.76283],[20.5005628,53.7628633],[20.5006948,53.7630099],[20.5009118,53.763249],[20.5009932,53.7633388],[20.5010208,53.7633699],[20.5011958,53.7635642],[20.5013215,53.7637035],[20.5013688,53.7637559],[20.5015574,53.7639627]]}},{"type":"Feature","properties":{"way_id":1427297415,"route_colors":[],"route_refs":["5","4"]},"geometry":{"type":"LineString","coordinates":[[20.5015574,53.7639627],[20.5017501,53.7641741],[20.5017933,53.7642188],[20.5018407,53.7642627],[20.5018987,53.7643141],[20.5019249,53.7643372],[20.5020447,53.7644409],[20.5021283,53.7645156],[20.5021879,53.7645727],[20.5022435,53.7646304],[20.5023148,53.7647107],[20.5027409,53.7652017]]}},{"type":"Feature","properties":{"way_id":1427297417,"route_colors":[],"route_refs":["5","4"]},"geometry":{"type":"LineString","coordinates":[[20.5027409,53.7652017],[20.5027946,53.7652636],[20.5028649,53.7653428],[20.5029116,53.7653899],[20.5029733,53.7654479],[20.5030393,53.7655016],[20.503082,53.7655333]]}},{"type":"Feature","properties":{"way_id":1085551604,"route_colors":[],"route_refs":["5","4"]},"geometry":{"type":"LineString","coordinates":[[20.503082,53.7655333],[20.5031326,53.765571],[20.5036776,53.7659689],[20.5037133,53.7659963],[20.5038727,53.7661126],[20.5039711,53.7661847],[20.5041342,53.7663036],[20.5041697,53.7663295],[20.5042033,53.7663544],[20.5043966,53.7664948],[20.5048552,53.766831],[20.5049579,53.7669063],[20.5050758,53.766993],[20.5051891,53.76708],[20.5063635,53.7679835],[20.5064536,53.768053],[20.5065457,53.7681257],[20.5066382,53.7681992],[20.5067538,53.7682941],[20.5068939,53.7684133],[20.5070151,53.7685219],[20.5071223,53.7686225],[20.5072054,53.7687026],[20.5072852,53.7687809],[20.507373,53.7688714],[20.5074524,53.7689542],[20.5074727,53.7689765],[20.5075322,53.7690416],[20.5076242,53.7691433],[20.5077608,53.7693046],[20.5082506,53.7698828],[20.5082974,53.769938],[20.5084794,53.7701555],[20.5086053,53.7703043],[20.5086778,53.7703899],[20.5087054,53.7704234],[20.5087358,53.7704582],[20.5087468,53.7704722]]}},{"type":"Feature","properties":{"way_id":1427297419,"route_colors":[],"route_refs":["5","4"]},"geometry":{"type":"LineString","coordinates":[[20.5087468,53.7704722],[20.5087676,53.770499],[20.5087937,53.7705412],[20.5088041,53.7705726],[20.508807,53.7706005],[20.5088065,53.770606],[20.5088025,53.7706354],[20.5087917,53.7706639],[20.5087733,53.7706928],[20.5087448,53.7707239],[20.508715,53.7707469],[20.5087029,53.7707539],[20.5086756,53.7707695],[20.5086449,53.7707837],[20.5085893,53.7708033],[20.5085235,53.7708226],[20.508457,53.7708417]]}},{"type":"Feature","properties":{"way_id":1427297420,"route_colors":[],"route_refs":["5","4"]},"geometry":{"type":"LineString","coordinates":[[20.508457,53.7708417],[20.5079735,53.7709805],[20.507843,53.7710161],[20.5077179,53.7710493],[20.5075451,53.7710926],[20.5073742,53.7711322],[20.5064375,53.7713431],[20.5063497,53.7713636],[20.5062584,53.7713842],[20.5062281,53.771391],[20.5061745,53.7714037],[20.5059397,53.7714609],[20.5057271,53.7715151],[20.5057114,53.7715193],[20.505522,53.7715698],[20.5053006,53.7716286],[20.5047332,53.7717817],[20.5046819,53.7717956],[20.5041518,53.7719392],[20.5038472,53.7720217],[20.5036615,53.772072],[20.5036037,53.7720877],[20.5033186,53.7721643],[20.5030636,53.7722336],[20.5028816,53.7722843],[20.5027023,53.7723382],[20.5020209,53.7725492],[20.5019175,53.7725804],[20.5017698,53.7726248],[20.5017513,53.7726301]]}},{"type":"Feature","properties":{"way_id":1427297425,"route_colors":[],"route_refs":["5","4"]},"geometry":{"type":"LineString","coordinates":[[20.5017513,53.7726301],[20.5016214,53.7726675],[20.5014068,53.7727273],[20.501349,53.7727429],[20.5011327,53.7728029],[20.5010461,53.7728269],[20.5007184,53.7729177],[20.5006503,53.7729367],[20.5004207,53.7730011],[20.5003619,53.7730173],[20.4997619,53.7731826],[20.4995249,53.773248]]}},{"type":"Feature","properties":{"way_id":1427297427,"route_colors":[],"route_refs":["5","4"]},"geometry":{"type":"LineString","coordinates":[[20.4995249,53.773248],[20.4991581,53.7733492],[20.4989861,53.7733966],[20.4989276,53.7734132],[20.4987026,53.7734739],[20.4983825,53.7735603],[20.4980492,53.7736506],[20.4979059,53.7736894],[20.4978473,53.7737051],[20.4977837,53.7737227],[20.4977037,53.7737464],[20.4973828,53.7738424],[20.4972475,53.7738822],[20.4970811,53.7739295],[20.4969138,53.7739744],[20.4967743,53.7740096],[20.4967298,53.7740207]]}},{"type":"Feature","properties":{"way_id":1427297429,"route_colors":[],"route_refs":["5","4"]},"geometry":{"type":"LineString","coordinates":[[20.4967298,53.7740207],[20.4963675,53.7741115],[20.4961301,53.7741714],[20.4958964,53.7742314],[20.4948418,53.7745161],[20.49479,53.77453],[20.4946535,53.7745665],[20.494532,53.7745994],[20.4943653,53.7746445],[20.4943319,53.7746536],[20.4942801,53.7746676],[20.4941369,53.7747064],[20.4939095,53.7747703],[20.4936289,53.7748492],[20.4932909,53.7749446],[20.492043,53.7752968],[20.491864,53.7753468],[20.4917283,53.7753826],[20.4915983,53.7754152],[20.4914609,53.7754479],[20.4912778,53.7754889],[20.4911037,53.7755252],[20.4909094,53.7755626],[20.490708,53.7756025],[20.4906305,53.7756202],[20.4905609,53.7756376],[20.4904938,53.7756548],[20.4903639,53.7756911],[20.4898896,53.7758243],[20.4895425,53.7759215],[20.4894555,53.7759459],[20.4893473,53.7759762],[20.4891698,53.776026],[20.4886761,53.7761645],[20.488393,53.7762439],[20.4881888,53.7763012],[20.4881414,53.776315]]}},{"type":"Feature","properties":{"way_id":1085551606,"route_colors":[],"route_refs":["5"]},"geometry":{"type":"LineString","coordinates":[[20.4881414,53.776315],[20.4879214,53.77638],[20.4878774,53.7763951],[20.4878414,53.7764088],[20.4878128,53.7764197],[20.4877804,53.7764341],[20.4877161,53.7764572],[20.487642,53.7764831],[20.4876077,53.7764944],[20.4875703,53.7765079],[20.4873668,53.7765645],[20.4872945,53.7765842]]}},{"type":"Feature","properties":{"way_id":1234089866,"route_colors":[],"route_refs":["4"]},"geometry":{"type":"LineString","coordinates":[[20.4879235,53.776691],[20.487882,53.7766417],[20.4878658,53.77662],[20.4878446,53.7765915],[20.4878321,53.7765677],[20.4878246,53.7765443],[20.4878216,53.7765094],[20.4878238,53.7764964],[20.4878261,53.776483],[20.4878482,53.7764319],[20.4878528,53.7764252],[20.4878648,53.7764094],[20.4878774,53.7763951],[20.4879001,53.7763761],[20.4879216,53.7763607],[20.4879581,53.7763406],[20.4880094,53.7763188],[20.4880587,53.776303]]}},{"type":"Feature","properties":{"way_id":1234089867,"route_colors":[],"route_refs":["4"]},"geometry":{"type":"LineString","coordinates":[[20.4881414,53.776315],[20.4880875,53.7763322],[20.4880353,53.7763538],[20.4880014,53.7763732],[20.4879732,53.7763952],[20.4879472,53.7764194],[20.4879268,53.7764468],[20.4879129,53.7764735],[20.4879081,53.7764857],[20.4879055,53.7765007],[20.4879045,53.7765073],[20.4879041,53.7765377],[20.4879107,53.776566],[20.4879187,53.7765909],[20.4879263,53.776604],[20.4879364,53.7766213],[20.4879568,53.7766507]]}}]}