{"type":"FeatureCollection","features":[{"type":"Feature","properties":{"route_ref":"3","route_color":"#64748b"},"geometry":{"type":"LineString","coordinates":[[86.7538419013755,53.874169630194096],[86.75415846932253,53.874146530025826],[86.75443394703959,53.87439657521516],[86.75426765083581,53.87489630738085],[86.75490719999999,53.877442650000006],[86.75479583324005,53.87868279040268],[86.75630736121865,53.87935925373021],[86.75484459381616,53.88113020651036],[86.75426421759497,53.882113851793015],[86.75433485613864,53.88230371356912],[86.75575486914175,53.883443906187246],[86.7557376928576,53.88372730619669],[86.75494013120935,53.884713762857956],[86.75490780538588,53.884928174635476],[86.75538661331427,53.88534077775458],[86.75653031140001,53.88585232237108],[86.75667540742992,53.8860150437995],[86.75651961124714,53.88795160591147],[86.75533900907507,53.8894924334088],[86.75498639665867,53.890229724933675],[86.75506355764509,53.89100656316189],[86.7557055731238,53.89188932808901],[86.75654722963888,53.89220503715104],[86.75868018046523,53.89276565349842],[86.76211683236609,53.894342567782104],[86.76397544903921,53.894678536463196],[86.76598553656761,53.89479948847855],[86.76990493458622,53.896227853486266],[86.77836424576923,53.897216043609674],[86.77933437684194,53.897424471865],[86.78877325285735,53.901398879463635],[86.78973209634795,53.901479146827924],[86.79645935714287,53.901350400000005],[86.79725533549002,53.90146724748884],[86.7974301436752,53.90185068889097],[86.79747619610654,53.90970303813792],[86.79750812108806,53.91008830326497],[86.79801012883264,53.910364871467806],[86.79794593312047,53.910563317804225],[86.79766362307373,53.910592123399496],[86.79745553125912,53.910489264467856],[86.79742911983988,53.90185306914873],[86.79736143641516,53.901569103898815],[86.7971519338929,53.901423725579264],[86.79660939186738,53.90136632861465],[86.78958668137663,53.901480026837966],[86.78877074806508,53.9013989414482],[86.77944643256235,53.897465019373016],[86.77836451654309,53.89721578951486],[86.76990144375014,53.89622720757294],[86.7660003,53.8948016],[86.76396727562792,53.89467866622357],[86.76211869091615,53.89434322015889],[86.7586807918552,53.892765836855546],[86.75610894562013,53.89208566193316],[86.75570455438951,53.89188877337347],[86.75511922173135,53.89116507919831],[86.75493747347542,53.890409877892886],[86.7550946478687,53.8898297447485],[86.75648711632117,53.88804109342865],[86.75667237221084,53.88601315780284],[86.75653061061115,53.88585219569043],[86.75539043220984,53.885338438815396],[86.75490056739618,53.88491756442942],[86.75497279825898,53.88461495798423],[86.75573778421364,53.883727997229464],[86.7557555,53.8834465],[86.75433159777678,53.88230111079542],[86.75426399320634,53.882114839671644],[86.75464932705063,53.88137060538972],[86.7563019384575,53.87936450823927],[86.7547795130488,53.87865670978364],[86.75481565599877,53.87698816405686],[86.75431561753831,53.8750627614932],[86.75390048119816,53.874699115713746]]}},{"type":"Feature","properties":{"route_ref":"7","route_color":"#64748b"},"geometry":{"type":"MultiLineString","coordinates":[[[86.79744887395586,53.9016697788003],[86.79744716666666,53.89973776666667],[86.79754075655606,53.899510407538685],[86.79772704332618,53.899439030267935],[86.81081041153847,53.89970275],[86.8115371935482,53.89978901777185],[86.81231103006063,53.90044299670615],[86.81311743450023,53.900551318110026],[86.8142359,53.90043000000001],[86.8150143,53.90020220000001],[86.81911803706558,53.89515693109587],[86.82578285141065,53.88962507680359],[86.82627070031712,53.88915961188331],[86.82604398819086,53.88879710728423],[86.82612953605049,53.88863302692755],[86.82639819848121,53.88855285826788],[86.82664063573291,53.888654182048924],[86.8265982,53.88896245],[86.81953976709798,53.894766788567516],[86.81501408545307,53.90020230917586],[86.81390271916749,53.90049634186077],[86.81311216182152,53.90055380431444],[86.81230706795412,53.90044316538991],[86.81166530750814,53.899859492371235],[86.81113680894012,53.89973570080003],[86.79772666249501,53.89943928233623],[86.79753996773479,53.89951650100764],[86.79744725773683,53.89974098038948],[86.7974588,53.9016706]],[[86.79747460057044,53.910517460165025],[86.79742738193677,53.90168608559396],[86.79747619610654,53.90970303813792],[86.79753429971919,53.91012817958625],[86.79801012883264,53.910364871467806],[86.79798830763843,53.91053359407677],[86.7978276353385,53.91059847759857],[86.79749608087407,53.91050823281435]]]}},{"type":"Feature","properties":{"route_ref":"6","route_color":"#64748b"},"geometry":{"type":"MultiLineString","coordinates":[[[86.75470801787638,53.878514690852064],[86.7529218057319,53.88063534974465],[86.75107840000001,53.88368757142857],[86.74925216709943,53.88633576571849],[86.74853936501789,53.888019540161764],[86.74819507609925,53.890342832941975],[86.74796203199827,53.89092743691978],[86.74489334009806,53.89494225423292],[86.74445842567484,53.8951729634658],[86.74398855343959,53.89519712067798],[86.74107830340229,53.89469266466422],[86.73949082857143,53.894321157142855],[86.73497130021161,53.893085803113216],[86.73020331362237,53.89133414642496],[86.72782743738664,53.89097713894427],[86.7269768660232,53.89071943940254],[86.72610537529066,53.89012598631579],[86.72569039527035,53.88940881189554],[86.72569698240298,53.888926485425735],[86.72635585216419,53.886916517340886],[86.7261451739465,53.88616055656571],[86.72545027712667,53.88545799241241],[86.72500941277771,53.88521040508756],[86.72343185116773,53.88467392090298],[86.71754912695852,53.8829539055944],[86.70256727428736,53.879790540434485],[86.69149143047535,53.878870860927094],[86.69096360713597,53.87885296794178],[86.69026269952455,53.87896513422017],[86.68712899134043,53.88053146106461],[86.68665181320434,53.880688568644906],[86.68608933972351,53.88072149065733],[86.68546930375318,53.88053303893415],[86.68512888571429,53.880136535714286],[86.68315232531114,53.87581654755982],[86.68255411516601,53.87544806510651],[86.68037849953333,53.874599006414755],[86.67884980800952,53.87458078854291],[86.677583865449,53.874193606866726],[86.67714844937177,53.87415796733521],[86.67657831357373,53.87442392714971],[86.6754274831428,53.875479091357725],[86.67465313538605,53.87559000987103],[86.66518891856514,53.87437275328142],[86.66433149766212,53.87401873944931],[86.66289602130023,53.873004566023255],[86.66235055188892,53.87277613021197],[86.66208692360304,53.87280556666795],[86.66119207994478,53.873212120366745],[86.66013603436758,53.87334758447846],[86.65949018639363,53.87334017800478],[86.65922481772155,53.87316725534013],[86.6591334034671,53.87222579596552],[86.65881420967527,53.87203653748337],[86.64690691725473,53.87197475089886],[86.64644129122868,53.87192696036388],[86.64621647716136,53.87174795066325],[86.64646351851047,53.87193417975263],[86.64691173768428,53.87197382246551],[86.65880728667895,53.872034685143944],[86.65913767956644,53.87222309787877],[86.65921845527815,53.87312577139158],[86.65944273894733,53.87333016254261],[86.66013291171275,53.873347708087294],[86.6611896,53.8732125],[86.66209126667565,53.87280378250518],[86.66241780805875,53.87278082052022],[86.6629013406596,53.87300819002462],[86.66444916504229,53.87407213159058],[86.66518683572009,53.87437270295967],[86.67449752440649,53.87557652780498],[86.67542727823337,53.875478123848104],[86.67652388686088,53.874476556567146],[86.67715013620841,53.87415722654002],[86.6775864562386,53.87419316014786],[86.6788504,53.874574],[86.68056567172873,53.874635913686525],[86.6824447,53.87537858],[86.68315040417339,53.875816152464544],[86.68508092658642,53.88002803219465],[86.68545644529075,53.880524481809424],[86.68608856699197,53.880721960219745],[86.68701471696902,53.88057839676268],[86.69026477327203,53.87896443079825],[86.6909701759194,53.8788494816024],[86.69166027647059,53.87888049558825],[86.70243909242366,53.87976923569661],[86.71688482769812,53.882789387151085],[86.71832987372333,53.88314510168262],[86.7238392882353,53.88479610588235],[86.7253912520223,53.885418365327794],[86.72614611299824,53.886160952401134],[86.72634435608236,53.88676009250983],[86.7262741,53.88739290000001],[86.72580436135534,53.888558639217436],[86.72571097555553,53.88940760760249],[86.72610288256728,53.89012382954558],[86.7268736732112,53.89065782395793],[86.72781495439202,53.89097476619571],[86.72968790902861,53.891207749078156],[86.7303508338016,53.89136761854413],[86.73429019249882,53.89283292015919],[86.73615230986373,53.8934227469468],[86.74076405236902,53.8946289133471],[86.74399031546398,53.8951969268594],[86.74446067302837,53.89517169189318],[86.74489452091032,53.894942052832995],[86.74796152155396,53.890925300456956],[86.74819512240454,53.890339929244696],[86.74856455054343,53.88784436707034],[86.74916841000001,53.886500149999996],[86.75304825274449,53.880420139469805],[86.75470454922214,53.878514794422685]],[[86.62198135597102,53.85583190841869],[86.62217835000001,53.856130799999995],[86.62276971623146,53.85640476064665],[86.64300334362899,53.86225098061106],[86.6452236,53.862422450000004],[86.64615786893488,53.86269660914612],[86.64632250409558,53.862869582473],[86.64634523346149,53.86327841070211],[86.6462560853553,53.871748621107855],[86.64634488692322,53.863582507837506],[86.64617149807847,53.86331817216999],[86.64356315706678,53.86239245453116],[86.6215226,53.856063199999994]]]}},{"type":"Feature","properties":{"route_ref":"5","route_color":"#64748b"},"geometry":{"type":"LineString","coordinates":[[86.61152484564026,53.8702982727172],[86.61070622395242,53.87066194411518],[86.6103483479256,53.87061460530889],[86.61018054405524,53.87046312872315],[86.61017231978339,53.870322476718876],[86.61040067783901,53.87020913823298],[86.61155847682348,53.87015499426344],[86.6120289615477,53.86990161819547],[86.6173347838431,53.86334468914066],[86.61781728213222,53.86258807573343],[86.61795714494026,53.86193525488641],[86.61713326,53.859159719999994],[86.61696275436988,53.85807313499454],[86.617452,53.8571187],[86.61870846666667,53.855644766666664],[86.61922328190477,53.855371746343984],[86.62135012740126,53.85519618100745],[86.62179808143551,53.85541940555856],[86.62225495163084,53.85618330777729],[86.62427642636702,53.8568627266292],[86.64300334362899,53.86225098061106],[86.6452236,53.862422450000004],[86.64615786893488,53.86269660914612],[86.64632250409558,53.862869582473],[86.64634631140066,53.8634806024216],[86.64615659999998,53.882381200000005],[86.64599404167565,53.88284626366285],[86.64514456556834,53.883112798757686],[86.64500737500981,53.88325828614026],[86.64491511836134,53.88618499817487],[86.64507642067883,53.886802250020835],[86.646016132901,53.88711682607455],[86.64619252668336,53.887543433732496],[86.64573784629751,53.896502646545905],[86.64584271908616,53.89681261841506],[86.64604805323602,53.896988080296374],[86.64650928747363,53.89712567426938],[86.64748375684492,53.897220892671925],[86.6480479,53.8971109],[86.6493345349818,53.896635097877166],[86.64984167853105,53.89658795215905],[86.65036932968644,53.89666032478632],[86.66180777560206,53.901171041131036],[86.66233445075193,53.90155803100466],[86.66257839381376,53.90193755252453],[86.6643424244834,53.90607435341741],[86.6646944,53.9062904],[86.66670787499646,53.90700987366142],[86.66690703091554,53.90717509923435],[86.66686078791116,53.907489406152116],[86.66645148750783,53.907582586293714],[86.666053,53.90745024999999],[86.6652346,53.9065553],[86.66455664760211,53.90622719053848],[86.66424423998836,53.90595995008225],[86.66257693615066,53.90193912702234],[86.66233262102791,53.90155860107772],[86.6615974004553,53.901064252450595],[86.6503659623468,53.89665958777408],[86.64991973254563,53.896591337874284],[86.6493237129039,53.89663778222179],[86.64804395371144,53.897112127663725],[86.64747981440082,53.89722103945623],[86.6465003,53.897144],[86.64604295630433,53.89698837219982],[86.64583804408102,53.896805925935396],[86.6457470067763,53.896195395655745],[86.64619153412046,53.887548897554844],[86.64604807286274,53.88714473127896],[86.64521907152789,53.88689725973301],[86.64498234265663,53.88666042367608],[86.64492925333334,53.88362162666667],[86.64504823767643,53.88318198690377],[86.64591171180345,53.882903511338455],[86.64612120555051,53.88246968508961],[86.64634502878113,53.86367045889226],[86.64617149807847,53.86331817216999],[86.64356315706678,53.86239245453116],[86.63438589743068,53.85972257889133],[86.62237687015352,53.85626535211078],[86.6194715,53.85550430000001],[86.61905844008703,53.855481464009976],[86.61871670865857,53.85563583340545],[86.61768932647767,53.85687088914084],[86.61698391148893,53.85798949796657],[86.61713575587424,53.859168362385184],[86.61795681541628,53.86193443781929],[86.61781825404151,53.862586563552945],[86.61741164775974,53.86326112480575],[86.6120348,53.8699018],[86.61152482955818,53.87029826331208]]}}]}