{"type":"FeatureCollection","features":[{"type":"Feature","properties":{"route_ref":"3","route_color":"#64748b"},"geometry":{"type":"LineString","coordinates":[[24.7342451,59.4113645],[24.733779456060322,59.4105148191973],[24.734107880680366,59.410261256027255],[24.73523016499935,59.40975745094886],[24.735671606922654,59.40970026378147],[24.736903494490857,59.410242666506534],[24.738126500000003,59.41163886666667],[24.74259281340986,59.42159551251287],[24.742699870549252,59.42839483776529],[24.7434455105874,59.42928829396259],[24.745182178576986,59.4305442351871],[24.74562654465576,59.43171678046443],[24.74594921603053,59.43328273842046],[24.7463519,59.4338041],[24.74695782911747,59.43424163305819],[24.7487319,59.4351239],[24.753786302614163,59.43685651513999],[24.754867117045595,59.43713334351481],[24.756995217355186,59.43724669778108],[24.76375964001266,59.43729898370095],[24.774942073405448,59.43895445871463],[24.778364846531982,59.43870329075499],[24.78490154037668,59.438674905470705],[24.785183988737163,59.43875358461597],[24.78538815,59.439004762500005],[24.78560431389344,59.440274562373894],[24.785392473493015,59.44044442167825],[24.784953458199855,59.440463752435605],[24.78178464141212,59.439774514490296],[24.774144904531447,59.43888096582736],[24.763981011320027,59.43732024414937],[24.761559470008542,59.437235862213655],[24.757081457881302,59.43724896870679],[24.754852468531144,59.437132736600844],[24.75412681385412,59.43696836345587],[24.74877518560857,59.4351396402213],[24.74731665,59.43444635],[24.746498439219497,59.43393255789928],[24.746026162297458,59.433426702009875],[24.7451563,59.4305097],[24.74359069208601,59.429421887021505],[24.74270920075487,59.42842788469544],[24.742557204318974,59.421591507870644],[24.7397399757213,59.4152435666379],[24.739500455552143,59.4149376837857],[24.73492684009829,59.4122843187731],[24.7342451,59.4113645]]}},{"type":"Feature","properties":{"route_ref":"4","route_color":"#64748b"},"geometry":{"type":"LineString","coordinates":[[24.81426605150408,59.42679283119989],[24.814100971010546,59.42684893252592],[24.7982947,59.4259859],[24.785998474427977,59.43008882721255],[24.78525823562178,59.4302179260309],[24.78430777985648,59.4299355886182],[24.782910271551543,59.428953620765455],[24.78047684408735,59.42754400771903],[24.77980300631051,59.42732180839249],[24.7790029,59.4273507],[24.768837090517735,59.43159145431569],[24.7646670787636,59.43254528251599],[24.763157004116344,59.43306900008522],[24.760504940917652,59.43470864283838],[24.760361574922317,59.43505509817216],[24.760396361944302,59.43576006685507],[24.76072225,59.4369231],[24.760472716453073,59.43715265679423],[24.759689539999997,59.43726253999999],[24.757081457881302,59.43724896870679],[24.75453084988791,59.437071198987475],[24.748437356462205,59.435014143865025],[24.74673384605068,59.43409528471673],[24.74609431286362,59.433519493744356],[24.745197199999996,59.4305685],[24.743436559938445,59.42928531047279],[24.74266367719961,59.42829913872815],[24.742557204318974,59.421591507870644],[24.7397399757213,59.4152435666379],[24.739500455552143,59.4149376837857],[24.73492684009829,59.4122843187731],[24.73376391457765,59.41078529750375],[24.73378756892508,59.41051603980836],[24.734107880680366,59.410261256027255],[24.73523016499935,59.40975745094886],[24.73575848317202,59.409720230661314],[24.73698920338951,59.41031063917343],[24.738126500000003,59.41163886666667],[24.74259281340986,59.42159551251287],[24.742699870549252,59.42839483776529],[24.7434455105874,59.42928829396259],[24.745182178576986,59.4305442351871],[24.746065522086898,59.43348036252929],[24.74695782911747,59.43424163305819],[24.748361089217784,59.434980142535665],[24.754537766062747,59.43707394214438],[24.756995217355186,59.43724669778108],[24.759773826881233,59.43725740111043],[24.76043952708442,59.437160221180825],[24.76072211387001,59.43692209174138],[24.76038719731385,59.43569939378793],[24.76049500970321,59.43472292687723],[24.763151712399157,59.43306979840561],[24.76437673706938,59.43260371234508],[24.76886855122831,59.431581827940505],[24.779176861344947,59.42731936136769],[24.779798890986218,59.42731973654237],[24.780495962313434,59.42755322171778],[24.783110849333998,59.42907825406391],[24.784344130528744,59.4299574432409],[24.785264475996478,59.43021385086503],[24.78601201542072,59.430078269210526],[24.79830074958243,59.42598510634348],[24.80652185958999,59.42645966451967],[24.8144173,59.42680090000001]]}},{"type":"Feature","properties":{"route_ref":"5","route_color":"#64748b"},"geometry":{"type":"MultiLineString","coordinates":[[[24.66777536819792,59.46123077468971],[24.6703651964094,59.460511971912844],[24.671013887951588,59.46024671522429],[24.67237531488765,59.45942987331318],[24.675956588786686,59.45783325291027],[24.68085460713571,59.45527410966565],[24.68198205622991,59.4548724492342],[24.68319655364922,59.45486826739635],[24.68534125269019,59.455064762253755],[24.690128997260324,59.45512203822249],[24.702475186067694,59.45374995863381],[24.703772517527394,59.453523539078994],[24.706064298652134,59.45231805311309],[24.709897858612564,59.450047484599814],[24.710925028466136,59.44939134688554],[24.71228611316054,59.44817074459123],[24.713438348498848,59.447543714699044],[24.715280941389672,59.4468009448742],[24.719917791634263,59.44520412347513],[24.72437877774696,59.443178754046556],[24.730444222277587,59.44163922889599],[24.7311684046295,59.4415270131767],[24.734715826624182,59.44168986933228],[24.737193763420308,59.441070262450474],[24.73905382735399,59.441162640602066],[24.74175965481591,59.44201083742009],[24.742961643184636,59.44269317193893],[24.744153954750878,59.4438384640472],[24.744807410765173,59.444076835592654],[24.748234557828095,59.443751425151746],[24.750451389993504,59.44332341433412],[24.750969016820648,59.44314894716054],[24.751590019588633,59.442732613069616],[24.75375643920807,59.440229469009026],[24.753948087946576,59.43857720062989],[24.753354586697895,59.43743158957846],[24.753432280683676,59.436885958574386],[24.7532605,59.4366776],[24.753354329091366,59.43672839130876],[24.753344431893378,59.43739580528572],[24.753942347372647,59.438516559056644],[24.753753534524428,59.44022915449879],[24.753432827756935,59.44073423772197],[24.751507983777508,59.44281052002909],[24.750452194819452,59.44332387142681],[24.748244843655204,59.44375224541745],[24.744760992846306,59.44408303812321],[24.74405504181332,59.44376426006605],[24.742913024454666,59.44265759907739],[24.742129440242273,59.44219398814299],[24.7411336293507,59.4417548066564],[24.73883247658525,59.44112436173755],[24.7371482,59.4410743],[24.73476972675573,59.441687337801916],[24.731164177799982,59.44153035484956],[24.730392380552473,59.44165139175143],[24.724343854878853,59.44318535133643],[24.719987543343606,59.44517759154681],[24.715370130558227,59.446770294041094],[24.713552625869628,59.447507952057315],[24.712274945518104,59.44817729071421],[24.710903300605125,59.44940965675683],[24.71001888961324,59.44997480657078],[24.706139296682,59.45227519850908],[24.703823361877117,59.453508977926354],[24.702561012500002,59.45374279375],[24.690171371473575,59.45513251526623],[24.685681488659817,59.45508944321863],[24.683015514825257,59.45485400713545],[24.681829650352235,59.454904518756166],[24.68034309368245,59.45553222182801],[24.674789124999993,59.458423762500004],[24.6724044041215,59.459414953345515],[24.669140119489636,59.46125560191282]],[[24.7445304,59.4216675],[24.745267429436407,59.42233703067038],[24.745322948609022,59.4226352797336],[24.74516965055319,59.422836237361764],[24.74457471993399,59.4230071729138],[24.742950353111876,59.42307048957497],[24.7426329120879,59.42330395821909],[24.742627642749817,59.42808574966428],[24.74278936289646,59.42860689447523],[24.743847541195294,59.42962940828214],[24.745182178576986,59.4305442351871],[24.74562654465576,59.43171678046443],[24.74586557919737,59.4330903033844],[24.7464962,59.4339309],[24.748361089217784,59.434980142535665],[24.7532978,59.4366584],[24.748437356462205,59.435014143865025],[24.746498439219497,59.43393255789928],[24.74586316672476,59.433083803406994],[24.745197199999996,59.4305685],[24.74359069208601,59.429421887021505],[24.74283392424419,59.428659972989344],[24.742626600000005,59.428023450000005],[24.742650078754725,59.423235516101464],[24.743007711957894,59.42305150498037],[24.744781113918894,59.422976911917885],[24.745180751080554,59.42280944069217],[24.745320958314064,59.42256038929382],[24.745239526608835,59.422311494950875],[24.744663173408004,59.421779327278486],[24.744306182351945,59.42166801767645],[24.74375816887589,59.42167202774877]]]}},{"type":"Feature","properties":{"route_ref":"1","route_color":"#64748b"},"geometry":{"type":"MultiLineString","coordinates":[[[24.66777536819792,59.46123077468971],[24.6703651964094,59.460511971912844],[24.671013887951588,59.46024671522429],[24.67237531488765,59.45942987331318],[24.675956588786686,59.45783325291027],[24.68085460713571,59.45527410966565],[24.68198205622991,59.4548724492342],[24.68319655364922,59.45486826739635],[24.68534125269019,59.455064762253755],[24.690128997260324,59.45512203822249],[24.702475186067694,59.45374995863381],[24.703772517527394,59.453523539078994],[24.706064298652134,59.45231805311309],[24.709897858612564,59.450047484599814],[24.710925028466136,59.44939134688554],[24.71228611316054,59.44817074459123],[24.713438348498848,59.447543714699044],[24.715280941389672,59.4468009448742],[24.719917791634263,59.44520412347513],[24.72437877774696,59.443178754046556],[24.730444222277587,59.44163922889599],[24.7311684046295,59.4415270131767],[24.734715826624182,59.44168986933228],[24.737193763420308,59.441070262450474],[24.73905382735399,59.441162640602066],[24.74175965481591,59.44201083742009],[24.742961643184636,59.44269317193893],[24.744153954750878,59.4438384640472],[24.744807410765173,59.444076835592654],[24.748234557828095,59.443751425151746],[24.750451389993504,59.44332341433412],[24.751482491891483,59.44282911728078],[24.7536101,59.440495],[24.753826782075688,59.439900621069704],[24.753948087946576,59.43857720062989],[24.753341872420748,59.43731526674478],[24.7535427227757,59.43701048536923],[24.75409412325196,59.43696690206088]],[[24.7426831,59.4246658],[24.742770967162926,59.42851684217627],[24.743765550000003,59.429538574999995],[24.745289061996374,59.43062760298095],[24.745886096460676,59.43301688105673],[24.746256547817094,59.43369254031206],[24.746991287500002,59.4342257625],[24.748858533047944,59.43516670990092],[24.75351719884729,59.43673454927997],[24.753591832075333,59.4368416423233],[24.754867117045595,59.43713334351481],[24.756995217355186,59.43724669778108],[24.76375964001266,59.43729898370095],[24.774942073405448,59.43895445871463],[24.778364846531982,59.43870329075499],[24.78490154037668,59.438674905470705],[24.785349545937443,59.43891612738688],[24.78560431389344,59.440274562373894],[24.785392473493015,59.44044442167825],[24.784953458199855,59.440463752435605],[24.78178464141212,59.439774514490296],[24.774144904531447,59.43888096582736],[24.763981011320027,59.43732024414937],[24.75584092972533,59.43720936349466],[24.754852468531144,59.437132736600844],[24.753886873950023,59.436938651527235],[24.7534101,59.4371257],[24.75351223064506,59.43686596103713],[24.7532978,59.4366584]]]}},{"type":"Feature","properties":{"route_ref":"2","route_color":"#64748b"},"geometry":{"type":"LineString","coordinates":[[24.81426605150408,59.42679283119989],[24.814100971010546,59.42684893252592],[24.7982947,59.4259859],[24.785998474427977,59.43008882721255],[24.78525823562178,59.4302179260309],[24.78430777985648,59.4299355886182],[24.782910271551543,59.428953620765455],[24.78047684408735,59.42754400771903],[24.77980300631051,59.42732180839249],[24.7790029,59.4273507],[24.768837090517735,59.43159145431569],[24.765310825164324,59.43238529832765],[24.763528521392825,59.43289370476767],[24.76066489257847,59.43456580729885],[24.760317574063286,59.4351624072282],[24.760080867018143,59.435316844137986],[24.757591424783264,59.435717655182074],[24.757376938853135,59.43607368130468],[24.757288983032748,59.43765449680317],[24.758532325595386,59.438733910121236],[24.759114994693597,59.43952990693274],[24.759159758210995,59.43983035113758],[24.759080643854347,59.43996017320674],[24.758106814875674,59.440324556571035],[24.758121662777306,59.44140116241542],[24.757192524237663,59.44261583396077],[24.75701117242077,59.44310218544123],[24.757334600000004,59.4433389],[24.75877020581088,59.44367505166025],[24.75919290621648,59.44389211372324],[24.759644415484427,59.44458403677239],[24.759635767270233,59.44479031509572],[24.759390105646105,59.444935958734334],[24.758895867401165,59.44500125066275],[24.755934656645746,59.44499183400494],[24.7523587,59.444791499999994],[24.75194778961031,59.44449781289307],[24.75182098480841,59.44346694047092],[24.75151261543419,59.44319812662589],[24.751236247224472,59.44314103475717],[24.748234557828095,59.443751425151746],[24.74532625164074,59.44407415499864],[24.74465317488511,59.444057843294374],[24.744153954750878,59.4438384640472],[24.742961643184636,59.44269317193893],[24.74175965481591,59.44201083742009],[24.7397553,59.4413385],[24.738698902926714,59.441108791298696],[24.737094066407224,59.44108264896781],[24.734715826624182,59.44168986933228],[24.7311684046295,59.4415270131767],[24.730756198424686,59.441572125737885],[24.72437877774696,59.443178754046556],[24.719917791634263,59.44520412347513],[24.713837407658012,59.447366622428774],[24.71228611316054,59.44817074459123],[24.710925028466136,59.44939134688554],[24.709897858612564,59.450047484599814],[24.706064298652134,59.45231805311309],[24.703772517527394,59.453523539078994],[24.702475186067694,59.45374995863381],[24.690128997260324,59.45512203822249],[24.68534125269019,59.455064762253755],[24.68319655364922,59.45486826739635],[24.68198205622991,59.4548724492342],[24.68085460713571,59.45527410966565],[24.675956588786686,59.45783325291027],[24.67237531488765,59.45942987331318],[24.671013887951588,59.46024671522429],[24.6703651964094,59.460511971912844],[24.66777536819792,59.46123077468971]]}}]}