{"type":"FeatureCollection","features":[{"type":"Feature","properties":{"route_ref":"P","route_color":"#3573bd"},"geometry":{"type":"MultiLineString","coordinates":[[[135.1952679679726,34.69453718436582],[135.19579861137035,34.69492757134326],[135.1962623147217,34.694757544554605],[135.19943093605977,34.68951008348013],[135.2000464693447,34.68835710992555],[135.20030131696595,34.68745208142913],[135.20025567975523,34.687149188542705],[135.19994229348282,34.68655728065058],[135.19995626120425,34.686093570012154],[135.2002696301188,34.685681797021644],[135.20097823580087,34.6851965434229],[135.20126752657123,34.68486638298851],[135.2017458248677,34.68303968832349],[135.2027584806103,34.679958053656755],[135.20307957455196,34.67943535920353],[135.20548082051283,34.676612361538474],[135.20628269490442,34.675971973600184],[135.20670113273096,34.675502765326065],[135.20689777506195,34.674183205407175],[135.20770472633203,34.67278931994462],[135.2079649704947,34.67259785888765],[135.2084365072305,34.67263263624107],[135.2131076514629,34.674531399542424],[135.21358576351548,34.67460753713795],[135.21399055867596,34.67447308282493],[135.21461374507172,34.67364413275706],[135.2188751155306,34.666498166822656],[135.21898060198262,34.66603048279727],[135.21888911674344,34.665714272114606],[135.2183508856667,34.66525043291831],[135.21449302716178,34.66370145300014],[135.21395505,34.66366795],[135.21351014561944,34.66379038915315],[135.2133602433353,34.66375719858847],[135.21320613771888,34.66392439135561],[135.2125006398451,34.66493853168545],[135.20839364390244,34.671884458536574],[135.20807140372094,34.67225272453944],[135.20810454634147,34.67236599512195],[135.20795999756098,34.67260676341463],[135.20776256892054,34.672726248700485],[135.20704027512986,34.67393640755528],[135.20687678605358,34.67427554183915],[135.20678636917606,34.67479935245404],[135.20687845999998,34.674903979999996],[135.20668291602195,34.67554709312249],[135.2052689648457,34.67686451923855],[135.2027598607927,34.67996572089257],[135.20179640342076,34.68287759383084],[135.20128812924827,34.68482112541228],[135.20099172043444,34.68519103175597],[135.20026904360884,34.685680748510414],[135.19995802950464,34.68609613818786],[135.19994488693158,34.68657007290686],[135.20030750200937,34.68736844845908],[135.20014213732597,34.68812315587308],[135.1997634,34.6889613],[135.19616761623396,34.6948929002683],[135.19597147539554,34.69504243233325],[135.19568739755252,34.69505628456638],[135.19514862297044,34.69460119349392]],[[135.206816,34.6746109],[135.2069758141329,34.674032156905945],[135.2077593857143,34.67272512857143],[135.20799842905507,34.67253473412234],[135.20800519103906,34.67234250247375],[135.21021701520192,34.66884953482723],[135.21601127777777,34.6590903],[135.21737798129197,34.65707294726142],[135.21889367398043,34.654564161545096],[135.21948129088327,34.65422775106868],[135.2201821087361,34.654246128378986],[135.22290321813674,34.65535253321028],[135.22380037996956,34.655562914970034],[135.22451088057178,34.655488610149526],[135.22518679485012,34.65519992343074],[135.2256783527515,34.654681003621505],[135.2278887193589,34.650968844436086],[135.22924688230324,34.64898215559074],[135.23124955054698,34.64564384774483],[135.23208655360563,34.64396439973263],[135.23240315528594,34.642848378179785],[135.232842178913,34.63865943372241],[135.23278185003258,34.63821893421587],[135.23249882363342,34.63780351110218],[135.23193246213336,34.637495182319654],[135.22911982020747,34.63722558355675]]]}},{"type":"Feature","properties":{"route_ref":"R","route_color":"#3e754e"},"geometry":{"type":"LineString","coordinates":[[135.2622924,34.7195288],[135.2625121826235,34.71949122635508],[135.26295553768318,34.719611731567],[135.2630438,34.7197184],[135.26424486728823,34.71998827371013],[135.26563170331673,34.720591453633396],[135.26594733451196,34.720609487252254],[135.26624246266556,34.720501850171416],[135.266501667542,34.72024813190131],[135.2673596,34.71841615],[135.26838064840402,34.715597469812366],[135.26868775454543,34.713044372727275],[135.2686702,34.7101106],[135.2681110861095,34.707541112142806],[135.267324454996,34.70608154200303],[135.26720332760675,34.70514180627687],[135.26743580000002,34.701770499999995],[135.26835965,34.69620275],[135.26882506666666,34.694290583333334],[135.2687940481813,34.69225046794153],[135.26997315832918,34.68548871671031],[135.2699701051809,34.68491932989956],[135.27010995807714,34.68465017170519],[135.27005979365106,34.68428940770011]]}},{"type":"Feature","properties":{"route_ref":"K","route_color":"#267dce"},"geometry":{"type":"LineString","coordinates":[[135.1448529,34.6569765],[135.14623092303475,34.655509252534415],[135.1483226,34.653509099999994],[135.14996269104142,34.65171341592661],[135.15050935737025,34.65132632512313],[135.15093456572268,34.65123851012108],[135.15172010870484,34.651332802456736],[135.15524995555555,34.653217544444445],[135.15811810557688,34.65418357148372],[135.15884743000004,34.65426777],[135.16268837447154,34.65426581769498],[135.1661560628974,34.65488002444358],[135.1703104933828,34.655089163870144],[135.17137833306364,34.65525104796249],[135.1737451934537,34.65592925792258],[135.1741361,34.6561165],[135.17517884722494,34.656990981827605],[135.17655830741683,34.65841966632236],[135.1769731365078,34.659008593560436],[135.17696151854946,34.65951628681064],[135.176156025,34.66149068125],[135.17573420272063,34.66299643822693],[135.1760537838979,34.66991855724665],[135.17648905000001,34.672048925],[135.17776069318194,34.67544604013206],[135.17848213333335,34.677974999999996],[135.17972882564922,34.68111517496966],[135.1820817258955,34.68434634507143],[135.1830220041715,34.685235717700046],[135.183956675,34.68590651249999],[135.18551078205442,34.6865995372161],[135.1885905472011,34.68755618205912],[135.18910351256335,34.687953420115846],[135.18985860416092,34.68910152544171],[135.19074075175104,34.68969557168259],[135.1926937,34.6905997],[135.19580065644345,34.69172996231578],[135.19268203663876,34.690595096661255],[135.19022723085934,34.68939596185442],[135.18980679410194,34.689014635122405],[135.1890849499868,34.68793866959718],[135.18868399362353,34.68760337754033],[135.18512625070767,34.686447370146404],[135.18369781958634,34.685743262553345],[135.18291985627368,34.68515321702169],[135.18195989125664,34.68421400112791],[135.17970946781634,34.68106797743631],[135.17824021252846,34.6772454048285],[135.1776924,34.6752376],[135.17649081321412,34.67204986513987],[135.1761219916248,34.6703243896657],[135.17572656611162,34.66384356344219],[135.17575101142356,34.66283786568945],[135.17606129470286,34.66174005196529],[135.176826925,34.65994214999999],[135.17698529344932,34.659074222512544],[135.17663834545453,34.658500809090924],[135.17437468434017,34.65625094818607],[135.1737090099625,34.65591930013373],[135.17298350000002,34.655690425],[135.17073868452428,34.655131203396174],[135.1662412872593,34.65487282812154],[135.16269025,34.65426525],[135.15917214369532,34.65426938207768],[135.1579918568163,34.65415340495174],[135.15616639265372,34.653569626844366],[135.1550833153563,34.65312107973626],[135.15182619851223,34.65136791653213],[135.15129011782926,34.651229322083424],[135.1506297077515,34.651283392390255],[135.15002482150638,34.65163859749317],[135.14761997061925,34.65422253811069],[135.14643556666667,34.65529560000001],[135.14550116889473,34.656303660625845]]}},{"type":"Feature","properties":{"route_ref":"S","route_color":"#00ae8e"},"geometry":{"type":"LineString","coordinates":[[135.1721745,34.7616537],[135.16969429458283,34.76108392536962],[135.167367029468,34.76023074942069],[135.16659762487035,34.760026706919845],[135.16599284922128,34.759790288626434],[135.16521977217917,34.75934048121174],[135.1643810811439,34.7586379177342],[135.16406630974043,34.758254659149124],[135.1632565496594,34.75689894708765],[135.1630053384129,34.755804288038966],[135.16315750100043,34.75478518107942],[135.16368474221724,34.753707411225754],[135.16484472060378,34.75211364545736],[135.16809767181104,34.7468813807153],[135.1704715786315,34.742847397572746],[135.17995073999998,34.72758803499999],[135.18166351703866,34.724578782028814],[135.18239435005984,34.72367427414387],[135.18362597506706,34.72248398328025],[135.19084863333333,34.716125533333326],[135.19494672680455,34.711692169063724],[135.1957375331271,34.71064809248477],[135.19601899769827,34.70991361156208],[135.19618838430893,34.70884382551475],[135.19604346939104,34.70700210166933],[135.19541980523803,34.70337610176663],[135.1940584851381,34.69961859302846],[135.19385465266203,34.6975328567598],[135.1937904335427,34.694793316235014],[135.19343879262382,34.69436714439529],[135.19141156169908,34.693363163825076],[135.19061802222222,34.69312074444445],[135.18879397915336,34.69282381755633],[135.18670222868911,34.69233052039448],[135.1843212013069,34.69117367714359],[135.18320755772206,34.69041927351965],[135.18047912857142,34.68927022142857],[135.17821232427983,34.68851387169947],[135.17758903118093,34.68815887880173],[135.17442855352843,34.68436148418801],[135.17344979159364,34.6833377789183],[135.1726694875,34.6827904],[135.16805785180037,34.680143075342436],[135.16713279514468,34.67919286891219],[135.16634486985427,34.67859661197556],[135.15608789279563,34.671713354794626],[135.1504568088081,34.6678028526275],[135.15008696950792,34.6672657914236],[135.1499376818071,34.66655865877302],[135.15018057905942,34.66584397163331],[135.15146278777726,34.6642373989104],[135.15156217280065,34.662454142775765],[135.1514515412361,34.661934843892446],[135.1511585396658,34.66143900359103],[135.1498425225792,34.66045323143144],[135.14604559827757,34.65844594800406],[135.14396502531048,34.657185406970235],[135.14199397042816,34.656155028337295],[135.14109926656184,34.65581066942745],[135.14050415579078,34.65571284681091],[135.13962015437116,34.65570872806836],[135.13897486072446,34.655843999259474],[135.13829836892012,34.65610776147484],[135.13758372480785,34.65668191687532],[135.13395046074618,34.6604863312645],[135.1325695892131,34.66168879818446],[135.13095357757254,34.66273984190658],[135.12976100305104,34.66333405507392],[135.12645622545259,34.66451927326158],[135.1243579108617,34.66542136422568],[135.12241926764722,34.66698878056771],[135.11639205116396,34.6722618214199],[135.11557149745187,34.67292903930371],[135.11484391172365,34.673382738430846],[135.11323380419003,34.674125914863076],[135.10906985454545,34.67534807272728],[135.10757861,34.67590524000001],[135.10328938283757,34.67821676318074],[135.10166892749982,34.67894894502946],[135.10042857686258,34.67922060625419],[135.0994327278991,34.679296962659],[135.09687221382742,34.6793050437815],[135.0950554,34.67918894],[135.09083294210527,34.67925119473684],[135.09072616455788,34.679318887002026],[135.09061860526316,34.67925203684211],[135.08853869855565,34.67925937437467],[135.08843601472796,34.6793240934571],[135.0883329007013,34.6792591706218],[135.08561335000002,34.679272049999994],[135.08537962670465,34.6793648329087],[135.08516824999998,34.67929835],[135.08136935714285,34.67961274285714],[135.08024190445738,34.679794865962116],[135.079321369219,34.680092671882214],[135.07708162577586,34.68131059256722],[135.07609165,34.681509750000004],[135.07602753339276,34.68164340346072],[135.0757842,34.6815827],[135.07571934123152,34.68171497240679],[135.07547764615381,34.681654007692316],[135.07447049383282,34.68194205484063],[135.07318216394768,34.68208798259938],[135.07117229793235,34.68207004417107],[135.0637569,34.6813261],[135.0560672,34.6815374],[135.05433732575978,34.681651392906055],[135.05267120443125,34.68213027979715],[135.04609415506846,34.68500003244953],[135.04326227500002,34.68657460000001],[135.04190607,34.68742651],[135.03933186226675,34.68938402537799],[135.03829892857144,34.69038870714286],[135.03185714050855,34.69758022428933],[135.03017963333335,34.69931600000001],[135.03014775383116,34.699512931598306],[135.0299909,34.6995256],[135.0299422999315,34.69973498833934],[135.02977905714286,34.699751628571434],[135.02963782857142,34.69990231428572],[135.0287623306021,34.70098299604908],[135.02603092282627,34.703972887173364],[135.01987290000002,34.71144646666667],[135.0192290607143,34.712429825],[135.01828352857143,34.71495178571429],[135.0171123,34.7204229]]}}]}